{"type":"FeatureCollection","features":[{"type":"Feature","id":"60010","properties":{"geoid":"60010","name":"Eastern","displayName":"Eastern District","state":"AS","stateName":"American Samoa","type":"County or equivalent","lsad":"07","sourceType":"county"},"geometry":{"type":"MultiPolygon","coordinates":[[[[-170.56101,-14.28377],[-170.56171,-14.28571],[-170.55868,-14.28806],[-170.55451,-14.28745],[-170.55058,-14.28918],[-170.54592,-14.28568],[-170.54573,-14.28322],[-170.54896,-14.27964],[-170.55347,-14.27826],[-170.55849,-14.27972],[-170.56101,-14.28377]]],[[[-170.70799,-14.32568],[-170.70923,-14.32567],[-170.70543,-14.33025],[-170.69968,-14.32701],[-170.70017,-14.32558],[-170.70799,-14.32568]]],[[[-170.73922,-14.29118],[-170.7404,-14.29151],[-170.73215,-14.2976],[-170.71596,-14.31722],[-170.71018,-14.31588],[-170.71084,-14.31376],[-170.706,-14.3112],[-170.70209,-14.31355],[-170.70381,-14.32142],[-170.70285,-14.32206],[-170.69795,-14.31148],[-170.69524,-14.30987],[-170.69472,-14.3073],[-170.68984,-14.30489],[-170.68916,-14.30182],[-170.68458,-14.3015],[-170.68372,-14.29895],[-170.68004,-14.29997],[-170.6778,-14.29828],[-170.67744,-14.29417],[-170.68284,-14.29142],[-170.67526,-14.28542],[-170.68118,-14.28285],[-170.68235,-14.2794],[-170.68074,-14.27626],[-170.68736,-14.2764],[-170.68874,-14.27773],[-170.69958,-14.2738],[-170.69946,-14.27107],[-170.68584,-14.27147],[-170.67848,-14.26763],[-170.66517,-14.27092],[-170.66468,-14.28409],[-170.66305,-14.28852],[-170.66454,-14.28999],[-170.66326,-14.29105],[-170.65986,-14.28904],[-170.65669,-14.28981],[-170.65228,-14.28797],[-170.65164,-14.28994],[-170.64689,-14.28736],[-170.64516,-14.28817],[-170.643,-14.28638],[-170.64016,-14.28652],[-170.63817,-14.28025],[-170.62947,-14.28044],[-170.62392,-14.27315],[-170.6171,-14.27064],[-170.61465,-14.26808],[-170.61144,-14.26846],[-170.61102,-14.27022],[-170.60895,-14.26936],[-170.60488,-14.27253],[-170.6036,-14.27727],[-170.60718,-14.28036],[-170.60228,-14.28409],[-170.59564,-14.28015],[-170.59107,-14.27966],[-170.5849,-14.27387],[-170.57859,-14.27482],[-170.57337,-14.27105],[-170.56905,-14.27158],[-170.56449,-14.26982],[-170.56181,-14.25807],[-170.56409,-14.25504],[-170.56448,-14.2483],[-170.56148,-14.2461],[-170.57186,-14.24849],[-170.57773,-14.24628],[-170.58054,-14.25069],[-170.58451,-14.25096],[-170.58635,-14.25424],[-170.58478,-14.26009],[-170.58892,-14.26197],[-170.59115,-14.26124],[-170.59166,-14.2575],[-170.59332,-14.25831],[-170.60418,-14.25392],[-170.60446,-14.25751],[-170.60631,-14.25893],[-170.6085,-14.25419],[-170.61235,-14.25419],[-170.6132,-14.25144],[-170.62057,-14.25702],[-170.62799,-14.25852],[-170.63208,-14.25567],[-170.62978,-14.25293],[-170.62147,-14.25018],[-170.62233,-14.24852],[-170.62438,-14.24976],[-170.62815,-14.24854],[-170.6306,-14.2511],[-170.63327,-14.24765],[-170.63847,-14.24933],[-170.63978,-14.24709],[-170.6413,-14.25295],[-170.64304,-14.25299],[-170.64301,-14.25051],[-170.64542,-14.2492],[-170.64608,-14.25542],[-170.649,-14.25502],[-170.65047,-14.25857],[-170.65242,-14.25898],[-170.65391,-14.25617],[-170.65249,-14.24854],[-170.65874,-14.25272],[-170.66097,-14.24539],[-170.66259,-14.24707],[-170.66663,-14.24704],[-170.67039,-14.25026],[-170.67512,-14.25037],[-170.6746,-14.24683],[-170.67153,-14.24442],[-170.67067,-14.24129],[-170.66966,-14.23499],[-170.67156,-14.22956],[-170.67305,-14.23994],[-170.67844,-14.24446],[-170.68141,-14.24525],[-170.6827,-14.24404],[-170.68377,-14.24741],[-170.68779,-14.24666],[-170.69028,-14.24821],[-170.6887,-14.25362],[-170.69117,-14.25371],[-170.69421,-14.25101],[-170.69532,-14.25315],[-170.70173,-14.25404],[-170.7046,-14.26202],[-170.70765,-14.26241],[-170.70936,-14.26071],[-170.70942,-14.26188],[-170.71244,-14.26189],[-170.71215,-14.26461],[-170.72172,-14.27246],[-170.72401,-14.28165],[-170.72119,-14.28326],[-170.72105,-14.28655],[-170.72344,-14.28861],[-170.72501,-14.28538],[-170.73137,-14.28164],[-170.74029,-14.28759],[-170.73922,-14.29118]]]]}},{"type":"Feature","id":"60020","properties":{"geoid":"60020","name":"Manu'a","displayName":"Manu'a District","state":"AS","stateName":"American Samoa","type":"County or equivalent","lsad":"07","sourceType":"county"},"geometry":{"type":"MultiPolygon","coordinates":[[[[-169.5191,-14.22088],[-169.51188,-14.24028],[-169.50453,-14.24495],[-169.49966,-14.25512],[-169.49771,-14.26327],[-169.49053,-14.27184],[-169.48407,-14.27156],[-169.48308,-14.26759],[-169.48117,-14.26774],[-169.4812,-14.26599],[-169.47071,-14.25383],[-169.46154,-14.24885],[-169.45079,-14.24847],[-169.43848,-14.25507],[-169.42777,-14.25726],[-169.42379,-14.25659],[-169.42294,-14.25502],[-169.4188,-14.21839],[-169.42731,-14.21157],[-169.44,-14.21402],[-169.45398,-14.21171],[-169.46425,-14.21356],[-169.46805,-14.21586],[-169.48863,-14.21521],[-169.4986,-14.21743],[-169.50736,-14.2124],[-169.50741,-14.2148],[-169.50975,-14.21533],[-169.51183,-14.22001],[-169.51425,-14.22079],[-169.51611,-14.21945],[-169.5191,-14.22088]]],[[[-169.63194,-14.16877],[-169.62642,-14.17407],[-169.62523,-14.17748],[-169.61268,-14.19333],[-169.60624,-14.17995],[-169.60974,-14.17223],[-169.61026,-14.1566],[-169.61501,-14.15559],[-169.62072,-14.16434],[-169.63194,-14.16877]]],[[[-169.68213,-14.16162],[-169.68047,-14.16416],[-169.68148,-14.16668],[-169.67728,-14.17522],[-169.67776,-14.17836],[-169.67329,-14.18416],[-169.66987,-14.18564],[-169.66055,-14.18278],[-169.64601,-14.17172],[-169.63379,-14.1696],[-169.63284,-14.16831],[-169.63538,-14.16652],[-169.65323,-14.16665],[-169.68028,-14.15886],[-169.68213,-14.16162]]],[[[-169.68727,-14.1643],[-169.68442,-14.17232],[-169.68304,-14.16752],[-169.68727,-14.1643]]]]}},{"type":"Feature","id":"60030","properties":{"geoid":"60030","name":"Rose Island","displayName":"Rose Island","state":"AS","stateName":"American Samoa","type":"County or equivalent","lsad":"00","sourceType":"county"},"geometry":{"type":"MultiPolygon","coordinates":[[[[-168.14582,-14.54791],[-168.1433,-14.54737],[-168.14488,-14.54538],[-168.14582,-14.54791]]],[[[-168.15229,-14.5361],[-168.15084,-14.53772],[-168.15061,-14.53612],[-168.15229,-14.5361]]]]}},{"type":"Feature","id":"60040","properties":{"geoid":"60040","name":"Swains Island","displayName":"Swains Island","state":"AS","stateName":"American Samoa","type":"County or equivalent","lsad":"00","sourceType":"county"},"geometry":{"type":"Polygon","coordinates":[[[-171.08987,-11.05259],[-171.0872,-11.05971],[-171.08086,-11.0646],[-171.07686,-11.06381],[-171.0677,-11.05712],[-171.0658,-11.05386],[-171.06882,-11.04869],[-171.07364,-11.04693],[-171.08694,-11.04931],[-171.08987,-11.05259]]]}},{"type":"Feature","id":"60050","properties":{"geoid":"60050","name":"Western","displayName":"Western District","state":"AS","stateName":"American Samoa","type":"County or equivalent","lsad":"07","sourceType":"county"},"geometry":{"type":"Polygon","coordinates":[[[-170.847,-14.32085],[-170.84685,-14.32289],[-170.84475,-14.32375],[-170.83927,-14.32372],[-170.83602,-14.32604],[-170.83244,-14.32467],[-170.83011,-14.32665],[-170.82933,-14.33037],[-170.82692,-14.32902],[-170.81832,-14.33236],[-170.81233,-14.32656],[-170.809,-14.32564],[-170.8053,-14.33197],[-170.80153,-14.33188],[-170.79939,-14.33406],[-170.79747,-14.3316],[-170.79498,-14.33154],[-170.79362,-14.33509],[-170.79303,-14.33388],[-170.79032,-14.33457],[-170.78992,-14.3367],[-170.78579,-14.33964],[-170.78817,-14.34594],[-170.78534,-14.35022],[-170.78548,-14.35729],[-170.77024,-14.36354],[-170.76927,-14.36541],[-170.76796,-14.36223],[-170.76023,-14.36258],[-170.75999,-14.36548],[-170.76252,-14.36766],[-170.75977,-14.37374],[-170.75306,-14.36561],[-170.75386,-14.36211],[-170.75172,-14.35986],[-170.74986,-14.35881],[-170.74439,-14.36405],[-170.74042,-14.36482],[-170.73707,-14.35877],[-170.72751,-14.34824],[-170.72416,-14.34771],[-170.72197,-14.34553],[-170.72185,-14.34005],[-170.70543,-14.33025],[-170.70923,-14.32567],[-170.71283,-14.32445],[-170.71596,-14.31722],[-170.73215,-14.2976],[-170.74224,-14.29079],[-170.74639,-14.29205],[-170.74854,-14.29116],[-170.75339,-14.29611],[-170.75528,-14.29145],[-170.76142,-14.2913],[-170.76143,-14.28742],[-170.7642,-14.28979],[-170.76685,-14.28896],[-170.77396,-14.29314],[-170.77533,-14.29102],[-170.77801,-14.29197],[-170.77858,-14.29427],[-170.78067,-14.29506],[-170.78291,-14.28741],[-170.78499,-14.28763],[-170.7856,-14.29013],[-170.79703,-14.29124],[-170.79836,-14.2894],[-170.81119,-14.29504],[-170.81184,-14.29848],[-170.81537,-14.3004],[-170.81623,-14.30381],[-170.82169,-14.30065],[-170.82709,-14.30759],[-170.83322,-14.31102],[-170.83653,-14.31925],[-170.847,-14.32085]]]}}]}