{"type":"FeatureCollection","features":[{"type":"Feature","id":"09110","properties":{"geoid":"09110","name":"Capitol","displayName":"Capitol Planning Region","state":"CT","stateName":"Connecticut","type":"County or equivalent","lsad":"PL","sourceType":"county"},"geometry":{"type":"Polygon","coordinates":[[[-72.95364,41.85392],[-72.95365,41.84668],[-72.95119,41.8427],[-72.94224,41.84345],[-72.9365,41.84026],[-72.94902,41.80643],[-72.9259,41.80916],[-72.92118,41.80712],[-72.92139,41.80519],[-72.9281,41.80284],[-72.92552,41.7987],[-72.92495,41.78778],[-72.91902,41.7783],[-72.90848,41.77604],[-72.88339,41.64947],[-72.92391,41.64549],[-72.92195,41.64114],[-72.92778,41.64073],[-72.9286,41.64545],[-72.9385,41.64431],[-72.93364,41.60779],[-72.94635,41.5568],[-72.88389,41.56381],[-72.87926,41.56315],[-72.87396,41.55915],[-72.87192,41.55487],[-72.86951,41.55453],[-72.86781,41.54903],[-72.84428,41.54472],[-72.84854,41.56733],[-72.82764,41.571],[-72.82964,41.5624],[-72.82574,41.5643],[-72.82614,41.5559],[-72.81915,41.5543],[-72.80924,41.562],[-72.80124,41.5731],[-72.75218,41.57889],[-72.75294,41.5925],[-72.73167,41.5958],[-72.72994,41.6015],[-72.71454,41.60431],[-72.71592,41.60642],[-72.71127,41.61769],[-72.71553,41.62282],[-72.7139,41.6277],[-72.62784,41.6402],[-72.63052,41.63328],[-72.50543,41.647],[-72.46673,41.5839],[-72.41723,41.5906],[-72.41037,41.60258],[-72.40127,41.59563],[-72.38415,41.58865],[-72.38204,41.59381],[-72.37761,41.59624],[-72.37545,41.60132],[-72.37137,41.59948],[-72.36159,41.60079],[-72.35585,41.59761],[-72.34335,41.59932],[-72.3281,41.60547],[-72.32451,41.61857],[-72.33423,41.6436],[-72.30364,41.65398],[-72.27867,41.67198],[-72.26842,41.67114],[-72.26614,41.67727],[-72.26939,41.68571],[-72.27476,41.69068],[-72.2742,41.69222],[-72.26883,41.69239],[-72.26576,41.69089],[-72.26128,41.69535],[-72.26073,41.69864],[-72.25409,41.7005],[-72.25004,41.69965],[-72.25125,41.70332],[-72.24598,41.70372],[-72.24402,41.70653],[-72.2473,41.70693],[-72.24768,41.70877],[-72.24657,41.70827],[-72.2457,41.71095],[-72.24326,41.71225],[-72.24496,41.71388],[-72.23956,41.71419],[-72.24431,41.71714],[-72.2466,41.7229],[-72.25299,41.72492],[-72.25264,41.7282],[-72.19813,41.72818],[-72.19892,41.73145],[-72.1921,41.73041],[-72.19129,41.73302],[-72.19569,41.73703],[-72.19564,41.73961],[-72.18877,41.74763],[-72.1894,41.7501],[-72.18573,41.75191],[-72.18798,41.75374],[-72.18766,41.75518],[-72.17787,41.75537],[-72.17596,41.74986],[-72.17413,41.75118],[-72.17165,41.74847],[-72.16848,41.75223],[-72.16486,41.75],[-72.1608,41.75012],[-72.15632,41.75349],[-72.1645,41.83491],[-72.21772,41.83518],[-72.21631,41.89282],[-72.21698,41.95816],[-72.2349,41.95758],[-72.21489,42.0001],[-72.20508,42.03109],[-72.52813,42.0343],[-72.57323,42.03014],[-72.58233,42.0247],[-72.59023,42.0247],[-72.60693,42.025],[-72.60793,42.0308],[-72.69593,42.03679],[-72.75584,42.0362],[-72.75754,42.0333],[-72.75174,42.0302],[-72.75747,42.02095],[-72.76215,42.02153],[-72.75974,42.017],[-72.76324,42.0128],[-72.76326,42.00974],[-72.76614,42.0077],[-72.76674,42.003],[-72.81674,41.9976],[-72.81354,42.03649],[-72.86364,42.03771],[-72.91535,41.8968],[-72.94065,41.8952],[-72.95364,41.85392]]]}},{"type":"Feature","id":"09120","properties":{"geoid":"09120","name":"Greater Bridgeport","displayName":"Greater Bridgeport Planning Region","state":"CT","stateName":"Connecticut","type":"County or equivalent","lsad":"PL","sourceType":"county"},"geometry":{"type":"MultiPolygon","coordinates":[[[[-73.21717,41.14391],[-73.21763,41.14235],[-73.21527,41.14264],[-73.21499,41.14447],[-73.21717,41.14391]]],[[[-73.36881,41.27498],[-73.32581,41.22723],[-73.32675,41.22673],[-73.32364,41.22222],[-73.32567,41.21621],[-73.33031,41.21123],[-73.32891,41.21],[-73.3333,41.20286],[-73.33343,41.1991],[-73.33771,41.19683],[-73.33846,41.19454],[-73.30694,41.15233],[-73.3046,41.15191],[-73.3059,41.14958],[-73.30425,41.14898],[-73.30339,41.14585],[-73.29898,41.145],[-73.29895,41.14065],[-73.29613,41.13367],[-73.29725,41.12604],[-73.29875,41.12479],[-73.28676,41.1279],[-73.27875,41.12566],[-73.27512,41.12109],[-73.26239,41.11819],[-73.25262,41.12499],[-73.24256,41.12819],[-73.23506,41.144],[-73.22757,41.14301],[-73.22265,41.14831],[-73.22378,41.15014],[-73.21974,41.15332],[-73.21707,41.15278],[-73.21551,41.14845],[-73.2094,41.15475],[-73.20266,41.1581],[-73.18619,41.15929],[-73.18436,41.16442],[-73.17777,41.1667],[-73.1707,41.16495],[-73.1722,41.15907],[-73.13025,41.1468],[-73.10302,41.15141],[-73.10109,41.15414],[-73.10704,41.15553],[-73.11035,41.1597],[-73.10801,41.16875],[-73.11985,41.1757],[-73.12245,41.1829],[-73.12075,41.1885],[-73.11535,41.1935],[-73.10925,41.2041],[-73.11065,41.2078],[-73.10835,41.2183],[-73.11045,41.2253],[-73.10995,41.2294],[-73.10157,41.24009],[-73.09122,41.24641],[-73.08675,41.2546],[-73.09087,41.25708],[-73.09456,41.25621],[-73.09526,41.25805],[-73.10308,41.25961],[-73.10462,41.26356],[-73.10708,41.26407],[-73.10605,41.26705],[-73.1083,41.26858],[-73.14688,41.25537],[-73.15527,41.26909],[-73.1736,41.26861],[-73.2048,41.29936],[-73.17681,41.33759],[-73.17066,41.35793],[-73.15944,41.37291],[-73.15965,41.3749],[-73.15706,41.3767],[-73.15883,41.37968],[-73.15866,41.3834],[-73.17336,41.3836],[-73.18327,41.39171],[-73.18773,41.38893],[-73.1949,41.38853],[-73.19801,41.38273],[-73.20358,41.37916],[-73.20131,41.37394],[-73.20483,41.37048],[-73.21903,41.3645],[-73.22333,41.36422],[-73.22778,41.36505],[-73.22949,41.36721],[-73.22812,41.36881],[-73.22908,41.37032],[-73.32529,41.32247],[-73.31547,41.30843],[-73.3048,41.29776],[-73.36881,41.27498]]]]}},{"type":"Feature","id":"09130","properties":{"geoid":"09130","name":"Lower Connecticut River Valley","displayName":"Lower Connecticut River Valley Planning Region","state":"CT","stateName":"Connecticut","type":"County or equivalent","lsad":"PL","sourceType":"county"},"geometry":{"type":"Polygon","coordinates":[[[-72.75294,41.5925],[-72.74333,41.48311],[-72.73389,41.48537],[-72.73912,41.43829],[-72.74614,41.4233],[-72.65367,41.43812],[-72.65456,41.43626],[-72.65302,41.43491],[-72.64836,41.43515],[-72.64959,41.43101],[-72.64235,41.42932],[-72.65048,41.41912],[-72.64921,41.41734],[-72.6378,41.41232],[-72.63232,41.41232],[-72.63083,41.40359],[-72.62503,41.39909],[-72.62591,41.39716],[-72.62246,41.39359],[-72.61801,41.39166],[-72.61233,41.38618],[-72.61401,41.38078],[-72.60884,41.37351],[-72.60813,41.3674],[-72.61014,41.36715],[-72.60975,41.36337],[-72.61223,41.36267],[-72.6116,41.35233],[-72.61283,41.35022],[-72.61121,41.34323],[-72.61441,41.337],[-72.61441,41.32997],[-72.61152,41.32751],[-72.60865,41.32818],[-72.60078,41.32581],[-72.59719,41.32853],[-72.5918,41.32278],[-72.58584,41.32389],[-72.58532,41.31862],[-72.58942,41.31513],[-72.58521,41.31423],[-72.58488,41.31293],[-72.58857,41.3117],[-72.58566,41.30985],[-72.5856,41.30735],[-72.5707,41.298],[-72.57174,41.29756],[-72.56998,41.29665],[-72.57015,41.29442],[-72.56563,41.29239],[-72.56462,41.28954],[-72.56113,41.2875],[-72.55724,41.28199],[-72.55503,41.28061],[-72.54889,41.28186],[-72.54599,41.28034],[-72.54805,41.27742],[-72.54434,41.2737],[-72.54703,41.2716],[-72.54636,41.2674],[-72.54766,41.26432],[-72.54584,41.2603],[-72.53633,41.25481],[-72.53325,41.26269],[-72.52131,41.2656],[-72.51802,41.25776],[-72.51453,41.25853],[-72.50697,41.2569],[-72.50713,41.26015],[-72.49953,41.26587],[-72.48569,41.27088],[-72.4681,41.26901],[-72.46226,41.27448],[-72.45192,41.27889],[-72.43797,41.27874],[-72.42616,41.27413],[-72.42168,41.27507],[-72.4177,41.27844],[-72.40572,41.2768],[-72.39869,41.27817],[-72.38663,41.2618],[-72.37857,41.26458],[-72.36762,41.26353],[-72.35906,41.26811],[-72.3481,41.27014],[-72.34261,41.26885],[-72.34932,41.28461],[-72.35645,41.29122],[-72.35621,41.29961],[-72.3505,41.31175],[-72.34646,41.31121],[-72.34171,41.29639],[-72.33389,41.28292],[-72.3276,41.27846],[-72.2988,41.27892],[-72.28469,41.2808],[-72.27798,41.28406],[-72.26149,41.28293],[-72.25132,41.29],[-72.25051,41.29439],[-72.2519,41.29862],[-72.24881,41.29934],[-72.25482,41.31031],[-72.25804,41.32284],[-72.2564,41.3259],[-72.2745,41.35609],[-72.27672,41.3663],[-72.28215,41.4059],[-72.27664,41.44045],[-72.28658,41.43907],[-72.30487,41.43273],[-72.31254,41.47841],[-72.31525,41.47809],[-72.32293,41.51812],[-72.32339,41.53425],[-72.43077,41.52457],[-72.50543,41.647],[-72.63052,41.63328],[-72.62784,41.6402],[-72.7139,41.6277],[-72.71553,41.62282],[-72.71127,41.61769],[-72.71592,41.60642],[-72.71454,41.60431],[-72.72994,41.6015],[-72.73167,41.5958],[-72.75294,41.5925]]]}},{"type":"Feature","id":"09140","properties":{"geoid":"09140","name":"Naugatuck Valley","displayName":"Naugatuck Valley Planning Region","state":"CT","stateName":"Connecticut","type":"County or equivalent","lsad":"PL","sourceType":"county"},"geometry":{"type":"Polygon","coordinates":[[[-73.32684,41.48597],[-73.32091,41.47701],[-73.31278,41.46994],[-73.31047,41.46882],[-73.30276,41.47144],[-73.29959,41.47011],[-73.29831,41.46477],[-73.30079,41.4559],[-73.29776,41.44828],[-73.29395,41.44736],[-73.27825,41.45264],[-73.2737,41.45164],[-73.26749,41.44358],[-73.26586,41.43707],[-73.26368,41.43453],[-73.25695,41.43385],[-73.24526,41.4399],[-73.24234,41.43607],[-73.24229,41.42984],[-73.23841,41.42625],[-73.22648,41.43031],[-73.21824,41.42907],[-73.19976,41.4132],[-73.18656,41.4086],[-73.18486,41.4063],[-73.18536,41.4022],[-73.18796,41.3973],[-73.17336,41.3836],[-73.15866,41.3834],[-73.15883,41.37968],[-73.15706,41.3767],[-73.15965,41.3749],[-73.15944,41.37291],[-73.17066,41.35793],[-73.17681,41.33759],[-73.2048,41.29936],[-73.17864,41.27264],[-73.1736,41.26861],[-73.15527,41.26909],[-73.14688,41.25537],[-73.1083,41.26858],[-73.10605,41.26705],[-73.10708,41.26407],[-73.10462,41.26356],[-73.10308,41.25961],[-73.09526,41.25805],[-73.09456,41.25621],[-73.09087,41.25708],[-73.08675,41.2546],[-73.08865,41.2717],[-73.08685,41.2766],[-73.08375,41.2815],[-73.06875,41.2892],[-73.06525,41.2949],[-73.06505,41.2976],[-73.06785,41.301],[-73.06503,41.30613],[-73.06175,41.31008],[-73.05615,41.31197],[-73.04911,41.3113],[-73.04071,41.31389],[-73.03893,41.32801],[-73.04633,41.34608],[-73.04907,41.38105],[-73.0482,41.3915],[-73.04165,41.4209],[-73.02946,41.41949],[-73.02522,41.43457],[-73.02575,41.4596],[-73.00335,41.46272],[-73.0013,41.47106],[-72.91799,41.45986],[-72.88667,41.44796],[-72.87813,41.45752],[-72.87664,41.45967],[-72.87738,41.46118],[-72.8463,41.50283],[-72.84957,41.51459],[-72.85373,41.52214],[-72.85308,41.52493],[-72.86123,41.5281],[-72.85798,41.53455],[-72.85361,41.53348],[-72.85169,41.54029],[-72.85315,41.54641],[-72.86781,41.54903],[-72.86951,41.55453],[-72.87192,41.55487],[-72.87396,41.55915],[-72.87926,41.56315],[-72.88389,41.56381],[-72.94635,41.5568],[-72.93364,41.60779],[-72.9385,41.64431],[-72.9286,41.64545],[-72.92778,41.64073],[-72.92195,41.64114],[-72.92391,41.64549],[-72.88339,41.64947],[-72.89827,41.72318],[-72.99855,41.7125],[-72.99895,41.7144],[-73.0684,41.70709],[-73.14203,41.67229],[-73.17076,41.6692],[-73.26145,41.66464],[-73.25351,41.60453],[-73.26734,41.6032],[-73.25803,41.53694],[-73.25226,41.51213],[-73.31889,41.50519],[-73.32684,41.4927],[-73.32487,41.48957],[-73.32684,41.48597]]]}},{"type":"Feature","id":"09150","properties":{"geoid":"09150","name":"Northeastern Connecticut","displayName":"Northeastern Connecticut Planning Region","state":"CT","stateName":"Connecticut","type":"County or equivalent","lsad":"PL","sourceType":"county"},"geometry":{"type":"Polygon","coordinates":[[[-72.22328,41.98167],[-72.2349,41.95758],[-72.21698,41.95816],[-72.21631,41.89282],[-72.21772,41.83518],[-72.1645,41.83491],[-72.15672,41.75372],[-72.12252,41.74877],[-72.11204,41.7459],[-72.12249,41.71275],[-72.11977,41.66183],[-71.95194,41.63433],[-71.88442,41.6412],[-71.88387,41.63002],[-71.86341,41.51493],[-71.79357,41.50575],[-71.78699,41.65599],[-71.80065,42.02357],[-72.0635,42.02735],[-72.20508,42.03109],[-72.21489,42.0001],[-72.22328,41.98167]]]}},{"type":"Feature","id":"09160","properties":{"geoid":"09160","name":"Northwest Hills","displayName":"Northwest Hills Planning Region","state":"CT","stateName":"Connecticut","type":"County or equivalent","lsad":"PL","sourceType":"county"},"geometry":{"type":"Polygon","coordinates":[[[-73.51795,41.67086],[-73.51824,41.66673],[-73.50692,41.6658],[-73.50408,41.6691],[-73.38212,41.68333],[-73.37786,41.65898],[-73.37041,41.65529],[-73.35908,41.64652],[-73.34104,41.54957],[-73.33031,41.50441],[-73.25226,41.51213],[-73.25803,41.53694],[-73.26734,41.6032],[-73.25351,41.60453],[-73.26145,41.66464],[-73.17076,41.6692],[-73.14203,41.67229],[-73.0684,41.70709],[-72.99895,41.7144],[-72.99855,41.7125],[-72.89827,41.72318],[-72.90848,41.77604],[-72.91902,41.7783],[-72.92495,41.78778],[-72.92552,41.7987],[-72.9281,41.80284],[-72.92139,41.80519],[-72.92118,41.80712],[-72.9259,41.80916],[-72.94902,41.80643],[-72.9365,41.84026],[-72.94224,41.84345],[-72.95119,41.8427],[-72.95365,41.84668],[-72.95364,41.85392],[-72.94065,41.8952],[-72.91535,41.8968],[-72.86364,42.03771],[-73.05325,42.03986],[-73.43281,42.05059],[-73.48731,42.04964],[-73.48962,42.00009],[-73.4983,41.89251],[-73.51795,41.67086]]]}},{"type":"Feature","id":"09170","properties":{"geoid":"09170","name":"South Central Connecticut","displayName":"South Central Connecticut Planning Region","state":"CT","stateName":"Connecticut","type":"County or equivalent","lsad":"PL","sourceType":"county"},"geometry":{"type":"MultiPolygon","coordinates":[[[[-72.76143,41.24233],[-72.76034,41.24124],[-72.75714,41.2443],[-72.74106,41.25269],[-72.7403,41.25645],[-72.75466,41.25593],[-72.75886,41.25384],[-72.76143,41.24233]]],[[[-72.76425,41.25921],[-72.76312,41.25804],[-72.76119,41.259],[-72.76234,41.26036],[-72.76425,41.25921]]],[[[-73.12245,41.1829],[-73.11985,41.1757],[-73.10801,41.16875],[-73.08204,41.19296],[-73.07296,41.19763],[-73.06595,41.19841],[-73.06084,41.20577],[-73.05545,41.20913],[-73.04657,41.21055],[-73.03794,41.20181],[-73.0349,41.20608],[-73.02964,41.20753],[-73.02028,41.20669],[-73.02022,41.20432],[-73.01455,41.20474],[-73.00839,41.21014],[-73.00255,41.22275],[-72.99204,41.22372],[-72.98755,41.2311],[-72.98687,41.23513],[-72.97514,41.23383],[-72.9689,41.24392],[-72.96348,41.248],[-72.96206,41.25194],[-72.95721,41.25243],[-72.95315,41.25542],[-72.9313,41.26229],[-72.93064,41.26788],[-72.93641,41.27305],[-72.93657,41.27697],[-72.93916,41.28019],[-72.93759,41.28204],[-72.92965,41.28092],[-72.91309,41.29674],[-72.90762,41.2962],[-72.90619,41.28316],[-72.9031,41.27739],[-72.90536,41.27063],[-72.8975,41.26576],[-72.89384,41.2599],[-72.89467,41.25652],[-72.90273,41.25292],[-72.90412,41.24955],[-72.89458,41.24251],[-72.89004,41.24465],[-72.88151,41.24309],[-72.86106,41.2458],[-72.85042,41.25062],[-72.85101,41.25644],[-72.8449,41.25682],[-72.84179,41.25903],[-72.84106,41.2566],[-72.83874,41.25636],[-72.84053,41.25309],[-72.8361,41.24881],[-72.83396,41.25056],[-72.83017,41.25903],[-72.83094,41.26],[-72.82762,41.26494],[-72.82483,41.2637],[-72.82466,41.26203],[-72.82134,41.26163],[-72.82067,41.25916],[-72.82356,41.25556],[-72.81759,41.2521],[-72.81841,41.24965],[-72.81671,41.2493],[-72.81124,41.2502],[-72.80353,41.25748],[-72.79653,41.26018],[-72.79109,41.25985],[-72.78728,41.26456],[-72.77944,41.26557],[-72.77357,41.26389],[-72.77104,41.266],[-72.76206,41.26769],[-72.76054,41.26604],[-72.75444,41.26691],[-72.75217,41.26563],[-72.7496,41.25937],[-72.74013,41.26226],[-72.73531,41.26103],[-72.73704,41.25734],[-72.73244,41.25512],[-72.72928,41.2583],[-72.72267,41.25926],[-72.71738,41.26291],[-72.71479,41.26136],[-72.71857,41.25615],[-72.70579,41.25991],[-72.70262,41.25592],[-72.71324,41.2488],[-72.7124,41.24708],[-72.70922,41.24717],[-72.70897,41.24459],[-72.70614,41.24385],[-72.69908,41.24709],[-72.69474,41.24497],[-72.69044,41.2467],[-72.68554,41.2513],[-72.68411,41.25839],[-72.67748,41.25477],[-72.67705,41.25827],[-72.67964,41.2615],[-72.67322,41.26762],[-72.66882,41.26591],[-72.66567,41.27014],[-72.66103,41.26853],[-72.65842,41.26501],[-72.61724,41.272],[-72.60408,41.27077],[-72.59804,41.2687],[-72.58334,41.2717],[-72.57114,41.2681],[-72.54394,41.2487],[-72.53676,41.2509],[-72.53633,41.25481],[-72.54724,41.2625],[-72.54703,41.2716],[-72.54434,41.2737],[-72.54805,41.27742],[-72.54599,41.28034],[-72.54889,41.28186],[-72.55503,41.28061],[-72.55724,41.28199],[-72.56113,41.2875],[-72.56462,41.28954],[-72.56563,41.29239],[-72.57015,41.29442],[-72.56998,41.29665],[-72.57174,41.29756],[-72.5707,41.298],[-72.5856,41.30735],[-72.58566,41.30985],[-72.58857,41.3117],[-72.58488,41.31293],[-72.58521,41.31423],[-72.58942,41.31513],[-72.58532,41.31862],[-72.58584,41.32389],[-72.5918,41.32278],[-72.59719,41.32853],[-72.60078,41.32581],[-72.60865,41.32818],[-72.61152,41.32751],[-72.61441,41.32997],[-72.61441,41.337],[-72.61121,41.34323],[-72.61283,41.35022],[-72.6116,41.35233],[-72.61223,41.36267],[-72.60975,41.36337],[-72.61014,41.36715],[-72.60813,41.3674],[-72.60884,41.37351],[-72.61401,41.38078],[-72.61233,41.38618],[-72.61801,41.39166],[-72.62246,41.39359],[-72.62591,41.39716],[-72.62503,41.39909],[-72.63083,41.40359],[-72.63232,41.41232],[-72.6378,41.41232],[-72.64921,41.41734],[-72.65048,41.41912],[-72.64235,41.42932],[-72.64959,41.43101],[-72.64836,41.43515],[-72.65302,41.43491],[-72.65456,41.43626],[-72.65367,41.43812],[-72.74614,41.4233],[-72.73912,41.43829],[-72.73389,41.48537],[-72.74333,41.48311],[-72.75218,41.57889],[-72.80124,41.5731],[-72.80924,41.562],[-72.81915,41.5543],[-72.82614,41.5559],[-72.82574,41.5643],[-72.82964,41.5624],[-72.82764,41.571],[-72.84854,41.56733],[-72.84428,41.54472],[-72.85315,41.54641],[-72.85169,41.54029],[-72.85361,41.53348],[-72.85798,41.53455],[-72.86123,41.5281],[-72.85308,41.52493],[-72.85373,41.52214],[-72.84957,41.51459],[-72.8463,41.50283],[-72.87738,41.46118],[-72.87664,41.45967],[-72.87813,41.45752],[-72.88667,41.44796],[-72.91799,41.45986],[-73.0013,41.47106],[-73.00335,41.46272],[-73.02575,41.4596],[-73.02522,41.43457],[-73.02946,41.41949],[-73.04165,41.4209],[-73.0482,41.3915],[-73.04907,41.38105],[-73.04633,41.34608],[-73.03893,41.32801],[-73.04071,41.31389],[-73.04911,41.3113],[-73.05615,41.31197],[-73.06175,41.31008],[-73.06785,41.301],[-73.06505,41.2976],[-73.06525,41.2949],[-73.06875,41.2892],[-73.08375,41.2815],[-73.08685,41.2766],[-73.08865,41.2717],[-73.08735,41.25179],[-73.09122,41.24641],[-73.10157,41.24009],[-73.10995,41.2294],[-73.11045,41.2253],[-73.10835,41.2183],[-73.11065,41.2078],[-73.10925,41.2041],[-73.11535,41.1935],[-73.12075,41.1885],[-73.12245,41.1829]]]]}},{"type":"Feature","id":"09180","properties":{"geoid":"09180","name":"Southeastern Connecticut","displayName":"Southeastern Connecticut Planning Region","state":"CT","stateName":"Connecticut","type":"County or equivalent","lsad":"PL","sourceType":"county"},"geometry":{"type":"MultiPolygon","coordinates":[[[[-72.22593,41.29384],[-72.2239,41.29346],[-72.22376,41.29486],[-72.22593,41.29384]]],[[[-72.46673,41.5839],[-72.43077,41.52457],[-72.32339,41.53425],[-72.32293,41.51812],[-72.31525,41.47809],[-72.31254,41.47841],[-72.30487,41.43273],[-72.28658,41.43907],[-72.27664,41.44045],[-72.28215,41.4059],[-72.27672,41.3663],[-72.2745,41.35609],[-72.2564,41.3259],[-72.25804,41.32284],[-72.25482,41.31031],[-72.24682,41.29767],[-72.24397,41.29962],[-72.23574,41.30083],[-72.2316,41.29641],[-72.22518,41.30145],[-72.22172,41.30112],[-72.22294,41.29933],[-72.22158,41.29657],[-72.21886,41.29612],[-72.21976,41.29354],[-72.21313,41.29196],[-72.21039,41.28596],[-72.20368,41.28722],[-72.20229,41.29411],[-72.20402,41.2991],[-72.20302,41.3132],[-72.20142,41.3157],[-72.19102,41.3232],[-72.18412,41.324],[-72.17762,41.3225],[-72.17392,41.3176],[-72.17272,41.3096],[-72.1644,41.30371],[-72.16107,41.30693],[-72.16158,41.31026],[-72.15632,41.31318],[-72.14966,41.31086],[-72.14404,41.30291],[-72.13422,41.2994],[-72.12304,41.30175],[-72.11182,41.2991],[-72.10778,41.30286],[-72.10136,41.30377],[-72.09844,41.30764],[-72.0931,41.30943],[-72.09444,41.31416],[-72.0741,41.31899],[-72.06696,41.31889],[-72.06505,41.31524],[-72.06054,41.31211],[-72.05507,41.313],[-72.04912,41.31913],[-72.04153,41.31849],[-72.03645,41.31587],[-72.03534,41.31282],[-72.03026,41.31212],[-72.0275,41.31603],[-72.0219,41.31684],[-72.01084,41.30703],[-72.00514,41.30669],[-72.00068,41.31824],[-71.99372,41.31954],[-71.98923,41.31586],[-71.98815,41.32058],[-71.98219,41.32986],[-71.97945,41.32999],[-71.96927,41.32103],[-71.96244,41.32153],[-71.95413,41.32791],[-71.94565,41.3378],[-71.93628,41.33796],[-71.93266,41.33335],[-71.92763,41.33229],[-71.92121,41.32793],[-71.90466,41.32735],[-71.89796,41.33353],[-71.89266,41.33327],[-71.8863,41.33641],[-71.87752,41.33602],[-71.86873,41.32782],[-71.85957,41.3224],[-71.86051,41.32025],[-71.85746,41.32079],[-71.84771,41.3296],[-71.83616,41.33601],[-71.82938,41.34241],[-71.8313,41.3513],[-71.8357,41.35357],[-71.83787,41.36015],[-71.83763,41.3655],[-71.83161,41.3709],[-71.83267,41.37562],[-71.83064,41.37877],[-71.83353,41.38237],[-71.83266,41.38716],[-71.83817,41.39059],[-71.84213,41.39536],[-71.84115,41.39923],[-71.84347,41.40583],[-71.84256,41.40986],[-71.83965,41.41212],[-71.83411,41.41158],[-71.82457,41.41524],[-71.82033,41.41938],[-71.8169,41.41993],[-71.80681,41.41667],[-71.80368,41.41743],[-71.80144,41.41554],[-71.79768,41.41671],[-71.79357,41.50575],[-71.86341,41.51493],[-71.88387,41.63002],[-71.88442,41.6412],[-71.95194,41.63433],[-72.11977,41.66183],[-72.12249,41.71275],[-72.11204,41.7459],[-72.12252,41.74877],[-72.15632,41.75349],[-72.1608,41.75012],[-72.16486,41.75],[-72.16848,41.75223],[-72.17165,41.74847],[-72.17413,41.75118],[-72.17596,41.74986],[-72.17787,41.75537],[-72.1832,41.75612],[-72.18766,41.75518],[-72.18798,41.75374],[-72.18573,41.75191],[-72.1894,41.7501],[-72.18877,41.74763],[-72.19564,41.73961],[-72.19569,41.73703],[-72.19129,41.73302],[-72.1921,41.73041],[-72.19892,41.73145],[-72.19813,41.72818],[-72.25264,41.7282],[-72.25299,41.72492],[-72.2466,41.7229],[-72.24431,41.71714],[-72.23956,41.71419],[-72.24496,41.71388],[-72.24326,41.71225],[-72.2457,41.71095],[-72.24657,41.70827],[-72.24768,41.70877],[-72.2473,41.70693],[-72.24402,41.70653],[-72.24598,41.70372],[-72.25125,41.70332],[-72.25004,41.69965],[-72.25409,41.7005],[-72.26073,41.69864],[-72.26128,41.69535],[-72.26576,41.69089],[-72.26883,41.69239],[-72.2742,41.69222],[-72.27476,41.69068],[-72.26939,41.68571],[-72.26614,41.67727],[-72.26842,41.67114],[-72.27867,41.67198],[-72.30364,41.65398],[-72.33423,41.6436],[-72.32451,41.61857],[-72.3281,41.60547],[-72.34335,41.59932],[-72.35585,41.59761],[-72.36159,41.60079],[-72.37137,41.59948],[-72.37545,41.60132],[-72.37761,41.59624],[-72.38204,41.59381],[-72.38415,41.58865],[-72.40127,41.59563],[-72.41037,41.60258],[-72.41723,41.5906],[-72.46673,41.5839]]]]}},{"type":"Feature","id":"09190","properties":{"geoid":"09190","name":"Western Connecticut","displayName":"Western Connecticut Planning Region","state":"CT","stateName":"Connecticut","type":"County or equivalent","lsad":"PL","sourceType":"county"},"geometry":{"type":"MultiPolygon","coordinates":[[[[-73.36424,41.08895],[-73.36978,41.0888],[-73.36377,41.08363],[-73.35766,41.08197],[-73.35509,41.08348],[-73.35375,41.08751],[-73.36033,41.08571],[-73.36424,41.08895]]],[[[-73.39419,41.06738],[-73.39524,41.06443],[-73.38618,41.05839],[-73.3858,41.05976],[-73.38999,41.06429],[-73.38131,41.07069],[-73.38189,41.0722],[-73.38818,41.07328],[-73.39228,41.07083],[-73.39419,41.06738]]],[[[-73.41689,41.05393],[-73.42217,41.04756],[-73.40954,41.053],[-73.40153,41.05372],[-73.39915,41.06098],[-73.39982,41.06242],[-73.40477,41.06213],[-73.41689,41.05393]]],[[[-73.61337,40.98888],[-73.61253,40.98747],[-73.60757,40.9904],[-73.61337,40.98888]]],[[[-73.63057,40.98071],[-73.62186,40.98247],[-73.62272,40.98456],[-73.62948,40.98365],[-73.63057,40.98071]]],[[[-73.64577,40.996],[-73.64082,40.98924],[-73.63915,40.98954],[-73.63951,40.99133],[-73.63746,40.9922],[-73.63844,40.99409],[-73.64429,40.99829],[-73.64577,40.996]]],[[[-73.72777,41.1007],[-73.65526,41.01225],[-73.66027,41.00048],[-73.65964,40.99434],[-73.65723,40.99091],[-73.659,40.98886],[-73.65778,40.9876],[-73.65117,40.99523],[-73.63989,41.00312],[-73.62709,41.00181],[-73.62494,41.00647],[-73.61472,41.0088],[-73.60395,41.01505],[-73.5957,41.01599],[-73.58512,41.00546],[-73.58397,41.0009],[-73.57007,41.0016],[-73.56767,41.0109],[-73.56197,41.0168],[-73.55717,41.01716],[-73.55644,41.02078],[-73.55149,41.02434],[-73.54744,41.02288],[-73.53534,41.03192],[-73.53279,41.03167],[-73.53019,41.02878],[-73.53035,41.01728],[-73.52697,41.01972],[-73.52306,41.02005],[-73.51924,41.02431],[-73.51701,41.03005],[-73.52115,41.03182],[-73.52329,41.03666],[-73.51728,41.03989],[-73.50796,41.0385],[-73.50597,41.0428],[-73.50106,41.04489],[-73.50058,41.04672],[-73.49395,41.04804],[-73.49047,41.04413],[-73.49141,41.04274],[-73.4886,41.0408],[-73.4868,41.04224],[-73.48606,41.04613],[-73.48282,41.04622],[-73.47909,41.03658],[-73.47737,41.0364],[-73.476,41.04392],[-73.47024,41.0472],[-73.47003,41.04833],[-73.47438,41.04926],[-73.47403,41.05085],[-73.46958,41.05074],[-73.46715,41.05236],[-73.46726,41.05477],[-73.47151,41.05508],[-73.46898,41.06008],[-73.46673,41.06113],[-73.46396,41.0599],[-73.46483,41.0581],[-73.45782,41.05897],[-73.4615,41.05448],[-73.45957,41.05254],[-73.4542,41.05437],[-73.45364,41.05715],[-73.45139,41.05792],[-73.43325,41.05581],[-73.41293,41.07101],[-73.40842,41.07101],[-73.40785,41.08111],[-73.40247,41.08606],[-73.3982,41.08194],[-73.39297,41.08212],[-73.39216,41.0877],[-73.38773,41.09134],[-73.38103,41.0888],[-73.37969,41.09046],[-73.38279,41.0954],[-73.3692,41.09555],[-73.3654,41.09734],[-73.36801,41.10164],[-73.36825,41.10719],[-73.35267,41.10161],[-73.35035,41.10638],[-73.33641,41.11176],[-73.33066,41.11],[-73.31546,41.1166],[-73.31127,41.11648],[-73.3091,41.1148],[-73.29861,41.12021],[-73.299,41.12472],[-73.29725,41.12604],[-73.29613,41.13367],[-73.29895,41.14065],[-73.29898,41.145],[-73.30339,41.14585],[-73.30425,41.14898],[-73.3059,41.14958],[-73.3046,41.15191],[-73.30694,41.15233],[-73.33846,41.19454],[-73.33771,41.19683],[-73.33343,41.1991],[-73.3333,41.20286],[-73.32891,41.21],[-73.33031,41.21123],[-73.32567,41.21621],[-73.32364,41.22222],[-73.32675,41.22673],[-73.32581,41.22723],[-73.36881,41.27498],[-73.3048,41.29776],[-73.31547,41.30843],[-73.32529,41.32247],[-73.22908,41.37032],[-73.22812,41.36881],[-73.22949,41.36721],[-73.22778,41.36505],[-73.22333,41.36422],[-73.21903,41.3645],[-73.20483,41.37048],[-73.20131,41.37394],[-73.20358,41.37916],[-73.19801,41.38273],[-73.1949,41.38853],[-73.18773,41.38893],[-73.18327,41.39171],[-73.18796,41.3973],[-73.18486,41.4063],[-73.18656,41.4086],[-73.19976,41.4132],[-73.21824,41.42907],[-73.22648,41.43031],[-73.23841,41.42625],[-73.24229,41.42984],[-73.24234,41.43607],[-73.24526,41.4399],[-73.25695,41.43385],[-73.26368,41.43453],[-73.26586,41.43707],[-73.26749,41.44358],[-73.2737,41.45164],[-73.27825,41.45264],[-73.29395,41.44736],[-73.29776,41.44828],[-73.30079,41.4559],[-73.29831,41.46477],[-73.29959,41.47011],[-73.30276,41.47144],[-73.31047,41.46882],[-73.31278,41.46994],[-73.32646,41.48384],[-73.32487,41.48957],[-73.32684,41.4927],[-73.31889,41.50519],[-73.33031,41.50441],[-73.34104,41.54957],[-73.35908,41.64652],[-73.37041,41.65529],[-73.37786,41.65898],[-73.38212,41.68333],[-73.50408,41.6691],[-73.50692,41.6658],[-73.51824,41.66673],[-73.52104,41.61977],[-73.55096,41.29542],[-73.48271,41.21276],[-73.72777,41.1007]]]]}}]}