{"type":"FeatureCollection","features":[{"type":"Feature","id":"11001","properties":{"geoid":"11001","name":"District of Columbia","displayName":"District of Columbia","state":"DC","stateName":"District of Columbia","type":"County or equivalent","lsad":"00","sourceType":"county"},"geometry":{"type":"Polygon","coordinates":[[[-77.11976,38.93434],[-77.1134,38.92521],[-77.1063,38.91911],[-77.1012,38.91111],[-77.0902,38.90421],[-77.0682,38.89981],[-77.05825,38.88007],[-77.0541,38.87911],[-77.0491,38.87071],[-77.0463,38.87131],[-77.0466,38.87491],[-77.0454,38.87521],[-77.0406,38.87121],[-77.0393,38.86431],[-77.034,38.85714],[-77.0317,38.85051],[-77.03454,38.84047],[-77.03855,38.83926],[-77.0442,38.84021],[-77.045,38.83851],[-77.0449,38.83471],[-77.0392,38.83221],[-77.0381,38.82861],[-77.0391,38.82141],[-77.03736,38.81419],[-77.03901,38.79165],[-76.9094,38.89281],[-77.041,38.99511],[-77.11976,38.93434]]]}}]}