{"type":"FeatureCollection","features":[{"type":"Feature","id":"66010","properties":{"geoid":"66010","name":"Guam","displayName":"Guam","state":"GU","stateName":"Guam","type":"County or equivalent","lsad":"00","sourceType":"county"},"geometry":{"type":"MultiPolygon","coordinates":[[[[144.64538,13.23627],[144.64516,13.23463],[144.64669,13.23419],[144.65862,13.24016],[144.6585,13.24193],[144.64538,13.23627]]],[[[144.61807,13.44781],[144.62076,13.44147],[144.62424,13.43774],[144.63289,13.43443],[144.63852,13.42928],[144.63983,13.42102],[144.64224,13.41894],[144.6478,13.41777],[144.64876,13.41536],[144.65567,13.41461],[144.65845,13.41246],[144.6634,13.40106],[144.65945,13.3893],[144.65589,13.3862],[144.65192,13.37817],[144.65236,13.37281],[144.64309,13.34867],[144.63934,13.3431],[144.6361,13.34162],[144.6388,13.33882],[144.64591,13.33641],[144.64961,13.32884],[144.65201,13.32861],[144.65026,13.32222],[144.65197,13.31906],[144.65741,13.31645],[144.65752,13.31495],[144.65317,13.31322],[144.65493,13.3076],[144.65794,13.30676],[144.65681,13.30242],[144.65854,13.29958],[144.66272,13.29891],[144.66292,13.29761],[144.65752,13.29289],[144.65924,13.28683],[144.66244,13.28492],[144.66367,13.27506],[144.66189,13.27142],[144.66461,13.26766],[144.67339,13.26262],[144.67434,13.25794],[144.67732,13.25459],[144.68235,13.25437],[144.68672,13.25646],[144.68905,13.25101],[144.7062,13.24626],[144.71907,13.25112],[144.72312,13.24706],[144.72601,13.24757],[144.73301,13.25336],[144.73787,13.26264],[144.74208,13.26424],[144.74194,13.26606],[144.73755,13.26816],[144.75017,13.27268],[144.74756,13.27851],[144.74989,13.27911],[144.75443,13.27558],[144.75902,13.27938],[144.7581,13.28316],[144.76138,13.28279],[144.76308,13.28452],[144.76446,13.29043],[144.76907,13.29583],[144.77211,13.30254],[144.77119,13.3382],[144.77246,13.34348],[144.77168,13.36236],[144.77016,13.36638],[144.77596,13.38711],[144.77594,13.38903],[144.77156,13.39305],[144.77268,13.39534],[144.77674,13.39576],[144.7808,13.39932],[144.78191,13.40176],[144.78099,13.40469],[144.78358,13.41039],[144.78877,13.41382],[144.78522,13.41653],[144.78395,13.42163],[144.78588,13.42422],[144.7954,13.42813],[144.80514,13.42643],[144.8076,13.42744],[144.81397,13.43803],[144.81812,13.44169],[144.82593,13.44276],[144.83267,13.44811],[144.83578,13.45449],[144.84598,13.46279],[144.85063,13.46338],[144.86506,13.47942],[144.86987,13.48267],[144.87087,13.48605],[144.87686,13.48969],[144.88675,13.49225],[144.89199,13.49827],[144.89181,13.50625],[144.89597,13.50699],[144.90156,13.51235],[144.9153,13.51625],[144.92669,13.52205],[144.93221,13.53394],[144.93235,13.53888],[144.94017,13.55262],[144.93837,13.56086],[144.94034,13.56805],[144.94875,13.57524],[144.95178,13.58751],[144.95671,13.59817],[144.95113,13.60099],[144.93705,13.60016],[144.93131,13.60178],[144.92827,13.60017],[144.90785,13.60532],[144.90554,13.60696],[144.90442,13.61242],[144.89941,13.62199],[144.88996,13.63129],[144.8788,13.64573],[144.86825,13.6526],[144.85853,13.65397],[144.85166,13.64827],[144.84655,13.63681],[144.8367,13.62414],[144.83653,13.59447],[144.83453,13.58741],[144.831,13.58214],[144.83182,13.57859],[144.82161,13.56929],[144.82177,13.5669],[144.81724,13.55829],[144.81197,13.55473],[144.80873,13.54381],[144.80212,13.53579],[144.804,13.525],[144.80322,13.52225],[144.80634,13.51953],[144.8049,13.51544],[144.79767,13.50633],[144.78974,13.50397],[144.78136,13.50798],[144.77235,13.50448],[144.76912,13.49966],[144.77005,13.49516],[144.77452,13.49424],[144.77515,13.49094],[144.76936,13.48109],[144.76378,13.4787],[144.75461,13.47772],[144.75306,13.48097],[144.75077,13.47773],[144.74382,13.47762],[144.7387,13.47914],[144.73126,13.47863],[144.72927,13.48092],[144.72864,13.47896],[144.71713,13.47343],[144.71054,13.47414],[144.7076,13.47654],[144.70647,13.47133],[144.70253,13.46828],[144.68983,13.46363],[144.6872,13.465],[144.68625,13.4679],[144.67537,13.4631],[144.66294,13.46592],[144.66164,13.46478],[144.63834,13.46479],[144.62657,13.45773],[144.61807,13.44781]]]]}}]}