{"type":"FeatureCollection","features":[{"type":"Feature","id":"19001","properties":{"geoid":"19001","name":"Adair","displayName":"Adair County","state":"IA","stateName":"Iowa","type":"County or equivalent","lsad":"06","sourceType":"county"},"geometry":{"type":"Polygon","coordinates":[[[-94.70057,41.4825],[-94.70059,41.15808],[-94.24164,41.15713],[-94.24159,41.50368],[-94.70063,41.50415],[-94.70057,41.4825]]]}},{"type":"Feature","id":"19003","properties":{"geoid":"19003","name":"Adams","displayName":"Adams County","state":"IA","stateName":"Iowa","type":"County or equivalent","lsad":"06","sourceType":"county"},"geometry":{"type":"Polygon","coordinates":[[[-94.9286,40.90177],[-94.92846,40.90065],[-94.47078,40.8995],[-94.4706,41.15757],[-94.92759,41.15851],[-94.9286,40.90177]]]}},{"type":"Feature","id":"19005","properties":{"geoid":"19005","name":"Allamakee","displayName":"Allamakee County","state":"IA","stateName":"Iowa","type":"County or equivalent","lsad":"06","sourceType":"county"},"geometry":{"type":"Polygon","coordinates":[[[-91.61091,43.42151],[-91.61105,43.34208],[-91.60399,43.34205],[-91.60531,43.08165],[-91.17722,43.08025],[-91.17519,43.10377],[-91.17825,43.12498],[-91.17525,43.13466],[-91.1562,43.14294],[-91.1462,43.1524],[-91.14328,43.15641],[-91.13865,43.16999],[-91.12443,43.18789],[-91.12217,43.19726],[-91.08746,43.22189],[-91.0664,43.23929],[-91.06256,43.24316],[-91.05791,43.25397],[-91.05975,43.25907],[-91.06994,43.26027],[-91.07265,43.26213],[-91.07172,43.27139],[-91.07371,43.27475],[-91.08565,43.29187],[-91.10724,43.31364],[-91.13281,43.32803],[-91.15481,43.33483],[-91.18112,43.34593],[-91.20185,43.3491],[-91.20662,43.35252],[-91.21499,43.36801],[-91.20607,43.37498],[-91.19895,43.38984],[-91.19767,43.39533],[-91.20036,43.4127],[-91.20714,43.42503],[-91.22875,43.44554],[-91.23337,43.45517],[-91.23224,43.46002],[-91.22459,43.46552],[-91.2204,43.47131],[-91.21604,43.48114],[-91.21528,43.4848],[-91.21762,43.49101],[-91.21771,43.50055],[-91.61084,43.50065],[-91.61091,43.42151]]]}},{"type":"Feature","id":"19007","properties":{"geoid":"19007","name":"Appanoose","displayName":"Appanoose County","state":"IA","stateName":"Iowa","type":"County or equivalent","lsad":"06","sourceType":"county"},"geometry":{"type":"Polygon","coordinates":[[[-93.09762,40.89809],[-93.0973,40.58401],[-92.9416,40.58774],[-92.6379,40.59085],[-92.63909,40.89889],[-93.09762,40.89809]]]}},{"type":"Feature","id":"19009","properties":{"geoid":"19009","name":"Audubon","displayName":"Audubon County","state":"IA","stateName":"Iowa","type":"County or equivalent","lsad":"06","sourceType":"county"},"geometry":{"type":"Polygon","coordinates":[[[-95.0933,41.77694],[-95.09252,41.60206],[-95.04075,41.60215],[-95.04077,41.50469],[-94.70063,41.50415],[-94.70074,41.60218],[-94.7442,41.60218],[-94.74488,41.86239],[-95.09286,41.86337],[-95.0933,41.77694]]]}},{"type":"Feature","id":"19011","properties":{"geoid":"19011","name":"Benton","displayName":"Benton County","state":"IA","stateName":"Iowa","type":"County or equivalent","lsad":"06","sourceType":"county"},"geometry":{"type":"Polygon","coordinates":[[[-92.29922,42.17046],[-92.29727,41.97854],[-92.29816,41.86278],[-91.83138,41.86185],[-91.83526,42.03695],[-91.83109,42.29906],[-91.96507,42.29728],[-92.29879,42.29753],[-92.29922,42.17046]]]}},{"type":"Feature","id":"19013","properties":{"geoid":"19013","name":"Black Hawk","displayName":"Black Hawk County","state":"IA","stateName":"Iowa","type":"County or equivalent","lsad":"06","sourceType":"county"},"geometry":{"type":"Polygon","coordinates":[[[-92.55449,42.63191],[-92.55433,42.4696],[-92.53402,42.46959],[-92.53351,42.297],[-92.06477,42.29726],[-92.06419,42.46822],[-92.08145,42.46819],[-92.08166,42.64206],[-92.55449,42.64231],[-92.55449,42.63191]]]}},{"type":"Feature","id":"19015","properties":{"geoid":"19015","name":"Boone","displayName":"Boone County","state":"IA","stateName":"Iowa","type":"County or equivalent","lsad":"06","sourceType":"county"},"geometry":{"type":"Polygon","coordinates":[[[-94.16491,42.15161],[-94.16443,41.86324],[-93.69803,41.86337],[-93.69839,42.20934],[-94.1647,42.20992],[-94.16491,42.15161]]]}},{"type":"Feature","id":"19017","properties":{"geoid":"19017","name":"Bremer","displayName":"Bremer County","state":"IA","stateName":"Iowa","type":"County or equivalent","lsad":"06","sourceType":"county"},"geometry":{"type":"Polygon","coordinates":[[[-92.5548,42.70269],[-92.55449,42.64231],[-92.08166,42.64206],[-92.08157,42.90701],[-92.55421,42.90711],[-92.5548,42.70269]]]}},{"type":"Feature","id":"19019","properties":{"geoid":"19019","name":"Buchanan","displayName":"Buchanan County","state":"IA","stateName":"Iowa","type":"County or equivalent","lsad":"06","sourceType":"county"},"geometry":{"type":"Polygon","coordinates":[[[-92.08238,42.55492],[-92.08145,42.46819],[-92.06419,42.46822],[-92.06477,42.29726],[-91.83109,42.29906],[-91.71444,42.29654],[-91.59698,42.29641],[-91.5974,42.46924],[-91.60851,42.46928],[-91.60905,42.55644],[-91.60706,42.64397],[-92.08166,42.64206],[-92.08238,42.55492]]]}},{"type":"Feature","id":"19021","properties":{"geoid":"19021","name":"Buena Vista","displayName":"Buena Vista County","state":"IA","stateName":"Iowa","type":"County or equivalent","lsad":"06","sourceType":"county"},"geometry":{"type":"Polygon","coordinates":[[[-95.38818,42.9099],[-95.38801,42.56174],[-94.91448,42.56031],[-94.91556,42.64713],[-94.91393,42.73444],[-94.91389,42.9097],[-95.38818,42.9099]]]}},{"type":"Feature","id":"19023","properties":{"geoid":"19023","name":"Butler","displayName":"Butler County","state":"IA","stateName":"Iowa","type":"County or equivalent","lsad":"06","sourceType":"county"},"geometry":{"type":"Polygon","coordinates":[[[-93.02693,42.56228],[-93.027,42.55681],[-92.5543,42.55585],[-92.55421,42.90711],[-93.02514,42.90755],[-93.02693,42.56228]]]}},{"type":"Feature","id":"19025","properties":{"geoid":"19025","name":"Calhoun","displayName":"Calhoun County","state":"IA","stateName":"Iowa","type":"County or equivalent","lsad":"06","sourceType":"county"},"geometry":{"type":"Polygon","coordinates":[[[-94.91467,42.55706],[-94.91449,42.47419],[-94.85669,42.474],[-94.85841,42.20969],[-94.39753,42.20916],[-94.39767,42.4733],[-94.44303,42.47338],[-94.44302,42.55884],[-94.91448,42.56031],[-94.91467,42.55706]]]}},{"type":"Feature","id":"19027","properties":{"geoid":"19027","name":"Carroll","displayName":"Carroll County","state":"IA","stateName":"Iowa","type":"County or equivalent","lsad":"06","sourceType":"county"},"geometry":{"type":"Polygon","coordinates":[[[-95.09308,41.8825],[-95.09286,41.86337],[-94.62872,41.86276],[-94.62881,42.2094],[-95.09085,42.2104],[-95.09308,41.8825]]]}},{"type":"Feature","id":"19029","properties":{"geoid":"19029","name":"Cass","displayName":"Cass County","state":"IA","stateName":"Iowa","type":"County or equivalent","lsad":"06","sourceType":"county"},"geometry":{"type":"Polygon","coordinates":[[[-95.15532,41.21734],[-95.15585,41.15924],[-94.70059,41.15808],[-94.70063,41.50415],[-95.15472,41.50521],[-95.15532,41.21734]]]}},{"type":"Feature","id":"19031","properties":{"geoid":"19031","name":"Cedar","displayName":"Cedar County","state":"IA","stateName":"Iowa","type":"County or equivalent","lsad":"06","sourceType":"county"},"geometry":{"type":"Polygon","coordinates":[[[-91.36642,41.61678],[-91.36645,41.59837],[-90.89985,41.59713],[-90.89848,41.94624],[-91.36588,41.94741],[-91.36642,41.61678]]]}},{"type":"Feature","id":"19033","properties":{"geoid":"19033","name":"Cerro Gordo","displayName":"Cerro Gordo County","state":"IA","stateName":"Iowa","type":"County or equivalent","lsad":"06","sourceType":"county"},"geometry":{"type":"Polygon","coordinates":[[[-93.49813,42.96633],[-93.49862,42.90851],[-93.02514,42.90755],[-93.02298,43.03277],[-93.02414,43.25554],[-93.49764,43.25547],[-93.49813,42.96633]]]}},{"type":"Feature","id":"19035","properties":{"geoid":"19035","name":"Cherokee","displayName":"Cherokee County","state":"IA","stateName":"Iowa","type":"County or equivalent","lsad":"06","sourceType":"county"},"geometry":{"type":"Polygon","coordinates":[[[-95.86081,42.72078],[-95.85995,42.56062],[-95.38801,42.56174],[-95.38818,42.9099],[-95.85938,42.9091],[-95.85857,42.82251],[-95.86081,42.72078]]]}},{"type":"Feature","id":"19037","properties":{"geoid":"19037","name":"Chickasaw","displayName":"Chickasaw County","state":"IA","stateName":"Iowa","type":"County or equivalent","lsad":"06","sourceType":"county"},"geometry":{"type":"Polygon","coordinates":[[[-92.55441,43.19106],[-92.55421,42.90711],[-92.08157,42.90701],[-92.08098,43.21295],[-92.55438,43.21281],[-92.55441,43.19106]]]}},{"type":"Feature","id":"19039","properties":{"geoid":"19039","name":"Clarke","displayName":"Clarke County","state":"IA","stateName":"Iowa","type":"County or equivalent","lsad":"06","sourceType":"county"},"geometry":{"type":"Polygon","coordinates":[[[-94.01489,40.99799],[-94.0148,40.89703],[-93.90497,40.89667],[-93.78703,40.89935],[-93.55654,40.89829],[-93.55756,41.16127],[-93.7892,41.16204],[-93.89881,41.15661],[-94.01419,41.15676],[-94.01489,40.99799]]]}},{"type":"Feature","id":"19041","properties":{"geoid":"19041","name":"Clay","displayName":"Clay County","state":"IA","stateName":"Iowa","type":"County or equivalent","lsad":"06","sourceType":"county"},"geometry":{"type":"Polygon","coordinates":[[[-95.38863,43.01057],[-95.38818,42.9099],[-94.91389,42.9097],[-94.91372,43.25505],[-95.38808,43.25522],[-95.38863,43.01057]]]}},{"type":"Feature","id":"19043","properties":{"geoid":"19043","name":"Clayton","displayName":"Clayton County","state":"IA","stateName":"Iowa","type":"County or equivalent","lsad":"06","sourceType":"county"},"geometry":{"type":"Polygon","coordinates":[[[-91.60841,42.8129],[-91.60643,42.72406],[-91.60706,42.64397],[-90.89742,42.64571],[-90.8969,42.67526],[-90.92116,42.68541],[-90.94157,42.68384],[-90.97774,42.69682],[-90.98878,42.70872],[-90.99554,42.7137],[-91.00958,42.72012],[-91.01724,42.71957],[-91.02679,42.72423],[-91.02969,42.72677],[-91.03201,42.73448],[-91.03542,42.73734],[-91.04414,42.7386],[-91.04997,42.7369],[-91.05373,42.73824],[-91.0563,42.74734],[-91.06017,42.75048],[-91.06468,42.75091],[-91.06549,42.75708],[-91.06143,42.75797],[-91.06026,42.76185],[-91.06955,42.76963],[-91.07114,42.783],[-91.0781,42.80653],[-91.07866,42.82768],[-91.08277,42.82998],[-91.09014,42.82924],[-91.09406,42.83081],[-91.09511,42.83497],[-91.0914,42.84986],[-91.09766,42.85987],[-91.09824,42.8758],[-91.10056,42.88308],[-91.11741,42.89584],[-91.14338,42.90467],[-91.14556,42.90798],[-91.14618,42.91234],[-91.1438,42.92288],[-91.14988,42.94196],[-91.14543,42.95821],[-91.148,42.96616],[-91.15656,42.97823],[-91.15749,42.99148],[-91.17469,43.03871],[-91.17789,43.06421],[-91.17946,43.06743],[-91.17726,43.07298],[-91.17722,43.08025],[-91.60531,43.08165],[-91.6066,42.81855],[-91.60841,42.8129]]]}},{"type":"Feature","id":"19045","properties":{"geoid":"19045","name":"Clinton","displayName":"Clinton County","state":"IA","stateName":"Iowa","type":"County or equivalent","lsad":"06","sourceType":"county"},"geometry":{"type":"Polygon","coordinates":[[[-90.89894,41.91853],[-90.89837,41.77139],[-90.78621,41.77137],[-90.78369,41.76822],[-90.77346,41.76785],[-90.77147,41.76577],[-90.76188,41.76282],[-90.75993,41.75925],[-90.75502,41.75661],[-90.75297,41.75298],[-90.75303,41.749],[-90.74933,41.74444],[-90.74364,41.74153],[-90.73615,41.74057],[-90.73159,41.73741],[-90.72619,41.74231],[-90.72234,41.737],[-90.7139,41.73458],[-90.7111,41.73973],[-90.70704,41.74025],[-90.70509,41.73757],[-90.70214,41.73773],[-90.69754,41.74303],[-90.69164,41.74313],[-90.69153,41.74612],[-90.69434,41.74893],[-90.69314,41.75064],[-90.68688,41.75247],[-90.68746,41.75565],[-90.68608,41.75714],[-90.68175,41.75455],[-90.67634,41.75565],[-90.67756,41.75803],[-90.67662,41.76064],[-90.66785,41.76447],[-90.66116,41.76539],[-90.65744,41.76408],[-90.65612,41.75784],[-90.65145,41.75542],[-90.64513,41.75754],[-90.64238,41.76154],[-90.63383,41.7619],[-90.63068,41.76535],[-90.62363,41.76364],[-90.61553,41.75656],[-90.61284,41.7582],[-90.61126,41.76397],[-90.60008,41.76299],[-90.59709,41.76761],[-90.59242,41.77064],[-90.58919,41.76994],[-90.58903,41.76441],[-90.58469,41.76345],[-90.57956,41.75922],[-90.57058,41.76357],[-90.56648,41.76233],[-90.56476,41.76583],[-90.55964,41.76363],[-90.55326,41.76462],[-90.54987,41.76347],[-90.54999,41.76894],[-90.54871,41.76924],[-90.54282,41.76592],[-90.53734,41.77644],[-90.52797,41.77531],[-90.52791,41.773],[-90.52318,41.7728],[-90.5218,41.77108],[-90.51523,41.7693],[-90.51279,41.76534],[-90.50665,41.76948],[-90.5043,41.76764],[-90.49579,41.76589],[-90.48394,41.76678],[-90.48378,41.76884],[-90.47362,41.77346],[-90.47053,41.7731],[-90.46726,41.76887],[-90.46888,41.76617],[-90.46833,41.76279],[-90.46518,41.75904],[-90.45929,41.75803],[-90.44933,41.76483],[-90.44017,41.75858],[-90.43721,41.76062],[-90.43571,41.76005],[-90.43309,41.75589],[-90.42499,41.7517],[-90.42416,41.7491],[-90.42746,41.74446],[-90.4231,41.74057],[-90.42802,41.73662],[-90.42481,41.73611],[-90.41211,41.74096],[-90.41104,41.73771],[-90.40625,41.73568],[-90.40646,41.7341],[-90.41019,41.73302],[-90.40903,41.72962],[-90.40363,41.72961],[-90.39697,41.7337],[-90.38959,41.73057],[-90.38824,41.73231],[-90.39035,41.73434],[-90.38964,41.73695],[-90.37451,41.73427],[-90.365,41.72794],[-90.35752,41.72778],[-90.3578,41.73128],[-90.35495,41.73199],[-90.34773,41.73005],[-90.34257,41.73936],[-90.33995,41.74052],[-90.33387,41.7394],[-90.3289,41.73442],[-90.32365,41.73348],[-90.31636,41.72888],[-90.31522,41.73426],[-90.31071,41.74221],[-90.30278,41.75003],[-90.27863,41.76736],[-90.26329,41.77211],[-90.22226,41.79313],[-90.18797,41.80316],[-90.18197,41.80707],[-90.18064,41.81198],[-90.18397,41.83307],[-90.1819,41.84322],[-90.17301,41.8574],[-90.17276,41.86615],[-90.17004,41.87644],[-90.15702,41.89802],[-90.15358,41.90661],[-90.1516,41.931],[-90.16385,41.94493],[-90.16414,41.95618],[-90.15383,41.97412],[-90.14622,41.98133],[-90.14603,41.98814],[-90.14061,41.996],[-90.14006,42.00325],[-90.14378,42.01488],[-90.1481,42.02001],[-90.15092,42.02944],[-90.15422,42.03307],[-90.89837,42.03355],[-90.89894,41.91853]]]}},{"type":"Feature","id":"19047","properties":{"geoid":"19047","name":"Crawford","displayName":"Crawford County","state":"IA","stateName":"Iowa","type":"County or equivalent","lsad":"06","sourceType":"county"},"geometry":{"type":"Polygon","coordinates":[[[-95.6726,41.8673],[-95.67277,41.86315],[-95.09286,41.86337],[-95.09085,42.2104],[-95.67082,42.21141],[-95.6726,41.8673]]]}},{"type":"Feature","id":"19049","properties":{"geoid":"19049","name":"Dallas","displayName":"Dallas County","state":"IA","stateName":"Iowa","type":"County or equivalent","lsad":"06","sourceType":"county"},"geometry":{"type":"Polygon","coordinates":[[[-94.2807,41.79098],[-94.28006,41.60131],[-94.24136,41.60097],[-94.24159,41.50368],[-93.89712,41.5031],[-93.79061,41.51192],[-93.79063,41.60042],[-93.81428,41.60046],[-93.81572,41.86342],[-94.28034,41.863],[-94.2807,41.79098]]]}},{"type":"Feature","id":"19051","properties":{"geoid":"19051","name":"Davis","displayName":"Davis County","state":"IA","stateName":"Iowa","type":"County or equivalent","lsad":"06","sourceType":"county"},"geometry":{"type":"Polygon","coordinates":[[[-92.63909,40.89889],[-92.6379,40.59085],[-92.17978,40.60053],[-92.17818,40.68282],[-92.17907,40.89972],[-92.63909,40.89889]]]}},{"type":"Feature","id":"19053","properties":{"geoid":"19053","name":"Decatur","displayName":"Decatur County","state":"IA","stateName":"Iowa","type":"County or equivalent","lsad":"06","sourceType":"county"},"geometry":{"type":"Polygon","coordinates":[[[-94.01541,40.62383],[-94.01549,40.57391],[-93.5569,40.58024],[-93.55654,40.89829],[-93.78703,40.89935],[-93.90497,40.89667],[-94.0148,40.89703],[-94.01541,40.62383]]]}},{"type":"Feature","id":"19055","properties":{"geoid":"19055","name":"Delaware","displayName":"Delaware County","state":"IA","stateName":"Iowa","type":"County or equivalent","lsad":"06","sourceType":"county"},"geometry":{"type":"Polygon","coordinates":[[[-91.60905,42.55644],[-91.60851,42.46928],[-91.5974,42.46924],[-91.59698,42.29641],[-91.13008,42.29576],[-91.13089,42.47126],[-91.1342,42.47127],[-91.1343,42.48229],[-91.13277,42.64584],[-91.60706,42.64397],[-91.60905,42.55644]]]}},{"type":"Feature","id":"19057","properties":{"geoid":"19057","name":"Des Moines","displayName":"Des Moines County","state":"IA","stateName":"Iowa","type":"County or equivalent","lsad":"06","sourceType":"county"},"geometry":{"type":"Polygon","coordinates":[[[-91.40945,40.8129],[-91.40637,40.80871],[-91.39353,40.80862],[-91.38576,40.80231],[-91.374,40.79798],[-91.36387,40.79066],[-91.35075,40.79364],[-91.34683,40.78647],[-91.31885,40.77992],[-91.31167,40.77215],[-91.29339,40.77258],[-91.28675,40.76657],[-91.2854,40.75956],[-91.28183,40.75368],[-91.26392,40.7542],[-91.25387,40.75061],[-91.24827,40.7504],[-91.24442,40.7484],[-91.23345,40.73754],[-91.22709,40.73435],[-91.21712,40.73229],[-91.2075,40.72203],[-91.20955,40.71399],[-91.20468,40.71483],[-91.20085,40.7187],[-91.19682,40.71922],[-91.19112,40.71313],[-91.18873,40.713],[-91.18255,40.7081],[-91.18004,40.7083],[-91.17891,40.71085],[-91.18099,40.71311],[-91.17609,40.72138],[-91.16669,40.71991],[-91.16349,40.72273],[-91.16097,40.7206],[-91.16114,40.71705],[-91.15064,40.7062],[-91.14649,40.70647],[-91.13882,40.70071],[-91.13322,40.69874],[-91.12698,40.69822],[-91.11944,40.70001],[-91.11243,40.69628],[-91.1111,40.70828],[-91.11574,40.72517],[-91.1082,40.75094],[-91.0981,40.76323],[-91.0917,40.77971],[-91.09226,40.79291],[-91.09765,40.80557],[-91.09299,40.82108],[-91.06716,40.842],[-91.05643,40.84839],[-91.04465,40.86836],[-91.0391,40.87356],[-91.02749,40.87917],[-91.02156,40.88402],[-91.00954,40.90056],[-90.9985,40.90812],[-90.969,40.91913],[-90.96292,40.92496],[-90.96046,40.93636],[-90.95223,40.95405],[-90.95272,40.96209],[-90.95814,40.97977],[-90.94963,40.99525],[-90.94595,41.0065],[-90.94532,41.01928],[-90.94225,41.0347],[-90.94555,41.06173],[-90.94938,41.07271],[-91.37071,41.07411],[-91.3721,40.81263],[-91.40945,40.8129]]]}},{"type":"Feature","id":"19059","properties":{"geoid":"19059","name":"Dickinson","displayName":"Dickinson County","state":"IA","stateName":"Iowa","type":"County or equivalent","lsad":"06","sourceType":"county"},"geometry":{"type":"Polygon","coordinates":[[[-95.38799,43.29867],[-95.38808,43.25522],[-94.91372,43.25505],[-94.91457,43.50087],[-95.38779,43.50023],[-95.38799,43.29867]]]}},{"type":"Feature","id":"19061","properties":{"geoid":"19061","name":"Dubuque","displayName":"Dubuque County","state":"IA","stateName":"Iowa","type":"County or equivalent","lsad":"06","sourceType":"county"},"geometry":{"type":"Polygon","coordinates":[[[-91.13444,42.55866],[-91.1342,42.47127],[-91.13089,42.47126],[-91.13008,42.29576],[-90.66555,42.2947],[-90.66503,42.38216],[-90.47381,42.38146],[-90.48015,42.38462],[-90.48715,42.38514],[-90.50013,42.39554],[-90.50683,42.39879],[-90.55502,42.41614],[-90.55817,42.42098],[-90.56044,42.4329],[-90.56525,42.43874],[-90.57074,42.4417],[-90.60633,42.4515],[-90.62433,42.4589],[-90.64673,42.4719],[-90.65403,42.4785],[-90.65633,42.4836],[-90.65593,42.4917],[-90.63599,42.51541],[-90.63598,42.51871],[-90.64167,42.52962],[-90.64403,42.53986],[-90.64703,42.54436],[-90.65413,42.5499],[-90.65913,42.5579],[-90.66153,42.568],[-90.67706,42.57922],[-90.68698,42.59177],[-90.69203,42.61037],[-90.7001,42.62246],[-90.70267,42.63076],[-90.7092,42.63608],[-90.72021,42.64076],[-90.7695,42.65144],[-90.84391,42.66307],[-90.8969,42.67526],[-90.89742,42.64571],[-91.13277,42.64584],[-91.13444,42.55866]]]}},{"type":"Feature","id":"19063","properties":{"geoid":"19063","name":"Emmet","displayName":"Emmet County","state":"IA","stateName":"Iowa","type":"County or equivalent","lsad":"06","sourceType":"county"},"geometry":{"type":"Polygon","coordinates":[[[-94.9147,43.50022],[-94.91372,43.25505],[-94.44314,43.25501],[-94.44285,43.50038],[-94.9147,43.50022]]]}},{"type":"Feature","id":"19065","properties":{"geoid":"19065","name":"Fayette","displayName":"Fayette County","state":"IA","stateName":"Iowa","type":"County or equivalent","lsad":"06","sourceType":"county"},"geometry":{"type":"Polygon","coordinates":[[[-92.08181,42.84024],[-92.08166,42.64206],[-91.60706,42.64397],[-91.60643,42.72406],[-91.60841,42.8129],[-91.6066,42.81855],[-91.60531,43.08165],[-92.08115,43.08279],[-92.08181,42.84024]]]}},{"type":"Feature","id":"19067","properties":{"geoid":"19067","name":"Floyd","displayName":"Floyd County","state":"IA","stateName":"Iowa","type":"County or equivalent","lsad":"06","sourceType":"county"},"geometry":{"type":"Polygon","coordinates":[[[-93.02508,42.91839],[-93.02514,42.90755],[-92.55421,42.90711],[-92.55438,43.21281],[-93.02409,43.21281],[-93.02298,43.03277],[-93.02508,42.91839]]]}},{"type":"Feature","id":"19069","properties":{"geoid":"19069","name":"Franklin","displayName":"Franklin County","state":"IA","stateName":"Iowa","type":"County or equivalent","lsad":"06","sourceType":"county"},"geometry":{"type":"Polygon","coordinates":[[[-93.49954,42.60851],[-93.49948,42.5577],[-93.027,42.55681],[-93.02514,42.90755],[-93.49862,42.90851],[-93.49954,42.60851]]]}},{"type":"Feature","id":"19071","properties":{"geoid":"19071","name":"Fremont","displayName":"Fremont County","state":"IA","stateName":"Iowa","type":"County or equivalent","lsad":"06","sourceType":"county"},"geometry":{"type":"Polygon","coordinates":[[[-95.8887,40.73629],[-95.88891,40.73186],[-95.88318,40.71758],[-95.85938,40.70806],[-95.85262,40.70226],[-95.84793,40.6942],[-95.84603,40.68261],[-95.8428,40.6775],[-95.82291,40.66724],[-95.79549,40.66238],[-95.78657,40.65725],[-95.77625,40.64746],[-95.77132,40.63939],[-95.76893,40.62126],[-95.75127,40.60906],[-95.74863,40.60336],[-95.75005,40.59705],[-95.75315,40.59284],[-95.76564,40.58521],[-95.37392,40.5805],[-95.37388,40.65537],[-95.37062,40.72824],[-95.38525,40.72838],[-95.38496,40.90155],[-95.81346,40.90169],[-95.80978,40.89545],[-95.80947,40.89123],[-95.81208,40.88424],[-95.81959,40.87744],[-95.84252,40.87027],[-95.84694,40.86574],[-95.84859,40.86106],[-95.84708,40.85417],[-95.84131,40.8456],[-95.83719,40.83535],[-95.8386,40.82618],[-95.84392,40.81769],[-95.84534,40.81132],[-95.84374,40.80378],[-95.83452,40.78778],[-95.83523,40.77915],[-95.84662,40.76862],[-95.86998,40.75964],[-95.87903,40.75308],[-95.88364,40.74783],[-95.8887,40.73629]]]}},{"type":"Feature","id":"19073","properties":{"geoid":"19073","name":"Greene","displayName":"Greene County","state":"IA","stateName":"Iowa","type":"County or equivalent","lsad":"06","sourceType":"county"},"geometry":{"type":"Polygon","coordinates":[[[-94.62934,41.9505],[-94.62872,41.86276],[-94.16443,41.86324],[-94.1647,42.20992],[-94.62859,42.20957],[-94.62934,41.9505]]]}},{"type":"Feature","id":"19075","properties":{"geoid":"19075","name":"Grundy","displayName":"Grundy County","state":"IA","stateName":"Iowa","type":"County or equivalent","lsad":"06","sourceType":"county"},"geometry":{"type":"Polygon","coordinates":[[[-93.02679,42.52879],[-93.02712,42.47078],[-93.0029,42.47064],[-93.00167,42.20927],[-92.76746,42.21014],[-92.76809,42.29668],[-92.53351,42.297],[-92.53402,42.46959],[-92.55433,42.4696],[-92.5543,42.55585],[-93.027,42.55681],[-93.02679,42.52879]]]}},{"type":"Feature","id":"19077","properties":{"geoid":"19077","name":"Guthrie","displayName":"Guthrie County","state":"IA","stateName":"Iowa","type":"County or equivalent","lsad":"06","sourceType":"county"},"geometry":{"type":"Polygon","coordinates":[[[-94.74488,41.86239],[-94.7442,41.60218],[-94.70074,41.60218],[-94.70063,41.50415],[-94.24159,41.50368],[-94.24136,41.60097],[-94.28006,41.60131],[-94.28034,41.863],[-94.74488,41.86239]]]}},{"type":"Feature","id":"19079","properties":{"geoid":"19079","name":"Hamilton","displayName":"Hamilton County","state":"IA","stateName":"Iowa","type":"County or equivalent","lsad":"06","sourceType":"county"},"geometry":{"type":"Polygon","coordinates":[[[-93.97158,42.47911],[-93.9716,42.47208],[-93.93168,42.47201],[-93.93158,42.20991],[-93.46304,42.2093],[-93.46264,42.4708],[-93.4991,42.47098],[-93.49948,42.5577],[-93.97158,42.55814],[-93.97158,42.47911]]]}},{"type":"Feature","id":"19081","properties":{"geoid":"19081","name":"Hancock","displayName":"Hancock County","state":"IA","stateName":"Iowa","type":"County or equivalent","lsad":"06","sourceType":"county"},"geometry":{"type":"Polygon","coordinates":[[[-93.97129,42.97916],[-93.97124,42.90776],[-93.49862,42.90851],[-93.49764,43.25547],[-93.97042,43.25536],[-93.97129,42.97916]]]}},{"type":"Feature","id":"19083","properties":{"geoid":"19083","name":"Hardin","displayName":"Hardin County","state":"IA","stateName":"Iowa","type":"County or equivalent","lsad":"06","sourceType":"county"},"geometry":{"type":"Polygon","coordinates":[[[-93.49948,42.5577],[-93.4991,42.47098],[-93.46264,42.4708],[-93.46304,42.2093],[-93.00167,42.20927],[-93.0029,42.47064],[-93.02712,42.47078],[-93.027,42.55681],[-93.49948,42.5577]]]}},{"type":"Feature","id":"19085","properties":{"geoid":"19085","name":"Harrison","displayName":"Harrison County","state":"IA","stateName":"Iowa","type":"County or equivalent","lsad":"06","sourceType":"county"},"geometry":{"type":"Polygon","coordinates":[[[-96.13901,41.8663],[-96.13525,41.86313],[-96.1162,41.85487],[-96.11025,41.84885],[-96.10791,41.84034],[-96.11081,41.82817],[-96.10759,41.82068],[-96.09827,41.81421],[-96.07555,41.80781],[-96.06966,41.80351],[-96.06488,41.79623],[-96.06641,41.78891],[-96.07754,41.77782],[-96.07894,41.77135],[-96.0783,41.7616],[-96.07992,41.7579],[-96.08467,41.75331],[-96.10277,41.74634],[-96.10642,41.73789],[-96.10558,41.73165],[-96.10261,41.72802],[-96.07968,41.71796],[-96.07338,41.71067],[-96.07306,41.705],[-96.08243,41.69816],[-96.09058,41.69743],[-96.10512,41.69992],[-96.11197,41.69777],[-96.12016,41.69115],[-96.12173,41.68274],[-96.12098,41.67786],[-96.11498,41.67122],[-96.09793,41.65868],[-96.09505,41.64736],[-96.1007,41.63551],[-96.11623,41.62157],[-96.11795,41.61736],[-96.11756,41.61],[-96.10939,41.59687],[-96.1015,41.59158],[-96.08577,41.58575],[-96.08115,41.57729],[-96.08241,41.57123],[-96.09361,41.55827],[-96.09659,41.5454],[-96.08981,41.53164],[-96.08265,41.52597],[-96.07416,41.52395],[-96.05369,41.50886],[-96.0407,41.50708],[-96.0366,41.50905],[-96.03368,41.51712],[-96.03444,41.52105],[-96.0317,41.52218],[-96.02931,41.52798],[-96.02666,41.54037],[-96.01915,41.54514],[-96.01388,41.54532],[-96.00511,41.54325],[-95.99997,41.53948],[-95.99267,41.51729],[-95.99283,41.512],[-95.99617,41.50696],[-95.498,41.50607],[-95.49779,41.60233],[-95.55814,41.60238],[-95.55728,41.86345],[-95.9831,41.86349],[-96.13901,41.8663]]]}},{"type":"Feature","id":"19087","properties":{"geoid":"19087","name":"Henry","displayName":"Henry County","state":"IA","stateName":"Iowa","type":"County or equivalent","lsad":"06","sourceType":"county"},"geometry":{"type":"Polygon","coordinates":[[[-91.71871,40.83176],[-91.71879,40.81354],[-91.3721,40.81263],[-91.3703,41.16125],[-91.60085,41.16356],[-91.71604,41.16281],[-91.71871,40.83176]]]}},{"type":"Feature","id":"19089","properties":{"geoid":"19089","name":"Howard","displayName":"Howard County","state":"IA","stateName":"Iowa","type":"County or equivalent","lsad":"06","sourceType":"county"},"geometry":{"type":"Polygon","coordinates":[[[-92.55455,43.2603],[-92.55438,43.21281],[-92.08098,43.21295],[-92.0798,43.50073],[-92.55313,43.50021],[-92.55455,43.2603]]]}},{"type":"Feature","id":"19091","properties":{"geoid":"19091","name":"Humboldt","displayName":"Humboldt County","state":"IA","stateName":"Iowa","type":"County or equivalent","lsad":"06","sourceType":"county"},"geometry":{"type":"Polygon","coordinates":[[[-94.44315,42.73633],[-94.44308,42.64516],[-93.97171,42.64471],[-93.97124,42.90776],[-94.44295,42.90807],[-94.44315,42.73633]]]}},{"type":"Feature","id":"19093","properties":{"geoid":"19093","name":"Ida","displayName":"Ida County","state":"IA","stateName":"Iowa","type":"County or equivalent","lsad":"06","sourceType":"county"},"geometry":{"type":"Polygon","coordinates":[[[-95.74146,42.52316],[-95.74182,42.47486],[-95.66926,42.47464],[-95.67082,42.21141],[-95.3235,42.21093],[-95.32236,42.47474],[-95.38744,42.47482],[-95.38801,42.56174],[-95.74161,42.56128],[-95.74146,42.52316]]]}},{"type":"Feature","id":"19095","properties":{"geoid":"19095","name":"Iowa","displayName":"Iowa County","state":"IA","stateName":"Iowa","type":"County or equivalent","lsad":"06","sourceType":"county"},"geometry":{"type":"Polygon","coordinates":[[[-92.29995,41.6951],[-92.29749,41.50979],[-91.82923,41.51146],[-91.82706,41.60045],[-91.83308,41.60041],[-91.83418,41.6867],[-91.83079,41.8038],[-91.83138,41.86185],[-92.29816,41.86278],[-92.29995,41.6951]]]}},{"type":"Feature","id":"19097","properties":{"geoid":"19097","name":"Jackson","displayName":"Jackson County","state":"IA","stateName":"Iowa","type":"County or equivalent","lsad":"06","sourceType":"county"},"geometry":{"type":"Polygon","coordinates":[[[-90.89841,42.17124],[-90.89837,42.03355],[-90.15422,42.03307],[-90.16448,42.0421],[-90.16556,42.06264],[-90.16836,42.07578],[-90.1634,42.08761],[-90.16116,42.10637],[-90.1629,42.11672],[-90.16753,42.12248],[-90.17097,42.1252],[-90.18747,42.12542],[-90.19734,42.12816],[-90.2014,42.13094],[-90.20948,42.15268],[-90.23492,42.16543],[-90.25013,42.17147],[-90.26908,42.1745],[-90.28217,42.17885],[-90.29844,42.18758],[-90.31777,42.19379],[-90.32827,42.20105],[-90.35696,42.20544],[-90.37513,42.21481],[-90.39111,42.22547],[-90.40065,42.23929],[-90.41933,42.25447],[-90.43088,42.27823],[-90.43074,42.28421],[-90.42433,42.29333],[-90.42045,42.30537],[-90.42105,42.31611],[-90.4162,42.32131],[-90.41654,42.32511],[-90.42135,42.33047],[-90.43055,42.33686],[-90.44387,42.35522],[-90.45272,42.3593],[-90.46262,42.36725],[-90.47381,42.38146],[-90.66503,42.38216],[-90.66555,42.2947],[-90.89802,42.29524],[-90.89841,42.17124]]]}},{"type":"Feature","id":"19099","properties":{"geoid":"19099","name":"Jasper","displayName":"Jasper County","state":"IA","stateName":"Iowa","type":"County or equivalent","lsad":"06","sourceType":"county"},"geometry":{"type":"Polygon","coordinates":[[[-93.34859,41.61918],[-93.34868,41.601],[-93.32868,41.60115],[-93.32861,41.50782],[-92.75651,41.50879],[-92.75707,41.60141],[-92.76676,41.60136],[-92.766,41.86237],[-93.34793,41.8631],[-93.34859,41.61918]]]}},{"type":"Feature","id":"19101","properties":{"geoid":"19101","name":"Jefferson","displayName":"Jefferson County","state":"IA","stateName":"Iowa","type":"County or equivalent","lsad":"06","sourceType":"county"},"geometry":{"type":"Polygon","coordinates":[[[-92.17997,41.16266],[-92.17907,40.89972],[-91.71818,40.90109],[-91.71604,41.16281],[-91.83154,41.16153],[-91.96475,41.16376],[-92.17997,41.16266]]]}},{"type":"Feature","id":"19103","properties":{"geoid":"19103","name":"Johnson","displayName":"Johnson County","state":"IA","stateName":"Iowa","type":"County or equivalent","lsad":"06","sourceType":"county"},"geometry":{"type":"Polygon","coordinates":[[[-91.83415,41.68739],[-91.83308,41.60041],[-91.82706,41.60045],[-91.82923,41.51146],[-91.51983,41.51101],[-91.52612,41.50997],[-91.52809,41.50861],[-91.52712,41.50689],[-91.51899,41.50258],[-91.51968,41.49833],[-91.51676,41.49683],[-91.50809,41.50283],[-91.50649,41.50075],[-91.51079,41.49737],[-91.51067,41.49469],[-91.50657,41.49274],[-91.50374,41.49336],[-91.50137,41.48773],[-91.50257,41.48517],[-91.5021,41.47745],[-91.51338,41.47596],[-91.51587,41.46792],[-91.49877,41.45921],[-91.49865,41.45344],[-91.50282,41.44936],[-91.49071,41.44043],[-91.48386,41.42729],[-91.484,41.42385],[-91.36852,41.42318],[-91.36645,41.59837],[-91.36608,41.86007],[-91.83138,41.86185],[-91.83079,41.8038],[-91.83415,41.68739]]]}},{"type":"Feature","id":"19105","properties":{"geoid":"19105","name":"Jones","displayName":"Jones County","state":"IA","stateName":"Iowa","type":"County or equivalent","lsad":"06","sourceType":"county"},"geometry":{"type":"Polygon","coordinates":[[[-91.36588,41.94741],[-90.89848,41.94624],[-90.89802,42.29524],[-91.36326,42.29644],[-91.36588,41.94741]]]}},{"type":"Feature","id":"19107","properties":{"geoid":"19107","name":"Keokuk","displayName":"Keokuk County","state":"IA","stateName":"Iowa","type":"County or equivalent","lsad":"06","sourceType":"county"},"geometry":{"type":"Polygon","coordinates":[[[-92.412,41.50955],[-92.41023,41.16194],[-91.94557,41.16358],[-91.94476,41.24038],[-91.94694,41.33758],[-91.94604,41.51075],[-92.412,41.50955]]]}},{"type":"Feature","id":"19109","properties":{"geoid":"19109","name":"Kossuth","displayName":"Kossuth County","state":"IA","stateName":"Iowa","type":"County or equivalent","lsad":"06","sourceType":"county"},"geometry":{"type":"Polygon","coordinates":[[[-94.44314,43.25501],[-94.44295,42.90807],[-93.97124,42.90776],[-93.97076,43.49988],[-94.44285,43.50038],[-94.44314,43.25501]]]}},{"type":"Feature","id":"19111","properties":{"geoid":"19111","name":"Lee","displayName":"Lee County","state":"IA","stateName":"Iowa","type":"County or equivalent","lsad":"06","sourceType":"county"},"geometry":{"type":"Polygon","coordinates":[[[-91.71879,40.81354],[-91.71804,40.61405],[-91.71643,40.61408],[-91.71677,40.59853],[-91.69636,40.58815],[-91.68636,40.58088],[-91.68572,40.57678],[-91.69159,40.56222],[-91.6887,40.55739],[-91.68171,40.55304],[-91.62516,40.5435],[-91.62007,40.54082],[-91.61803,40.53403],[-91.61879,40.52629],[-91.6222,40.51704],[-91.62135,40.51007],[-91.61282,40.50238],[-91.59082,40.49229],[-91.58688,40.48723],[-91.58153,40.47288],[-91.57475,40.46566],[-91.56384,40.46099],[-91.55269,40.45877],[-91.5286,40.459],[-91.52509,40.45784],[-91.52327,40.45006],[-91.53191,40.44273],[-91.53362,40.43832],[-91.52913,40.43427],[-91.51913,40.43282],[-91.52139,40.42649],[-91.52656,40.41987],[-91.52642,40.4134],[-91.52461,40.41076],[-91.51399,40.40854],[-91.50527,40.40351],[-91.49809,40.40193],[-91.48848,40.40432],[-91.49098,40.39348],[-91.48451,40.3839],[-91.48025,40.38178],[-91.46339,40.38539],[-91.46589,40.37836],[-91.4639,40.37566],[-91.45163,40.37602],[-91.44537,40.37939],[-91.44517,40.38246],[-91.44124,40.38626],[-91.42566,40.38249],[-91.41942,40.37826],[-91.41301,40.38228],[-91.38836,40.38493],[-91.37575,40.39188],[-91.37255,40.4012],[-91.37245,40.41148],[-91.38096,40.4354],[-91.38147,40.44604],[-91.37814,40.45639],[-91.36807,40.47464],[-91.36492,40.48417],[-91.36421,40.50004],[-91.36906,40.51253],[-91.38186,40.52825],[-91.38807,40.53307],[-91.40412,40.53913],[-91.40685,40.54756],[-91.40524,40.55464],[-91.40148,40.55946],[-91.37975,40.57445],[-91.35987,40.6018],[-91.34873,40.6097],[-91.30652,40.62623],[-91.26495,40.63389],[-91.25307,40.63796],[-91.21844,40.63844],[-91.19791,40.63611],[-91.18698,40.6373],[-91.13806,40.66089],[-91.12393,40.66915],[-91.12082,40.67278],[-91.11541,40.69182],[-91.11243,40.69628],[-91.11944,40.70001],[-91.12698,40.69822],[-91.13322,40.69874],[-91.13882,40.70071],[-91.14649,40.70647],[-91.15064,40.7062],[-91.16114,40.71705],[-91.16097,40.7206],[-91.16349,40.72273],[-91.16669,40.71991],[-91.17609,40.72138],[-91.18099,40.71311],[-91.17891,40.71085],[-91.18004,40.7083],[-91.18255,40.7081],[-91.18873,40.713],[-91.19112,40.71313],[-91.19682,40.71922],[-91.20085,40.7187],[-91.20468,40.71483],[-91.20955,40.71399],[-91.2075,40.72203],[-91.21712,40.73229],[-91.22709,40.73435],[-91.23345,40.73754],[-91.24442,40.7484],[-91.24827,40.7504],[-91.25387,40.75061],[-91.26392,40.7542],[-91.28183,40.75368],[-91.2854,40.75956],[-91.28675,40.76657],[-91.29339,40.77258],[-91.31167,40.77215],[-91.31885,40.77992],[-91.34683,40.78647],[-91.35075,40.79364],[-91.36387,40.79066],[-91.374,40.79798],[-91.38576,40.80231],[-91.39353,40.80862],[-91.40637,40.80871],[-91.40945,40.8129],[-91.71879,40.81354]]]}},{"type":"Feature","id":"19113","properties":{"geoid":"19113","name":"Linn","displayName":"Linn County","state":"IA","stateName":"Iowa","type":"County or equivalent","lsad":"06","sourceType":"county"},"geometry":{"type":"Polygon","coordinates":[[[-91.83476,42.08249],[-91.83526,42.03695],[-91.83138,41.86185],[-91.36622,41.86007],[-91.36326,42.29644],[-91.71444,42.29654],[-91.83109,42.29906],[-91.83476,42.08249]]]}},{"type":"Feature","id":"19115","properties":{"geoid":"19115","name":"Louisa","displayName":"Louisa County","state":"IA","stateName":"Iowa","type":"County or equivalent","lsad":"06","sourceType":"county"},"geometry":{"type":"Polygon","coordinates":[[[-91.48582,41.22067],[-91.48572,41.1624],[-91.3703,41.16125],[-91.37071,41.07411],[-90.94938,41.07271],[-90.94663,41.09663],[-90.95725,41.11109],[-90.9659,41.11956],[-90.97085,41.13011],[-90.98966,41.15572],[-90.99791,41.16256],[-91.00759,41.16618],[-91.02721,41.16337],[-91.04154,41.16614],[-91.05507,41.18577],[-91.07298,41.20715],[-91.10956,41.23657],[-91.11365,41.2414],[-91.11419,41.25003],[-91.10114,41.26717],[-91.09203,41.28691],[-91.08688,41.29437],[-91.07484,41.30558],[-91.07194,41.33359],[-91.36933,41.33606],[-91.36852,41.42318],[-91.484,41.42385],[-91.48582,41.22067]]]}},{"type":"Feature","id":"19117","properties":{"geoid":"19117","name":"Lucas","displayName":"Lucas County","state":"IA","stateName":"Iowa","type":"County or equivalent","lsad":"06","sourceType":"county"},"geometry":{"type":"Polygon","coordinates":[[[-93.55756,41.16127],[-93.55654,40.89829],[-93.0976,40.89845],[-93.09922,41.16087],[-93.55756,41.16127]]]}},{"type":"Feature","id":"19119","properties":{"geoid":"19119","name":"Lyon","displayName":"Lyon County","state":"IA","stateName":"Iowa","type":"County or equivalent","lsad":"06","sourceType":"county"},"geometry":{"type":"Polygon","coordinates":[[[-96.60062,43.45123],[-96.60261,43.44965],[-96.59425,43.43415],[-96.58788,43.43168],[-96.57518,43.43176],[-96.57022,43.4286],[-96.57079,43.42376],[-96.57358,43.41923],[-96.56273,43.41278],[-96.55759,43.40679],[-96.53712,43.39506],[-96.53116,43.39561],[-96.52915,43.39774],[-96.52545,43.39632],[-96.52157,43.38564],[-96.52132,43.37461],[-96.5222,43.37195],[-96.52734,43.36811],[-96.52664,43.35183],[-96.52429,43.34721],[-96.53491,43.33647],[-96.52882,43.31656],[-96.52556,43.31247],[-96.53039,43.30003],[-96.54104,43.29556],[-96.55309,43.29286],[-96.55525,43.2948],[-96.56911,43.29554],[-96.57356,43.29917],[-96.58849,43.29634],[-96.58892,43.29367],[-96.58701,43.29181],[-96.58116,43.29508],[-96.57958,43.29345],[-96.58071,43.28902],[-96.57782,43.27994],[-96.5809,43.2748],[-96.58288,43.27459],[-96.58353,43.27688],[-96.58632,43.27432],[-96.58522,43.26888],[-96.5829,43.26769],[-96.5768,43.26831],[-96.56416,43.26024],[-96.55697,43.2591],[-96.33412,43.2577],[-96.09806,43.2574],[-96.03916,43.25889],[-95.86191,43.25757],[-95.86048,43.3455],[-95.86095,43.50005],[-96.59893,43.50046],[-96.5984,43.49507],[-96.59472,43.49331],[-96.59045,43.4943],[-96.59004,43.49191],[-96.58627,43.4911],[-96.58455,43.48883],[-96.58692,43.48767],[-96.58721,43.48492],[-96.58628,43.48351],[-96.58238,43.4834],[-96.581,43.48138],[-96.58674,43.47739],[-96.58413,43.47556],[-96.58514,43.47114],[-96.58248,43.46705],[-96.59333,43.46282],[-96.594,43.45883],[-96.60004,43.45708],[-96.60062,43.45123]]]}},{"type":"Feature","id":"19121","properties":{"geoid":"19121","name":"Madison","displayName":"Madison County","state":"IA","stateName":"Iowa","type":"County or equivalent","lsad":"06","sourceType":"county"},"geometry":{"type":"Polygon","coordinates":[[[-94.24172,41.42246],[-94.24164,41.15713],[-93.89881,41.15661],[-93.7892,41.16204],[-93.79061,41.51192],[-93.89712,41.5031],[-94.24159,41.50368],[-94.24172,41.42246]]]}},{"type":"Feature","id":"19123","properties":{"geoid":"19123","name":"Mahaska","displayName":"Mahaska County","state":"IA","stateName":"Iowa","type":"County or equivalent","lsad":"06","sourceType":"county"},"geometry":{"type":"Polygon","coordinates":[[[-92.87142,41.50852],[-92.86977,41.16107],[-92.41023,41.16194],[-92.412,41.50955],[-92.87142,41.50852]]]}},{"type":"Feature","id":"19125","properties":{"geoid":"19125","name":"Marion","displayName":"Marion County","state":"IA","stateName":"Iowa","type":"County or equivalent","lsad":"06","sourceType":"county"},"geometry":{"type":"Polygon","coordinates":[[[-93.32861,41.50782],[-93.32789,41.16066],[-92.86977,41.16107],[-92.87142,41.50852],[-93.32861,41.50782]]]}},{"type":"Feature","id":"19127","properties":{"geoid":"19127","name":"Marshall","displayName":"Marshall County","state":"IA","stateName":"Iowa","type":"County or equivalent","lsad":"06","sourceType":"county"},"geometry":{"type":"Polygon","coordinates":[[[-93.23184,41.86639],[-93.23186,41.86271],[-92.766,41.86237],[-92.76746,42.21014],[-93.23172,42.20889],[-93.23184,41.86639]]]}},{"type":"Feature","id":"19129","properties":{"geoid":"19129","name":"Mills","displayName":"Mills County","state":"IA","stateName":"Iowa","type":"County or equivalent","lsad":"06","sourceType":"county"},"geometry":{"type":"Polygon","coordinates":[[[-95.88349,41.1549],[-95.88209,41.144],[-95.86869,41.1247],[-95.86589,41.1179],[-95.86545,41.10127],[-95.86259,41.0884],[-95.86546,41.08037],[-95.8781,41.06959],[-95.88138,41.0652],[-95.88242,41.06041],[-95.87949,41.0533],[-95.86178,41.03943],[-95.85965,41.03569],[-95.85992,41.0254],[-95.86837,41.0127],[-95.8692,41.00595],[-95.86349,40.99734],[-95.83891,40.98648],[-95.8303,40.97833],[-95.82833,40.97238],[-95.82983,40.96386],[-95.83795,40.95062],[-95.84028,40.93994],[-95.83974,40.93278],[-95.83777,40.92471],[-95.83304,40.91724],[-95.81346,40.90169],[-95.38496,40.90155],[-95.38435,41.16001],[-95.88094,41.16027],[-95.88349,41.1549]]]}},{"type":"Feature","id":"19131","properties":{"geoid":"19131","name":"Mitchell","displayName":"Mitchell County","state":"IA","stateName":"Iowa","type":"County or equivalent","lsad":"06","sourceType":"county"},"geometry":{"type":"Polygon","coordinates":[[[-93.02435,43.49968],[-93.02409,43.21281],[-92.55438,43.21281],[-92.55313,43.50021],[-93.02435,43.49968]]]}},{"type":"Feature","id":"19133","properties":{"geoid":"19133","name":"Monona","displayName":"Monona County","state":"IA","stateName":"Iowa","type":"County or equivalent","lsad":"06","sourceType":"county"},"geometry":{"type":"Polygon","coordinates":[[[-96.35987,42.21054],[-96.35909,42.2078],[-96.35152,42.20048],[-96.34807,42.19475],[-96.34724,42.18672],[-96.35032,42.17744],[-96.34969,42.17204],[-96.34775,42.16681],[-96.3424,42.16049],[-96.31953,42.14665],[-96.31382,42.13634],[-96.30588,42.12983],[-96.2792,42.12348],[-96.2723,42.1184],[-96.2689,42.11359],[-96.26659,42.10326],[-96.26764,42.09618],[-96.27676,42.08142],[-96.27908,42.07403],[-96.27844,42.0604],[-96.27555,42.05198],[-96.27143,42.04499],[-96.26389,42.03986],[-96.25609,42.03808],[-96.24683,42.04162],[-96.23839,42.04109],[-96.22566,42.03522],[-96.2219,42.02956],[-96.22361,42.02265],[-96.23886,42.01232],[-96.24193,42.00696],[-96.24238,42.0029],[-96.24071,41.99935],[-96.23649,41.99643],[-96.22546,41.99473],[-96.22181,41.99738],[-96.21522,42.0067],[-96.20608,42.00927],[-96.19456,42.00866],[-96.18807,42.00632],[-96.18357,41.99999],[-96.18478,41.99546],[-96.19214,41.98446],[-96.1906,41.98072],[-96.18626,41.97742],[-96.1772,41.97632],[-96.15654,41.98014],[-96.14123,41.97806],[-96.13254,41.97462],[-96.1295,41.97167],[-96.12919,41.96514],[-96.13332,41.95573],[-96.1426,41.94591],[-96.14458,41.94154],[-96.14349,41.93739],[-96.13661,41.92717],[-96.13674,41.92083],[-96.14226,41.91538],[-96.1591,41.91006],[-96.16199,41.90555],[-96.16176,41.90182],[-96.14883,41.88813],[-96.14608,41.87499],[-96.13901,41.8663],[-95.9831,41.86349],[-95.67277,41.86315],[-95.67082,42.21141],[-96.01988,42.21169],[-96.35666,42.21514],[-96.35987,42.21054]]]}},{"type":"Feature","id":"19135","properties":{"geoid":"19135","name":"Monroe","displayName":"Monroe County","state":"IA","stateName":"Iowa","type":"County or equivalent","lsad":"06","sourceType":"county"},"geometry":{"type":"Polygon","coordinates":[[[-93.09922,41.16087],[-93.0976,40.89845],[-92.63909,40.89889],[-92.64038,41.1614],[-93.09922,41.16087]]]}},{"type":"Feature","id":"19137","properties":{"geoid":"19137","name":"Montgomery","displayName":"Montgomery County","state":"IA","stateName":"Iowa","type":"County or equivalent","lsad":"06","sourceType":"county"},"geometry":{"type":"Polygon","coordinates":[[[-95.38474,40.90875],[-95.38496,40.90155],[-94.92846,40.90065],[-94.92759,41.15851],[-95.38435,41.16001],[-95.38474,40.90875]]]}},{"type":"Feature","id":"19139","properties":{"geoid":"19139","name":"Muscatine","displayName":"Muscatine County","state":"IA","stateName":"Iowa","type":"County or equivalent","lsad":"06","sourceType":"county"},"geometry":{"type":"Polygon","coordinates":[[[-91.36869,41.40162],[-91.36933,41.33606],[-91.07194,41.33359],[-91.06506,41.3691],[-91.05158,41.38528],[-91.04782,41.4109],[-91.04399,41.4159],[-91.03713,41.42002],[-91.02779,41.4236],[-91.00585,41.42614],[-90.9849,41.43387],[-90.97982,41.43432],[-90.97517,41.43398],[-90.94979,41.42416],[-90.93002,41.4214],[-90.90047,41.43115],[-90.8536,41.45391],[-90.83741,41.45562],[-90.78628,41.45289],[-90.78381,41.59653],[-91.36645,41.59837],[-91.36869,41.40162]]]}},{"type":"Feature","id":"19141","properties":{"geoid":"19141","name":"O'Brien","displayName":"O'Brien County","state":"IA","stateName":"Iowa","type":"County or equivalent","lsad":"06","sourceType":"county"},"geometry":{"type":"Polygon","coordinates":[[[-95.86227,43.21486],[-95.85938,42.9091],[-95.38818,42.9099],[-95.38808,43.25522],[-95.50577,43.25575],[-95.62459,43.25842],[-95.86191,43.25757],[-95.86227,43.21486]]]}},{"type":"Feature","id":"19143","properties":{"geoid":"19143","name":"Osceola","displayName":"Osceola County","state":"IA","stateName":"Iowa","type":"County or equivalent","lsad":"06","sourceType":"county"},"geometry":{"type":"Polygon","coordinates":[[[-95.86127,43.2938],[-95.86191,43.25757],[-95.62459,43.25842],[-95.50577,43.25575],[-95.38808,43.25522],[-95.38779,43.50023],[-95.86095,43.50005],[-95.86127,43.2938]]]}},{"type":"Feature","id":"19145","properties":{"geoid":"19145","name":"Page","displayName":"Page County","state":"IA","stateName":"Iowa","type":"County or equivalent","lsad":"06","sourceType":"county"},"geometry":{"type":"Polygon","coordinates":[[[-95.38534,40.74262],[-95.38525,40.72838],[-95.37062,40.72824],[-95.37388,40.65537],[-95.37392,40.5805],[-94.9149,40.57507],[-94.91312,40.72728],[-94.92853,40.7274],[-94.92846,40.90065],[-95.38496,40.90155],[-95.38534,40.74262]]]}},{"type":"Feature","id":"19147","properties":{"geoid":"19147","name":"Palo Alto","displayName":"Palo Alto County","state":"IA","stateName":"Iowa","type":"County or equivalent","lsad":"06","sourceType":"county"},"geometry":{"type":"Polygon","coordinates":[[[-94.91382,42.95323],[-94.91389,42.9097],[-94.44295,42.90807],[-94.44314,43.25501],[-94.91372,43.25505],[-94.91382,42.95323]]]}},{"type":"Feature","id":"19149","properties":{"geoid":"19149","name":"Plymouth","displayName":"Plymouth County","state":"IA","stateName":"Iowa","type":"County or equivalent","lsad":"06","sourceType":"county"},"geometry":{"type":"Polygon","coordinates":[[[-96.63836,42.7355],[-96.63043,42.72992],[-96.63378,42.72657],[-96.63352,42.72419],[-96.6247,42.7255],[-96.62535,42.71982],[-96.62714,42.71733],[-96.62453,42.71562],[-96.62654,42.71033],[-96.62978,42.70885],[-96.63062,42.70588],[-96.62675,42.70404],[-96.62341,42.70701],[-96.61881,42.69968],[-96.61495,42.69904],[-96.60967,42.70236],[-96.6056,42.70202],[-96.60446,42.70014],[-96.6058,42.69843],[-96.61178,42.69599],[-96.61028,42.69412],[-96.60552,42.69424],[-96.60031,42.69802],[-96.59535,42.694],[-96.5949,42.68944],[-96.59828,42.68891],[-96.59808,42.68664],[-96.59293,42.68689],[-96.59043,42.69108],[-96.58676,42.69013],[-96.58544,42.68309],[-96.5753,42.68282],[-96.57491,42.68083],[-96.57848,42.67814],[-96.57191,42.67768],[-96.57717,42.67334],[-96.57654,42.67077],[-96.57226,42.67078],[-96.56808,42.67624],[-96.56668,42.67594],[-96.56461,42.6716],[-96.5563,42.66484],[-96.5599,42.66282],[-96.55996,42.65854],[-96.55833,42.6576],[-96.54683,42.66149],[-96.54175,42.66038],[-96.53788,42.65543],[-96.53788,42.64645],[-96.52641,42.64121],[-96.52399,42.63456],[-96.52116,42.63441],[-96.51634,42.63044],[-96.51535,42.62764],[-96.51854,42.62016],[-96.52121,42.61867],[-96.52818,42.61845],[-96.5316,42.61515],[-96.52793,42.60899],[-96.51704,42.61596],[-96.50947,42.61273],[-96.50018,42.59411],[-96.50104,42.58925],[-96.49234,42.58781],[-96.49149,42.5861],[-96.49607,42.58087],[-96.495,42.57885],[-96.48661,42.57606],[-96.48594,42.57352],[-96.49878,42.56104],[-96.40775,42.56216],[-95.85995,42.56062],[-95.86081,42.72078],[-95.85857,42.82251],[-95.85938,42.9091],[-96.01678,42.91015],[-96.53735,42.90879],[-96.53656,42.90566],[-96.54247,42.90504],[-96.54285,42.90374],[-96.5394,42.89996],[-96.53601,42.9009],[-96.52889,42.89795],[-96.52636,42.89185],[-96.52774,42.89059],[-96.54012,42.88968],[-96.53785,42.87848],[-96.54639,42.87446],[-96.54966,42.87028],[-96.55044,42.86317],[-96.54656,42.85727],[-96.5427,42.85972],[-96.54146,42.85768],[-96.5455,42.84996],[-96.55471,42.84614],[-96.5542,42.84365],[-96.54951,42.83914],[-96.55128,42.83661],[-96.55399,42.83603],[-96.55858,42.83949],[-96.56057,42.83937],[-96.56284,42.83631],[-96.56306,42.83105],[-96.5656,42.83043],[-96.57135,42.83716],[-96.5816,42.83752],[-96.58238,42.83366],[-96.57794,42.82764],[-96.5857,42.81804],[-96.59104,42.81536],[-96.59601,42.81504],[-96.59566,42.81043],[-96.59091,42.80899],[-96.591,42.80658],[-96.59451,42.79805],[-96.59873,42.79782],[-96.59595,42.79355],[-96.59704,42.79189],[-96.60344,42.79235],[-96.60523,42.79116],[-96.60258,42.78777],[-96.60456,42.78303],[-96.61949,42.78403],[-96.62262,42.77689],[-96.62624,42.77522],[-96.62642,42.77246],[-96.63493,42.77074],[-96.63528,42.76912],[-96.63252,42.76734],[-96.63514,42.76323],[-96.62786,42.75641],[-96.62626,42.75589],[-96.62254,42.75845],[-96.61949,42.75479],[-96.63048,42.75038],[-96.63104,42.7445],[-96.63515,42.74024],[-96.6313,42.7372],[-96.63283,42.73534],[-96.63755,42.73727],[-96.63836,42.7355]]]}},{"type":"Feature","id":"19151","properties":{"geoid":"19151","name":"Pocahontas","displayName":"Pocahontas County","state":"IA","stateName":"Iowa","type":"County or equivalent","lsad":"06","sourceType":"county"},"geometry":{"type":"Polygon","coordinates":[[[-94.91536,42.66529],[-94.91448,42.56031],[-94.44302,42.55884],[-94.44295,42.90807],[-94.91389,42.9097],[-94.91393,42.73444],[-94.91536,42.66529]]]}},{"type":"Feature","id":"19153","properties":{"geoid":"19153","name":"Polk","displayName":"Polk County","state":"IA","stateName":"Iowa","type":"County or equivalent","lsad":"06","sourceType":"county"},"geometry":{"type":"Polygon","coordinates":[[[-93.81572,41.86342],[-93.81428,41.60046],[-93.79063,41.60042],[-93.79061,41.51192],[-93.54824,41.51131],[-93.44129,41.50759],[-93.44206,41.50457],[-93.44023,41.50256],[-93.4367,41.50228],[-93.42768,41.50505],[-93.42488,41.50749],[-93.41384,41.50742],[-93.41335,41.50412],[-93.41539,41.50031],[-93.42258,41.49499],[-93.42062,41.49253],[-93.41426,41.49236],[-93.40978,41.49501],[-93.40445,41.50161],[-93.40014,41.50201],[-93.3972,41.49985],[-93.39663,41.4963],[-93.39887,41.49256],[-93.40546,41.48977],[-93.40467,41.48674],[-93.39717,41.48636],[-93.39238,41.48839],[-93.38783,41.49378],[-93.38381,41.4948],[-93.37481,41.49329],[-93.37203,41.48607],[-93.36349,41.48658],[-93.35836,41.48976],[-93.35908,41.49634],[-93.35604,41.49816],[-93.35253,41.49689],[-93.34793,41.4843],[-93.34381,41.48184],[-93.33934,41.48272],[-93.33506,41.4874],[-93.32841,41.49079],[-93.32868,41.60115],[-93.34868,41.601],[-93.34793,41.8631],[-93.81572,41.86342]]]}},{"type":"Feature","id":"19155","properties":{"geoid":"19155","name":"Pottawattamie","displayName":"Pottawattamie County","state":"IA","stateName":"Iowa","type":"County or equivalent","lsad":"06","sourceType":"county"},"geometry":{"type":"Polygon","coordinates":[[[-96.01982,41.48803],[-96.01176,41.47621],[-96.00471,41.47234],[-95.98296,41.46978],[-95.96233,41.46281],[-95.95702,41.46281],[-95.94646,41.46617],[-95.9368,41.46519],[-95.92571,41.45938],[-95.92028,41.45157],[-95.92183,41.44206],[-95.9307,41.43389],[-95.93317,41.42943],[-95.92972,41.41133],[-95.93078,41.40618],[-95.93749,41.3931],[-95.93519,41.3844],[-95.92929,41.3749],[-95.92879,41.3701],[-95.93099,41.3647],[-95.93549,41.3606],[-95.95489,41.3518],[-95.95679,41.3492],[-95.95669,41.3455],[-95.94689,41.3341],[-95.92569,41.3222],[-95.91379,41.3202],[-95.89929,41.3212],[-95.88869,41.3191],[-95.88309,41.3167],[-95.87469,41.3071],[-95.87149,41.2958],[-95.87289,41.2895],[-95.88239,41.2814],[-95.90249,41.2734],[-95.91249,41.2795],[-95.90429,41.2935],[-95.90429,41.2996],[-95.90589,41.3009],[-95.92029,41.3011],[-95.92749,41.2984],[-95.92959,41.2923],[-95.92869,41.2814],[-95.91399,41.2714],[-95.92039,41.2684],[-95.92189,41.2646],[-95.92129,41.2585],[-95.91139,41.238],[-95.91089,41.234],[-95.91259,41.227],[-95.92489,41.2112],[-95.92749,41.2022],[-95.92319,41.191],[-95.91829,41.1867],[-95.90969,41.1844],[-95.86479,41.1883],[-95.85679,41.1871],[-95.84409,41.1806],[-95.84129,41.175],[-95.84189,41.1711],[-95.84619,41.1667],[-95.85279,41.1654],[-95.86964,41.16883],[-95.87629,41.16515],[-95.88052,41.15987],[-95.15585,41.15924],[-95.15472,41.50521],[-95.99617,41.50696],[-96.00733,41.49763],[-96.01599,41.49266],[-96.01982,41.48803]]]}},{"type":"Feature","id":"19157","properties":{"geoid":"19157","name":"Poweshiek","displayName":"Poweshiek County","state":"IA","stateName":"Iowa","type":"County or equivalent","lsad":"06","sourceType":"county"},"geometry":{"type":"Polygon","coordinates":[[[-92.76653,41.62332],[-92.76676,41.60136],[-92.75707,41.60141],[-92.75651,41.50879],[-92.29749,41.50979],[-92.29995,41.68904],[-92.29816,41.86278],[-92.766,41.86237],[-92.76653,41.62332]]]}},{"type":"Feature","id":"19159","properties":{"geoid":"19159","name":"Ringgold","displayName":"Ringgold County","state":"IA","stateName":"Iowa","type":"County or equivalent","lsad":"06","sourceType":"county"},"geometry":{"type":"Polygon","coordinates":[[[-94.47167,40.81254],[-94.47121,40.57082],[-94.01549,40.57391],[-94.0148,40.89703],[-94.47078,40.8995],[-94.47167,40.81254]]]}},{"type":"Feature","id":"19161","properties":{"geoid":"19161","name":"Sac","displayName":"Sac County","state":"IA","stateName":"Iowa","type":"County or equivalent","lsad":"06","sourceType":"county"},"geometry":{"type":"Polygon","coordinates":[[[-95.38801,42.56174],[-95.38744,42.47482],[-95.32236,42.47474],[-95.3235,42.21093],[-94.85841,42.20969],[-94.85669,42.474],[-94.91449,42.47419],[-94.91448,42.56031],[-95.38801,42.56174]]]}},{"type":"Feature","id":"19163","properties":{"geoid":"19163","name":"Scott","displayName":"Scott County","state":"IA","stateName":"Iowa","type":"County or equivalent","lsad":"06","sourceType":"county"},"geometry":{"type":"Polygon","coordinates":[[[-90.8998,41.5986],[-90.89985,41.59713],[-90.88922,41.59689],[-90.78381,41.59653],[-90.78628,41.45289],[-90.77167,41.45076],[-90.73754,41.45013],[-90.70116,41.45474],[-90.67644,41.46083],[-90.65584,41.46213],[-90.63254,41.47873],[-90.61854,41.48503],[-90.60594,41.49423],[-90.60214,41.50603],[-90.59104,41.51283],[-90.56724,41.51753],[-90.55624,41.52423],[-90.54094,41.52613],[-90.50063,41.51803],[-90.47433,41.51973],[-90.46143,41.52353],[-90.44523,41.53613],[-90.43273,41.54953],[-90.42223,41.55423],[-90.41283,41.56533],[-90.39793,41.57223],[-90.36413,41.57963],[-90.34323,41.58783],[-90.33953,41.59863],[-90.34345,41.64696],[-90.33673,41.66453],[-90.33452,41.67956],[-90.33022,41.68395],[-90.31732,41.69167],[-90.31344,41.69808],[-90.31289,41.70753],[-90.31742,41.71833],[-90.31636,41.72888],[-90.32365,41.73348],[-90.3289,41.73442],[-90.33387,41.7394],[-90.33995,41.74052],[-90.34257,41.73936],[-90.34773,41.73005],[-90.35495,41.73199],[-90.3578,41.73128],[-90.35752,41.72778],[-90.365,41.72794],[-90.37451,41.73427],[-90.38964,41.73695],[-90.39035,41.73434],[-90.38824,41.73231],[-90.38959,41.73057],[-90.39697,41.7337],[-90.40363,41.72961],[-90.40903,41.72962],[-90.41019,41.73302],[-90.40646,41.7341],[-90.40625,41.73568],[-90.41104,41.73771],[-90.41211,41.74096],[-90.42481,41.73611],[-90.42802,41.73662],[-90.4231,41.74057],[-90.42746,41.74446],[-90.42416,41.7491],[-90.42499,41.7517],[-90.43309,41.75589],[-90.43571,41.76005],[-90.43721,41.76062],[-90.44017,41.75858],[-90.44933,41.76483],[-90.45929,41.75803],[-90.46518,41.75904],[-90.46833,41.76279],[-90.46888,41.76617],[-90.46726,41.76887],[-90.47053,41.7731],[-90.47362,41.77346],[-90.48378,41.76884],[-90.48394,41.76678],[-90.49579,41.76589],[-90.5043,41.76764],[-90.50665,41.76948],[-90.51279,41.76534],[-90.51523,41.7693],[-90.5218,41.77108],[-90.52318,41.7728],[-90.52791,41.773],[-90.52797,41.77531],[-90.53734,41.77644],[-90.54282,41.76592],[-90.54871,41.76924],[-90.54999,41.76894],[-90.54987,41.76347],[-90.55326,41.76462],[-90.55964,41.76363],[-90.56476,41.76583],[-90.56648,41.76233],[-90.57058,41.76357],[-90.57956,41.75922],[-90.58469,41.76345],[-90.58903,41.76441],[-90.58919,41.76994],[-90.59242,41.77064],[-90.59709,41.76761],[-90.60008,41.76299],[-90.61126,41.76397],[-90.61284,41.7582],[-90.61553,41.75656],[-90.62363,41.76364],[-90.63068,41.76535],[-90.63383,41.7619],[-90.64238,41.76154],[-90.64513,41.75754],[-90.65145,41.75542],[-90.65612,41.75784],[-90.65744,41.76408],[-90.66116,41.76539],[-90.66785,41.76447],[-90.67662,41.76064],[-90.67756,41.75803],[-90.67634,41.75565],[-90.68175,41.75455],[-90.68608,41.75714],[-90.68746,41.75565],[-90.68688,41.75247],[-90.69314,41.75064],[-90.69434,41.74893],[-90.69153,41.74612],[-90.69164,41.74313],[-90.69754,41.74303],[-90.70214,41.73773],[-90.70509,41.73757],[-90.70704,41.74025],[-90.7111,41.73973],[-90.7139,41.73458],[-90.72234,41.737],[-90.72619,41.74231],[-90.73159,41.73741],[-90.73615,41.74057],[-90.74364,41.74153],[-90.74933,41.74444],[-90.75303,41.749],[-90.75297,41.75298],[-90.75502,41.75661],[-90.75993,41.75925],[-90.76188,41.76282],[-90.77147,41.76577],[-90.77346,41.76785],[-90.78369,41.76822],[-90.78621,41.77137],[-90.89837,41.77139],[-90.8998,41.5986]]]}},{"type":"Feature","id":"19165","properties":{"geoid":"19165","name":"Shelby","displayName":"Shelby County","state":"IA","stateName":"Iowa","type":"County or equivalent","lsad":"06","sourceType":"county"},"geometry":{"type":"Polygon","coordinates":[[[-95.55795,41.61687],[-95.55814,41.60238],[-95.49779,41.60233],[-95.498,41.50607],[-95.04077,41.50469],[-95.04075,41.60215],[-95.09252,41.60206],[-95.09286,41.86337],[-95.55728,41.86345],[-95.55795,41.61687]]]}},{"type":"Feature","id":"19167","properties":{"geoid":"19167","name":"Sioux","displayName":"Sioux County","state":"IA","stateName":"Iowa","type":"County or equivalent","lsad":"06","sourceType":"county"},"geometry":{"type":"Polygon","coordinates":[[[-96.57119,43.23896],[-96.5685,43.23155],[-96.56044,43.22422],[-96.55494,43.22678],[-96.54009,43.2257],[-96.53574,43.22764],[-96.52686,43.22407],[-96.51927,43.21769],[-96.50076,43.22077],[-96.49645,43.22365],[-96.48526,43.22418],[-96.47557,43.22105],[-96.47063,43.20722],[-96.47378,43.19877],[-96.47383,43.1898],[-96.4724,43.18564],[-96.46715,43.1845],[-96.4649,43.18203],[-96.46729,43.16407],[-96.46654,43.15028],[-96.45998,43.14352],[-96.45554,43.14416],[-96.45036,43.14224],[-96.44343,43.13382],[-96.4408,43.12313],[-96.43659,43.12084],[-96.43934,43.11392],[-96.45188,43.10047],[-96.46052,43.09494],[-96.46286,43.09142],[-96.46264,43.08961],[-96.45534,43.08813],[-96.45409,43.0842],[-96.45521,43.07505],[-96.46085,43.06403],[-96.46821,43.06186],[-96.47316,43.06355],[-96.4769,43.06238],[-96.48672,43.0555],[-96.49036,43.05079],[-96.50175,43.04863],[-96.51026,43.04992],[-96.51843,43.04207],[-96.51575,43.03939],[-96.5116,43.03993],[-96.50914,43.0373],[-96.51292,43.02996],[-96.511,43.0247],[-96.50321,43.0198],[-96.49919,43.01921],[-96.49167,43.00971],[-96.49269,43.00509],[-96.4967,42.99881],[-96.50999,42.99513],[-96.51289,42.99142],[-96.51224,42.98594],[-96.51672,42.98146],[-96.52077,42.98038],[-96.52025,42.97764],[-96.51592,42.97289],[-96.50503,42.97084],[-96.50031,42.95939],[-96.50486,42.95466],[-96.50947,42.94515],[-96.51489,42.94367],[-96.51999,42.93976],[-96.52012,42.93818],[-96.51642,42.93544],[-96.51689,42.93251],[-96.51938,42.93199],[-96.52118,42.93485],[-96.52554,42.93551],[-96.5411,42.9245],[-96.54163,42.92068],[-96.53735,42.90879],[-96.01678,42.91015],[-95.85938,42.9091],[-95.86191,43.25757],[-96.03916,43.25889],[-96.09806,43.2574],[-96.26578,43.25744],[-96.55496,43.26],[-96.55259,43.25777],[-96.55296,43.24728],[-96.56525,43.24424],[-96.57119,43.23896]]]}},{"type":"Feature","id":"19169","properties":{"geoid":"19169","name":"Story","displayName":"Story County","state":"IA","stateName":"Iowa","type":"County or equivalent","lsad":"06","sourceType":"county"},"geometry":{"type":"Polygon","coordinates":[[[-93.69871,42.04178],[-93.69803,41.86337],[-93.23186,41.86271],[-93.23201,42.20901],[-93.69839,42.20934],[-93.69871,42.04178]]]}},{"type":"Feature","id":"19171","properties":{"geoid":"19171","name":"Tama","displayName":"Tama County","state":"IA","stateName":"Iowa","type":"County or equivalent","lsad":"06","sourceType":"county"},"geometry":{"type":"Polygon","coordinates":[[[-92.76809,42.29668],[-92.766,41.86237],[-92.29816,41.86278],[-92.29727,41.97854],[-92.29913,42.0795],[-92.29879,42.29753],[-92.76809,42.29668]]]}},{"type":"Feature","id":"19173","properties":{"geoid":"19173","name":"Taylor","displayName":"Taylor County","state":"IA","stateName":"Iowa","type":"County or equivalent","lsad":"06","sourceType":"county"},"geometry":{"type":"Polygon","coordinates":[[[-94.92894,40.75074],[-94.92853,40.7274],[-94.91312,40.72728],[-94.9149,40.57507],[-94.63203,40.57119],[-94.47121,40.57082],[-94.47078,40.8995],[-94.92846,40.90065],[-94.92894,40.75074]]]}},{"type":"Feature","id":"19175","properties":{"geoid":"19175","name":"Union","displayName":"Union County","state":"IA","stateName":"Iowa","type":"County or equivalent","lsad":"06","sourceType":"county"},"geometry":{"type":"Polygon","coordinates":[[[-94.47101,41.04705],[-94.47078,40.8995],[-94.0148,40.89703],[-94.01419,41.15676],[-94.4706,41.15757],[-94.47101,41.04705]]]}},{"type":"Feature","id":"19177","properties":{"geoid":"19177","name":"Van Buren","displayName":"Van Buren County","state":"IA","stateName":"Iowa","type":"County or equivalent","lsad":"06","sourceType":"county"},"geometry":{"type":"Polygon","coordinates":[[[-92.17978,40.60878],[-92.17978,40.60053],[-91.94771,40.60547],[-91.72912,40.61364],[-91.71677,40.59853],[-91.71821,40.6386],[-91.71818,40.90109],[-92.17907,40.89972],[-92.17818,40.68282],[-92.17978,40.60878]]]}},{"type":"Feature","id":"19179","properties":{"geoid":"19179","name":"Wapello","displayName":"Wapello County","state":"IA","stateName":"Iowa","type":"County or equivalent","lsad":"06","sourceType":"county"},"geometry":{"type":"Polygon","coordinates":[[[-92.64038,41.1614],[-92.63909,40.89889],[-92.17907,40.89972],[-92.17997,41.16266],[-92.64038,41.1614]]]}},{"type":"Feature","id":"19181","properties":{"geoid":"19181","name":"Warren","displayName":"Warren County","state":"IA","stateName":"Iowa","type":"County or equivalent","lsad":"06","sourceType":"county"},"geometry":{"type":"Polygon","coordinates":[[[-93.79065,41.46502],[-93.7892,41.16204],[-93.32789,41.16066],[-93.32841,41.49079],[-93.33506,41.4874],[-93.33934,41.48272],[-93.34381,41.48184],[-93.34793,41.4843],[-93.35253,41.49689],[-93.35604,41.49816],[-93.35908,41.49634],[-93.35836,41.48976],[-93.36349,41.48658],[-93.37203,41.48607],[-93.37481,41.49329],[-93.38381,41.4948],[-93.38783,41.49378],[-93.39238,41.48839],[-93.39717,41.48636],[-93.40467,41.48674],[-93.40546,41.48977],[-93.39887,41.49256],[-93.39663,41.4963],[-93.3972,41.49985],[-93.40014,41.50201],[-93.40445,41.50161],[-93.40978,41.49501],[-93.41426,41.49236],[-93.42062,41.49253],[-93.42258,41.49499],[-93.41539,41.50031],[-93.41335,41.50412],[-93.41384,41.50742],[-93.42488,41.50749],[-93.42768,41.50505],[-93.4367,41.50228],[-93.44023,41.50256],[-93.44206,41.50457],[-93.44129,41.50759],[-93.54824,41.51131],[-93.79061,41.51192],[-93.79065,41.46502]]]}},{"type":"Feature","id":"19183","properties":{"geoid":"19183","name":"Washington","displayName":"Washington County","state":"IA","stateName":"Iowa","type":"County or equivalent","lsad":"06","sourceType":"county"},"geometry":{"type":"Polygon","coordinates":[[[-91.94682,41.35208],[-91.94476,41.24038],[-91.94557,41.16358],[-91.83154,41.16153],[-91.60085,41.16356],[-91.48572,41.1624],[-91.48386,41.42729],[-91.49071,41.44043],[-91.50282,41.44936],[-91.49865,41.45344],[-91.49877,41.45921],[-91.51587,41.46792],[-91.51338,41.47596],[-91.5021,41.47745],[-91.50257,41.48517],[-91.50137,41.48773],[-91.50374,41.49336],[-91.50657,41.49274],[-91.51067,41.49469],[-91.51079,41.49737],[-91.50649,41.50075],[-91.50809,41.50283],[-91.51676,41.49683],[-91.51968,41.49833],[-91.51899,41.50258],[-91.52712,41.50689],[-91.52809,41.50861],[-91.52612,41.50997],[-91.51983,41.51101],[-91.94604,41.51075],[-91.94682,41.35208]]]}},{"type":"Feature","id":"19185","properties":{"geoid":"19185","name":"Wayne","displayName":"Wayne County","state":"IA","stateName":"Iowa","type":"County or equivalent","lsad":"06","sourceType":"county"},"geometry":{"type":"Polygon","coordinates":[[[-93.55695,40.81236],[-93.5569,40.58024],[-93.26061,40.5808],[-93.0973,40.58401],[-93.0976,40.89845],[-93.55654,40.89829],[-93.55695,40.81236]]]}},{"type":"Feature","id":"19187","properties":{"geoid":"19187","name":"Webster","displayName":"Webster County","state":"IA","stateName":"Iowa","type":"County or equivalent","lsad":"06","sourceType":"county"},"geometry":{"type":"Polygon","coordinates":[[[-94.44344,42.61652],[-94.44303,42.47338],[-94.39767,42.4733],[-94.39756,42.20912],[-93.93158,42.20991],[-93.93168,42.47201],[-93.9716,42.47208],[-93.97171,42.64471],[-94.44308,42.64516],[-94.44344,42.61652]]]}},{"type":"Feature","id":"19189","properties":{"geoid":"19189","name":"Winnebago","displayName":"Winnebago County","state":"IA","stateName":"Iowa","type":"County or equivalent","lsad":"06","sourceType":"county"},"geometry":{"type":"Polygon","coordinates":[[[-93.97076,43.49988],[-93.97042,43.25536],[-93.49764,43.25547],[-93.49735,43.49959],[-93.97076,43.49988]]]}},{"type":"Feature","id":"19191","properties":{"geoid":"19191","name":"Winneshiek","displayName":"Winneshiek County","state":"IA","stateName":"Iowa","type":"County or equivalent","lsad":"06","sourceType":"county"},"geometry":{"type":"Polygon","coordinates":[[[-92.08118,43.16923],[-92.08115,43.08279],[-91.60531,43.08165],[-91.60399,43.34205],[-91.61105,43.34208],[-91.61084,43.50065],[-92.0798,43.50073],[-92.08118,43.16923]]]}},{"type":"Feature","id":"19193","properties":{"geoid":"19193","name":"Woodbury","displayName":"Woodbury County","state":"IA","stateName":"Iowa","type":"County or equivalent","lsad":"06","sourceType":"county"},"geometry":{"type":"Polygon","coordinates":[[[-96.49878,42.56104],[-96.49854,42.55812],[-96.49554,42.55644],[-96.47695,42.55608],[-96.47771,42.5356],[-96.47991,42.5242],[-96.4908,42.52033],[-96.49297,42.51728],[-96.49009,42.51244],[-96.48359,42.51034],[-96.47938,42.51114],[-96.47334,42.50354],[-96.4779,42.49435],[-96.47541,42.48962],[-96.45575,42.49256],[-96.40941,42.4876],[-96.39611,42.4841],[-96.38541,42.47309],[-96.38131,42.46169],[-96.38071,42.44639],[-96.38761,42.43249],[-96.41361,42.40789],[-96.41551,42.40029],[-96.41498,42.39344],[-96.40915,42.38149],[-96.40844,42.37609],[-96.41709,42.36144],[-96.41817,42.35468],[-96.4139,42.34339],[-96.408,42.33741],[-96.38417,42.32587],[-96.37531,42.31834],[-96.36921,42.30834],[-96.36845,42.29185],[-96.36579,42.28588],[-96.35639,42.27648],[-96.34145,42.26912],[-96.336,42.26481],[-96.3289,42.25473],[-96.32771,42.24999],[-96.33,42.24022],[-96.32287,42.23364],[-96.32372,42.22989],[-96.33632,42.21892],[-96.35656,42.215],[-96.01988,42.21169],[-95.67082,42.21141],[-95.66926,42.47464],[-95.74182,42.47486],[-95.74161,42.56128],[-96.40775,42.56216],[-96.49878,42.56104]]]}},{"type":"Feature","id":"19195","properties":{"geoid":"19195","name":"Worth","displayName":"Worth County","state":"IA","stateName":"Iowa","type":"County or equivalent","lsad":"06","sourceType":"county"},"geometry":{"type":"Polygon","coordinates":[[[-93.4976,43.40923],[-93.49764,43.25547],[-93.02414,43.25554],[-93.02435,43.49968],[-93.49735,43.49959],[-93.4976,43.40923]]]}},{"type":"Feature","id":"19197","properties":{"geoid":"19197","name":"Wright","displayName":"Wright County","state":"IA","stateName":"Iowa","type":"County or equivalent","lsad":"06","sourceType":"county"},"geometry":{"type":"Polygon","coordinates":[[[-93.97175,42.69904],[-93.97158,42.55814],[-93.49948,42.5577],[-93.49862,42.90851],[-93.97124,42.90776],[-93.97175,42.69904]]]}}]}