{"type":"FeatureCollection","features":[{"type":"Feature","id":"20001","properties":{"geoid":"20001","name":"Allen","displayName":"Allen County","state":"KS","stateName":"Kansas","type":"County or equivalent","lsad":"06","sourceType":"county"},"geometry":{"type":"Polygon","coordinates":[[[-95.52522,37.74734],[-95.5255,37.73276],[-95.23396,37.73253],[-95.16958,37.73282],[-95.16076,37.73418],[-95.08808,37.73248],[-95.08794,37.8197],[-95.07969,37.8198],[-95.07788,38.03771],[-95.51897,38.03823],[-95.51909,37.82782],[-95.51931,37.82026],[-95.52486,37.82028],[-95.52522,37.74734]]]}},{"type":"Feature","id":"20003","properties":{"geoid":"20003","name":"Anderson","displayName":"Anderson County","state":"KS","stateName":"Kansas","type":"County or equivalent","lsad":"06","sourceType":"county"},"geometry":{"type":"Polygon","coordinates":[[[-95.51873,38.10372],[-95.51897,38.03823],[-95.07788,38.03771],[-95.07546,38.25871],[-95.0651,38.25865],[-95.06583,38.38994],[-95.50833,38.39028],[-95.50747,38.25925],[-95.51676,38.2593],[-95.51873,38.10372]]]}},{"type":"Feature","id":"20005","properties":{"geoid":"20005","name":"Atchison","displayName":"Atchison County","state":"KS","stateName":"Kansas","type":"County or equivalent","lsad":"06","sourceType":"county"},"geometry":{"type":"Polygon","coordinates":[[[-95.57026,39.47701],[-95.57035,39.41905],[-95.46005,39.42092],[-95.22698,39.41903],[-94.96885,39.41907],[-94.97295,39.42171],[-94.97661,39.4267],[-94.9788,39.43624],[-94.98214,39.44055],[-94.99017,39.44619],[-95.01582,39.45281],[-95.03341,39.46088],[-95.04078,39.46639],[-95.04713,39.47497],[-95.04984,39.49441],[-95.05218,39.5],[-95.05946,39.50614],[-95.08271,39.51671],[-95.1066,39.53766],[-95.11356,39.55394],[-95.11308,39.55913],[-95.10641,39.57525],[-95.09574,39.58062],[-95.08952,39.58103],[-95.07216,39.57612],[-95.05952,39.57913],[-95.0548,39.58249],[-95.04928,39.58958],[-95.04644,39.60161],[-95.05339,39.61532],[-95.08544,39.61507],[-95.08693,39.62074],[-95.09801,39.62087],[-95.10076,39.62489],[-95.09991,39.627],[-95.09707,39.62812],[-95.09895,39.63482],[-95.10701,39.63659],[-95.11281,39.64336],[-95.11433,39.64355],[-95.11526,39.64054],[-95.11519,39.65255],[-95.56413,39.65287],[-95.56431,39.56586],[-95.57035,39.56587],[-95.57026,39.47701]]]}},{"type":"Feature","id":"20007","properties":{"geoid":"20007","name":"Barber","displayName":"Barber County","state":"KS","stateName":"Kansas","type":"County or equivalent","lsad":"06","sourceType":"county"},"geometry":{"type":"Polygon","coordinates":[[[-99.0126,37.47042],[-99.0115,37.38426],[-99.00129,37.3843],[-99.00243,37.25002],[-99.0003,36.99951],[-98.34715,36.99796],[-98.3498,37.38406],[-98.46495,37.38409],[-98.46466,37.47101],[-99.0126,37.47042]]]}},{"type":"Feature","id":"20009","properties":{"geoid":"20009","name":"Barton","displayName":"Barton County","state":"KS","stateName":"Kansas","type":"County or equivalent","lsad":"06","sourceType":"county"},"geometry":{"type":"Polygon","coordinates":[[[-99.0327,38.43501],[-99.03231,38.26123],[-98.47984,38.26079],[-98.47996,38.69692],[-99.03297,38.69676],[-99.0327,38.43501]]]}},{"type":"Feature","id":"20011","properties":{"geoid":"20011","name":"Bourbon","displayName":"Bourbon County","state":"KS","stateName":"Kansas","type":"County or equivalent","lsad":"06","sourceType":"county"},"geometry":{"type":"Polygon","coordinates":[[[-95.08808,37.73248],[-95.08801,37.67452],[-94.61773,37.67311],[-94.61772,37.77297],[-94.61398,38.03706],[-95.07788,38.03771],[-95.07969,37.8198],[-95.08794,37.8197],[-95.08808,37.73248]]]}},{"type":"Feature","id":"20013","properties":{"geoid":"20013","name":"Brown","displayName":"Brown County","state":"KS","stateName":"Kansas","type":"County or equivalent","lsad":"06","sourceType":"county"},"geometry":{"type":"Polygon","coordinates":[[[-95.78898,39.76957],[-95.78894,39.653],[-95.33974,39.65298],[-95.3399,40.0],[-95.78811,40.00045],[-95.78898,39.76957]]]}},{"type":"Feature","id":"20015","properties":{"geoid":"20015","name":"Butler","displayName":"Butler County","state":"KS","stateName":"Kansas","type":"County or equivalent","lsad":"06","sourceType":"county"},"geometry":{"type":"Polygon","coordinates":[[[-97.15345,37.82517],[-97.15333,37.47554],[-96.52569,37.4764],[-96.52594,37.79929],[-96.52278,38.08637],[-96.93213,38.08577],[-97.15291,38.0877],[-97.15214,37.82518],[-97.15345,37.82517]]]}},{"type":"Feature","id":"20017","properties":{"geoid":"20017","name":"Chase","displayName":"Chase County","state":"KS","stateName":"Kansas","type":"County or equivalent","lsad":"06","sourceType":"county"},"geometry":{"type":"Polygon","coordinates":[[[-96.84097,38.23083],[-96.84077,38.08562],[-96.3581,38.08582],[-96.35378,38.52166],[-96.81951,38.52245],[-96.81948,38.3485],[-96.83765,38.34864],[-96.83698,38.26215],[-96.84093,38.26128],[-96.84097,38.23083]]]}},{"type":"Feature","id":"20019","properties":{"geoid":"20019","name":"Chautauqua","displayName":"Chautauqua County","state":"KS","stateName":"Kansas","type":"County or equivalent","lsad":"06","sourceType":"county"},"geometry":{"type":"Polygon","coordinates":[[[-96.52546,37.09527],[-96.52558,36.99871],[-95.96427,36.99909],[-95.9644,37.29923],[-96.52487,37.30273],[-96.52546,37.09527]]]}},{"type":"Feature","id":"20021","properties":{"geoid":"20021","name":"Cherokee","displayName":"Cherokee County","state":"KS","stateName":"Kansas","type":"County or equivalent","lsad":"06","sourceType":"county"},"geometry":{"type":"Polygon","coordinates":[[[-95.07525,37.29601],[-95.07351,36.99951],[-94.61796,36.9989],[-94.61764,37.33842],[-95.07517,37.33994],[-95.07525,37.29601]]]}},{"type":"Feature","id":"20023","properties":{"geoid":"20023","name":"Cheyenne","displayName":"Cheyenne County","state":"KS","stateName":"Kansas","type":"County or equivalent","lsad":"06","sourceType":"county"},"geometry":{"type":"Polygon","coordinates":[[[-102.05174,40.00308],[-102.04976,39.56818],[-101.41391,39.56836],[-101.41104,40.00236],[-102.05174,40.00308]]]}},{"type":"Feature","id":"20025","properties":{"geoid":"20025","name":"Clark","displayName":"Clark County","state":"KS","stateName":"Kansas","type":"County or equivalent","lsad":"06","sourceType":"county"},"geometry":{"type":"Polygon","coordinates":[[[-100.10725,37.47484],[-100.10742,37.38709],[-100.09153,37.38689],[-100.09117,37.12454],[-100.08948,37.00209],[-99.54112,36.99957],[-99.54474,37.26052],[-99.54319,37.38112],[-99.55577,37.38111],[-99.55612,37.46772],[-99.73822,37.46729],[-100.10725,37.47484]]]}},{"type":"Feature","id":"20027","properties":{"geoid":"20027","name":"Clay","displayName":"Clay County","state":"KS","stateName":"Kansas","type":"County or equivalent","lsad":"06","sourceType":"county"},"geometry":{"type":"Polygon","coordinates":[[[-97.37097,39.15695],[-97.37115,39.13196],[-97.19871,39.13351],[-96.96138,39.13232],[-96.96094,39.41611],[-96.95872,39.56643],[-97.36857,39.56702],[-97.37097,39.15695]]]}},{"type":"Feature","id":"20029","properties":{"geoid":"20029","name":"Cloud","displayName":"Cloud County","state":"KS","stateName":"Kansas","type":"County or equivalent","lsad":"06","sourceType":"county"},"geometry":{"type":"Polygon","coordinates":[[[-97.93196,39.59377],[-97.93184,39.56692],[-97.92846,39.56692],[-97.9291,39.3064],[-97.36984,39.30601],[-97.36867,39.65404],[-97.93148,39.65377],[-97.93196,39.59377]]]}},{"type":"Feature","id":"20031","properties":{"geoid":"20031","name":"Coffey","displayName":"Coffey County","state":"KS","stateName":"Kansas","type":"County or equivalent","lsad":"06","sourceType":"county"},"geometry":{"type":"Polygon","coordinates":[[[-95.95856,38.15626],[-95.95905,38.04019],[-95.51897,38.03823],[-95.51676,38.2593],[-95.50747,38.25925],[-95.50827,38.43393],[-95.95028,38.43411],[-95.94999,38.25971],[-95.9585,38.25972],[-95.95856,38.15626]]]}},{"type":"Feature","id":"20033","properties":{"geoid":"20033","name":"Comanche","displayName":"Comanche County","state":"KS","stateName":"Kansas","type":"County or equivalent","lsad":"06","sourceType":"county"},"geometry":{"type":"Polygon","coordinates":[[[-99.54474,37.26052],[-99.54112,36.99957],[-99.0003,36.99951],[-99.00243,37.25002],[-99.00129,37.3843],[-99.54319,37.38112],[-99.54474,37.26052]]]}},{"type":"Feature","id":"20035","properties":{"geoid":"20035","name":"Cowley","displayName":"Cowley County","state":"KS","stateName":"Kansas","type":"County or equivalent","lsad":"06","sourceType":"county"},"geometry":{"type":"Polygon","coordinates":[[[-97.15333,37.47554],[-97.14951,37.39072],[-97.15078,37.39074],[-97.15084,37.30371],[-97.14772,36.99911],[-96.52558,36.99871],[-96.52569,37.4764],[-97.15333,37.47554]]]}},{"type":"Feature","id":"20037","properties":{"geoid":"20037","name":"Crawford","displayName":"Crawford County","state":"KS","stateName":"Kansas","type":"County or equivalent","lsad":"06","sourceType":"county"},"geometry":{"type":"Polygon","coordinates":[[[-95.08848,37.55826],[-95.08819,37.38384],[-95.07497,37.38382],[-95.07517,37.33994],[-94.61764,37.33842],[-94.61773,37.67311],[-95.08801,37.67452],[-95.08848,37.55826]]]}},{"type":"Feature","id":"20039","properties":{"geoid":"20039","name":"Decatur","displayName":"Decatur County","state":"KS","stateName":"Kansas","type":"County or equivalent","lsad":"06","sourceType":"county"},"geometry":{"type":"Polygon","coordinates":[[[-100.7411,39.65523],[-100.74087,39.56804],[-100.18035,39.56689],[-100.17779,40.00159],[-100.73883,40.00223],[-100.7411,39.65523]]]}},{"type":"Feature","id":"20041","properties":{"geoid":"20041","name":"Dickinson","displayName":"Dickinson County","state":"KS","stateName":"Kansas","type":"County or equivalent","lsad":"06","sourceType":"county"},"geometry":{"type":"Polygon","coordinates":[[[-97.38121,38.91723],[-97.38121,38.91432],[-97.37212,38.91413],[-97.37191,38.60935],[-96.93029,38.60936],[-96.92974,38.65154],[-96.93392,38.65535],[-96.93041,38.67939],[-96.93041,38.69601],[-96.92737,38.696],[-96.92843,38.71244],[-96.92723,38.81216],[-96.89017,38.81217],[-96.89024,38.87007],[-96.92671,38.87035],[-96.92628,38.97019],[-96.92788,38.97093],[-96.92813,38.97354],[-96.92615,38.97452],[-96.92621,38.97894],[-96.93385,38.97854],[-96.93504,38.97618],[-96.9313,38.9761],[-96.93284,38.97286],[-96.93668,38.97248],[-96.93937,38.97677],[-96.94763,38.9706],[-96.9488,38.97185],[-96.94623,38.97486],[-96.94689,38.97644],[-96.94965,38.97695],[-96.95132,38.97569],[-96.95039,38.97127],[-96.96347,38.9649],[-96.96318,39.1323],[-97.19871,39.13351],[-97.37115,39.13196],[-97.37173,38.92892],[-97.3812,38.9289],[-97.38121,38.91723]]]}},{"type":"Feature","id":"20043","properties":{"geoid":"20043","name":"Doniphan","displayName":"Doniphan County","state":"KS","stateName":"Kansas","type":"County or equivalent","lsad":"06","sourceType":"county"},"geometry":{"type":"Polygon","coordinates":[[[-95.3399,40.0],[-95.33974,39.65298],[-95.11519,39.65255],[-95.11526,39.64054],[-95.11433,39.64355],[-95.11281,39.64336],[-95.10701,39.63659],[-95.09895,39.63482],[-95.09707,39.62812],[-95.09991,39.627],[-95.10076,39.62489],[-95.09801,39.62087],[-95.08693,39.62074],[-95.08544,39.61507],[-95.05339,39.61532],[-95.05492,39.625],[-95.04952,39.63788],[-95.0246,39.66848],[-95.01832,39.67287],[-95.00902,39.67576],[-94.98156,39.67863],[-94.97132,39.68641],[-94.96898,39.69295],[-94.96845,39.7074],[-94.97121,39.7293],[-94.96532,39.73906],[-94.96009,39.74306],[-94.95263,39.74596],[-94.94474,39.74438],[-94.91832,39.72879],[-94.89932,39.72404],[-94.88414,39.72679],[-94.87564,39.73049],[-94.86294,39.74299],[-94.85944,39.75369],[-94.86074,39.76309],[-94.86524,39.77009],[-94.86964,39.77289],[-94.88146,39.77126],[-94.89916,39.76126],[-94.91229,39.75934],[-94.92623,39.76649],[-94.9353,39.77561],[-94.93521,39.78313],[-94.92965,39.78828],[-94.9256,39.78975],[-94.89296,39.7911],[-94.88408,39.79423],[-94.88093,39.79734],[-94.87634,39.80689],[-94.87594,39.81329],[-94.87704,39.82375],[-94.88101,39.82892],[-94.88693,39.8331],[-94.91692,39.83614],[-94.93977,39.85193],[-94.94257,39.8566],[-94.94241,39.86107],[-94.93879,39.86695],[-94.92847,39.87634],[-94.92725,39.88026],[-94.9279,39.88611],[-94.93449,39.89337],[-94.94387,39.89813],[-94.95928,39.90167],[-94.98698,39.89667],[-95.00382,39.9004],[-95.01315,39.89995],[-95.01874,39.89737],[-95.02524,39.8897],[-95.02542,39.87671],[-95.02793,39.87152],[-95.03777,39.86554],[-95.08153,39.86172],[-95.09016,39.86314],[-95.10591,39.86916],[-95.12817,39.87416],[-95.13709,39.87835],[-95.14272,39.88589],[-95.1438,39.90192],[-95.14966,39.90595],[-95.15983,39.90698],[-95.17945,39.90006],[-95.19382,39.90069],[-95.20194,39.90405],[-95.2062,39.90956],[-95.20574,39.91517],[-95.20069,39.92815],[-95.20128,39.93419],[-95.20443,39.93895],[-95.21644,39.94395],[-95.23676,39.94393],[-95.25025,39.94864],[-95.25765,39.95489],[-95.26989,39.9694],[-95.30251,39.98436],[-95.30778,39.99062],[-95.30829,40.0],[-95.3399,40.0]]]}},{"type":"Feature","id":"20045","properties":{"geoid":"20045","name":"Douglas","displayName":"Douglas County","state":"KS","stateName":"Kansas","type":"County or equivalent","lsad":"06","sourceType":"county"},"geometry":{"type":"Polygon","coordinates":[[[-95.5014,39.02951],[-95.50025,38.9859],[-95.50074,38.73881],[-95.05641,38.73859],[-95.05626,38.98212],[-95.06071,38.98562],[-95.06876,38.9871],[-95.07999,38.98422],[-95.08669,38.98022],[-95.0868,38.97433],[-95.07445,38.96437],[-95.07644,38.95983],[-95.08523,38.95384],[-95.10086,38.95622],[-95.10454,38.95907],[-95.10753,38.96667],[-95.11091,38.96934],[-95.12036,38.97016],[-95.12689,38.9677],[-95.13969,38.96939],[-95.16412,38.98163],[-95.1665,38.97591],[-95.16486,38.97152],[-95.16954,38.96647],[-95.18619,38.96454],[-95.1871,39.04411],[-95.27475,39.0441],[-95.27958,39.0472],[-95.28565,39.0454],[-95.28225,39.037],[-95.28285,39.0333],[-95.28542,39.03216],[-95.28507,39.03583],[-95.29185,39.0415],[-95.29795,39.0423],[-95.31505,39.0347],[-95.32819,39.03168],[-95.34073,39.03171],[-95.34965,39.03323],[-95.35203,39.03508],[-95.35835,39.03526],[-95.38989,39.04987],[-95.40319,39.06126],[-95.41944,39.0672],[-95.43067,39.0693],[-95.45666,39.06826],[-95.48877,39.05477],[-95.49382,39.05395],[-95.50025,39.05666],[-95.5014,39.02951]]]}},{"type":"Feature","id":"20047","properties":{"geoid":"20047","name":"Edwards","displayName":"Edwards County","state":"KS","stateName":"Kansas","type":"County or equivalent","lsad":"06","sourceType":"county"},"geometry":{"type":"Polygon","coordinates":[[[-99.56988,37.91302],[-99.57058,37.82563],[-99.56027,37.82559],[-99.55958,37.73489],[-99.01355,37.73297],[-99.01332,37.82534],[-99.02263,37.82536],[-99.02214,38.00024],[-99.35029,38.00074],[-99.35036,38.08759],[-99.56953,38.08737],[-99.56988,37.91302]]]}},{"type":"Feature","id":"20049","properties":{"geoid":"20049","name":"Elk","displayName":"Elk County","state":"KS","stateName":"Kansas","type":"County or equivalent","lsad":"06","sourceType":"county"},"geometry":{"type":"Polygon","coordinates":[[[-96.52633,37.50002],[-96.52487,37.30273],[-95.9644,37.29923],[-95.96467,37.38666],[-95.9616,37.38664],[-95.96254,37.50208],[-95.961,37.60376],[-96.5253,37.60701],[-96.52633,37.50002]]]}},{"type":"Feature","id":"20051","properties":{"geoid":"20051","name":"Ellis","displayName":"Ellis County","state":"KS","stateName":"Kansas","type":"County or equivalent","lsad":"06","sourceType":"county"},"geometry":{"type":"Polygon","coordinates":[[[-99.59771,38.72543],[-99.59832,38.69651],[-99.04263,38.69681],[-99.03926,38.85723],[-99.0375,39.13312],[-99.59178,39.13236],[-99.59771,38.72543]]]}},{"type":"Feature","id":"20053","properties":{"geoid":"20053","name":"Ellsworth","displayName":"Ellsworth County","state":"KS","stateName":"Kansas","type":"County or equivalent","lsad":"06","sourceType":"county"},"geometry":{"type":"Polygon","coordinates":[[[-98.48554,38.78395],[-98.48611,38.69688],[-98.47996,38.69692],[-98.48038,38.52184],[-97.92427,38.52275],[-97.92516,38.69682],[-97.92846,38.69697],[-97.92859,38.8711],[-98.48486,38.87079],[-98.48554,38.78395]]]}},{"type":"Feature","id":"20055","properties":{"geoid":"20055","name":"Finney","displayName":"Finney County","state":"KS","stateName":"Kansas","type":"County or equivalent","lsad":"06","sourceType":"county"},"geometry":{"type":"Polygon","coordinates":[[[-101.103,37.97744],[-101.10378,37.82903],[-101.08989,37.82912],[-101.08967,37.73634],[-100.65225,37.73628],[-100.65175,37.82871],[-100.66517,37.82883],[-100.66417,38.00253],[-100.44549,38.0007],[-100.22661,38.00102],[-100.22503,38.15195],[-100.22714,38.26224],[-100.90461,38.2652],[-101.10327,38.26456],[-101.103,37.97744]]]}},{"type":"Feature","id":"20057","properties":{"geoid":"20057","name":"Ford","displayName":"Ford County","state":"KS","stateName":"Kansas","type":"County or equivalent","lsad":"06","sourceType":"county"},"geometry":{"type":"Polygon","coordinates":[[[-100.22732,37.8559],[-100.22742,37.82684],[-100.21464,37.82681],[-100.21623,37.47519],[-100.10725,37.47484],[-99.73822,37.46729],[-99.55612,37.46772],[-99.56027,37.82559],[-99.57058,37.82563],[-99.56988,37.91302],[-100.22709,37.91402],[-100.22732,37.8559]]]}},{"type":"Feature","id":"20059","properties":{"geoid":"20059","name":"Franklin","displayName":"Franklin County","state":"KS","stateName":"Kansas","type":"County or equivalent","lsad":"06","sourceType":"county"},"geometry":{"type":"Polygon","coordinates":[[[-95.50901,38.65896],[-95.50833,38.39028],[-95.06583,38.38994],[-95.06577,38.6949],[-95.05667,38.6949],[-95.05641,38.73859],[-95.50074,38.73881],[-95.50122,38.69526],[-95.50804,38.69527],[-95.50901,38.65896]]]}},{"type":"Feature","id":"20061","properties":{"geoid":"20061","name":"Geary","displayName":"Geary County","state":"KS","stateName":"Kansas","type":"County or equivalent","lsad":"06","sourceType":"county"},"geometry":{"type":"Polygon","coordinates":[[[-96.96346,38.99445],[-96.96347,38.9649],[-96.95039,38.97127],[-96.95132,38.97569],[-96.94965,38.97695],[-96.94689,38.97644],[-96.94623,38.97486],[-96.9488,38.97185],[-96.94763,38.9706],[-96.93937,38.97677],[-96.93668,38.97248],[-96.93284,38.97286],[-96.9313,38.9761],[-96.93504,38.97618],[-96.93385,38.97854],[-96.92621,38.97894],[-96.92615,38.97452],[-96.92813,38.97354],[-96.92788,38.97093],[-96.92628,38.97019],[-96.92671,38.87035],[-96.50156,38.8697],[-96.50096,39.07268],[-96.70612,39.07308],[-96.70626,39.09116],[-96.71374,39.09007],[-96.72191,39.09138],[-96.7286,39.08761],[-96.73606,39.07996],[-96.74035,39.08223],[-96.74346,39.08196],[-96.74344,39.08766],[-96.85141,39.08818],[-96.85127,39.10074],[-96.83967,39.11558],[-96.83224,39.11964],[-96.83098,39.13923],[-96.84967,39.13928],[-96.84988,39.21901],[-96.96169,39.22008],[-96.96138,39.13232],[-96.96318,39.1323],[-96.96346,38.99445]]]}},{"type":"Feature","id":"20063","properties":{"geoid":"20063","name":"Gove","displayName":"Gove County","state":"KS","stateName":"Kansas","type":"County or equivalent","lsad":"06","sourceType":"county"},"geometry":{"type":"Polygon","coordinates":[[[-100.8188,38.71799],[-100.8187,38.69986],[-100.44906,38.6999],[-100.15382,38.69734],[-100.14794,39.13218],[-100.81186,39.13336],[-100.8188,38.71799]]]}},{"type":"Feature","id":"20065","properties":{"geoid":"20065","name":"Graham","displayName":"Graham County","state":"KS","stateName":"Kansas","type":"County or equivalent","lsad":"06","sourceType":"county"},"geometry":{"type":"Polygon","coordinates":[[[-100.16357,39.24778],[-100.16355,39.13191],[-99.60519,39.13248],[-99.60496,39.2929],[-99.60162,39.48102],[-99.60218,39.56733],[-100.16167,39.56728],[-100.16357,39.24778]]]}},{"type":"Feature","id":"20067","properties":{"geoid":"20067","name":"Grant","displayName":"Grant County","state":"KS","stateName":"Kansas","type":"County or equivalent","lsad":"06","sourceType":"county"},"geometry":{"type":"Polygon","coordinates":[[[-101.52706,37.73631],[-101.52581,37.38839],[-101.08965,37.38772],[-101.08967,37.73634],[-101.52706,37.73631]]]}},{"type":"Feature","id":"20069","properties":{"geoid":"20069","name":"Gray","displayName":"Gray County","state":"KS","stateName":"Kansas","type":"County or equivalent","lsad":"06","sourceType":"county"},"geometry":{"type":"Polygon","coordinates":[[[-100.66495,37.86809],[-100.66517,37.82883],[-100.65175,37.82871],[-100.65264,37.47485],[-100.21623,37.47519],[-100.21464,37.82681],[-100.22742,37.82684],[-100.22661,38.00102],[-100.44549,38.0007],[-100.66417,38.00253],[-100.66495,37.86809]]]}},{"type":"Feature","id":"20071","properties":{"geoid":"20071","name":"Greeley","displayName":"Greeley County","state":"KS","stateName":"Kansas","type":"County or equivalent","lsad":"06","sourceType":"county"},"geometry":{"type":"Polygon","coordinates":[[[-102.04526,38.5054],[-102.04451,38.26241],[-101.56748,38.26314],[-101.56709,38.69967],[-102.04521,38.69757],[-102.04526,38.5054]]]}},{"type":"Feature","id":"20073","properties":{"geoid":"20073","name":"Greenwood","displayName":"Greenwood County","state":"KS","stateName":"Kansas","type":"County or equivalent","lsad":"06","sourceType":"county"},"geometry":{"type":"Polygon","coordinates":[[[-96.52584,37.71543],[-96.5253,37.60701],[-95.961,37.60376],[-95.96141,37.82198],[-95.95813,37.82194],[-95.95886,38.17094],[-96.35728,38.17266],[-96.3581,38.08582],[-96.52278,38.08637],[-96.52584,37.71543]]]}},{"type":"Feature","id":"20075","properties":{"geoid":"20075","name":"Hamilton","displayName":"Hamilton County","state":"KS","stateName":"Kansas","type":"County or equivalent","lsad":"06","sourceType":"county"},"geometry":{"type":"Polygon","coordinates":[[[-102.04464,38.04553],[-102.04199,37.73854],[-101.52706,37.73631],[-101.52696,37.82763],[-101.54276,37.82759],[-101.54116,38.07504],[-101.54231,38.26321],[-102.04451,38.26241],[-102.04464,38.04553]]]}},{"type":"Feature","id":"20077","properties":{"geoid":"20077","name":"Harper","displayName":"Harper County","state":"KS","stateName":"Kansas","type":"County or equivalent","lsad":"06","sourceType":"county"},"geometry":{"type":"Polygon","coordinates":[[[-98.3498,37.38406],[-98.34715,36.99796],[-97.80231,36.99871],[-97.80213,37.21264],[-97.80457,37.3863],[-98.3498,37.38406]]]}},{"type":"Feature","id":"20079","properties":{"geoid":"20079","name":"Harvey","displayName":"Harvey County","state":"KS","stateName":"Kansas","type":"County or equivalent","lsad":"06","sourceType":"county"},"geometry":{"type":"Polygon","coordinates":[[[-97.70216,38.07358],[-97.70197,37.91132],[-97.70184,37.91246],[-97.15248,37.91273],[-97.15309,38.17463],[-97.70184,38.17381],[-97.70216,38.07358]]]}},{"type":"Feature","id":"20081","properties":{"geoid":"20081","name":"Haskell","displayName":"Haskell County","state":"KS","stateName":"Kansas","type":"County or equivalent","lsad":"06","sourceType":"county"},"geometry":{"type":"Polygon","coordinates":[[[-101.09023,37.56199],[-101.08965,37.38772],[-100.65273,37.38763],[-100.65225,37.73628],[-101.08967,37.73634],[-101.09023,37.56199]]]}},{"type":"Feature","id":"20083","properties":{"geoid":"20083","name":"Hodgeman","displayName":"Hodgeman County","state":"KS","stateName":"Kansas","type":"County or equivalent","lsad":"06","sourceType":"county"},"geometry":{"type":"Polygon","coordinates":[[[-100.22714,38.26224],[-100.22503,38.15195],[-100.22709,37.91402],[-99.56988,37.91302],[-99.57049,38.26214],[-100.22714,38.26224]]]}},{"type":"Feature","id":"20085","properties":{"geoid":"20085","name":"Jackson","displayName":"Jackson County","state":"KS","stateName":"Kansas","type":"County or equivalent","lsad":"06","sourceType":"county"},"geometry":{"type":"Polygon","coordinates":[[[-96.03581,39.55435],[-96.03462,39.36904],[-96.03557,39.21652],[-95.58947,39.21608],[-95.5893,39.41909],[-95.57035,39.41905],[-95.57035,39.56587],[-95.56431,39.56586],[-95.56413,39.65287],[-95.78894,39.653],[-95.7891,39.56594],[-96.03595,39.5661],[-96.03581,39.55435]]]}},{"type":"Feature","id":"20087","properties":{"geoid":"20087","name":"Jefferson","displayName":"Jefferson County","state":"KS","stateName":"Kansas","type":"County or equivalent","lsad":"06","sourceType":"county"},"geometry":{"type":"Polygon","coordinates":[[[-95.59835,39.07351],[-95.59676,39.06467],[-95.58234,39.054],[-95.5707,39.0561],[-95.55453,39.06565],[-95.54285,39.0691],[-95.53449,39.06609],[-95.52192,39.06496],[-95.5139,39.06715],[-95.50765,39.06461],[-95.49949,39.05569],[-95.49382,39.05395],[-95.48236,39.05687],[-95.45666,39.06826],[-95.43067,39.0693],[-95.41944,39.0672],[-95.40319,39.06126],[-95.38989,39.04987],[-95.35835,39.03526],[-95.35203,39.03508],[-95.34965,39.03323],[-95.34073,39.03171],[-95.32819,39.03168],[-95.31505,39.0347],[-95.29795,39.0423],[-95.29185,39.0415],[-95.28507,39.03583],[-95.28542,39.03216],[-95.28285,39.0333],[-95.28225,39.037],[-95.28565,39.0454],[-95.27958,39.0472],[-95.27475,39.0441],[-95.1871,39.04411],[-95.18796,39.12891],[-95.18012,39.12889],[-95.18089,39.41922],[-95.46005,39.42092],[-95.5893,39.41909],[-95.5893,39.12916],[-95.59471,39.12928],[-95.59465,39.0819],[-95.59835,39.07351]]]}},{"type":"Feature","id":"20089","properties":{"geoid":"20089","name":"Jewell","displayName":"Jewell County","state":"KS","stateName":"Kansas","type":"County or equivalent","lsad":"06","sourceType":"county"},"geometry":{"type":"Polygon","coordinates":[[[-98.5052,39.56835],[-97.93184,39.56692],[-97.93342,39.82744],[-97.93183,40.00205],[-98.50445,40.00233],[-98.5052,39.56835]]]}},{"type":"Feature","id":"20091","properties":{"geoid":"20091","name":"Johnson","displayName":"Johnson County","state":"KS","stateName":"Kansas","type":"County or equivalent","lsad":"06","sourceType":"county"},"geometry":{"type":"Polygon","coordinates":[[[-95.05636,38.9808],[-95.05641,38.73859],[-94.60951,38.7381],[-94.60762,38.82756],[-94.60752,39.04409],[-94.80333,39.04352],[-94.84248,39.06092],[-94.86775,39.06019],[-94.87642,39.05714],[-94.88357,39.05069],[-94.89114,39.03068],[-94.88843,39.01614],[-94.90876,38.9914],[-94.91749,38.98429],[-94.91943,38.98354],[-94.92175,38.98579],[-94.91624,38.9969],[-94.9199,39.00154],[-94.92335,39.00263],[-94.93192,39.00111],[-94.93892,38.99466],[-94.94055,38.98998],[-94.94439,38.98639],[-94.95654,38.98197],[-94.96488,38.98214],[-94.9716,38.98519],[-94.98036,38.99241],[-95.01406,39.00086],[-95.02182,38.99962],[-95.02464,38.99585],[-95.02604,38.99234],[-95.02364,38.98824],[-95.02451,38.98411],[-95.03055,38.97695],[-95.04067,38.97416],[-95.05626,38.98212],[-95.05636,38.9808]]]}},{"type":"Feature","id":"20093","properties":{"geoid":"20093","name":"Kearny","displayName":"Kearny County","state":"KS","stateName":"Kansas","type":"County or equivalent","lsad":"06","sourceType":"county"},"geometry":{"type":"Polygon","coordinates":[[[-101.54192,37.91458],[-101.54276,37.82759],[-101.52696,37.82763],[-101.52706,37.73631],[-101.08967,37.73634],[-101.08989,37.82912],[-101.10378,37.82903],[-101.10327,38.26456],[-101.54231,38.26321],[-101.54192,37.91458]]]}},{"type":"Feature","id":"20095","properties":{"geoid":"20095","name":"Kingman","displayName":"Kingman County","state":"KS","stateName":"Kansas","type":"County or equivalent","lsad":"06","sourceType":"county"},"geometry":{"type":"Polygon","coordinates":[[[-98.4649,37.6453],[-98.46495,37.38409],[-97.80706,37.38629],[-97.80782,37.73386],[-98.4648,37.73268],[-98.4649,37.6453]]]}},{"type":"Feature","id":"20097","properties":{"geoid":"20097","name":"Kiowa","displayName":"Kiowa County","state":"KS","stateName":"Kansas","type":"County or equivalent","lsad":"06","sourceType":"county"},"geometry":{"type":"Polygon","coordinates":[[[-99.55958,37.73489],[-99.55577,37.38111],[-99.0115,37.38426],[-99.01535,37.64386],[-99.01355,37.73297],[-99.55958,37.73489]]]}},{"type":"Feature","id":"20099","properties":{"geoid":"20099","name":"Labette","displayName":"Labette County","state":"KS","stateName":"Kansas","type":"County or equivalent","lsad":"06","sourceType":"county"},"geometry":{"type":"Polygon","coordinates":[[[-95.52265,37.06351],[-95.52241,36.99928],[-95.07351,36.99951],[-95.07497,37.38382],[-95.52113,37.38399],[-95.51798,37.25902],[-95.52141,37.19375],[-95.52265,37.06351]]]}},{"type":"Feature","id":"20101","properties":{"geoid":"20101","name":"Lane","displayName":"Lane County","state":"KS","stateName":"Kansas","type":"County or equivalent","lsad":"06","sourceType":"county"},"geometry":{"type":"Polygon","coordinates":[[[-100.68801,38.70002],[-100.6847,38.26414],[-100.24439,38.26229],[-100.24856,38.63937],[-100.2472,38.69817],[-100.68801,38.70002]]]}},{"type":"Feature","id":"20103","properties":{"geoid":"20103","name":"Leavenworth","displayName":"Leavenworth County","state":"KS","stateName":"Kansas","type":"County or equivalent","lsad":"06","sourceType":"county"},"geometry":{"type":"Polygon","coordinates":[[[-95.18796,39.12891],[-95.18619,38.96454],[-95.16954,38.96647],[-95.16486,38.97152],[-95.1665,38.97591],[-95.16412,38.98163],[-95.13969,38.96939],[-95.12689,38.9677],[-95.12036,38.97016],[-95.11091,38.96934],[-95.10753,38.96667],[-95.10454,38.95907],[-95.10086,38.95622],[-95.08523,38.95384],[-95.07644,38.95983],[-95.07445,38.96437],[-95.0868,38.97433],[-95.08669,38.98022],[-95.08477,38.98236],[-95.06663,38.98705],[-95.06071,38.98562],[-95.04391,38.97513],[-95.03509,38.97489],[-95.02625,38.98086],[-95.02364,38.98824],[-95.02604,38.99234],[-95.02182,38.99962],[-95.01143,39.00081],[-95.00362,38.99893],[-94.99356,38.99504],[-94.98036,38.99241],[-94.9716,38.98519],[-94.96488,38.98214],[-94.95654,38.98197],[-94.94439,38.98639],[-94.94055,38.98998],[-94.93892,38.99466],[-94.93192,39.00111],[-94.92335,39.00263],[-94.9199,39.00154],[-94.91624,38.9969],[-94.92175,38.98579],[-94.91943,38.98354],[-94.9138,38.98648],[-94.90876,38.9914],[-94.90828,39.12865],[-94.90139,39.12869],[-94.90019,39.20291],[-94.77554,39.2006],[-94.78384,39.20715],[-94.79966,39.20602],[-94.82069,39.20863],[-94.83168,39.21594],[-94.83506,39.22066],[-94.8349,39.22384],[-94.82779,39.234],[-94.82566,39.24173],[-94.82749,39.24989],[-94.83147,39.25627],[-94.84632,39.26848],[-94.88258,39.28333],[-94.90005,39.30019],[-94.90533,39.31195],[-94.90806,39.32366],[-94.91064,39.34834],[-94.90941,39.35426],[-94.9025,39.36038],[-94.89093,39.36403],[-94.88136,39.37038],[-94.87909,39.3757],[-94.87928,39.37978],[-94.88503,39.3898],[-94.88897,39.39243],[-94.90182,39.3928],[-94.92311,39.38449],[-94.93716,39.38653],[-94.94558,39.39385],[-94.94629,39.40565],[-94.94786,39.4086],[-94.95482,39.41384],[-94.96885,39.41907],[-95.18089,39.41922],[-95.18012,39.12889],[-95.18796,39.12891]]]}},{"type":"Feature","id":"20105","properties":{"geoid":"20105","name":"Lincoln","displayName":"Lincoln County","state":"KS","stateName":"Kansas","type":"County or equivalent","lsad":"06","sourceType":"county"},"geometry":{"type":"Polygon","coordinates":[[[-98.49015,39.21978],[-98.49,39.1327],[-98.48375,39.13267],[-98.48604,39.03051],[-98.48486,38.87079],[-97.92859,38.8711],[-97.92834,39.125],[-97.92843,39.13207],[-97.93034,39.13215],[-97.92975,39.21927],[-98.49015,39.21978]]]}},{"type":"Feature","id":"20107","properties":{"geoid":"20107","name":"Linn","displayName":"Linn County","state":"KS","stateName":"Kansas","type":"County or equivalent","lsad":"06","sourceType":"county"},"geometry":{"type":"Polygon","coordinates":[[[-95.07707,38.09589],[-95.07788,38.03771],[-94.61398,38.03706],[-94.61328,38.38872],[-95.06583,38.38994],[-95.0651,38.25865],[-95.07546,38.25871],[-95.07707,38.09589]]]}},{"type":"Feature","id":"20109","properties":{"geoid":"20109","name":"Logan","displayName":"Logan County","state":"KS","stateName":"Kansas","type":"County or equivalent","lsad":"06","sourceType":"county"},"geometry":{"type":"Polygon","coordinates":[[[-101.48322,38.75851],[-101.48438,38.70017],[-101.21079,38.70158],[-100.96581,38.69928],[-100.8187,38.69986],[-100.81762,38.8443],[-100.81186,39.13336],[-101.05601,39.13311],[-101.31223,39.13545],[-101.4782,39.13476],[-101.48322,38.75851]]]}},{"type":"Feature","id":"20111","properties":{"geoid":"20111","name":"Lyon","displayName":"Lyon County","state":"KS","stateName":"Kansas","type":"County or equivalent","lsad":"06","sourceType":"county"},"geometry":{"type":"Polygon","coordinates":[[[-96.35703,38.17542],[-96.35728,38.17266],[-95.95886,38.17094],[-95.9585,38.25972],[-95.94999,38.25971],[-95.94965,38.69538],[-95.94566,38.69536],[-95.94592,38.73911],[-96.35261,38.73902],[-96.35703,38.17542]]]}},{"type":"Feature","id":"20113","properties":{"geoid":"20113","name":"McPherson","displayName":"McPherson County","state":"KS","stateName":"Kansas","type":"County or equivalent","lsad":"06","sourceType":"county"},"geometry":{"type":"Polygon","coordinates":[[[-97.92478,38.31868],[-97.9252,38.2605],[-97.92244,38.26045],[-97.92214,38.17371],[-97.37175,38.17367],[-97.37191,38.60935],[-97.9248,38.60988],[-97.92478,38.31868]]]}},{"type":"Feature","id":"20115","properties":{"geoid":"20115","name":"Marion","displayName":"Marion County","state":"KS","stateName":"Kansas","type":"County or equivalent","lsad":"06","sourceType":"county"},"geometry":{"type":"Polygon","coordinates":[[[-97.37193,38.52216],[-97.37175,38.17367],[-97.15309,38.17463],[-97.15291,38.0877],[-96.84077,38.08562],[-96.84115,38.254],[-96.84093,38.26128],[-96.83698,38.26215],[-96.83765,38.34864],[-96.81948,38.3485],[-96.81951,38.52245],[-96.92997,38.52241],[-96.93029,38.60936],[-97.15075,38.60956],[-97.37191,38.60935],[-97.37193,38.52216]]]}},{"type":"Feature","id":"20117","properties":{"geoid":"20117","name":"Marshall","displayName":"Marshall County","state":"KS","stateName":"Kansas","type":"County or equivalent","lsad":"06","sourceType":"county"},"geometry":{"type":"Polygon","coordinates":[[[-96.80666,39.71663],[-96.80654,39.56642],[-96.23897,39.56622],[-96.23921,40.00069],[-96.80577,40.00137],[-96.80666,39.71663]]]}},{"type":"Feature","id":"20119","properties":{"geoid":"20119","name":"Meade","displayName":"Meade County","state":"KS","stateName":"Kansas","type":"County or equivalent","lsad":"06","sourceType":"county"},"geometry":{"type":"Polygon","coordinates":[[[-100.65264,37.41669],[-100.65273,37.38763],[-100.63383,37.38758],[-100.63544,37.15558],[-100.63333,36.99994],[-100.08948,37.00209],[-100.09117,37.12454],[-100.09153,37.38689],[-100.10742,37.38709],[-100.10725,37.47484],[-100.65264,37.47485],[-100.65264,37.41669]]]}},{"type":"Feature","id":"20121","properties":{"geoid":"20121","name":"Miami","displayName":"Miami County","state":"KS","stateName":"Kansas","type":"County or equivalent","lsad":"06","sourceType":"county"},"geometry":{"type":"Polygon","coordinates":[[[-95.06594,38.40327],[-95.06583,38.38994],[-94.61328,38.38872],[-94.61186,38.62048],[-94.60951,38.7381],[-95.05641,38.73859],[-95.05667,38.6949],[-95.06577,38.6949],[-95.06594,38.40327]]]}},{"type":"Feature","id":"20123","properties":{"geoid":"20123","name":"Mitchell","displayName":"Mitchell County","state":"KS","stateName":"Kansas","type":"County or equivalent","lsad":"06","sourceType":"county"},"geometry":{"type":"Polygon","coordinates":[[[-98.49007,39.24167],[-98.49015,39.21978],[-97.92975,39.21927],[-97.93143,39.23844],[-97.93161,39.27709],[-97.92892,39.3141],[-97.92846,39.56692],[-98.48738,39.56749],[-98.49007,39.24167]]]}},{"type":"Feature","id":"20125","properties":{"geoid":"20125","name":"Montgomery","displayName":"Montgomery County","state":"KS","stateName":"Kansas","type":"County or equivalent","lsad":"06","sourceType":"county"},"geometry":{"type":"Polygon","coordinates":[[[-95.96457,37.06758],[-95.96427,36.99909],[-95.52241,36.99928],[-95.52141,37.19375],[-95.51798,37.25902],[-95.52113,37.38399],[-95.96467,37.38666],[-95.96457,37.06758]]]}},{"type":"Feature","id":"20127","properties":{"geoid":"20127","name":"Morris","displayName":"Morris County","state":"KS","stateName":"Kansas","type":"County or equivalent","lsad":"06","sourceType":"county"},"geometry":{"type":"Polygon","coordinates":[[[-96.93302,38.65786],[-96.93392,38.65535],[-96.92974,38.65154],[-96.92997,38.52241],[-96.35378,38.52166],[-96.35261,38.73926],[-96.38975,38.73898],[-96.3904,38.82586],[-96.5014,38.82619],[-96.50156,38.8697],[-96.89024,38.87007],[-96.89017,38.81217],[-96.92723,38.81216],[-96.92843,38.71244],[-96.92737,38.696],[-96.93041,38.69601],[-96.93041,38.67939],[-96.93302,38.65786]]]}},{"type":"Feature","id":"20129","properties":{"geoid":"20129","name":"Morton","displayName":"Morton County","state":"KS","stateName":"Kansas","type":"County or equivalent","lsad":"06","sourceType":"county"},"geometry":{"type":"Polygon","coordinates":[[[-102.04212,37.12672],[-102.04209,36.99302],[-101.55526,36.99541],[-101.55661,37.38849],[-102.04159,37.38919],[-102.04212,37.12672]]]}},{"type":"Feature","id":"20131","properties":{"geoid":"20131","name":"Nemaha","displayName":"Nemaha County","state":"KS","stateName":"Kansas","type":"County or equivalent","lsad":"06","sourceType":"county"},"geometry":{"type":"Polygon","coordinates":[[[-96.2397,39.65333],[-96.23897,39.56622],[-95.7891,39.56594],[-95.78811,40.00045],[-96.23921,40.00069],[-96.2397,39.65333]]]}},{"type":"Feature","id":"20133","properties":{"geoid":"20133","name":"Neosho","displayName":"Neosho County","state":"KS","stateName":"Kansas","type":"County or equivalent","lsad":"06","sourceType":"county"},"geometry":{"type":"Polygon","coordinates":[[[-95.5259,37.6456],[-95.52556,37.38398],[-95.08819,37.38384],[-95.08808,37.73248],[-95.16076,37.73418],[-95.16958,37.73282],[-95.23396,37.73253],[-95.5255,37.73276],[-95.5259,37.6456]]]}},{"type":"Feature","id":"20135","properties":{"geoid":"20135","name":"Ness","displayName":"Ness County","state":"KS","stateName":"Kansas","type":"County or equivalent","lsad":"06","sourceType":"county"},"geometry":{"type":"Polygon","coordinates":[[[-100.24774,38.65441],[-100.24439,38.26229],[-99.58421,38.26218],[-99.58644,38.55296],[-99.58509,38.69654],[-100.02708,38.69627],[-100.2472,38.69817],[-100.24774,38.65441]]]}},{"type":"Feature","id":"20137","properties":{"geoid":"20137","name":"Norton","displayName":"Norton County","state":"KS","stateName":"Kansas","type":"County or equivalent","lsad":"06","sourceType":"county"},"geometry":{"type":"Polygon","coordinates":[[[-100.18042,39.57412],[-100.18035,39.56689],[-99.62795,39.56744],[-99.62811,39.72668],[-99.62532,40.00187],[-100.17779,40.00159],[-100.18042,39.57412]]]}},{"type":"Feature","id":"20139","properties":{"geoid":"20139","name":"Osage","displayName":"Osage County","state":"KS","stateName":"Kansas","type":"County or equivalent","lsad":"06","sourceType":"county"},"geometry":{"type":"Polygon","coordinates":[[[-95.95021,38.44145],[-95.95028,38.43411],[-95.50827,38.43393],[-95.50901,38.65896],[-95.50804,38.69527],[-95.50122,38.69526],[-95.50072,38.86982],[-95.79814,38.86889],[-95.94659,38.86997],[-95.94566,38.69536],[-95.94965,38.69538],[-95.95021,38.44145]]]}},{"type":"Feature","id":"20141","properties":{"geoid":"20141","name":"Osborne","displayName":"Osborne County","state":"KS","stateName":"Kansas","type":"County or equivalent","lsad":"06","sourceType":"county"},"geometry":{"type":"Polygon","coordinates":[[[-99.04864,39.30693],[-99.04769,39.13301],[-98.49,39.1327],[-98.48972,39.39365],[-98.48738,39.56749],[-99.0444,39.56804],[-99.04529,39.39385],[-99.04669,39.32189],[-99.04864,39.30693]]]}},{"type":"Feature","id":"20143","properties":{"geoid":"20143","name":"Ottawa","displayName":"Ottawa County","state":"KS","stateName":"Kansas","type":"County or equivalent","lsad":"06","sourceType":"county"},"geometry":{"type":"Polygon","coordinates":[[[-97.93161,39.27709],[-97.93143,39.23844],[-97.92975,39.21927],[-97.93034,39.13215],[-97.92843,39.13207],[-97.92834,39.125],[-97.92856,38.9584],[-97.37161,38.95785],[-97.36984,39.30601],[-97.9291,39.3064],[-97.93161,39.27709]]]}},{"type":"Feature","id":"20145","properties":{"geoid":"20145","name":"Pawnee","displayName":"Pawnee County","state":"KS","stateName":"Kansas","type":"County or equivalent","lsad":"06","sourceType":"county"},"geometry":{"type":"Polygon","coordinates":[[[-99.58479,38.34939],[-99.58421,38.26218],[-99.57049,38.26214],[-99.56953,38.08737],[-99.35036,38.08759],[-99.35029,38.00074],[-98.91314,38.00045],[-98.91258,38.26109],[-99.03231,38.26123],[-99.03241,38.34833],[-99.25293,38.35065],[-99.58479,38.34939]]]}},{"type":"Feature","id":"20147","properties":{"geoid":"20147","name":"Phillips","displayName":"Phillips County","state":"KS","stateName":"Kansas","type":"County or equivalent","lsad":"06","sourceType":"county"},"geometry":{"type":"Polygon","coordinates":[[[-99.62811,39.72668],[-99.62795,39.56744],[-99.06622,39.56812],[-99.06702,40.00217],[-99.62532,40.00187],[-99.62811,39.72668]]]}},{"type":"Feature","id":"20149","properties":{"geoid":"20149","name":"Pottawatomie","displayName":"Pottawatomie County","state":"KS","stateName":"Kansas","type":"County or equivalent","lsad":"06","sourceType":"county"},"geometry":{"type":"Polygon","coordinates":[[[-96.72774,39.42685],[-96.72369,39.42214],[-96.71691,39.42174],[-96.71494,39.41951],[-96.71447,39.41129],[-96.71657,39.40719],[-96.71974,39.4045],[-96.7263,39.40387],[-96.71967,39.3948],[-96.70122,39.38123],[-96.70063,39.37832],[-96.69572,39.3734],[-96.68806,39.37397],[-96.6842,39.37194],[-96.68514,39.36598],[-96.69084,39.36222],[-96.69113,39.36002],[-96.67036,39.34375],[-96.66111,39.34328],[-96.66331,39.33886],[-96.67128,39.3369],[-96.67175,39.3345],[-96.66964,39.33137],[-96.65978,39.32506],[-96.64656,39.32618],[-96.64752,39.32183],[-96.64987,39.31952],[-96.65603,39.3185],[-96.65663,39.31701],[-96.65036,39.30934],[-96.64439,39.30752],[-96.63345,39.29864],[-96.6326,39.29504],[-96.63948,39.29266],[-96.635,39.28705],[-96.61001,39.2666],[-96.59536,39.26249],[-96.59516,39.25238],[-96.591,39.24962],[-96.57625,39.24955],[-96.57583,39.25173],[-96.58083,39.25439],[-96.57968,39.25615],[-96.57298,39.25246],[-96.57099,39.25016],[-96.57076,39.2468],[-96.57291,39.24439],[-96.58072,39.24588],[-96.58647,39.24375],[-96.58825,39.24257],[-96.58695,39.23842],[-96.58172,39.23421],[-96.5799,39.23434],[-96.57614,39.23732],[-96.56862,39.23825],[-96.5619,39.24113],[-96.55134,39.22245],[-96.55009,39.21371],[-96.54661,39.20862],[-96.54303,39.20858],[-96.5419,39.21275],[-96.53912,39.21484],[-96.52755,39.21089],[-96.51872,39.2056],[-96.51921,39.19891],[-96.53097,39.19574],[-96.53606,39.19578],[-96.54055,39.19797],[-96.54799,39.19666],[-96.56059,39.19772],[-96.55819,39.18298],[-96.5562,39.17986],[-96.55387,39.17895],[-96.54569,39.1825],[-96.51708,39.18763],[-96.51408,39.18375],[-96.51885,39.17604],[-96.51887,39.17349],[-96.5161,39.17096],[-96.50106,39.1675],[-96.49432,39.16813],[-96.49242,39.16963],[-96.48953,39.1778],[-96.48466,39.17941],[-96.47869,39.17561],[-96.47772,39.1659],[-96.47306,39.16468],[-96.46037,39.16844],[-96.46082,39.17195],[-96.46421,39.17629],[-96.45989,39.18282],[-96.46117,39.18861],[-96.45702,39.19075],[-96.44568,39.19065],[-96.42982,39.18671],[-96.41235,39.18501],[-96.40339,39.1817],[-96.38977,39.17376],[-96.37779,39.16414],[-96.37282,39.16417],[-96.36328,39.17205],[-96.35762,39.17302],[-96.35635,39.16956],[-96.35977,39.15923],[-96.35829,39.15652],[-96.34664,39.15391],[-96.33743,39.16216],[-96.3314,39.15888],[-96.32838,39.16089],[-96.33118,39.16571],[-96.32903,39.16815],[-96.32473,39.18605],[-96.32145,39.18985],[-96.31132,39.1959],[-96.30334,39.19752],[-96.2942,39.19545],[-96.28817,39.1909],[-96.28385,39.18483],[-96.27358,39.17941],[-96.26938,39.17896],[-96.25452,39.19124],[-96.24421,39.208],[-96.23496,39.21213],[-96.22753,39.20926],[-96.22039,39.20095],[-96.213,39.19994],[-96.20342,39.20021],[-96.19478,39.20761],[-96.18157,39.20633],[-96.17881,39.2026],[-96.1793,39.19226],[-96.17674,39.18862],[-96.15284,39.19258],[-96.12276,39.18712],[-96.11551,39.19077],[-96.11162,39.20004],[-96.10697,39.20103],[-96.09626,39.19184],[-96.08356,39.1935],[-96.06871,39.17942],[-96.065,39.17108],[-96.05723,39.16265],[-96.05766,39.15817],[-96.06075,39.1573],[-96.07085,39.16243],[-96.08387,39.16326],[-96.09089,39.15872],[-96.09105,39.15471],[-96.08822,39.15234],[-96.06918,39.14694],[-96.06125,39.14241],[-96.04398,39.14117],[-96.04116,39.13981],[-96.04014,39.13728],[-96.04121,39.12748],[-96.03906,39.12653],[-96.039,39.12976],[-96.0359,39.12978],[-96.03462,39.36904],[-96.03595,39.5661],[-96.58036,39.56633],[-96.59108,39.55294],[-96.5888,39.54619],[-96.59212,39.54383],[-96.61562,39.53177],[-96.61938,39.5331],[-96.62068,39.53504],[-96.61812,39.53787],[-96.62068,39.53836],[-96.64262,39.52211],[-96.6447,39.51665],[-96.63974,39.51021],[-96.64163,39.50644],[-96.64961,39.50677],[-96.6567,39.5002],[-96.66153,39.49297],[-96.66765,39.47542],[-96.67076,39.47356],[-96.67721,39.47324],[-96.68115,39.47689],[-96.67824,39.48124],[-96.67894,39.48341],[-96.68212,39.48276],[-96.68982,39.46829],[-96.68812,39.46115],[-96.69572,39.45791],[-96.69963,39.45814],[-96.70579,39.46156],[-96.70862,39.46037],[-96.7219,39.44409],[-96.71872,39.43913],[-96.71305,39.43653],[-96.71783,39.42984],[-96.72774,39.42685]]]}},{"type":"Feature","id":"20151","properties":{"geoid":"20151","name":"Pratt","displayName":"Pratt County","state":"KS","stateName":"Kansas","type":"County or equivalent","lsad":"06","sourceType":"county"},"geometry":{"type":"Polygon","coordinates":[[[-99.01535,37.64386],[-99.0126,37.47042],[-98.46466,37.47101],[-98.4649,37.82451],[-99.01332,37.82534],[-99.01535,37.64386]]]}},{"type":"Feature","id":"20153","properties":{"geoid":"20153","name":"Rawlins","displayName":"Rawlins County","state":"KS","stateName":"Kansas","type":"County or equivalent","lsad":"06","sourceType":"county"},"geometry":{"type":"Polygon","coordinates":[[[-101.41124,40.0],[-101.41391,39.56836],[-100.74087,39.56804],[-100.73883,40.00223],[-101.32404,40.0027],[-101.41104,40.00236],[-101.41124,40.0]]]}},{"type":"Feature","id":"20155","properties":{"geoid":"20155","name":"Reno","displayName":"Reno County","state":"KS","stateName":"Kansas","type":"County or equivalent","lsad":"06","sourceType":"county"},"geometry":{"type":"Polygon","coordinates":[[[-98.47279,38.17276],[-98.47226,37.8245],[-98.4649,37.82451],[-98.4648,37.73268],[-97.8719,37.73348],[-97.69869,37.73506],[-97.69968,37.82516],[-97.7021,37.82516],[-97.70184,38.17381],[-98.14227,38.17392],[-98.14218,38.15954],[-98.21592,38.15875],[-98.21603,38.1735],[-98.47279,38.17276]]]}},{"type":"Feature","id":"20157","properties":{"geoid":"20157","name":"Republic","displayName":"Republic County","state":"KS","stateName":"Kansas","type":"County or equivalent","lsad":"06","sourceType":"county"},"geometry":{"type":"Polygon","coordinates":[[[-97.93342,39.82744],[-97.93148,39.65377],[-97.36867,39.65404],[-97.3692,40.00206],[-97.93183,40.00205],[-97.93342,39.82744]]]}},{"type":"Feature","id":"20159","properties":{"geoid":"20159","name":"Rice","displayName":"Rice County","state":"KS","stateName":"Kansas","type":"County or equivalent","lsad":"06","sourceType":"county"},"geometry":{"type":"Polygon","coordinates":[[[-98.48064,38.43467],[-98.47984,38.26079],[-98.47244,38.26074],[-98.47279,38.17276],[-98.21603,38.1735],[-98.21592,38.15875],[-98.14218,38.15954],[-98.14227,38.17392],[-97.92214,38.17371],[-97.92244,38.26045],[-97.9252,38.2605],[-97.92427,38.52275],[-98.48038,38.52184],[-98.48064,38.43467]]]}},{"type":"Feature","id":"20161","properties":{"geoid":"20161","name":"Riley","displayName":"Riley County","state":"KS","stateName":"Kansas","type":"County or equivalent","lsad":"06","sourceType":"county"},"geometry":{"type":"Polygon","coordinates":[[[-96.96159,39.2208],[-96.84988,39.21901],[-96.84967,39.13928],[-96.83098,39.13923],[-96.83224,39.11964],[-96.83967,39.11558],[-96.85127,39.10074],[-96.85141,39.08818],[-96.74344,39.08766],[-96.74346,39.08196],[-96.74035,39.08223],[-96.73606,39.07996],[-96.7286,39.08761],[-96.72191,39.09138],[-96.71374,39.09007],[-96.70626,39.09116],[-96.70612,39.07308],[-96.50096,39.07268],[-96.50117,39.04367],[-96.3908,39.04326],[-96.38977,39.17376],[-96.3983,39.17953],[-96.41235,39.18501],[-96.42982,39.18671],[-96.45205,39.19118],[-96.45992,39.18978],[-96.4615,39.18795],[-96.45989,39.18282],[-96.46421,39.17629],[-96.46082,39.17195],[-96.46037,39.16844],[-96.47306,39.16468],[-96.47772,39.1659],[-96.47869,39.17561],[-96.48466,39.17941],[-96.48953,39.1778],[-96.49242,39.16963],[-96.49432,39.16813],[-96.50106,39.1675],[-96.5161,39.17096],[-96.51887,39.17349],[-96.51885,39.17604],[-96.51408,39.18375],[-96.51708,39.18763],[-96.54569,39.1825],[-96.55387,39.17895],[-96.5562,39.17986],[-96.55819,39.18298],[-96.56059,39.19772],[-96.54799,39.19666],[-96.54055,39.19797],[-96.53606,39.19578],[-96.53097,39.19574],[-96.51921,39.19891],[-96.51872,39.2056],[-96.52755,39.21089],[-96.53912,39.21484],[-96.5419,39.21275],[-96.54303,39.20858],[-96.54661,39.20862],[-96.55009,39.21371],[-96.55134,39.22245],[-96.5619,39.24113],[-96.56862,39.23825],[-96.57614,39.23732],[-96.5799,39.23434],[-96.58172,39.23421],[-96.58695,39.23842],[-96.58825,39.24257],[-96.58072,39.24588],[-96.57291,39.24439],[-96.57076,39.2468],[-96.57099,39.25016],[-96.57968,39.25615],[-96.58083,39.25439],[-96.57583,39.25173],[-96.57625,39.24955],[-96.591,39.24962],[-96.59516,39.25238],[-96.59536,39.26249],[-96.61001,39.2666],[-96.635,39.28705],[-96.63948,39.29266],[-96.6326,39.29504],[-96.63345,39.29864],[-96.64439,39.30752],[-96.65036,39.30934],[-96.65663,39.31701],[-96.65603,39.3185],[-96.64987,39.31952],[-96.64752,39.32183],[-96.64656,39.32618],[-96.65595,39.32439],[-96.66679,39.32846],[-96.67175,39.3345],[-96.67128,39.3369],[-96.66331,39.33886],[-96.66111,39.34328],[-96.67036,39.34375],[-96.69113,39.36002],[-96.69084,39.36222],[-96.68514,39.36598],[-96.6842,39.37194],[-96.68806,39.37397],[-96.69572,39.3734],[-96.70063,39.37832],[-96.70122,39.38123],[-96.71967,39.3948],[-96.7263,39.40387],[-96.71974,39.4045],[-96.71473,39.41006],[-96.71494,39.41951],[-96.71691,39.42174],[-96.72369,39.42214],[-96.72774,39.42685],[-96.71783,39.42984],[-96.71305,39.43653],[-96.71872,39.43913],[-96.7219,39.44409],[-96.71342,39.45505],[-96.70693,39.46151],[-96.69572,39.45791],[-96.68812,39.46115],[-96.68982,39.46829],[-96.68212,39.48276],[-96.67894,39.48341],[-96.67824,39.48124],[-96.68115,39.47689],[-96.67721,39.47324],[-96.67076,39.47356],[-96.66765,39.47542],[-96.66153,39.49297],[-96.6567,39.5002],[-96.64961,39.50677],[-96.64163,39.50644],[-96.63974,39.51021],[-96.6447,39.51665],[-96.64262,39.52211],[-96.62068,39.53836],[-96.61812,39.53787],[-96.62068,39.53504],[-96.61938,39.5331],[-96.61562,39.53177],[-96.59212,39.54383],[-96.5888,39.54619],[-96.59108,39.55294],[-96.58046,39.56621],[-96.95872,39.56643],[-96.96159,39.2208]]]}},{"type":"Feature","id":"20163","properties":{"geoid":"20163","name":"Rooks","displayName":"Rooks County","state":"KS","stateName":"Kansas","type":"County or equivalent","lsad":"06","sourceType":"county"},"geometry":{"type":"Polygon","coordinates":[[[-99.60548,39.22009],[-99.60519,39.13248],[-99.04769,39.13301],[-99.04864,39.30693],[-99.04669,39.32189],[-99.04529,39.39385],[-99.0444,39.56804],[-99.60218,39.56733],[-99.60162,39.48102],[-99.60548,39.22009]]]}},{"type":"Feature","id":"20165","properties":{"geoid":"20165","name":"Rush","displayName":"Rush County","state":"KS","stateName":"Kansas","type":"County or equivalent","lsad":"06","sourceType":"county"},"geometry":{"type":"Polygon","coordinates":[[[-99.58644,38.55296],[-99.58479,38.34939],[-99.25293,38.35065],[-99.03241,38.34833],[-99.03297,38.69676],[-99.58509,38.69654],[-99.58644,38.55296]]]}},{"type":"Feature","id":"20167","properties":{"geoid":"20167","name":"Russell","displayName":"Russell County","state":"KS","stateName":"Kansas","type":"County or equivalent","lsad":"06","sourceType":"county"},"geometry":{"type":"Polygon","coordinates":[[[-99.04234,38.7118],[-99.04263,38.69681],[-98.48611,38.69688],[-98.48486,38.87079],[-98.48604,39.03051],[-98.48375,39.13267],[-99.0375,39.13312],[-99.03926,38.85723],[-99.04234,38.7118]]]}},{"type":"Feature","id":"20169","properties":{"geoid":"20169","name":"Saline","displayName":"Saline County","state":"KS","stateName":"Kansas","type":"County or equivalent","lsad":"06","sourceType":"county"},"geometry":{"type":"Polygon","coordinates":[[[-97.92856,38.95826],[-97.92846,38.69697],[-97.92516,38.69682],[-97.9248,38.60988],[-97.37191,38.60935],[-97.37212,38.91413],[-97.38121,38.91432],[-97.3812,38.9289],[-97.37173,38.92892],[-97.37161,38.95785],[-97.92856,38.95826]]]}},{"type":"Feature","id":"20171","properties":{"geoid":"20171","name":"Scott","displayName":"Scott County","state":"KS","stateName":"Kansas","type":"County or equivalent","lsad":"06","sourceType":"county"},"geometry":{"type":"Polygon","coordinates":[[[-101.12838,38.7006],[-101.12791,38.43867],[-101.12544,38.26451],[-100.6847,38.26414],[-100.68801,38.70002],[-100.908,38.69912],[-101.12838,38.7006]]]}},{"type":"Feature","id":"20173","properties":{"geoid":"20173","name":"Sedgwick","displayName":"Sedgwick County","state":"KS","stateName":"Kansas","type":"County or equivalent","lsad":"06","sourceType":"county"},"geometry":{"type":"Polygon","coordinates":[[[-97.80835,37.64679],[-97.8076,37.47418],[-97.48422,37.47538],[-97.36901,37.47727],[-97.15333,37.47554],[-97.15248,37.91273],[-97.70184,37.91246],[-97.7021,37.82516],[-97.69968,37.82516],[-97.69869,37.73506],[-97.80782,37.73386],[-97.80672,37.65404],[-97.80835,37.64679]]]}},{"type":"Feature","id":"20175","properties":{"geoid":"20175","name":"Seward","displayName":"Seward County","state":"KS","stateName":"Kansas","type":"County or equivalent","lsad":"06","sourceType":"county"},"geometry":{"type":"Polygon","coordinates":[[[-101.06811,37.38778],[-101.06645,36.99792],[-100.63333,36.99994],[-100.63544,37.15558],[-100.63383,37.38758],[-101.06811,37.38778]]]}},{"type":"Feature","id":"20177","properties":{"geoid":"20177","name":"Shawnee","displayName":"Shawnee County","state":"KS","stateName":"Kansas","type":"County or equivalent","lsad":"06","sourceType":"county"},"geometry":{"type":"Polygon","coordinates":[[[-96.039,39.12976],[-96.03906,39.12653],[-96.02942,39.12237],[-96.017,39.12033],[-96.01256,39.12291],[-96.00379,39.132],[-95.99652,39.13416],[-95.99305,39.13339],[-95.99129,39.12723],[-95.99286,39.125],[-96.00522,39.1218],[-96.00953,39.11764],[-96.00918,39.11615],[-95.99505,39.10931],[-95.9828,39.11316],[-95.97261,39.11157],[-95.96517,39.10625],[-95.96232,39.1021],[-95.95626,39.09904],[-95.94675,39.09869],[-95.94659,38.86997],[-95.79814,38.86889],[-95.50072,38.86982],[-95.50025,38.9859],[-95.50186,39.02741],[-95.50025,39.05666],[-95.50765,39.06461],[-95.5139,39.06715],[-95.52192,39.06496],[-95.53449,39.06609],[-95.54285,39.0691],[-95.55453,39.06565],[-95.5707,39.0561],[-95.58234,39.054],[-95.59676,39.06467],[-95.59835,39.07351],[-95.59465,39.0819],[-95.59471,39.12928],[-95.5893,39.12916],[-95.58947,39.21608],[-96.03557,39.21652],[-96.0359,39.12978],[-96.039,39.12976]]]}},{"type":"Feature","id":"20179","properties":{"geoid":"20179","name":"Sheridan","displayName":"Sheridan County","state":"KS","stateName":"Kansas","type":"County or equivalent","lsad":"06","sourceType":"county"},"geometry":{"type":"Polygon","coordinates":[[[-100.72147,39.19128],[-100.7213,39.13338],[-100.1642,39.13207],[-100.16167,39.56728],[-100.72021,39.56803],[-100.72147,39.19128]]]}},{"type":"Feature","id":"20181","properties":{"geoid":"20181","name":"Sherman","displayName":"Sherman County","state":"KS","stateName":"Kansas","type":"County or equivalent","lsad":"06","sourceType":"county"},"geometry":{"type":"Polygon","coordinates":[[[-102.04976,39.56818],[-102.04719,39.13315],[-101.39172,39.13512],[-101.38907,39.56837],[-102.04976,39.56818]]]}},{"type":"Feature","id":"20183","properties":{"geoid":"20183","name":"Smith","displayName":"Smith County","state":"KS","stateName":"Kansas","type":"County or equivalent","lsad":"06","sourceType":"county"},"geometry":{"type":"Polygon","coordinates":[[[-99.06711,39.93042],[-99.06622,39.56812],[-98.50527,39.5676],[-98.50445,40.00233],[-99.06702,40.00217],[-99.06711,39.93042]]]}},{"type":"Feature","id":"20185","properties":{"geoid":"20185","name":"Stafford","displayName":"Stafford County","state":"KS","stateName":"Kansas","type":"County or equivalent","lsad":"06","sourceType":"county"},"geometry":{"type":"Polygon","coordinates":[[[-99.02201,37.8979],[-99.02263,37.82536],[-98.47226,37.8245],[-98.47244,38.26074],[-98.91258,38.26109],[-98.91314,38.00045],[-99.02214,38.00024],[-99.02201,37.8979]]]}},{"type":"Feature","id":"20187","properties":{"geoid":"20187","name":"Stanton","displayName":"Stanton County","state":"KS","stateName":"Kansas","type":"County or equivalent","lsad":"06","sourceType":"county"},"geometry":{"type":"Polygon","coordinates":[[[-102.0419,37.54119],[-102.04159,37.38919],[-101.52581,37.38839],[-101.52706,37.73631],[-102.04199,37.73854],[-102.0419,37.54119]]]}},{"type":"Feature","id":"20189","properties":{"geoid":"20189","name":"Stevens","displayName":"Stevens County","state":"KS","stateName":"Kansas","type":"County or equivalent","lsad":"06","sourceType":"county"},"geometry":{"type":"Polygon","coordinates":[[[-101.55661,37.38849],[-101.55526,36.99541],[-101.06645,36.99792],[-101.06811,37.38778],[-101.55661,37.38849]]]}},{"type":"Feature","id":"20191","properties":{"geoid":"20191","name":"Sumner","displayName":"Sumner County","state":"KS","stateName":"Kansas","type":"County or equivalent","lsad":"06","sourceType":"county"},"geometry":{"type":"Polygon","coordinates":[[[-97.8076,37.47418],[-97.80706,37.38629],[-97.80457,37.3863],[-97.80213,37.21264],[-97.80231,36.99871],[-97.14772,36.99911],[-97.15084,37.30371],[-97.15078,37.39074],[-97.14951,37.39072],[-97.15333,37.47554],[-97.36901,37.47727],[-97.48422,37.47538],[-97.8076,37.47418]]]}},{"type":"Feature","id":"20193","properties":{"geoid":"20193","name":"Thomas","displayName":"Thomas County","state":"KS","stateName":"Kansas","type":"County or equivalent","lsad":"06","sourceType":"county"},"geometry":{"type":"Polygon","coordinates":[[[-101.39176,39.1362],[-101.39172,39.13512],[-101.05601,39.13311],[-100.7213,39.13338],[-100.72021,39.56803],[-101.38907,39.56837],[-101.39176,39.1362]]]}},{"type":"Feature","id":"20195","properties":{"geoid":"20195","name":"Trego","displayName":"Trego County","state":"KS","stateName":"Kansas","type":"County or equivalent","lsad":"06","sourceType":"county"},"geometry":{"type":"Polygon","coordinates":[[[-100.15175,38.87106],[-100.15382,38.69734],[-99.59832,38.69651],[-99.59178,39.13236],[-100.14794,39.13218],[-100.15175,38.87106]]]}},{"type":"Feature","id":"20197","properties":{"geoid":"20197","name":"Wabaunsee","displayName":"Wabaunsee County","state":"KS","stateName":"Kansas","type":"County or equivalent","lsad":"06","sourceType":"county"},"geometry":{"type":"Polygon","coordinates":[[[-96.50168,38.91332],[-96.5014,38.82619],[-96.3904,38.82586],[-96.38975,38.73898],[-95.94592,38.73911],[-95.94675,39.09869],[-95.95626,39.09904],[-95.96232,39.1021],[-95.96517,39.10625],[-95.97261,39.11157],[-95.9828,39.11316],[-95.99505,39.10931],[-96.00918,39.11615],[-96.00953,39.11764],[-96.00522,39.1218],[-95.99286,39.125],[-95.99129,39.12723],[-95.99305,39.13339],[-95.99652,39.13416],[-96.00379,39.132],[-96.01472,39.12123],[-96.02034,39.12024],[-96.04121,39.12748],[-96.04014,39.13728],[-96.04116,39.13981],[-96.04398,39.14117],[-96.06125,39.14241],[-96.07764,39.15017],[-96.08822,39.15234],[-96.09105,39.15471],[-96.09089,39.15872],[-96.08584,39.16276],[-96.07085,39.16243],[-96.06075,39.1573],[-96.05766,39.15817],[-96.05723,39.16265],[-96.065,39.17108],[-96.06871,39.17942],[-96.08356,39.1935],[-96.09626,39.19184],[-96.10697,39.20103],[-96.11162,39.20004],[-96.11551,39.19077],[-96.12276,39.18712],[-96.15284,39.19258],[-96.17674,39.18862],[-96.1793,39.19226],[-96.17881,39.2026],[-96.18157,39.20633],[-96.19478,39.20761],[-96.20342,39.20021],[-96.213,39.19994],[-96.22039,39.20095],[-96.22753,39.20926],[-96.23367,39.21228],[-96.23995,39.21098],[-96.24421,39.208],[-96.25452,39.19124],[-96.26938,39.17896],[-96.27358,39.17941],[-96.28385,39.18483],[-96.28817,39.1909],[-96.2942,39.19545],[-96.30334,39.19752],[-96.31132,39.1959],[-96.32145,39.18985],[-96.32473,39.18605],[-96.32903,39.16815],[-96.33118,39.16571],[-96.32838,39.16089],[-96.3314,39.15888],[-96.33743,39.16216],[-96.34664,39.15391],[-96.35829,39.15652],[-96.35977,39.15923],[-96.35635,39.16956],[-96.35762,39.17302],[-96.36328,39.17205],[-96.37282,39.16417],[-96.37779,39.16414],[-96.38905,39.17288],[-96.38944,39.13033],[-96.39091,39.13032],[-96.3908,39.04326],[-96.50117,39.04367],[-96.50168,38.91332]]]}},{"type":"Feature","id":"20199","properties":{"geoid":"20199","name":"Wallace","displayName":"Wallace County","state":"KS","stateName":"Kansas","type":"County or equivalent","lsad":"06","sourceType":"county"},"geometry":{"type":"Polygon","coordinates":[[[-102.04719,39.13315],[-102.04521,38.69757],[-101.48438,38.70017],[-101.4782,39.13476],[-102.04719,39.13315]]]}},{"type":"Feature","id":"20201","properties":{"geoid":"20201","name":"Washington","displayName":"Washington County","state":"KS","stateName":"Kansas","type":"County or equivalent","lsad":"06","sourceType":"county"},"geometry":{"type":"Polygon","coordinates":[[[-97.3692,39.92226],[-97.36857,39.56702],[-96.80654,39.56642],[-96.80577,40.00137],[-97.3692,40.00206],[-97.3692,39.92226]]]}},{"type":"Feature","id":"20203","properties":{"geoid":"20203","name":"Wichita","displayName":"Wichita County","state":"KS","stateName":"Kansas","type":"County or equivalent","lsad":"06","sourceType":"county"},"geometry":{"type":"Polygon","coordinates":[[[-101.56709,38.69967],[-101.56748,38.26314],[-101.12544,38.26451],[-101.12791,38.43867],[-101.12838,38.7006],[-101.2619,38.70149],[-101.56709,38.69967]]]}},{"type":"Feature","id":"20205","properties":{"geoid":"20205","name":"Wilson","displayName":"Wilson County","state":"KS","stateName":"Kansas","type":"County or equivalent","lsad":"06","sourceType":"county"},"geometry":{"type":"Polygon","coordinates":[[[-95.9626,37.41777],[-95.9616,37.38664],[-95.52556,37.38398],[-95.5255,37.73276],[-95.96088,37.7343],[-95.9626,37.41777]]]}},{"type":"Feature","id":"20207","properties":{"geoid":"20207","name":"Woodson","displayName":"Woodson County","state":"KS","stateName":"Kansas","type":"County or equivalent","lsad":"06","sourceType":"county"},"geometry":{"type":"Polygon","coordinates":[[[-95.96141,37.82198],[-95.96088,37.7343],[-95.5255,37.73276],[-95.52486,37.82028],[-95.51931,37.82026],[-95.51909,37.82782],[-95.51897,38.03823],[-95.95905,38.04019],[-95.95813,37.82194],[-95.96141,37.82198]]]}},{"type":"Feature","id":"20209","properties":{"geoid":"20209","name":"Wyandotte","displayName":"Wyandotte County","state":"KS","stateName":"Kansas","type":"County or equivalent","lsad":"06","sourceType":"county"},"geometry":{"type":"Polygon","coordinates":[[[-94.90883,39.04342],[-94.90876,38.9914],[-94.88843,39.01614],[-94.89114,39.03068],[-94.88357,39.05069],[-94.87642,39.05714],[-94.86775,39.06019],[-94.84248,39.06092],[-94.80333,39.04352],[-94.60752,39.04409],[-94.60829,39.11794],[-94.60043,39.1285],[-94.5899,39.13898],[-94.58841,39.14987],[-94.59066,39.15477],[-94.59603,39.1577],[-94.60866,39.16104],[-94.63978,39.15371],[-94.65579,39.15568],[-94.65921,39.15784],[-94.6614,39.16274],[-94.65916,39.17413],[-94.66384,39.1791],[-94.66914,39.182],[-94.68034,39.1843],[-94.68724,39.1835],[-94.71414,39.1704],[-94.72364,39.169],[-94.74194,39.1702],[-94.75234,39.1732],[-94.76314,39.1799],[-94.77554,39.2006],[-94.77724,39.201],[-94.90019,39.20291],[-94.90139,39.12869],[-94.90828,39.12865],[-94.90883,39.04342]]]}}]}