{"type":"FeatureCollection","features":[{"type":"Feature","id":"69085","properties":{"geoid":"69085","name":"Northern Islands","displayName":"Northern Islands Municipality","state":"MP","stateName":"Commonwealth of the Northern Mariana Islands","type":"County or equivalent","lsad":"12","sourceType":"county"},"geometry":{"type":"MultiPolygon","coordinates":[[[[146.0513,16.00657],[146.05313,16.00592],[146.05526,16.01166],[146.06383,16.02244],[146.06452,16.02513],[146.06305,16.02765],[146.06177,16.02755],[146.05604,16.0152],[146.05379,16.01349],[146.0513,16.00657]]],[[[145.83238,17.31547],[145.8328,17.30378],[145.83858,17.29905],[145.84492,17.29708],[145.85213,17.30938],[145.85201,17.31095],[145.84795,17.31282],[145.8495,17.31727],[145.84004,17.32158],[145.83624,17.32089],[145.83238,17.31547]]],[[[145.81498,17.60405],[145.81591,17.5918],[145.82235,17.58641],[145.82533,17.58104],[145.83926,17.58031],[145.85048,17.59176],[145.85116,17.60178],[145.84812,17.60867],[145.84527,17.6124],[145.84002,17.61505],[145.83801,17.6192],[145.83231,17.62028],[145.8236,17.61805],[145.81498,17.60405]]],[[[145.7667,16.70526],[145.7669,16.70273],[145.77605,16.69398],[145.78722,16.69195],[145.78626,16.69692],[145.78919,16.70474],[145.78687,16.71202],[145.78146,16.71546],[145.78116,16.71708],[145.77812,16.71701],[145.77397,16.71212],[145.7699,16.71117],[145.7667,16.70526]]],[[[145.70791,18.04758],[145.7087,18.04522],[145.71115,18.04463],[145.729,18.04989],[145.73878,18.05839],[145.74303,18.06442],[145.74306,18.06712],[145.74539,18.06802],[145.74475,18.07209],[145.76065,18.0957],[145.76739,18.10303],[145.7764,18.10796],[145.78477,18.10947],[145.79492,18.10267],[145.79436,18.10803],[145.79892,18.11083],[145.80948,18.13233],[145.80946,18.14318],[145.80644,18.15662],[145.802,18.16242],[145.79499,18.16603],[145.79018,18.16568],[145.77743,18.16874],[145.77071,18.16778],[145.75917,18.15977],[145.75654,18.15591],[145.75562,18.14709],[145.7572,18.14387],[145.7614,18.14207],[145.76244,18.13562],[145.75818,18.12125],[145.75904,18.1081],[145.75653,18.09957],[145.73812,18.08522],[145.72912,18.08528],[145.72296,18.08206],[145.71696,18.0758],[145.7119,18.06208],[145.71295,18.05936],[145.71158,18.05832],[145.71126,18.05144],[145.70791,18.04758]]],[[[145.63631,18.77725],[145.63912,18.77162],[145.63804,18.7655],[145.64177,18.7583],[145.64069,18.75395],[145.64508,18.75059],[145.65124,18.74061],[145.6517,18.73694],[145.65473,18.73391],[145.66748,18.72637],[145.6701,18.7275],[145.67094,18.73223],[145.67644,18.73769],[145.68604,18.73774],[145.69056,18.74082],[145.69283,18.74605],[145.69153,18.74978],[145.69236,18.7567],[145.69569,18.75966],[145.69866,18.75974],[145.69952,18.76244],[145.69664,18.78945],[145.69073,18.79568],[145.68792,18.7953],[145.6779,18.8066],[145.66715,18.80801],[145.66122,18.81278],[145.65372,18.81066],[145.64971,18.80655],[145.64881,18.80119],[145.64178,18.79502],[145.64111,18.78694],[145.63814,18.78367],[145.63801,18.77951],[145.63631,18.77725]]],[[[145.6327,16.36647],[145.6345,16.36053],[145.6336,16.35015],[145.63682,16.34798],[145.63886,16.33977],[145.64396,16.33868],[145.64719,16.33253],[145.65696,16.33578],[145.66015,16.33547],[145.66282,16.33272],[145.66585,16.33508],[145.68068,16.33392],[145.69485,16.33503],[145.70246,16.33348],[145.71428,16.33767],[145.71874,16.34294],[145.72001,16.3487],[145.72384,16.35123],[145.72271,16.35927],[145.71145,16.36735],[145.70352,16.36966],[145.67976,16.36783],[145.66359,16.37039],[145.64836,16.3706],[145.64497,16.36894],[145.63596,16.36934],[145.6327,16.36647]]],[[[145.38957,19.69208],[145.39007,19.68459],[145.39974,19.67635],[145.40504,19.67619],[145.41101,19.67871],[145.41628,19.68441],[145.41807,19.69068],[145.41509,19.70131],[145.40647,19.70662],[145.40157,19.70692],[145.39251,19.69973],[145.38957,19.69208]]],[[[145.22772,20.01283],[145.22949,20.01205],[145.23873,20.02017],[145.23345,20.02826],[145.2306,20.02376],[145.23081,20.01894],[145.22772,20.01283]]],[[[145.21534,20.03311],[145.21535,20.0317],[145.21848,20.0304],[145.22938,20.03082],[145.22972,20.03188],[145.22066,20.03558],[145.21534,20.03311]]],[[[145.20774,20.01971],[145.2073,20.01729],[145.21032,20.0124],[145.21669,20.01079],[145.21776,20.01213],[145.21637,20.01433],[145.21154,20.01759],[145.21059,20.02027],[145.21045,20.02616],[145.21225,20.03009],[145.21071,20.03088],[145.2089,20.02839],[145.20774,20.01971]]],[[[144.88692,20.54417],[144.88751,20.53817],[144.8943,20.5365],[144.89756,20.53771],[144.90291,20.54574],[144.90177,20.54888],[144.89685,20.54911],[144.89338,20.55325],[144.88741,20.55007],[144.88692,20.54417]]]]}},{"type":"Feature","id":"69100","properties":{"geoid":"69100","name":"Rota","displayName":"Rota Municipality","state":"MP","stateName":"Commonwealth of the Northern Mariana Islands","type":"County or equivalent","lsad":"12","sourceType":"county"},"geometry":{"type":"Polygon","coordinates":[[[145.12116,14.12064],[145.12276,14.11744],[145.12819,14.12079],[145.13745,14.13456],[145.14423,14.13958],[145.1518,14.13781],[145.16458,14.13024],[145.16936,14.11902],[145.16714,14.11224],[145.16989,14.11057],[145.17569,14.11106],[145.17894,14.1147],[145.18415,14.11618],[145.19526,14.11519],[145.1986,14.11274],[145.2047,14.11588],[145.21246,14.11529],[145.21876,14.12011],[145.22151,14.12601],[145.23085,14.13132],[145.22888,14.13515],[145.23012,14.14096],[145.24108,14.15137],[145.25248,14.15442],[145.26054,14.15472],[145.26713,14.15177],[145.26988,14.15216],[145.27598,14.15727],[145.28335,14.16068],[145.28434,14.17536],[145.29004,14.18628],[145.29,14.19],[145.28824,14.19235],[145.27559,14.19631],[145.26192,14.19906],[145.24127,14.20024],[145.22112,14.19051],[145.20303,14.17711],[145.19644,14.17409],[145.19054,14.1735],[145.17382,14.16701],[145.15968,14.16808],[145.15758,14.16361],[145.14561,14.15167],[145.14236,14.1442],[145.13292,14.13446],[145.12309,14.12719],[145.12116,14.12064]]]}},{"type":"Feature","id":"69110","properties":{"geoid":"69110","name":"Saipan","displayName":"Saipan Municipality","state":"MP","stateName":"Commonwealth of the Northern Mariana Islands","type":"County or equivalent","lsad":"12","sourceType":"county"},"geometry":{"type":"MultiPolygon","coordinates":[[[[145.81307,15.25791],[145.81434,15.2566],[145.81449,15.25819],[145.81307,15.25791]]],[[[145.79001,15.15063],[145.79011,15.14932],[145.7926,15.14952],[145.79094,15.15151],[145.79001,15.15063]]],[[[145.71158,15.24227],[145.71306,15.24001],[145.71373,15.24111],[145.71158,15.24227]]],[[[145.69014,15.1202],[145.69668,15.11794],[145.70502,15.11234],[145.70808,15.10603],[145.7155,15.1064],[145.71739,15.10783],[145.74065,15.1051],[145.74516,15.09993],[145.74684,15.0929],[145.74881,15.09192],[145.75048,15.0934],[145.75266,15.10661],[145.7563,15.11274],[145.75659,15.12085],[145.75473,15.12334],[145.74911,15.12476],[145.74566,15.12791],[145.74084,15.13924],[145.74954,15.15899],[145.76154,15.16363],[145.76748,15.1619],[145.77035,15.15548],[145.77457,15.1515],[145.78014,15.15056],[145.78293,15.15197],[145.78828,15.15048],[145.78818,15.15426],[145.79128,15.15659],[145.79207,15.16352],[145.79612,15.16686],[145.78676,15.17339],[145.78431,15.17886],[145.78454,15.18199],[145.78163,15.18286],[145.77811,15.18936],[145.77752,15.19418],[145.78128,15.19828],[145.7817,15.20355],[145.77874,15.2089],[145.78226,15.21582],[145.79268,15.22796],[145.7984,15.22907],[145.80249,15.23642],[145.80642,15.23706],[145.80983,15.24077],[145.80735,15.24412],[145.8083,15.24835],[145.81165,15.25271],[145.8107,15.25869],[145.81484,15.26141],[145.82462,15.25908],[145.82816,15.26153],[145.83042,15.27163],[145.82639,15.2749],[145.81888,15.28649],[145.81568,15.2865],[145.8102,15.28968],[145.78652,15.26669],[145.78275,15.26166],[145.78178,15.2571],[145.7775,15.25291],[145.76952,15.25009],[145.7687,15.24797],[145.76258,15.24464],[145.75356,15.24229],[145.75267,15.24021],[145.74714,15.23724],[145.74482,15.23303],[145.73985,15.23132],[145.74047,15.22898],[145.73846,15.22629],[145.73505,15.22711],[145.73226,15.22498],[145.73051,15.22236],[145.73146,15.21987],[145.72958,15.21862],[145.7219,15.21688],[145.72026,15.21943],[145.71709,15.21924],[145.7155,15.21425],[145.71703,15.19599],[145.71413,15.18293],[145.70814,15.16432],[145.70024,15.15677],[145.70049,15.14782],[145.69237,15.13046],[145.69402,15.12421],[145.69014,15.1202]]]]}},{"type":"Feature","id":"69120","properties":{"geoid":"69120","name":"Tinian","displayName":"Tinian Municipality","state":"MP","stateName":"Commonwealth of the Northern Mariana Islands","type":"County or equivalent","lsad":"12","sourceType":"county"},"geometry":{"type":"MultiPolygon","coordinates":[[[[145.58241,15.01778],[145.58401,15.01388],[145.58766,15.01241],[145.58874,15.00952],[145.58489,14.9959],[145.59258,14.99001],[145.59639,14.98979],[145.6031,14.99232],[145.60831,14.99108],[145.60894,14.98594],[145.61301,14.98132],[145.61343,14.97137],[145.6223,14.96454],[145.62593,14.96509],[145.63175,14.9541],[145.63179,14.95058],[145.62854,14.94337],[145.63092,14.92796],[145.63436,14.9232],[145.63908,14.92271],[145.64225,14.92426],[145.65231,14.9377],[145.65136,14.94147],[145.6541,14.94558],[145.65995,14.94877],[145.66483,14.94828],[145.66545,14.94984],[145.66124,14.95842],[145.66152,14.96496],[145.66538,14.97066],[145.66382,14.97699],[145.66774,14.98261],[145.67357,15.00653],[145.66598,15.01803],[145.65934,15.01798],[145.6558,15.02034],[145.64861,15.03361],[145.64695,15.04184],[145.64778,15.0468],[145.6557,15.05318],[145.65882,15.05784],[145.65494,15.06757],[145.6572,15.08181],[145.65442,15.08978],[145.64794,15.09813],[145.64381,15.10072],[145.63264,15.08758],[145.61804,15.07639],[145.60261,15.0574],[145.59682,15.05348],[145.59899,15.05042],[145.59685,15.04063],[145.59202,15.03674],[145.58893,15.03686],[145.58241,15.01778]]],[[[145.53743,14.8456],[145.53939,14.84179],[145.54548,14.84041],[145.55549,14.84396],[145.5625,14.84398],[145.57692,14.85419],[145.57834,14.8631],[145.57724,14.8649],[145.57314,14.8661],[145.54538,14.8553],[145.54072,14.85286],[145.53743,14.8456]]]]}}]}