{"type":"FeatureCollection","features":[{"type":"Feature","id":"31001","properties":{"geoid":"31001","name":"Adams","displayName":"Adams County","state":"NE","stateName":"Nebraska","type":"County or equivalent","lsad":"06","sourceType":"county"},"geometry":{"type":"Polygon","coordinates":[[[-98.72441,40.69889],[-98.72395,40.35039],[-98.27809,40.35035],[-98.2781,40.69829],[-98.72441,40.69889]]]}},{"type":"Feature","id":"31003","properties":{"geoid":"31003","name":"Antelope","displayName":"Antelope County","state":"NE","stateName":"Nebraska","type":"County or equivalent","lsad":"06","sourceType":"county"},"geometry":{"type":"Polygon","coordinates":[[[-98.3006,42.10341],[-98.30059,42.08885],[-98.29544,42.08887],[-98.2956,41.91495],[-97.83329,41.91629],[-97.83495,42.19847],[-97.83443,42.43768],[-98.30024,42.43691],[-98.3006,42.10341]]]}},{"type":"Feature","id":"31005","properties":{"geoid":"31005","name":"Arthur","displayName":"Arthur County","state":"NE","stateName":"Nebraska","type":"County or equivalent","lsad":"06","sourceType":"county"},"geometry":{"type":"Polygon","coordinates":[[[-101.98559,41.5782],[-101.98457,41.39501],[-101.40726,41.39542],[-101.40647,41.7432],[-101.98552,41.74229],[-101.98559,41.5782]]]}},{"type":"Feature","id":"31007","properties":{"geoid":"31007","name":"Banner","displayName":"Banner County","state":"NE","stateName":"Nebraska","type":"County or equivalent","lsad":"06","sourceType":"county"},"geometry":{"type":"Polygon","coordinates":[[[-104.05294,41.63817],[-104.05229,41.39321],[-103.37045,41.39468],[-103.36715,41.54182],[-103.37039,41.69921],[-104.05283,41.69782],[-104.05294,41.63817]]]}},{"type":"Feature","id":"31009","properties":{"geoid":"31009","name":"Blaine","displayName":"Blaine County","state":"NE","stateName":"Nebraska","type":"County or equivalent","lsad":"06","sourceType":"county"},"geometry":{"type":"Polygon","coordinates":[[[-100.26762,42.08615],[-100.26547,41.73986],[-100.00199,41.7386],[-99.68683,41.74033],[-99.68696,42.08608],[-100.26762,42.08615]]]}},{"type":"Feature","id":"31011","properties":{"geoid":"31011","name":"Boone","displayName":"Boone County","state":"NE","stateName":"Nebraska","type":"County or equivalent","lsad":"06","sourceType":"county"},"geometry":{"type":"Polygon","coordinates":[[[-98.29582,41.7956],[-98.29576,41.74118],[-98.29094,41.74121],[-98.29134,41.48073],[-98.09952,41.48078],[-98.0998,41.49539],[-98.04146,41.49599],[-98.04133,41.51053],[-97.88642,41.51139],[-97.88549,41.52587],[-97.82985,41.52617],[-97.83104,41.58311],[-97.83049,41.74224],[-97.83224,41.74223],[-97.83329,41.91629],[-98.2956,41.91495],[-98.29582,41.7956]]]}},{"type":"Feature","id":"31013","properties":{"geoid":"31013","name":"Box Butte","displayName":"Box Butte County","state":"NE","stateName":"Nebraska","type":"County or equivalent","lsad":"06","sourceType":"county"},"geometry":{"type":"Polygon","coordinates":[[[-103.44433,42.17799],[-103.44411,42.09071],[-103.40159,42.09041],[-103.40152,42.00354],[-103.26649,42.00198],[-103.13164,42.00324],[-102.86232,42.00066],[-102.69784,42.00484],[-102.69882,42.02664],[-102.7021,42.05132],[-102.70238,42.09275],[-102.74227,42.09239],[-102.74158,42.17772],[-102.74647,42.24997],[-102.74768,42.35185],[-102.75153,42.35711],[-102.74943,42.43993],[-103.00047,42.4378],[-103.44428,42.43728],[-103.44433,42.17799]]]}},{"type":"Feature","id":"31015","properties":{"geoid":"31015","name":"Boyd","displayName":"Boyd County","state":"NE","stateName":"Nebraska","type":"County or equivalent","lsad":"06","sourceType":"county"},"geometry":{"type":"Polygon","coordinates":[[[-99.25758,42.90198],[-99.25704,42.8043],[-99.2492,42.80902],[-99.22573,42.81431],[-99.20771,42.82305],[-99.17881,42.82948],[-99.16611,42.83734],[-99.1538,42.84188],[-99.12804,42.84427],[-99.12058,42.84841],[-99.09629,42.85628],[-99.06711,42.86229],[-99.05676,42.8626],[-99.05364,42.8663],[-99.0355,42.87601],[-99.03124,42.87676],[-99.01679,42.88626],[-99.00651,42.88873],[-99.00284,42.88807],[-98.99416,42.89436],[-98.98253,42.89644],[-98.96698,42.89672],[-98.95463,42.89408],[-98.94724,42.88579],[-98.94176,42.88403],[-98.94088,42.88075],[-98.93297,42.87875],[-98.92738,42.875],[-98.91353,42.86147],[-98.90047,42.85456],[-98.89285,42.84579],[-98.88844,42.84348],[-98.8778,42.84118],[-98.85391,42.84318],[-98.84296,42.84649],[-98.81828,42.83015],[-98.81128,42.82775],[-98.79259,42.82427],[-98.77889,42.82738],[-98.76322,42.8279],[-98.7357,42.81588],[-98.72291,42.8079],[-98.70838,42.80335],[-98.6895,42.8043],[-98.67462,42.8027],[-98.65684,42.80902],[-98.63914,42.80363],[-98.62894,42.79651],[-98.61537,42.79383],[-98.58376,42.77974],[-98.56738,42.77887],[-98.5583,42.78143],[-98.54847,42.78165],[-98.53544,42.77749],[-98.53119,42.77462],[-98.52488,42.77607],[-98.51867,42.7731],[-98.51132,42.77475],[-98.50617,42.77305],[-98.49093,42.7731],[-98.47578,42.77012],[-98.46567,42.76621],[-98.4458,42.77004],[-98.434,42.76946],[-98.42872,42.77472],[-98.41602,42.77567],[-98.3806,42.77222],[-98.36722,42.76773],[-98.35987,42.76764],[-98.34928,42.77075],[-98.3406,42.77066],[-98.31944,42.76632],[-98.31527,42.76362],[-98.30515,42.76121],[-98.30505,42.78464],[-98.31024,42.78462],[-98.30977,42.88256],[-98.32966,42.88844],[-98.33799,42.89776],[-98.34623,42.90275],[-98.40782,42.92575],[-98.42074,42.93192],[-98.43093,42.9315],[-98.43728,42.92839],[-98.44414,42.92924],[-98.44831,42.93643],[-98.46736,42.94756],[-98.49048,42.97795],[-98.49575,42.98803],[-98.49855,42.99856],[-99.25445,42.99814],[-99.25396,42.90485],[-99.25682,42.90493],[-99.25758,42.90198]]]}},{"type":"Feature","id":"31017","properties":{"geoid":"31017","name":"Brown","displayName":"Brown County","state":"NE","stateName":"Nebraska","type":"County or equivalent","lsad":"06","sourceType":"county"},"geometry":{"type":"Polygon","coordinates":[[[-100.19853,42.81052],[-100.19858,42.78102],[-100.18327,42.781],[-100.18317,42.4335],[-100.16754,42.43328],[-100.1676,42.08585],[-99.66238,42.08601],[-99.66375,42.43461],[-99.67589,42.43445],[-99.67768,42.7309],[-99.68551,42.72837],[-99.69294,42.73051],[-99.7112,42.72711],[-99.72841,42.73202],[-99.74027,42.73346],[-99.75249,42.73763],[-99.77509,42.73503],[-99.78997,42.73933],[-99.80087,42.73937],[-99.81925,42.74329],[-99.83726,42.75411],[-99.85153,42.75121],[-99.85505,42.75285],[-99.85803,42.75882],[-99.85874,42.76462],[-99.86216,42.769],[-99.88698,42.76794],[-99.89804,42.76546],[-99.91173,42.76842],[-99.92579,42.76782],[-99.94727,42.77299],[-99.96886,42.77247],[-99.9778,42.77529],[-99.99412,42.7847],[-100.00781,42.78857],[-100.02121,42.78553],[-100.03146,42.78774],[-100.04257,42.78501],[-100.05592,42.78544],[-100.06415,42.7875],[-100.06864,42.7904],[-100.08327,42.79208],[-100.09494,42.79613],[-100.11334,42.79968],[-100.11432,42.8034],[-100.11742,42.80536],[-100.13398,42.80782],[-100.139,42.81338],[-100.13403,42.82065],[-100.14403,42.82413],[-100.14536,42.83022],[-100.15036,42.83255],[-100.16134,42.82757],[-100.1632,42.82876],[-100.16208,42.83162],[-100.16332,42.83344],[-100.18778,42.83761],[-100.19848,42.8461],[-100.19853,42.81052]]]}},{"type":"Feature","id":"31019","properties":{"geoid":"31019","name":"Buffalo","displayName":"Buffalo County","state":"NE","stateName":"Nebraska","type":"County or equivalent","lsad":"06","sourceType":"county"},"geometry":{"type":"Polygon","coordinates":[[[-99.4268,40.7866],[-99.42655,40.69977],[-99.41641,40.69974],[-99.41732,40.67082],[-99.41167,40.66757],[-99.40413,40.66922],[-99.38036,40.66483],[-99.36991,40.66452],[-99.35182,40.66958],[-99.33866,40.66958],[-99.33163,40.67144],[-99.29274,40.66265],[-99.27585,40.66169],[-99.25875,40.66454],[-99.24234,40.65889],[-99.20419,40.66199],[-99.19445,40.65998],[-99.18258,40.66137],[-99.1705,40.65849],[-99.15887,40.66009],[-99.1471,40.65734],[-99.11547,40.6548],[-99.08098,40.65698],[-99.05782,40.65565],[-99.05313,40.65401],[-99.04181,40.65525],[-99.03365,40.65253],[-99.00289,40.65372],[-98.99603,40.65216],[-98.9737,40.65704],[-98.94548,40.65382],[-98.93095,40.65486],[-98.90853,40.65261],[-98.89279,40.65448],[-98.8905,40.65679],[-98.88185,40.65793],[-98.87767,40.66028],[-98.86673,40.6593],[-98.84988,40.66503],[-98.84146,40.66998],[-98.83329,40.67028],[-98.82659,40.67478],[-98.80363,40.67568],[-98.79813,40.67916],[-98.791,40.68076],[-98.78154,40.68025],[-98.77231,40.68336],[-98.75968,40.68397],[-98.74887,40.68873],[-98.73372,40.68738],[-98.72531,40.68926],[-98.72441,40.69889],[-98.72143,40.6989],[-98.72198,41.04667],[-99.42599,41.04647],[-99.4268,40.7866]]]}},{"type":"Feature","id":"31021","properties":{"geoid":"31021","name":"Burt","displayName":"Burt County","state":"NE","stateName":"Nebraska","type":"County or equivalent","lsad":"06","sourceType":"county"},"geometry":{"type":"Polygon","coordinates":[[[-96.55525,41.88317],[-96.55517,41.74202],[-96.44422,41.74177],[-96.44478,41.68363],[-96.12171,41.68299],[-96.12016,41.69115],[-96.11197,41.69777],[-96.10512,41.69992],[-96.09058,41.69743],[-96.08243,41.69816],[-96.07596,41.70166],[-96.07232,41.70686],[-96.07338,41.71067],[-96.07968,41.71796],[-96.10261,41.72802],[-96.10558,41.73165],[-96.10642,41.73789],[-96.10277,41.74634],[-96.08467,41.75331],[-96.07992,41.7579],[-96.0783,41.7616],[-96.07894,41.77135],[-96.07754,41.77782],[-96.06641,41.78891],[-96.06488,41.79623],[-96.06966,41.80351],[-96.07555,41.80781],[-96.09827,41.81421],[-96.10759,41.82068],[-96.11081,41.82817],[-96.10791,41.84034],[-96.11025,41.84885],[-96.1162,41.85487],[-96.13525,41.86313],[-96.14204,41.86886],[-96.14608,41.87499],[-96.14883,41.88813],[-96.16176,41.90182],[-96.16199,41.90555],[-96.1591,41.91006],[-96.14226,41.91538],[-96.13674,41.92083],[-96.13661,41.92717],[-96.14349,41.93739],[-96.14458,41.94154],[-96.1426,41.94591],[-96.13332,41.95573],[-96.12919,41.96514],[-96.1295,41.97167],[-96.13254,41.97462],[-96.14123,41.97806],[-96.15654,41.98014],[-96.1772,41.97632],[-96.18626,41.97742],[-96.1906,41.98072],[-96.19214,41.98446],[-96.18478,41.99546],[-96.18357,41.99999],[-96.18807,42.00632],[-96.19456,42.00866],[-96.20608,42.00927],[-96.21522,42.0067],[-96.22181,41.99738],[-96.22546,41.99473],[-96.23649,41.99643],[-96.24204,42.00091],[-96.24193,42.00696],[-96.23886,42.01232],[-96.22787,42.01865],[-96.22173,42.0262],[-96.22382,42.03335],[-96.23212,42.03914],[-96.24683,42.04162],[-96.25609,42.03808],[-96.26113,42.03897],[-96.26864,42.04231],[-96.2729,42.04728],[-96.30939,42.04669],[-96.30964,42.01519],[-96.46037,42.01705],[-96.55487,42.01588],[-96.55525,41.88317]]]}},{"type":"Feature","id":"31023","properties":{"geoid":"31023","name":"Butler","displayName":"Butler County","state":"NE","stateName":"Nebraska","type":"County or equivalent","lsad":"06","sourceType":"county"},"geometry":{"type":"Polygon","coordinates":[[[-97.36819,41.33875],[-97.36812,41.04695],[-96.90851,41.04609],[-96.90852,41.36512],[-96.90823,41.39409],[-96.90577,41.39409],[-96.90591,41.45644],[-96.92649,41.45505],[-96.95473,41.44356],[-96.9647,41.4418],[-96.9916,41.42622],[-96.99872,41.41988],[-97.01573,41.41385],[-97.05683,41.41253],[-97.08205,41.39972],[-97.09121,41.39289],[-97.10643,41.38789],[-97.12353,41.38745],[-97.13722,41.3832],[-97.15429,41.38256],[-97.17561,41.37708],[-97.18573,41.37909],[-97.19927,41.38584],[-97.22618,41.38361],[-97.25417,41.38429],[-97.26152,41.38632],[-97.27764,41.39737],[-97.28776,41.40064],[-97.31066,41.39997],[-97.34087,41.39109],[-97.36818,41.39763],[-97.36819,41.33875]]]}},{"type":"Feature","id":"31025","properties":{"geoid":"31025","name":"Cass","displayName":"Cass County","state":"NE","stateName":"Nebraska","type":"County or equivalent","lsad":"06","sourceType":"county"},"geometry":{"type":"Polygon","coordinates":[[[-96.46386,41.01607],[-96.46376,40.78396],[-95.83422,40.78378],[-95.83582,40.79063],[-95.84374,40.80378],[-95.84534,40.81132],[-95.84392,40.81769],[-95.8386,40.82618],[-95.83719,40.83535],[-95.84131,40.8456],[-95.84708,40.85417],[-95.84859,40.86106],[-95.84694,40.86574],[-95.84252,40.87027],[-95.82499,40.875],[-95.81593,40.87985],[-95.81071,40.88668],[-95.80978,40.89545],[-95.8143,40.90294],[-95.8307,40.915],[-95.83777,40.92471],[-95.84028,40.93994],[-95.83795,40.95062],[-95.82983,40.96386],[-95.82833,40.97238],[-95.8303,40.97833],[-95.83891,40.98648],[-95.86012,40.99524],[-95.86729,41.0016],[-95.86949,41.0094],[-95.86588,41.0174],[-95.85992,41.0254],[-95.8591,41.0316],[-95.86046,41.03789],[-95.87949,41.0533],[-95.88922,41.05844],[-95.91803,41.05984],[-95.94614,41.05762],[-95.961,41.06077],[-95.96729,41.05944],[-95.97878,41.05336],[-95.98734,41.05272],[-96.00309,41.06052],[-96.01806,41.06148],[-96.03406,41.066],[-96.05626,41.06536],[-96.07365,41.05805],[-96.10337,41.05195],[-96.10986,41.0484],[-96.11908,41.03856],[-96.13124,41.03139],[-96.14469,41.0176],[-96.15335,41.01588],[-96.19349,41.00025],[-96.21442,40.99447],[-96.22325,40.99563],[-96.23296,41.00086],[-96.24076,41.0134],[-96.2476,41.01778],[-96.27548,41.02008],[-96.28439,41.02175],[-96.2973,41.0268],[-96.31128,41.03643],[-96.31919,41.045],[-96.34903,41.04495],[-96.34947,41.01532],[-96.46386,41.01607]]]}},{"type":"Feature","id":"31027","properties":{"geoid":"31027","name":"Cedar","displayName":"Cedar County","state":"NE","stateName":"Nebraska","type":"County or equivalent","lsad":"06","sourceType":"county"},"geometry":{"type":"Polygon","coordinates":[[[-97.48586,42.78672],[-97.4853,42.43858],[-97.36759,42.43878],[-97.36772,42.35186],[-97.01779,42.35135],[-97.01753,42.43807],[-97.01528,42.43804],[-97.01582,42.7616],[-97.02485,42.76243],[-97.03323,42.7659],[-97.06559,42.77219],[-97.09613,42.76934],[-97.11162,42.76939],[-97.13133,42.77193],[-97.13446,42.77449],[-97.13822,42.78343],[-97.15076,42.79557],[-97.16698,42.80209],[-97.20043,42.80548],[-97.21013,42.8093],[-97.21308,42.81301],[-97.21396,42.82014],[-97.21827,42.82956],[-97.21741,42.84352],[-97.21882,42.84585],[-97.23193,42.85134],[-97.24856,42.85539],[-97.26795,42.85258],[-97.28986,42.8555],[-97.30208,42.86566],[-97.30668,42.8676],[-97.33616,42.8568],[-97.35957,42.85482],[-97.36864,42.85842],[-97.3767,42.8652],[-97.39397,42.86425],[-97.40832,42.86833],[-97.41707,42.86592],[-97.43195,42.85154],[-97.44228,42.84622],[-97.45218,42.84605],[-97.47053,42.85046],[-97.48492,42.85037],[-97.48586,42.78672]]]}},{"type":"Feature","id":"31029","properties":{"geoid":"31029","name":"Chase","displayName":"Chase County","state":"NE","stateName":"Nebraska","type":"County or equivalent","lsad":"06","sourceType":"county"},"geometry":{"type":"Polygon","coordinates":[[[-102.05184,40.39656],[-102.05155,40.34921],[-101.34279,40.35044],[-101.34536,40.69809],[-101.62839,40.70022],[-102.0514,40.69754],[-102.05184,40.39656]]]}},{"type":"Feature","id":"31031","properties":{"geoid":"31031","name":"Cherry","displayName":"Cherry County","state":"NE","stateName":"Nebraska","type":"County or equivalent","lsad":"06","sourceType":"county"},"geometry":{"type":"Polygon","coordinates":[[[-102.08414,42.87246],[-102.08496,42.78551],[-102.0669,42.78549],[-102.06669,42.44346],[-102.03817,42.44331],[-102.04028,42.09674],[-101.85512,42.0942],[-100.87543,42.08822],[-100.1676,42.08585],[-100.16754,42.43328],[-100.18317,42.4335],[-100.18327,42.781],[-100.19858,42.78102],[-100.19841,42.99854],[-100.47274,42.99929],[-101.62542,42.99624],[-101.84998,42.99933],[-102.08255,42.99936],[-102.08414,42.87246]]]}},{"type":"Feature","id":"31033","properties":{"geoid":"31033","name":"Cheyenne","displayName":"Cheyenne County","state":"NE","stateName":"Nebraska","type":"County or equivalent","lsad":"06","sourceType":"county"},"geometry":{"type":"Polygon","coordinates":[[[-103.38249,41.04767],[-103.38249,41.00223],[-102.62103,41.0026],[-102.62087,41.048],[-102.61021,41.04821],[-102.61095,41.16397],[-102.60939,41.39511],[-102.63674,41.39522],[-102.63652,41.43881],[-103.369,41.43777],[-103.37045,41.39468],[-103.37762,41.39463],[-103.37759,41.32145],[-103.3756,41.30613],[-103.37569,41.04762],[-103.38249,41.04767]]]}},{"type":"Feature","id":"31035","properties":{"geoid":"31035","name":"Clay","displayName":"Clay County","state":"NE","stateName":"Nebraska","type":"County or equivalent","lsad":"06","sourceType":"county"},"geometry":{"type":"Polygon","coordinates":[[[-98.27831,40.56774],[-98.27809,40.35035],[-97.82411,40.35054],[-97.82478,40.69854],[-98.2781,40.69829],[-98.27831,40.56774]]]}},{"type":"Feature","id":"31037","properties":{"geoid":"31037","name":"Colfax","displayName":"Colfax County","state":"NE","stateName":"Nebraska","type":"County or equivalent","lsad":"06","sourceType":"county"},"geometry":{"type":"Polygon","coordinates":[[[-97.25334,41.3951],[-97.25352,41.38421],[-97.22618,41.38361],[-97.19927,41.38584],[-97.17846,41.37682],[-97.15429,41.38256],[-97.13722,41.3832],[-97.12065,41.38789],[-97.10643,41.38789],[-97.09121,41.39289],[-97.08205,41.39972],[-97.05683,41.41253],[-97.01573,41.41385],[-96.99872,41.41988],[-96.9916,41.42622],[-96.9647,41.4418],[-96.95473,41.44356],[-96.92649,41.45505],[-96.90591,41.45644],[-96.90592,41.74276],[-97.25242,41.74308],[-97.25334,41.3951]]]}},{"type":"Feature","id":"31039","properties":{"geoid":"31039","name":"Cuming","displayName":"Cuming County","state":"NE","stateName":"Nebraska","type":"County or equivalent","lsad":"06","sourceType":"county"},"geometry":{"type":"Polygon","coordinates":[[[-97.01989,41.74539],[-97.01991,41.74298],[-96.55517,41.74202],[-96.55551,42.08996],[-97.01936,42.09058],[-97.01989,41.74539]]]}},{"type":"Feature","id":"31041","properties":{"geoid":"31041","name":"Custer","displayName":"Custer County","state":"NE","stateName":"Nebraska","type":"County or equivalent","lsad":"06","sourceType":"county"},"geometry":{"type":"Polygon","coordinates":[[[-100.25281,41.62486],[-100.25128,41.39575],[-100.2511,41.3933],[-100.23611,41.39332],[-100.23616,41.32181],[-100.23434,41.27739],[-100.23758,41.16194],[-100.23816,41.04654],[-99.20756,41.047],[-99.20326,41.39414],[-99.21246,41.39424],[-99.21202,41.74061],[-99.37971,41.74151],[-100.00199,41.7386],[-100.25122,41.73982],[-100.25281,41.62486]]]}},{"type":"Feature","id":"31043","properties":{"geoid":"31043","name":"Dakota","displayName":"Dakota County","state":"NE","stateName":"Nebraska","type":"County or equivalent","lsad":"06","sourceType":"county"},"geometry":{"type":"Polygon","coordinates":[[[-96.72661,42.28468],[-96.72666,42.278],[-96.35641,42.27649],[-96.36579,42.28588],[-96.36845,42.29185],[-96.36921,42.30834],[-96.37179,42.31417],[-96.38417,42.32587],[-96.408,42.33741],[-96.4139,42.34339],[-96.41779,42.35145],[-96.41709,42.36144],[-96.40844,42.37609],[-96.40915,42.38149],[-96.41498,42.39344],[-96.41551,42.40029],[-96.41361,42.40789],[-96.38761,42.43249],[-96.38071,42.44639],[-96.38131,42.46169],[-96.38601,42.4745],[-96.39611,42.4841],[-96.40941,42.4876],[-96.44551,42.49063],[-96.45975,42.48692],[-96.47556,42.48004],[-96.4895,42.48011],[-96.50132,42.48275],[-96.50859,42.48669],[-96.51589,42.49427],[-96.52068,42.50476],[-96.52875,42.51327],[-96.53804,42.51813],[-96.54879,42.52055],[-96.55778,42.52038],[-96.5679,42.51788],[-96.58435,42.50783],[-96.59112,42.50541],[-96.60347,42.50446],[-96.61149,42.50609],[-96.62596,42.51358],[-96.63149,42.52432],[-96.72223,42.52465],[-96.72195,42.43746],[-96.72614,42.4374],[-96.72637,42.43084],[-96.72661,42.28468]]]}},{"type":"Feature","id":"31045","properties":{"geoid":"31045","name":"Dawes","displayName":"Dawes County","state":"NE","stateName":"Nebraska","type":"County or equivalent","lsad":"06","sourceType":"county"},"geometry":{"type":"Polygon","coordinates":[[[-103.5051,43.00077],[-103.50309,42.78491],[-103.48034,42.78491],[-103.48001,42.43727],[-103.00047,42.4378],[-102.77337,42.43992],[-102.77337,42.78526],[-102.79266,42.78516],[-102.79211,42.99998],[-103.5051,43.00077]]]}},{"type":"Feature","id":"31047","properties":{"geoid":"31047","name":"Dawson","displayName":"Dawson County","state":"NE","stateName":"Nebraska","type":"County or equivalent","lsad":"06","sourceType":"county"},"geometry":{"type":"Polygon","coordinates":[[[-100.22436,40.92931],[-100.22331,40.70025],[-99.69927,40.69997],[-99.69429,40.69928],[-99.68666,40.69519],[-99.67387,40.69265],[-99.66494,40.68772],[-99.63982,40.68456],[-99.6223,40.6861],[-99.60727,40.68301],[-99.60029,40.67979],[-99.58346,40.67719],[-99.55592,40.68083],[-99.54015,40.68024],[-99.53014,40.67532],[-99.51029,40.67704],[-99.49832,40.6749],[-99.46508,40.67471],[-99.44765,40.67808],[-99.43578,40.67354],[-99.42381,40.67332],[-99.41732,40.67082],[-99.41641,40.69974],[-99.42655,40.69977],[-99.42599,41.04647],[-100.22424,41.0466],[-100.22436,40.92931]]]}},{"type":"Feature","id":"31049","properties":{"geoid":"31049","name":"Deuel","displayName":"Deuel County","state":"NE","stateName":"Nebraska","type":"County or equivalent","lsad":"06","sourceType":"county"},"geometry":{"type":"Polygon","coordinates":[[[-102.62087,41.048],[-102.62103,41.0026],[-102.05172,41.00238],[-102.05181,41.04744],[-102.05553,41.04746],[-102.0556,41.22155],[-102.61041,41.22161],[-102.61021,41.04821],[-102.62087,41.048]]]}},{"type":"Feature","id":"31051","properties":{"geoid":"31051","name":"Dixon","displayName":"Dixon County","state":"NE","stateName":"Nebraska","type":"County or equivalent","lsad":"06","sourceType":"county"},"geometry":{"type":"Polygon","coordinates":[[[-97.01779,42.35135],[-97.01773,42.26445],[-96.72619,42.2641],[-96.72637,42.43084],[-96.72614,42.4374],[-96.72195,42.43746],[-96.72223,42.52465],[-96.63149,42.52432],[-96.63332,42.54021],[-96.63803,42.55196],[-96.64814,42.56088],[-96.65875,42.56643],[-96.68137,42.57449],[-96.7093,42.60375],[-96.71155,42.61476],[-96.70948,42.62193],[-96.69685,42.6376],[-96.68908,42.64408],[-96.68698,42.64978],[-96.68767,42.65313],[-96.69764,42.65914],[-96.72802,42.66688],[-96.74695,42.66622],[-96.76406,42.66198],[-96.79324,42.66602],[-96.80099,42.66976],[-96.80218,42.67224],[-96.80048,42.69247],[-96.80165,42.69877],[-96.80622,42.70415],[-96.84342,42.71202],[-96.86044,42.7208],[-96.87279,42.7241],[-96.88684,42.72522],[-96.9068,42.7338],[-96.91828,42.73185],[-96.93345,42.72381],[-96.93759,42.7196],[-96.95586,42.71918],[-96.96353,42.72064],[-96.96583,42.7271],[-96.96087,42.73909],[-96.96888,42.75428],[-96.97912,42.76009],[-96.99282,42.75948],[-97.01582,42.7616],[-97.01528,42.43804],[-97.01753,42.43807],[-97.01779,42.35135]]]}},{"type":"Feature","id":"31053","properties":{"geoid":"31053","name":"Dodge","displayName":"Dodge County","state":"NE","stateName":"Nebraska","type":"County or equivalent","lsad":"06","sourceType":"county"},"geometry":{"type":"Polygon","coordinates":[[[-96.90603,41.62635],[-96.90586,41.45339],[-96.8842,41.45279],[-96.86199,41.44932],[-96.8543,41.44545],[-96.83376,41.4457],[-96.82956,41.44323],[-96.8152,41.43958],[-96.79782,41.44467],[-96.78863,41.44452],[-96.7743,41.45008],[-96.74647,41.44958],[-96.73158,41.44484],[-96.71021,41.43068],[-96.70347,41.42995],[-96.69374,41.42574],[-96.6727,41.42609],[-96.65573,41.42941],[-96.65077,41.43279],[-96.64033,41.43618],[-96.634,41.43436],[-96.60778,41.43307],[-96.60335,41.43474],[-96.5694,41.4333],[-96.55914,41.42988],[-96.5203,41.40826],[-96.50951,41.40422],[-96.50424,41.39662],[-96.49593,41.39403],[-96.49221,41.39746],[-96.48816,41.3933],[-96.32901,41.39314],[-96.32892,41.43662],[-96.36734,41.4367],[-96.3672,41.45095],[-96.38648,41.45125],[-96.38642,41.46575],[-96.40562,41.46582],[-96.40594,41.48046],[-96.42521,41.48034],[-96.42522,41.49486],[-96.43479,41.49493],[-96.43446,41.52393],[-96.4439,41.52393],[-96.44422,41.74177],[-96.90592,41.74276],[-96.90603,41.62635]]]}},{"type":"Feature","id":"31055","properties":{"geoid":"31055","name":"Douglas","displayName":"Douglas County","state":"NE","stateName":"Nebraska","type":"County or equivalent","lsad":"06","sourceType":"county"},"geometry":{"type":"Polygon","coordinates":[[[-96.47072,41.39324],[-96.45951,41.38032],[-96.43962,41.37013],[-96.4244,41.36612],[-96.42034,41.36302],[-96.41382,41.3537],[-96.40744,41.33662],[-96.40686,41.32874],[-96.40796,41.32173],[-96.40968,41.32014],[-96.40761,41.31461],[-96.39053,41.3032],[-96.38194,41.30053],[-96.37559,41.2966],[-96.36057,41.28041],[-96.34966,41.26216],[-96.35081,41.25625],[-96.36547,41.23554],[-96.36138,41.21922],[-96.35431,41.20747],[-96.35068,41.20419],[-96.33255,41.19556],[-96.3274,41.19],[-95.92331,41.1912],[-95.92749,41.2022],[-95.92489,41.2112],[-95.91259,41.227],[-95.91089,41.234],[-95.91139,41.238],[-95.92129,41.2585],[-95.92189,41.2646],[-95.92039,41.2684],[-95.91399,41.2714],[-95.92869,41.2814],[-95.92959,41.2923],[-95.92749,41.2984],[-95.92029,41.3011],[-95.90589,41.3009],[-95.90429,41.2996],[-95.90429,41.2935],[-95.91249,41.2795],[-95.90249,41.2734],[-95.88239,41.2814],[-95.87689,41.2851],[-95.87289,41.2895],[-95.87149,41.2958],[-95.87469,41.3071],[-95.88309,41.3167],[-95.89929,41.3212],[-95.91379,41.3202],[-95.92569,41.3222],[-95.93929,41.3289],[-95.95309,41.3399],[-95.95669,41.3455],[-95.95679,41.3492],[-95.95489,41.3518],[-95.93549,41.3606],[-95.93099,41.3647],[-95.92879,41.3701],[-95.92929,41.3749],[-95.93519,41.3844],[-95.93749,41.3931],[-96.47072,41.39324]]]}},{"type":"Feature","id":"31057","properties":{"geoid":"31057","name":"Dundy","displayName":"Dundy County","state":"NE","stateName":"Nebraska","type":"County or equivalent","lsad":"06","sourceType":"county"},"geometry":{"type":"Polygon","coordinates":[[[-102.05191,40.16267],[-102.05174,40.00308],[-101.32404,40.0027],[-101.32528,40.29308],[-101.32335,40.35055],[-102.05155,40.34921],[-102.05191,40.16267]]]}},{"type":"Feature","id":"31059","properties":{"geoid":"31059","name":"Fillmore","displayName":"Fillmore County","state":"NE","stateName":"Nebraska","type":"County or equivalent","lsad":"06","sourceType":"county"},"geometry":{"type":"Polygon","coordinates":[[[-97.82478,40.69854],[-97.82411,40.35054],[-97.36869,40.35039],[-97.3684,40.69862],[-97.82478,40.69854]]]}},{"type":"Feature","id":"31061","properties":{"geoid":"31061","name":"Franklin","displayName":"Franklin County","state":"NE","stateName":"Nebraska","type":"County or equivalent","lsad":"06","sourceType":"county"},"geometry":{"type":"Polygon","coordinates":[[[-99.1794,40.35068],[-99.17913,40.00198],[-98.72637,40.00222],[-98.72683,40.3504],[-99.1794,40.35068]]]}},{"type":"Feature","id":"31063","properties":{"geoid":"31063","name":"Frontier","displayName":"Frontier County","state":"NE","stateName":"Nebraska","type":"County or equivalent","lsad":"06","sourceType":"county"},"geometry":{"type":"Polygon","coordinates":[[[-100.78302,40.54166],[-100.77957,40.375],[-100.77738,40.34947],[-100.36697,40.3515],[-100.26893,40.34924],[-100.0948,40.35124],[-100.0951,40.43866],[-99.98119,40.43829],[-99.98174,40.7],[-100.77783,40.70014],[-100.77993,40.68231],[-100.78302,40.54166]]]}},{"type":"Feature","id":"31065","properties":{"geoid":"31065","name":"Furnas","displayName":"Furnas County","state":"NE","stateName":"Nebraska","type":"County or equivalent","lsad":"06","sourceType":"county"},"geometry":{"type":"Polygon","coordinates":[[[-100.19781,40.35003],[-100.19526,40.27047],[-100.19359,40.00157],[-99.62825,40.00187],[-99.62992,40.08906],[-99.63046,40.35112],[-100.0948,40.35124],[-100.19781,40.35003]]]}},{"type":"Feature","id":"31067","properties":{"geoid":"31067","name":"Gage","displayName":"Gage County","state":"NE","stateName":"Nebraska","type":"County or equivalent","lsad":"06","sourceType":"county"},"geometry":{"type":"Polygon","coordinates":[[[-96.91663,40.08319],[-96.91641,40.00151],[-96.46371,40.00097],[-96.46363,40.52301],[-96.91264,40.52363],[-96.91326,40.34972],[-96.91606,40.34973],[-96.91663,40.08319]]]}},{"type":"Feature","id":"31069","properties":{"geoid":"31069","name":"Garden","displayName":"Garden County","state":"NE","stateName":"Nebraska","type":"County or equivalent","lsad":"06","sourceType":"county"},"geometry":{"type":"Polygon","coordinates":[[[-102.67871,41.81454],[-102.67699,41.78696],[-102.66431,41.74319],[-102.6358,41.74283],[-102.63795,41.71377],[-102.63674,41.39522],[-102.60939,41.39511],[-102.61041,41.22161],[-102.0556,41.22155],[-102.05526,41.39516],[-101.98457,41.39501],[-101.98552,41.74229],[-102.06776,41.74208],[-102.06665,42.0092],[-102.67758,42.00528],[-102.67871,41.81454]]]}},{"type":"Feature","id":"31071","properties":{"geoid":"31071","name":"Garfield","displayName":"Garfield County","state":"NE","stateName":"Nebraska","type":"County or equivalent","lsad":"06","sourceType":"county"},"geometry":{"type":"Polygon","coordinates":[[[-99.22273,42.08792],[-99.22183,41.74079],[-98.75913,41.74038],[-98.76116,42.08852],[-99.22273,42.08792]]]}},{"type":"Feature","id":"31073","properties":{"geoid":"31073","name":"Gosper","displayName":"Gosper County","state":"NE","stateName":"Nebraska","type":"County or equivalent","lsad":"06","sourceType":"county"},"geometry":{"type":"Polygon","coordinates":[[[-100.0951,40.43866],[-100.0948,40.35124],[-99.64221,40.3512],[-99.64421,40.41752],[-99.64346,40.68491],[-99.66494,40.68772],[-99.67387,40.69265],[-99.68666,40.69519],[-99.69429,40.69928],[-99.69927,40.69997],[-99.98174,40.7],[-99.98119,40.43829],[-100.0951,40.43866]]]}},{"type":"Feature","id":"31075","properties":{"geoid":"31075","name":"Grant","displayName":"Grant County","state":"NE","stateName":"Nebraska","type":"County or equivalent","lsad":"06","sourceType":"county"},"geometry":{"type":"Polygon","coordinates":[[[-102.06665,42.0092],[-102.06776,41.74208],[-101.42592,41.74306],[-101.42656,42.09219],[-102.00643,42.09623],[-102.00856,42.0089],[-102.06665,42.0092]]]}},{"type":"Feature","id":"31077","properties":{"geoid":"31077","name":"Greeley","displayName":"Greeley County","state":"NE","stateName":"Nebraska","type":"County or equivalent","lsad":"06","sourceType":"county"},"geometry":{"type":"Polygon","coordinates":[[[-98.75222,41.74037],[-98.75156,41.39408],[-98.29142,41.39389],[-98.29094,41.74121],[-98.75222,41.74037]]]}},{"type":"Feature","id":"31079","properties":{"geoid":"31079","name":"Hall","displayName":"Hall County","state":"NE","stateName":"Nebraska","type":"County or equivalent","lsad":"06","sourceType":"county"},"geometry":{"type":"Polygon","coordinates":[[[-98.72198,41.04667],[-98.72143,40.6989],[-98.28285,40.69828],[-98.28236,41.04636],[-98.72198,41.04667]]]}},{"type":"Feature","id":"31081","properties":{"geoid":"31081","name":"Hamilton","displayName":"Hamilton County","state":"NE","stateName":"Nebraska","type":"County or equivalent","lsad":"06","sourceType":"county"},"geometry":{"type":"Polygon","coordinates":[[[-98.28279,40.76359],[-98.28285,40.69828],[-97.82572,40.69856],[-97.82629,41.04658],[-97.82794,41.04657],[-97.82826,41.17344],[-97.84729,41.14986],[-97.87225,41.12657],[-97.87407,41.12315],[-97.88575,41.11465],[-97.91093,41.10451],[-97.92439,41.10099],[-97.94382,41.09225],[-97.95584,41.09004],[-97.9668,41.08562],[-97.97038,41.09084],[-98.01055,41.07276],[-98.03004,41.04974],[-98.05417,41.03779],[-98.07557,41.01863],[-98.08444,41.01618],[-98.08375,41.01499],[-98.08896,41.00966],[-98.09963,41.00772],[-98.10065,41.00872],[-98.13265,40.99015],[-98.14627,40.98428],[-98.15166,40.97547],[-98.16978,40.95477],[-98.20694,40.93659],[-98.21547,40.93052],[-98.22676,40.91801],[-98.23626,40.91341],[-98.27513,40.87958],[-98.28258,40.86868],[-98.28279,40.76359]]]}},{"type":"Feature","id":"31083","properties":{"geoid":"31083","name":"Harlan","displayName":"Harlan County","state":"NE","stateName":"Nebraska","type":"County or equivalent","lsad":"06","sourceType":"county"},"geometry":{"type":"Polygon","coordinates":[[[-99.63068,40.24673],[-99.62825,40.00187],[-99.17913,40.00198],[-99.1794,40.35068],[-99.63046,40.35112],[-99.63068,40.24673]]]}},{"type":"Feature","id":"31085","properties":{"geoid":"31085","name":"Hayes","displayName":"Hayes County","state":"NE","stateName":"Nebraska","type":"County or equivalent","lsad":"06","sourceType":"county"},"geometry":{"type":"Polygon","coordinates":[[[-101.34536,40.69809],[-101.34279,40.35044],[-100.77738,40.34947],[-100.77957,40.375],[-100.78302,40.54166],[-100.77993,40.68231],[-100.77783,40.70014],[-101.34536,40.69809]]]}},{"type":"Feature","id":"31087","properties":{"geoid":"31087","name":"Hitchcock","displayName":"Hitchcock County","state":"NE","stateName":"Nebraska","type":"County or equivalent","lsad":"06","sourceType":"county"},"geometry":{"type":"Polygon","coordinates":[[[-101.32527,40.26342],[-101.32404,40.0027],[-100.75883,40.0023],[-100.7585,40.1563],[-100.76102,40.17492],[-100.75844,40.34951],[-101.32335,40.35055],[-101.32504,40.32946],[-101.32527,40.26342]]]}},{"type":"Feature","id":"31089","properties":{"geoid":"31089","name":"Holt","displayName":"Holt County","state":"NE","stateName":"Nebraska","type":"County or equivalent","lsad":"06","sourceType":"county"},"geometry":{"type":"Polygon","coordinates":[[[-99.25704,42.8043],[-99.25685,42.78266],[-99.2458,42.7825],[-99.24459,42.43464],[-99.23406,42.43452],[-99.23463,42.088],[-98.30059,42.08885],[-98.30024,42.43691],[-98.30546,42.43693],[-98.30515,42.76121],[-98.31527,42.76362],[-98.31944,42.76632],[-98.3406,42.77066],[-98.34928,42.77075],[-98.35987,42.76764],[-98.36722,42.76773],[-98.3806,42.77222],[-98.41602,42.77567],[-98.42872,42.77472],[-98.434,42.76946],[-98.4458,42.77004],[-98.46567,42.76621],[-98.47578,42.77012],[-98.49093,42.7731],[-98.50617,42.77305],[-98.51132,42.77475],[-98.51867,42.7731],[-98.52488,42.77607],[-98.53119,42.77462],[-98.53544,42.77749],[-98.54847,42.78165],[-98.5583,42.78143],[-98.56738,42.77887],[-98.58376,42.77974],[-98.61537,42.79383],[-98.62894,42.79651],[-98.63914,42.80363],[-98.65684,42.80902],[-98.67462,42.8027],[-98.6895,42.8043],[-98.70838,42.80335],[-98.72291,42.8079],[-98.7357,42.81588],[-98.76322,42.8279],[-98.77889,42.82738],[-98.79259,42.82427],[-98.81128,42.82775],[-98.81828,42.83015],[-98.84296,42.84649],[-98.85391,42.84318],[-98.8778,42.84118],[-98.88844,42.84348],[-98.89285,42.84579],[-98.90047,42.85456],[-98.91353,42.86147],[-98.92738,42.875],[-98.93297,42.87875],[-98.94088,42.88075],[-98.94176,42.88403],[-98.94724,42.88579],[-98.95463,42.89408],[-98.96698,42.89672],[-98.98253,42.89644],[-98.99416,42.89436],[-99.00284,42.88807],[-99.00651,42.88873],[-99.01679,42.88626],[-99.03124,42.87676],[-99.0355,42.87601],[-99.05364,42.8663],[-99.05676,42.8626],[-99.06711,42.86229],[-99.09629,42.85628],[-99.12058,42.84841],[-99.12804,42.84427],[-99.1538,42.84188],[-99.16611,42.83734],[-99.17881,42.82948],[-99.20771,42.82305],[-99.22573,42.81431],[-99.2492,42.80902],[-99.25704,42.8043]]]}},{"type":"Feature","id":"31091","properties":{"geoid":"31091","name":"Hooker","displayName":"Hooker County","state":"NE","stateName":"Nebraska","type":"County or equivalent","lsad":"06","sourceType":"county"},"geometry":{"type":"Polygon","coordinates":[[[-101.42656,42.09219],[-101.42592,41.74306],[-100.84246,41.7404],[-100.84613,42.08817],[-101.42656,42.09219]]]}},{"type":"Feature","id":"31093","properties":{"geoid":"31093","name":"Howard","displayName":"Howard County","state":"NE","stateName":"Nebraska","type":"County or equivalent","lsad":"06","sourceType":"county"},"geometry":{"type":"Polygon","coordinates":[[[-98.74917,41.10522],[-98.74853,41.04664],[-98.28717,41.04636],[-98.28658,41.3939],[-98.74433,41.39418],[-98.7466,41.35136],[-98.7485,41.17732],[-98.74863,41.13376],[-98.74713,41.1192],[-98.74917,41.10522]]]}},{"type":"Feature","id":"31095","properties":{"geoid":"31095","name":"Jefferson","displayName":"Jefferson County","state":"NE","stateName":"Nebraska","type":"County or equivalent","lsad":"06","sourceType":"county"},"geometry":{"type":"Polygon","coordinates":[[[-97.36912,40.08905],[-97.3692,40.00206],[-96.91641,40.00151],[-96.91606,40.34973],[-97.36869,40.35039],[-97.36912,40.08905]]]}},{"type":"Feature","id":"31097","properties":{"geoid":"31097","name":"Johnson","displayName":"Johnson County","state":"NE","stateName":"Nebraska","type":"County or equivalent","lsad":"06","sourceType":"county"},"geometry":{"type":"Polygon","coordinates":[[[-96.46379,40.34904],[-96.46367,40.26217],[-96.06674,40.26204],[-96.06701,40.52315],[-96.46363,40.52301],[-96.46379,40.34904]]]}},{"type":"Feature","id":"31099","properties":{"geoid":"31099","name":"Kearney","displayName":"Kearney County","state":"NE","stateName":"Nebraska","type":"County or equivalent","lsad":"06","sourceType":"county"},"geometry":{"type":"Polygon","coordinates":[[[-99.17949,40.52501],[-99.1794,40.35068],[-98.72395,40.35039],[-98.72439,40.68977],[-98.73372,40.68738],[-98.74887,40.68873],[-98.75968,40.68397],[-98.77231,40.68336],[-98.78154,40.68025],[-98.791,40.68076],[-98.79813,40.67916],[-98.80363,40.67568],[-98.82659,40.67478],[-98.83329,40.67028],[-98.84146,40.66998],[-98.84988,40.66503],[-98.86673,40.6593],[-98.87767,40.66028],[-98.88185,40.65793],[-98.8905,40.65679],[-98.89279,40.65448],[-98.9061,40.65272],[-98.9229,40.65311],[-98.93095,40.65486],[-98.94548,40.65382],[-98.9737,40.65704],[-98.99603,40.65216],[-99.00289,40.65372],[-99.03365,40.65253],[-99.04181,40.65525],[-99.05313,40.65401],[-99.05782,40.65565],[-99.08098,40.65698],[-99.11547,40.6548],[-99.1471,40.65734],[-99.15887,40.66009],[-99.1705,40.65849],[-99.17925,40.66054],[-99.17949,40.52501]]]}},{"type":"Feature","id":"31101","properties":{"geoid":"31101","name":"Keith","displayName":"Keith County","state":"NE","stateName":"Nebraska","type":"County or equivalent","lsad":"06","sourceType":"county"},"geometry":{"type":"Polygon","coordinates":[[[-102.05584,41.091],[-102.05553,41.04746],[-102.05181,41.04744],[-102.05176,41.00387],[-101.42254,41.00267],[-101.24998,41.00395],[-101.25016,41.04738],[-101.27038,41.04739],[-101.2697,41.39493],[-102.05526,41.39516],[-102.05584,41.091]]]}},{"type":"Feature","id":"31103","properties":{"geoid":"31103","name":"Keya Paha","displayName":"Keya Paha County","state":"NE","stateName":"Nebraska","type":"County or equivalent","lsad":"06","sourceType":"county"},"geometry":{"type":"Polygon","coordinates":[[[-100.19839,42.91222],[-100.19848,42.8461],[-100.18778,42.83761],[-100.16332,42.83344],[-100.16208,42.83162],[-100.1632,42.82876],[-100.16134,42.82757],[-100.15036,42.83255],[-100.14536,42.83022],[-100.14403,42.82413],[-100.13403,42.82065],[-100.139,42.81445],[-100.13531,42.80858],[-100.12734,42.80599],[-100.11742,42.80536],[-100.11432,42.8034],[-100.11334,42.79968],[-100.09494,42.79613],[-100.08327,42.79208],[-100.06864,42.7904],[-100.06415,42.7875],[-100.05592,42.78544],[-100.04257,42.78501],[-100.03146,42.78774],[-100.02121,42.78553],[-100.00781,42.78857],[-99.99412,42.7847],[-99.9778,42.77529],[-99.96886,42.77247],[-99.94727,42.77299],[-99.92579,42.76782],[-99.91173,42.76842],[-99.89804,42.76546],[-99.88698,42.76794],[-99.86216,42.769],[-99.85874,42.76462],[-99.85803,42.75882],[-99.85505,42.75285],[-99.85153,42.75121],[-99.83726,42.75411],[-99.81925,42.74329],[-99.79553,42.73839],[-99.78997,42.73933],[-99.77833,42.73517],[-99.75249,42.73763],[-99.74027,42.73346],[-99.70858,42.72706],[-99.69294,42.73051],[-99.68551,42.72837],[-99.68191,42.72892],[-99.67205,42.73319],[-99.65986,42.73511],[-99.63804,42.73035],[-99.62049,42.72306],[-99.60176,42.72127],[-99.57075,42.72425],[-99.555,42.72198],[-99.54587,42.71827],[-99.53749,42.71763],[-99.50311,42.73038],[-99.4866,42.73123],[-99.47625,42.7354],[-99.46802,42.74092],[-99.4625,42.75163],[-99.43706,42.75362],[-99.431,42.76167],[-99.41522,42.7721],[-99.3959,42.77232],[-99.37797,42.78221],[-99.36432,42.7824],[-99.35712,42.78019],[-99.33962,42.77966],[-99.30016,42.79617],[-99.27494,42.79483],[-99.26651,42.79789],[-99.25704,42.8043],[-99.25758,42.90198],[-99.25682,42.90493],[-99.25396,42.90485],[-99.25445,42.99814],[-100.19841,42.99854],[-100.19839,42.91222]]]}},{"type":"Feature","id":"31105","properties":{"geoid":"31105","name":"Kimball","displayName":"Kimball County","state":"NE","stateName":"Nebraska","type":"County or equivalent","lsad":"06","sourceType":"county"},"geometry":{"type":"Polygon","coordinates":[[[-104.05342,41.17054],[-104.05325,41.00141],[-103.38249,41.00223],[-103.38249,41.04767],[-103.37569,41.04762],[-103.3756,41.30613],[-103.37759,41.32145],[-103.37762,41.39463],[-104.05229,41.39321],[-104.05342,41.17054]]]}},{"type":"Feature","id":"31107","properties":{"geoid":"31107","name":"Knox","displayName":"Knox County","state":"NE","stateName":"Nebraska","type":"County or equivalent","lsad":"06","sourceType":"county"},"geometry":{"type":"Polygon","coordinates":[[[-98.31031,42.86986],[-98.31024,42.78462],[-98.30505,42.78464],[-98.30546,42.43693],[-97.4853,42.43858],[-97.48609,42.78532],[-97.48507,42.78666],[-97.48492,42.85037],[-97.49623,42.85323],[-97.50034,42.85722],[-97.50485,42.85848],[-97.51595,42.85375],[-97.53187,42.8501],[-97.56193,42.84755],[-97.59192,42.85384],[-97.60376,42.85833],[-97.61181,42.85837],[-97.65785,42.84463],[-97.68651,42.84244],[-97.72045,42.84744],[-97.77446,42.84977],[-97.81708,42.86178],[-97.8285,42.8688],[-97.84527,42.86773],[-97.8657,42.86286],[-97.87534,42.85872],[-97.877,42.85439],[-97.87585,42.84772],[-97.87898,42.84367],[-97.87988,42.8354],[-97.88856,42.81725],[-97.90898,42.79491],[-97.91595,42.7899],[-97.92143,42.78835],[-97.93672,42.77575],[-97.95015,42.76962],[-97.96204,42.76871],[-97.97759,42.76992],[-98.00035,42.76326],[-98.00574,42.76417],[-98.01305,42.7623],[-98.03503,42.7642],[-98.05662,42.77078],[-98.05984,42.77277],[-98.06291,42.78112],[-98.06739,42.78476],[-98.08278,42.79434],[-98.09457,42.79931],[-98.10769,42.81063],[-98.12749,42.82013],[-98.13791,42.83273],[-98.14693,42.83982],[-98.16752,42.83692],[-98.18976,42.84163],[-98.21983,42.85316],[-98.23192,42.86114],[-98.24683,42.8684],[-98.24982,42.87184],[-98.25828,42.87439],[-98.28001,42.875],[-98.30977,42.88256],[-98.31031,42.86986]]]}},{"type":"Feature","id":"31109","properties":{"geoid":"31109","name":"Lancaster","displayName":"Lancaster County","state":"NE","stateName":"Nebraska","type":"County or equivalent","lsad":"06","sourceType":"county"},"geometry":{"type":"Polygon","coordinates":[[[-96.91393,40.62525],[-96.91264,40.52363],[-96.46363,40.52301],[-96.46387,41.04508],[-96.91094,41.04612],[-96.91112,40.69798],[-96.91349,40.69795],[-96.91393,40.62525]]]}},{"type":"Feature","id":"31111","properties":{"geoid":"31111","name":"Lincoln","displayName":"Lincoln County","state":"NE","stateName":"Nebraska","type":"County or equivalent","lsad":"06","sourceType":"county"},"geometry":{"type":"Polygon","coordinates":[[[-101.27032,41.17997],[-101.27038,41.04739],[-101.25016,41.04738],[-101.24816,40.90089],[-101.24796,40.6978],[-100.96258,40.70015],[-100.22331,40.70025],[-100.22424,41.0466],[-100.23816,41.04654],[-100.23758,41.16194],[-100.23434,41.27739],[-100.23616,41.32181],[-100.23611,41.39332],[-101.2697,41.39493],[-101.27032,41.17997]]]}},{"type":"Feature","id":"31113","properties":{"geoid":"31113","name":"Logan","displayName":"Logan County","state":"NE","stateName":"Nebraska","type":"County or equivalent","lsad":"06","sourceType":"county"},"geometry":{"type":"Polygon","coordinates":[[[-100.71388,41.50979],[-100.71324,41.39351],[-100.2511,41.3933],[-100.2528,41.56675],[-100.25122,41.73982],[-100.71141,41.73982],[-100.71388,41.50979]]]}},{"type":"Feature","id":"31115","properties":{"geoid":"31115","name":"Loup","displayName":"Loup County","state":"NE","stateName":"Nebraska","type":"County or equivalent","lsad":"06","sourceType":"county"},"geometry":{"type":"Polygon","coordinates":[[[-99.68696,42.08608],[-99.68683,41.74033],[-99.22183,41.74079],[-99.22273,42.08792],[-99.68696,42.08608]]]}},{"type":"Feature","id":"31117","properties":{"geoid":"31117","name":"McPherson","displayName":"McPherson County","state":"NE","stateName":"Nebraska","type":"County or equivalent","lsad":"06","sourceType":"county"},"geometry":{"type":"Polygon","coordinates":[[[-101.40727,41.40985],[-101.40726,41.39542],[-100.71324,41.39351],[-100.7137,41.56662],[-100.71141,41.73976],[-101.40647,41.7432],[-101.40727,41.40985]]]}},{"type":"Feature","id":"31119","properties":{"geoid":"31119","name":"Madison","displayName":"Madison County","state":"NE","stateName":"Nebraska","type":"County or equivalent","lsad":"06","sourceType":"county"},"geometry":{"type":"Polygon","coordinates":[[[-97.83454,42.08975],[-97.83224,41.74223],[-97.36807,41.74321],[-97.3684,42.09092],[-97.83454,42.08975]]]}},{"type":"Feature","id":"31121","properties":{"geoid":"31121","name":"Merrick","displayName":"Merrick County","state":"NE","stateName":"Nebraska","type":"County or equivalent","lsad":"06","sourceType":"county"},"geometry":{"type":"Polygon","coordinates":[[[-98.28714,41.05342],[-98.28717,41.04636],[-98.28236,41.04636],[-98.28258,40.86868],[-98.27513,40.87958],[-98.23626,40.91341],[-98.22676,40.91801],[-98.21547,40.93052],[-98.20694,40.93659],[-98.16978,40.95477],[-98.15166,40.97547],[-98.14627,40.98428],[-98.13265,40.99015],[-98.10065,41.00872],[-98.09963,41.00772],[-98.08896,41.00966],[-98.08375,41.01499],[-98.08444,41.01618],[-98.07557,41.01863],[-98.05417,41.03779],[-98.03004,41.04974],[-98.01055,41.07276],[-97.97038,41.09084],[-97.9668,41.08562],[-97.95584,41.09004],[-97.94382,41.09225],[-97.92439,41.10099],[-97.91093,41.10451],[-97.88575,41.11465],[-97.87407,41.12315],[-97.87225,41.12657],[-97.84729,41.14986],[-97.82826,41.17344],[-97.82827,41.17549],[-97.80136,41.1926],[-97.80482,41.1969],[-97.79097,41.20601],[-97.766,41.23489],[-97.7503,41.24674],[-97.74165,41.24973],[-97.71594,41.26425],[-97.67914,41.29256],[-97.66864,41.29812],[-97.66447,41.29475],[-97.65664,41.30146],[-97.65855,41.30486],[-97.64254,41.30969],[-97.64193,41.30606],[-97.63099,41.30674],[-97.61155,41.31353],[-97.60558,41.31337],[-97.5982,41.31725],[-97.59846,41.39507],[-97.70376,41.39488],[-97.7055,41.30913],[-97.89827,41.30822],[-97.89794,41.29363],[-98.05314,41.29312],[-98.05313,41.27853],[-98.10166,41.27865],[-98.10227,41.26403],[-98.27541,41.26434],[-98.27389,41.39386],[-98.28658,41.3939],[-98.28714,41.05342]]]}},{"type":"Feature","id":"31123","properties":{"geoid":"31123","name":"Morrill","displayName":"Morrill County","state":"NE","stateName":"Nebraska","type":"County or equivalent","lsad":"06","sourceType":"county"},"geometry":{"type":"Polygon","coordinates":[[[-103.3704,41.74328],[-103.3712,41.72438],[-103.36715,41.54182],[-103.369,41.43777],[-102.63652,41.43881],[-102.63795,41.71377],[-102.6358,41.74283],[-102.66431,41.74319],[-102.67699,41.78696],[-102.67871,41.81454],[-102.67758,42.00528],[-102.86232,42.00066],[-103.13164,42.00324],[-103.26649,42.00198],[-103.36334,42.00293],[-103.36153,41.83021],[-103.36319,41.78729],[-103.36262,41.74355],[-103.3704,41.74328]]]}},{"type":"Feature","id":"31125","properties":{"geoid":"31125","name":"Nance","displayName":"Nance County","state":"NE","stateName":"Nebraska","type":"County or equivalent","lsad":"06","sourceType":"county"},"geometry":{"type":"Polygon","coordinates":[[[-98.29134,41.48073],[-98.29142,41.39389],[-98.27389,41.39386],[-98.27541,41.26434],[-98.10155,41.26404],[-98.10166,41.27865],[-98.05313,41.27853],[-98.05314,41.29312],[-97.89794,41.29363],[-97.89827,41.30822],[-97.7055,41.30913],[-97.70382,41.36413],[-97.70363,41.5268],[-97.88549,41.52587],[-97.88642,41.51139],[-98.04133,41.51053],[-98.04146,41.49599],[-98.0998,41.49539],[-98.09952,41.48078],[-98.29134,41.48073]]]}},{"type":"Feature","id":"31127","properties":{"geoid":"31127","name":"Nemaha","displayName":"Nemaha County","state":"NE","stateName":"Nebraska","type":"County or equivalent","lsad":"06","sourceType":"county"},"geometry":{"type":"Polygon","coordinates":[[[-96.06708,40.34913],[-96.06674,40.26204],[-95.55247,40.2619],[-95.55632,40.26771],[-95.55628,40.27076],[-95.55149,40.28106],[-95.55097,40.28595],[-95.55329,40.29116],[-95.55873,40.29577],[-95.56814,40.29913],[-95.58179,40.29958],[-95.59016,40.3032],[-95.59866,40.30981],[-95.61044,40.31397],[-95.61793,40.31373],[-95.64533,40.30569],[-95.65151,40.30668],[-95.65733,40.31086],[-95.65776,40.31579],[-95.65373,40.32258],[-95.62994,40.33099],[-95.6252,40.33429],[-95.6227,40.34086],[-95.62373,40.34657],[-95.62712,40.3528],[-95.64103,40.3664],[-95.64393,40.38685],[-95.65913,40.40869],[-95.66146,40.41595],[-95.65629,40.42876],[-95.65563,40.43474],[-95.65819,40.44188],[-95.67174,40.4567],[-95.69313,40.4694],[-95.69636,40.4759],[-95.69473,40.4936],[-95.69594,40.49905],[-95.69997,40.50527],[-95.66169,40.51731],[-95.65567,40.52356],[-95.65226,40.53811],[-95.65341,40.54189],[-95.65585,40.54661],[-95.6621,40.54996],[-95.66549,40.55669],[-95.67175,40.56263],[-95.68711,40.56066],[-95.69415,40.55694],[-95.69728,40.53698],[-95.69505,40.53312],[-95.69721,40.52848],[-95.70859,40.52155],[-95.70997,40.5238],[-96.06701,40.52315],[-96.06602,40.34914],[-96.06708,40.34913]]]}},{"type":"Feature","id":"31129","properties":{"geoid":"31129","name":"Nuckolls","displayName":"Nuckolls County","state":"NE","stateName":"Nebraska","type":"County or equivalent","lsad":"06","sourceType":"county"},"geometry":{"type":"Polygon","coordinates":[[[-98.27405,40.06193],[-98.27402,40.00252],[-97.8215,40.002],[-97.82082,40.35054],[-98.27357,40.35036],[-98.27405,40.06193]]]}},{"type":"Feature","id":"31131","properties":{"geoid":"31131","name":"Otoe","displayName":"Otoe County","state":"NE","stateName":"Nebraska","type":"County or equivalent","lsad":"06","sourceType":"county"},"geometry":{"type":"Polygon","coordinates":[[[-96.46384,40.68247],[-96.46363,40.52301],[-95.70997,40.5238],[-95.71429,40.52721],[-95.72244,40.52812],[-95.73725,40.52393],[-95.74868,40.52428],[-95.75711,40.52599],[-95.76692,40.53156],[-95.76928,40.53666],[-95.76362,40.5483],[-95.76383,40.55387],[-95.77178,40.56613],[-95.7747,40.57357],[-95.77355,40.5782],[-95.76853,40.5833],[-95.75315,40.59284],[-95.74886,40.59996],[-95.74968,40.60684],[-95.76893,40.62126],[-95.77044,40.63529],[-95.77283,40.6425],[-95.78657,40.65725],[-95.79549,40.66238],[-95.80431,40.66489],[-95.82291,40.66724],[-95.8428,40.6775],[-95.84603,40.68261],[-95.84793,40.6942],[-95.85262,40.70226],[-95.85938,40.70806],[-95.88318,40.71758],[-95.88535,40.72109],[-95.88891,40.73186],[-95.8887,40.73629],[-95.88364,40.74783],[-95.86998,40.75964],[-95.85278,40.76563],[-95.84282,40.77109],[-95.8369,40.77648],[-95.83422,40.78378],[-96.46376,40.78396],[-96.46384,40.68247]]]}},{"type":"Feature","id":"31133","properties":{"geoid":"31133","name":"Pawnee","displayName":"Pawnee County","state":"NE","stateName":"Nebraska","type":"County or equivalent","lsad":"06","sourceType":"county"},"geometry":{"type":"Polygon","coordinates":[[[-96.4638,40.07715],[-96.46371,40.00097],[-96.01068,40.00064],[-96.01018,40.26148],[-96.46367,40.26217],[-96.4638,40.07715]]]}},{"type":"Feature","id":"31135","properties":{"geoid":"31135","name":"Perkins","displayName":"Perkins County","state":"NE","stateName":"Nebraska","type":"County or equivalent","lsad":"06","sourceType":"county"},"geometry":{"type":"Polygon","coordinates":[[[-102.05176,41.00387],[-102.0514,40.69754],[-101.62839,40.70022],[-101.24796,40.6978],[-101.24816,40.90089],[-101.24998,41.00395],[-101.42254,41.00267],[-102.05176,41.00387]]]}},{"type":"Feature","id":"31137","properties":{"geoid":"31137","name":"Phelps","displayName":"Phelps County","state":"NE","stateName":"Nebraska","type":"County or equivalent","lsad":"06","sourceType":"county"},"geometry":{"type":"Polygon","coordinates":[[[-99.6444,40.51751],[-99.64421,40.41752],[-99.64221,40.3512],[-99.1794,40.35068],[-99.17925,40.66054],[-99.19445,40.65998],[-99.20419,40.66199],[-99.24234,40.65889],[-99.25875,40.66454],[-99.27585,40.66169],[-99.29274,40.66265],[-99.33163,40.67144],[-99.33866,40.66958],[-99.35182,40.66958],[-99.36991,40.66452],[-99.37604,40.66426],[-99.40413,40.66922],[-99.41167,40.66757],[-99.42381,40.67332],[-99.43578,40.67354],[-99.4444,40.67789],[-99.46508,40.67471],[-99.49832,40.6749],[-99.51029,40.67704],[-99.53014,40.67532],[-99.54015,40.68024],[-99.55592,40.68083],[-99.58346,40.67719],[-99.60029,40.67979],[-99.60727,40.68301],[-99.6223,40.6861],[-99.64346,40.68491],[-99.6444,40.51751]]]}},{"type":"Feature","id":"31139","properties":{"geoid":"31139","name":"Pierce","displayName":"Pierce County","state":"NE","stateName":"Nebraska","type":"County or equivalent","lsad":"06","sourceType":"county"},"geometry":{"type":"Polygon","coordinates":[[[-97.83494,42.20571],[-97.83454,42.08975],[-97.3684,42.09092],[-97.36759,42.43878],[-97.83443,42.43768],[-97.83494,42.20571]]]}},{"type":"Feature","id":"31141","properties":{"geoid":"31141","name":"Platte","displayName":"Platte County","state":"NE","stateName":"Nebraska","type":"County or equivalent","lsad":"06","sourceType":"county"},"geometry":{"type":"Polygon","coordinates":[[[-97.83115,41.66298],[-97.82985,41.52617],[-97.70363,41.5268],[-97.70376,41.39488],[-97.59846,41.39507],[-97.59825,41.33312],[-97.5858,41.33389],[-97.5706,41.33728],[-97.52241,41.36193],[-97.49564,41.36561],[-97.47632,41.36509],[-97.45015,41.36878],[-97.43503,41.37554],[-97.3974,41.38477],[-97.39214,41.38703],[-97.38527,41.39298],[-97.37045,41.39552],[-97.36818,41.39763],[-97.34087,41.39109],[-97.31066,41.39997],[-97.28776,41.40064],[-97.27764,41.39737],[-97.26152,41.38632],[-97.25352,41.38421],[-97.25242,41.74308],[-97.83049,41.74224],[-97.83115,41.66298]]]}},{"type":"Feature","id":"31143","properties":{"geoid":"31143","name":"Polk","displayName":"Polk County","state":"NE","stateName":"Nebraska","type":"County or equivalent","lsad":"06","sourceType":"county"},"geometry":{"type":"Polygon","coordinates":[[[-97.82839,41.1552],[-97.82794,41.04657],[-97.36812,41.04695],[-97.36819,41.39642],[-97.38527,41.39298],[-97.39214,41.38703],[-97.3974,41.38477],[-97.43503,41.37554],[-97.45015,41.36878],[-97.47632,41.36509],[-97.49564,41.36561],[-97.52241,41.36193],[-97.5706,41.33728],[-97.5858,41.33389],[-97.59825,41.33312],[-97.5982,41.31725],[-97.60558,41.31337],[-97.61155,41.31353],[-97.63396,41.30625],[-97.64193,41.30606],[-97.64254,41.30969],[-97.65855,41.30486],[-97.65664,41.30146],[-97.66447,41.29475],[-97.66864,41.29812],[-97.67914,41.29256],[-97.71594,41.26425],[-97.74165,41.24973],[-97.74756,41.24849],[-97.766,41.23489],[-97.79097,41.20601],[-97.80482,41.1969],[-97.80136,41.1926],[-97.82827,41.17549],[-97.82839,41.1552]]]}},{"type":"Feature","id":"31145","properties":{"geoid":"31145","name":"Red Willow","displayName":"Red Willow County","state":"NE","stateName":"Nebraska","type":"County or equivalent","lsad":"06","sourceType":"county"},"geometry":{"type":"Polygon","coordinates":[[[-100.76058,40.21071],[-100.76102,40.17492],[-100.7585,40.1563],[-100.75883,40.0023],[-100.19359,40.00157],[-100.19526,40.27047],[-100.19781,40.35003],[-100.26893,40.34924],[-100.36697,40.3515],[-100.75844,40.34951],[-100.76058,40.21071]]]}},{"type":"Feature","id":"31147","properties":{"geoid":"31147","name":"Richardson","displayName":"Richardson County","state":"NE","stateName":"Nebraska","type":"County or equivalent","lsad":"06","sourceType":"county"},"geometry":{"type":"Polygon","coordinates":[[[-96.01068,40.02971],[-96.01068,40.00064],[-95.30829,40.0],[-95.31116,40.00781],[-95.31527,40.01207],[-95.33624,40.0191],[-95.34878,40.0293],[-95.35688,40.03152],[-95.36398,40.0315],[-95.38296,40.02711],[-95.39153,40.02706],[-95.40266,40.03057],[-95.41359,40.03842],[-95.41932,40.04844],[-95.42164,40.05895],[-95.41834,40.06651],[-95.40986,40.07432],[-95.40846,40.07916],[-95.41064,40.09153],[-95.40759,40.09803],[-95.39422,40.10826],[-95.39284,40.11589],[-95.39537,40.12281],[-95.39867,40.12642],[-95.4044,40.12902],[-95.41919,40.13059],[-95.42875,40.13558],[-95.43216,40.14102],[-95.43382,40.15294],[-95.43635,40.15872],[-95.44282,40.16326],[-95.46075,40.16917],[-95.47105,40.17691],[-95.47919,40.18565],[-95.48254,40.19228],[-95.48232,40.20067],[-95.47139,40.21733],[-95.46972,40.22791],[-95.47255,40.23608],[-95.4775,40.24272],[-95.48599,40.24782],[-95.4934,40.24956],[-95.52104,40.25008],[-95.54374,40.26069],[-95.55247,40.2619],[-96.01018,40.26148],[-96.01068,40.02971]]]}},{"type":"Feature","id":"31149","properties":{"geoid":"31149","name":"Rock","displayName":"Rock County","state":"NE","stateName":"Nebraska","type":"County or equivalent","lsad":"06","sourceType":"county"},"geometry":{"type":"Polygon","coordinates":[[[-99.67768,42.7309],[-99.67589,42.43445],[-99.66375,42.43461],[-99.66238,42.08601],[-99.23463,42.088],[-99.23406,42.43452],[-99.24459,42.43464],[-99.2458,42.7825],[-99.25685,42.78266],[-99.25704,42.8043],[-99.26651,42.79789],[-99.27494,42.79483],[-99.30016,42.79617],[-99.33962,42.77966],[-99.35712,42.78019],[-99.36432,42.7824],[-99.37797,42.78221],[-99.3959,42.77232],[-99.41522,42.7721],[-99.431,42.76167],[-99.43706,42.75362],[-99.4625,42.75163],[-99.46802,42.74092],[-99.47625,42.7354],[-99.4866,42.73123],[-99.50311,42.73038],[-99.53749,42.71763],[-99.54587,42.71827],[-99.555,42.72198],[-99.57075,42.72425],[-99.60176,42.72127],[-99.62049,42.72306],[-99.63804,42.73035],[-99.65986,42.73511],[-99.67768,42.7309]]]}},{"type":"Feature","id":"31151","properties":{"geoid":"31151","name":"Saline","displayName":"Saline County","state":"NE","stateName":"Nebraska","type":"County or equivalent","lsad":"06","sourceType":"county"},"geometry":{"type":"Polygon","coordinates":[[[-97.36875,40.42295],[-97.36869,40.35039],[-96.91326,40.34972],[-96.91221,40.56718],[-96.91392,40.61073],[-96.91349,40.69795],[-97.3684,40.69862],[-97.36875,40.42295]]]}},{"type":"Feature","id":"31153","properties":{"geoid":"31153","name":"Sarpy","displayName":"Sarpy County","state":"NE","stateName":"Nebraska","type":"County or equivalent","lsad":"06","sourceType":"county"},"geometry":{"type":"Polygon","coordinates":[[[-96.33886,41.09142],[-96.3398,41.0825],[-96.33815,41.078],[-96.32488,41.05907],[-96.31919,41.045],[-96.31128,41.03643],[-96.2973,41.0268],[-96.28439,41.02175],[-96.2476,41.01778],[-96.24076,41.0134],[-96.23296,41.00086],[-96.22325,40.99563],[-96.21442,40.99447],[-96.19349,41.00025],[-96.15335,41.01588],[-96.14469,41.0176],[-96.13124,41.03139],[-96.11908,41.03856],[-96.10986,41.0484],[-96.10337,41.05195],[-96.07365,41.05805],[-96.05626,41.06536],[-96.03406,41.066],[-96.01806,41.06148],[-96.00309,41.06052],[-95.98734,41.05272],[-95.97878,41.05336],[-95.96729,41.05944],[-95.961,41.06077],[-95.94614,41.05762],[-95.91803,41.05984],[-95.90971,41.05859],[-95.89666,41.05942],[-95.88922,41.05844],[-95.87949,41.0533],[-95.88242,41.06041],[-95.88138,41.0652],[-95.86546,41.08037],[-95.86259,41.0884],[-95.86545,41.10127],[-95.86589,41.1179],[-95.86869,41.1247],[-95.88209,41.144],[-95.88349,41.1549],[-95.88129,41.1599],[-95.87191,41.16812],[-95.86734,41.16873],[-95.85279,41.1654],[-95.84619,41.1667],[-95.84189,41.1711],[-95.84129,41.175],[-95.84409,41.1806],[-95.85679,41.1871],[-95.86479,41.1883],[-95.90969,41.1844],[-95.91829,41.1867],[-95.92331,41.1912],[-96.3274,41.19],[-96.32285,41.18124],[-96.32085,41.16196],[-96.3163,41.14856],[-96.31593,41.14396],[-96.3199,41.1321],[-96.31098,41.11534],[-96.31688,41.10851],[-96.33287,41.09962],[-96.33886,41.09142]]]}},{"type":"Feature","id":"31155","properties":{"geoid":"31155","name":"Saunders","displayName":"Saunders County","state":"NE","stateName":"Nebraska","type":"County or equivalent","lsad":"06","sourceType":"county"},"geometry":{"type":"Polygon","coordinates":[[[-96.90899,41.26794],[-96.90851,41.04609],[-96.46387,41.04508],[-96.46386,41.01607],[-96.36951,41.01499],[-96.34947,41.01532],[-96.34903,41.04495],[-96.31919,41.045],[-96.32488,41.05907],[-96.33815,41.078],[-96.3398,41.0825],[-96.33886,41.09142],[-96.33674,41.09531],[-96.32632,41.10422],[-96.31688,41.10851],[-96.31098,41.11534],[-96.3199,41.1321],[-96.31593,41.14396],[-96.32085,41.16196],[-96.32165,41.17674],[-96.32468,41.18588],[-96.33255,41.19556],[-96.35068,41.20419],[-96.35431,41.20747],[-96.36138,41.21922],[-96.36556,41.23414],[-96.35714,41.24896],[-96.35081,41.25625],[-96.34966,41.26216],[-96.3506,41.26519],[-96.36441,41.28526],[-96.37559,41.2966],[-96.38194,41.30053],[-96.39053,41.3032],[-96.40761,41.31461],[-96.40968,41.32014],[-96.40796,41.32173],[-96.40686,41.32874],[-96.40744,41.33662],[-96.41382,41.3537],[-96.42185,41.36448],[-96.43962,41.37013],[-96.45951,41.38032],[-96.47072,41.39324],[-96.48816,41.3933],[-96.49221,41.39746],[-96.49593,41.39403],[-96.50424,41.39662],[-96.50951,41.40422],[-96.5203,41.40826],[-96.55914,41.42988],[-96.5694,41.4333],[-96.57768,41.43416],[-96.60335,41.43474],[-96.60778,41.43307],[-96.634,41.43436],[-96.64033,41.43618],[-96.65077,41.43279],[-96.65573,41.42941],[-96.6727,41.42609],[-96.69374,41.42574],[-96.70347,41.42995],[-96.71021,41.43068],[-96.73158,41.44484],[-96.74647,41.44958],[-96.7743,41.45008],[-96.78863,41.44452],[-96.79782,41.44467],[-96.8152,41.43958],[-96.82956,41.44323],[-96.83376,41.4457],[-96.8543,41.44545],[-96.86199,41.44932],[-96.8842,41.45279],[-96.90586,41.45339],[-96.90577,41.39409],[-96.90823,41.39409],[-96.90899,41.26794]]]}},{"type":"Feature","id":"31157","properties":{"geoid":"31157","name":"Scotts Bluff","displayName":"Scotts Bluff County","state":"NE","stateName":"Nebraska","type":"County or equivalent","lsad":"06","sourceType":"county"},"geometry":{"type":"Polygon","coordinates":[[[-104.05303,41.88546],[-104.05283,41.69782],[-103.37039,41.69921],[-103.3704,41.74328],[-103.36262,41.74355],[-103.36319,41.78729],[-103.36153,41.83021],[-103.36334,42.00293],[-103.46016,42.0042],[-103.86311,42.00041],[-104.0527,42.00173],[-104.05303,41.88546]]]}},{"type":"Feature","id":"31159","properties":{"geoid":"31159","name":"Seward","displayName":"Seward County","state":"NE","stateName":"Nebraska","type":"County or equivalent","lsad":"06","sourceType":"county"},"geometry":{"type":"Polygon","coordinates":[[[-97.36842,40.76363],[-97.3684,40.69862],[-96.91112,40.69798],[-96.91094,41.04612],[-97.36812,41.04695],[-97.36842,40.76363]]]}},{"type":"Feature","id":"31161","properties":{"geoid":"31161","name":"Sheridan","displayName":"Sheridan County","state":"NE","stateName":"Nebraska","type":"County or equivalent","lsad":"06","sourceType":"county"},"geometry":{"type":"Polygon","coordinates":[[[-102.79287,42.82249],[-102.79266,42.78516],[-102.77337,42.78526],[-102.77337,42.43992],[-102.74943,42.43993],[-102.75153,42.35711],[-102.74768,42.35185],[-102.74647,42.24997],[-102.74158,42.17772],[-102.74227,42.09239],[-102.70238,42.09275],[-102.7021,42.05132],[-102.69882,42.02664],[-102.69784,42.00484],[-102.48057,42.00753],[-102.00856,42.0089],[-102.00643,42.09623],[-102.04028,42.09674],[-102.03817,42.44331],[-102.06669,42.44346],[-102.0669,42.78549],[-102.08496,42.78551],[-102.08255,42.99936],[-102.79211,42.99998],[-102.79287,42.82249]]]}},{"type":"Feature","id":"31163","properties":{"geoid":"31163","name":"Sherman","displayName":"Sherman County","state":"NE","stateName":"Nebraska","type":"County or equivalent","lsad":"06","sourceType":"county"},"geometry":{"type":"Polygon","coordinates":[[[-99.20646,41.12327],[-99.20756,41.047],[-98.74853,41.04664],[-98.74917,41.10522],[-98.74713,41.1192],[-98.74863,41.13376],[-98.7466,41.35136],[-98.74433,41.39418],[-99.20326,41.39414],[-99.20646,41.12327]]]}},{"type":"Feature","id":"31165","properties":{"geoid":"31165","name":"Sioux","displayName":"Sioux County","state":"NE","stateName":"Nebraska","type":"County or equivalent","lsad":"06","sourceType":"county"},"geometry":{"type":"Polygon","coordinates":[[[-104.05279,42.24996],[-104.0527,42.00173],[-103.85333,42.00044],[-103.46016,42.0042],[-103.40152,42.00354],[-103.40159,42.09041],[-103.44411,42.09071],[-103.44428,42.43728],[-103.48001,42.43727],[-103.48034,42.78491],[-103.50309,42.78491],[-103.5051,43.00077],[-103.96627,43.00171],[-104.05303,43.00059],[-104.05279,42.24996]]]}},{"type":"Feature","id":"31167","properties":{"geoid":"31167","name":"Stanton","displayName":"Stanton County","state":"NE","stateName":"Nebraska","type":"County or equivalent","lsad":"06","sourceType":"county"},"geometry":{"type":"Polygon","coordinates":[[[-97.3684,42.09092],[-97.36807,41.74321],[-97.01991,41.74298],[-97.01936,42.09058],[-97.3684,42.09092]]]}},{"type":"Feature","id":"31169","properties":{"geoid":"31169","name":"Thayer","displayName":"Thayer County","state":"NE","stateName":"Nebraska","type":"County or equivalent","lsad":"06","sourceType":"county"},"geometry":{"type":"Polygon","coordinates":[[[-97.82134,40.03111],[-97.8215,40.002],[-97.3692,40.00206],[-97.36869,40.35039],[-97.82082,40.35054],[-97.82134,40.03111]]]}},{"type":"Feature","id":"31171","properties":{"geoid":"31171","name":"Thomas","displayName":"Thomas County","state":"NE","stateName":"Nebraska","type":"County or equivalent","lsad":"06","sourceType":"county"},"geometry":{"type":"Polygon","coordinates":[[[-100.84613,42.08817],[-100.84246,41.7404],[-100.26547,41.73986],[-100.26762,42.08615],[-100.84613,42.08817]]]}},{"type":"Feature","id":"31173","properties":{"geoid":"31173","name":"Thurston","displayName":"Thurston County","state":"NE","stateName":"Nebraska","type":"County or equivalent","lsad":"06","sourceType":"county"},"geometry":{"type":"Polygon","coordinates":[[[-96.82354,42.10489],[-96.82367,42.09041],[-96.55551,42.08996],[-96.55487,42.01588],[-96.55248,42.01572],[-96.46037,42.01705],[-96.30964,42.01519],[-96.30939,42.04669],[-96.2729,42.04728],[-96.27844,42.0604],[-96.27908,42.07403],[-96.27676,42.08142],[-96.26764,42.09618],[-96.26659,42.10326],[-96.2689,42.11359],[-96.275,42.12078],[-96.28567,42.12562],[-96.30588,42.12983],[-96.31382,42.13634],[-96.31953,42.14665],[-96.32587,42.15149],[-96.33798,42.1572],[-96.34775,42.16681],[-96.35032,42.17744],[-96.34724,42.18672],[-96.34807,42.19475],[-96.35152,42.20048],[-96.35909,42.2078],[-96.35987,42.21054],[-96.35659,42.21518],[-96.33632,42.21892],[-96.32283,42.23146],[-96.32287,42.23364],[-96.33,42.24022],[-96.32771,42.24999],[-96.3289,42.25473],[-96.336,42.26481],[-96.34145,42.26912],[-96.35641,42.27649],[-96.55082,42.27773],[-96.72666,42.278],[-96.72619,42.2641],[-96.8225,42.26429],[-96.82354,42.10489]]]}},{"type":"Feature","id":"31175","properties":{"geoid":"31175","name":"Valley","displayName":"Valley County","state":"NE","stateName":"Nebraska","type":"County or equivalent","lsad":"06","sourceType":"county"},"geometry":{"type":"Polygon","coordinates":[[[-99.2123,41.43763],[-99.21246,41.39424],[-98.75156,41.39408],[-98.75222,41.74037],[-99.21202,41.74061],[-99.2123,41.43763]]]}},{"type":"Feature","id":"31177","properties":{"geoid":"31177","name":"Washington","displayName":"Washington County","state":"NE","stateName":"Nebraska","type":"County or equivalent","lsad":"06","sourceType":"county"},"geometry":{"type":"Polygon","coordinates":[[[-96.44478,41.68363],[-96.4439,41.52393],[-96.43446,41.52393],[-96.43479,41.49493],[-96.42522,41.49486],[-96.42521,41.48034],[-96.40594,41.48046],[-96.40562,41.46582],[-96.38642,41.46575],[-96.38648,41.45125],[-96.3672,41.45095],[-96.36734,41.4367],[-96.32892,41.43662],[-96.32901,41.39314],[-95.93749,41.3931],[-95.93078,41.40618],[-95.92972,41.41133],[-95.93317,41.42943],[-95.9307,41.43389],[-95.92183,41.44206],[-95.92028,41.45157],[-95.92571,41.45938],[-95.9368,41.46519],[-95.94646,41.46617],[-95.95702,41.46281],[-95.96233,41.46281],[-95.98296,41.46978],[-96.00471,41.47234],[-96.01176,41.47621],[-96.01954,41.48662],[-96.01922,41.4893],[-95.9979,41.50479],[-95.99283,41.512],[-95.99389,41.52341],[-95.99997,41.53948],[-96.00511,41.54325],[-96.01388,41.54532],[-96.02349,41.54344],[-96.02666,41.54037],[-96.0317,41.52218],[-96.03444,41.52105],[-96.03488,41.5117],[-96.0366,41.50905],[-96.0407,41.50708],[-96.05369,41.50886],[-96.07416,41.52395],[-96.08265,41.52597],[-96.09201,41.53391],[-96.09659,41.5454],[-96.09585,41.55088],[-96.09182,41.56109],[-96.08241,41.57123],[-96.08118,41.57427],[-96.08184,41.58041],[-96.08868,41.58752],[-96.1015,41.59158],[-96.10939,41.59687],[-96.11583,41.60576],[-96.1181,41.6135],[-96.11623,41.62157],[-96.09773,41.63963],[-96.09505,41.64736],[-96.09542,41.65274],[-96.09984,41.66103],[-96.11812,41.6744],[-96.12098,41.67786],[-96.12171,41.68299],[-96.44478,41.68363]]]}},{"type":"Feature","id":"31179","properties":{"geoid":"31179","name":"Wayne","displayName":"Wayne County","state":"NE","stateName":"Nebraska","type":"County or equivalent","lsad":"06","sourceType":"county"},"geometry":{"type":"Polygon","coordinates":[[[-97.36823,42.10527],[-97.3684,42.09092],[-96.82367,42.09041],[-96.8225,42.26429],[-97.01773,42.26445],[-97.01779,42.35135],[-97.36772,42.35186],[-97.36823,42.10527]]]}},{"type":"Feature","id":"31181","properties":{"geoid":"31181","name":"Webster","displayName":"Webster County","state":"NE","stateName":"Nebraska","type":"County or equivalent","lsad":"06","sourceType":"county"},"geometry":{"type":"Polygon","coordinates":[[[-98.72683,40.3504],[-98.72637,40.00222],[-98.27402,40.00252],[-98.27357,40.35036],[-98.72683,40.3504]]]}},{"type":"Feature","id":"31183","properties":{"geoid":"31183","name":"Wheeler","displayName":"Wheeler County","state":"NE","stateName":"Nebraska","type":"County or equivalent","lsad":"06","sourceType":"county"},"geometry":{"type":"Polygon","coordinates":[[[-98.76116,42.08852],[-98.75913,41.74038],[-98.29576,41.74118],[-98.29544,42.08887],[-98.76116,42.08852]]]}},{"type":"Feature","id":"31185","properties":{"geoid":"31185","name":"York","displayName":"York County","state":"NE","stateName":"Nebraska","type":"County or equivalent","lsad":"06","sourceType":"county"},"geometry":{"type":"Polygon","coordinates":[[[-97.82629,41.04658],[-97.82572,40.69856],[-97.3684,40.69862],[-97.36812,41.04695],[-97.82629,41.04658]]]}}]}