{"type":"FeatureCollection","features":[{"type":"Feature","id":"39001","properties":{"geoid":"39001","name":"Adams","displayName":"Adams County","state":"OH","stateName":"Ohio","type":"County or equivalent","lsad":"06","sourceType":"county"},"geometry":{"type":"Polygon","coordinates":[[[-83.70531,38.63976],[-83.67144,38.62738],[-83.65714,38.62791],[-83.6483,38.63186],[-83.64418,38.63783],[-83.63696,38.66602],[-83.63421,38.67137],[-83.62692,38.67939],[-83.6091,38.68501],[-83.60157,38.68394],[-83.59191,38.68878],[-83.5691,38.69284],[-83.5493,38.69879],[-83.52095,38.70305],[-83.50437,38.69926],[-83.49334,38.69419],[-83.46806,38.67547],[-83.45706,38.67397],[-83.44699,38.67014],[-83.42019,38.66843],[-83.38476,38.66317],[-83.36666,38.65854],[-83.34,38.64567],[-83.32764,38.63749],[-83.32238,38.63062],[-83.3191,38.61223],[-83.31145,38.60331],[-83.30195,38.59818],[-83.29419,38.59659],[-83.28651,38.59924],[-83.26851,38.6151],[-83.26707,38.61818],[-83.26824,38.61853],[-83.26858,38.88252],[-83.27082,39.01579],[-83.27504,39.02034],[-83.28216,39.02393],[-83.28547,39.02399],[-83.28813,39.02984],[-83.29135,39.03046],[-83.30308,39.03905],[-83.30811,39.04026],[-83.31053,39.04322],[-83.3088,39.04469],[-83.30943,39.04599],[-83.31296,39.04674],[-83.31459,39.05219],[-83.38564,39.0552],[-83.51139,39.03638],[-83.61159,39.01889],[-83.67302,39.02043],[-83.6991,38.73],[-83.70531,38.63976]]]}},{"type":"Feature","id":"39003","properties":{"geoid":"39003","name":"Allen","displayName":"Allen County","state":"OH","stateName":"Ohio","type":"County or equivalent","lsad":"06","sourceType":"county"},"geometry":{"type":"Polygon","coordinates":[[[-84.39737,40.81594],[-84.39678,40.68493],[-84.2228,40.68596],[-84.22275,40.65695],[-84.10791,40.65794],[-84.10779,40.64307],[-83.88019,40.64469],[-83.88042,40.92043],[-83.99523,40.91984],[-83.99516,40.90507],[-84.10952,40.90473],[-84.10959,40.86099],[-84.34053,40.8591],[-84.3401,40.81614],[-84.39737,40.81594]]]}},{"type":"Feature","id":"39005","properties":{"geoid":"39005","name":"Ashland","displayName":"Ashland County","state":"OH","stateName":"Ohio","type":"County or equivalent","lsad":"06","sourceType":"county"},"geometry":{"type":"Polygon","coordinates":[[[-82.43692,41.06538],[-82.43285,40.99294],[-82.4179,40.99294],[-82.41549,40.82842],[-82.41851,40.82562],[-82.42043,40.82784],[-82.41958,40.82498],[-82.42075,40.82333],[-82.4172,40.82076],[-82.41706,40.81702],[-82.41839,40.81623],[-82.41685,40.81457],[-82.408,40.81457],[-82.40776,40.80825],[-82.38856,40.80817],[-82.38846,40.80142],[-82.38705,40.8003],[-82.38969,40.79603],[-82.38444,40.7923],[-82.38256,40.78859],[-82.37895,40.78723],[-82.3784,40.72714],[-82.33921,40.72668],[-82.33696,40.555],[-82.22027,40.56819],[-82.22112,40.66736],[-82.1262,40.66836],[-82.12733,40.80425],[-82.12501,40.88626],[-82.1279,40.9009],[-82.12933,40.99181],[-82.17336,40.99208],[-82.17149,41.06354],[-82.32684,41.06601],[-82.43692,41.06538]]]}},{"type":"Feature","id":"39007","properties":{"geoid":"39007","name":"Ashtabula","displayName":"Ashtabula County","state":"OH","stateName":"Ohio","type":"County or equivalent","lsad":"06","sourceType":"county"},"geometry":{"type":"Polygon","coordinates":[[[-81.00312,41.50168],[-80.61852,41.49841],[-80.51922,41.49934],[-80.51941,41.97716],[-80.54041,41.97158],[-80.5514,41.97152],[-80.55189,41.96926],[-80.55945,41.96529],[-80.58148,41.9573],[-80.59705,41.95433],[-80.6306,41.94362],[-80.65397,41.94055],[-80.66791,41.93462],[-80.69843,41.9257],[-80.70149,41.92597],[-80.71134,41.92187],[-80.75375,41.91548],[-80.77314,41.90822],[-80.78133,41.907],[-80.7828,41.90739],[-80.78267,41.91158],[-80.78959,41.91153],[-80.78979,41.91021],[-80.79708,41.9109],[-80.79773,41.90953],[-80.80064,41.90962],[-80.80148,41.90649],[-80.80413,41.90613],[-80.8155,41.8973],[-80.82533,41.89337],[-80.84395,41.88941],[-80.85134,41.8852],[-80.8748,41.87854],[-80.90055,41.86855],[-80.93934,41.86187],[-80.95207,41.86194],[-80.95749,41.85973],[-81.00219,41.85305],[-81.00312,41.50168]]]}},{"type":"Feature","id":"39009","properties":{"geoid":"39009","name":"Athens","displayName":"Athens County","state":"OH","stateName":"Ohio","type":"County or equivalent","lsad":"06","sourceType":"county"},"geometry":{"type":"Polygon","coordinates":[[[-82.29766,39.3033],[-82.29848,39.295],[-82.26024,39.29292],[-82.26858,39.20376],[-81.98869,39.18953],[-81.75582,39.18052],[-81.75275,39.18468],[-81.74153,39.1896],[-81.73708,39.19384],[-81.73336,39.20587],[-81.72995,39.21188],[-81.72558,39.21584],[-81.72181,39.26957],[-81.81836,39.27258],[-81.81661,39.30206],[-81.83545,39.30281],[-81.83464,39.31756],[-81.85367,39.31816],[-81.84486,39.45022],[-82.05578,39.46005],[-82.04753,39.55083],[-82.15916,39.55657],[-82.16738,39.46631],[-82.28041,39.47291],[-82.29766,39.3033]]]}},{"type":"Feature","id":"39011","properties":{"geoid":"39011","name":"Auglaize","displayName":"Auglaize County","state":"OH","stateName":"Ohio","type":"County or equivalent","lsad":"06","sourceType":"county"},"geometry":{"type":"Polygon","coordinates":[[[-84.45618,40.68486],[-84.45542,40.35859],[-84.43439,40.35453],[-84.43402,40.37825],[-84.33863,40.37887],[-84.33914,40.48108],[-83.99378,40.483],[-83.99387,40.53517],[-83.90854,40.53539],[-83.88004,40.53869],[-83.88019,40.64469],[-84.10779,40.64307],[-84.10791,40.65794],[-84.22275,40.65695],[-84.2228,40.68596],[-84.45618,40.68486]]]}},{"type":"Feature","id":"39013","properties":{"geoid":"39013","name":"Belmont","displayName":"Belmont County","state":"OH","stateName":"Ohio","type":"County or equivalent","lsad":"06","sourceType":"county"},"geometry":{"type":"Polygon","coordinates":[[[-81.2343,39.94902],[-81.23732,39.86783],[-81.12713,39.86504],[-81.01709,39.85988],[-81.01715,39.85818],[-80.82128,39.84998],[-80.7999,39.85891],[-80.79313,39.86375],[-80.79076,39.86728],[-80.79016,39.87225],[-80.79399,39.88279],[-80.80234,39.89161],[-80.80901,39.90323],[-80.80928,39.91031],[-80.80602,39.91713],[-80.79571,39.91969],[-80.78285,39.91716],[-80.77264,39.91131],[-80.76259,39.90891],[-80.7593,39.90947],[-80.75643,39.91393],[-80.75678,39.92059],[-80.76131,39.9291],[-80.76448,39.95025],[-80.75853,39.95924],[-80.74013,39.97079],[-80.73872,39.98511],[-80.7419,40.00793],[-80.7378,40.02076],[-80.73739,40.02759],[-80.7315,40.03747],[-80.7309,40.04667],[-80.7331,40.05877],[-80.7371,40.06497],[-80.7386,40.07567],[-80.7368,40.08007],[-80.7307,40.08647],[-80.713,40.09687],[-80.7091,40.10147],[-80.7067,40.11087],[-80.71055,40.12527],[-80.71004,40.13831],[-80.70292,40.15726],[-80.76585,40.15985],[-80.76627,40.15511],[-81.11207,40.16792],[-81.11195,40.1711],[-81.22581,40.17269],[-81.2343,39.94902]]]}},{"type":"Feature","id":"39015","properties":{"geoid":"39015","name":"Brown","displayName":"Brown County","state":"OH","stateName":"Ohio","type":"County or equivalent","lsad":"06","sourceType":"county"},"geometry":{"type":"Polygon","coordinates":[[[-84.05245,38.77223],[-84.04449,38.77057],[-83.97881,38.7871],[-83.96212,38.78738],[-83.94398,38.78362],[-83.92845,38.77458],[-83.92859,38.7722],[-83.92699,38.77156],[-83.88711,38.7656],[-83.86653,38.7602],[-83.85903,38.75679],[-83.84873,38.74718],[-83.84468,38.73744],[-83.84169,38.72426],[-83.8367,38.71786],[-83.82185,38.70958],[-83.79855,38.70467],[-83.78711,38.69949],[-83.78362,38.69564],[-83.77576,38.66675],[-83.77216,38.65815],[-83.76935,38.65522],[-83.76244,38.6521],[-83.74992,38.64961],[-83.72078,38.6467],[-83.7134,38.64159],[-83.70531,38.63976],[-83.6991,38.73],[-83.67302,39.02043],[-83.87221,39.0213],[-83.86846,39.10414],[-83.86568,39.24733],[-83.98992,39.2541],[-84.05245,38.77223]]]}},{"type":"Feature","id":"39017","properties":{"geoid":"39017","name":"Butler","displayName":"Butler County","state":"OH","stateName":"Ohio","type":"County or equivalent","lsad":"06","sourceType":"county"},"geometry":{"type":"Polygon","coordinates":[[[-84.81924,39.31704],[-84.81945,39.30515],[-84.64181,39.30504],[-84.63859,39.30975],[-84.63005,39.31206],[-84.59875,39.30856],[-84.56235,39.30808],[-84.52368,39.30328],[-84.50464,39.30596],[-84.48515,39.30155],[-84.46546,39.30292],[-84.42913,39.29876],[-84.39108,39.29758],[-84.35321,39.29229],[-84.33672,39.45599],[-84.34021,39.4567],[-84.33168,39.54921],[-84.36155,39.54217],[-84.3643,39.54381],[-84.36524,39.58986],[-84.47921,39.59102],[-84.47893,39.56879],[-84.76309,39.5666],[-84.81494,39.56771],[-84.81924,39.31704]]]}},{"type":"Feature","id":"39019","properties":{"geoid":"39019","name":"Carroll","displayName":"Carroll County","state":"OH","stateName":"Ohio","type":"County or equivalent","lsad":"06","sourceType":"county"},"geometry":{"type":"Polygon","coordinates":[[[-81.32101,40.57931],[-81.32166,40.56665],[-81.26474,40.56504],[-81.26995,40.43349],[-81.21235,40.43158],[-81.21231,40.43346],[-81.15788,40.43224],[-81.10008,40.4306],[-81.1001,40.42893],[-80.94191,40.4247],[-80.94015,40.46835],[-80.9247,40.46798],[-80.92092,40.55632],[-80.86357,40.55541],[-80.86082,40.64257],[-80.91812,40.64346],[-80.91717,40.72693],[-81.19874,40.72915],[-81.19909,40.72221],[-81.23723,40.72354],[-81.24125,40.65053],[-81.31775,40.65194],[-81.32101,40.57931]]]}},{"type":"Feature","id":"39021","properties":{"geoid":"39021","name":"Champaign","displayName":"Champaign County","state":"OH","stateName":"Ohio","type":"County or equivalent","lsad":"06","sourceType":"county"},"geometry":{"type":"Polygon","coordinates":[[[-84.03194,40.08607],[-84.03607,40.04018],[-83.63236,40.01626],[-83.51607,40.01082],[-83.50371,40.11147],[-83.4945,40.22547],[-83.78535,40.24521],[-83.7842,40.26005],[-84.01476,40.27346],[-84.03194,40.08607]]]}},{"type":"Feature","id":"39023","properties":{"geoid":"39023","name":"Clark","displayName":"Clark County","state":"OH","stateName":"Ohio","type":"County or equivalent","lsad":"06","sourceType":"county"},"geometry":{"type":"Polygon","coordinates":[[[-84.05101,39.87981],[-84.05371,39.85071],[-83.93981,39.84345],[-83.94129,39.82884],[-83.82742,39.82256],[-83.82937,39.79777],[-83.73948,39.78896],[-83.74085,39.78151],[-83.64769,39.77521],[-83.64717,39.77303],[-83.58991,39.76881],[-83.51262,40.01002],[-84.03607,40.04018],[-84.05101,39.87981]]]}},{"type":"Feature","id":"39025","properties":{"geoid":"39025","name":"Clermont","displayName":"Clermont County","state":"OH","stateName":"Ohio","type":"County or equivalent","lsad":"06","sourceType":"county"},"geometry":{"type":"Polygon","coordinates":[[[-84.32003,39.22343],[-84.31608,39.22051],[-84.31115,39.20963],[-84.29946,39.20906],[-84.28962,39.21293],[-84.28404,39.21313],[-84.27638,39.20387],[-84.27635,39.20078],[-84.278,39.19692],[-84.28704,39.18872],[-84.28893,39.1815],[-84.29289,39.17999],[-84.29945,39.17388],[-84.2952,39.16696],[-84.30012,39.16443],[-84.30174,39.15943],[-84.30272,39.14261],[-84.31994,39.02208],[-84.3047,39.00646],[-84.29936,38.99598],[-84.29647,38.98531],[-84.29508,38.9683],[-84.28816,38.95579],[-84.27992,38.94517],[-84.25701,38.92321],[-84.23445,38.89323],[-84.23184,38.87287],[-84.23326,38.84267],[-84.23018,38.82655],[-84.2253,38.81766],[-84.2129,38.80571],[-84.20559,38.80259],[-84.15591,38.79491],[-84.13509,38.78948],[-84.10884,38.77925],[-84.07149,38.77047],[-84.05267,38.77138],[-83.98992,39.2541],[-84.25943,39.27086],[-84.26141,39.26469],[-84.26497,39.26396],[-84.27133,39.25844],[-84.28282,39.25194],[-84.29326,39.24886],[-84.29607,39.2452],[-84.29642,39.2393],[-84.29944,39.23516],[-84.30711,39.23441],[-84.32003,39.22343]]]}},{"type":"Feature","id":"39027","properties":{"geoid":"39027","name":"Clinton","displayName":"Clinton County","state":"OH","stateName":"Ohio","type":"County or equivalent","lsad":"06","sourceType":"county"},"geometry":{"type":"Polygon","coordinates":[[[-84.00412,39.28842],[-84.00745,39.25511],[-83.8344,39.24571],[-83.83587,39.2233],[-83.81888,39.22284],[-83.8083,39.22468],[-83.80642,39.23033],[-83.80134,39.23157],[-83.8025,39.23713],[-83.79565,39.24093],[-83.79241,39.24959],[-83.78741,39.25495],[-83.78479,39.26289],[-83.59088,39.37874],[-83.57629,39.54455],[-83.97699,39.5694],[-84.00412,39.28842]]]}},{"type":"Feature","id":"39029","properties":{"geoid":"39029","name":"Columbiana","displayName":"Columbiana County","state":"OH","stateName":"Ohio","type":"County or equivalent","lsad":"06","sourceType":"county"},"geometry":{"type":"Polygon","coordinates":[[[-81.08739,40.72944],[-81.08729,40.72782],[-80.91717,40.72693],[-80.91812,40.64346],[-80.86082,40.64257],[-80.86199,40.5994],[-80.74711,40.59699],[-80.74732,40.58333],[-80.66796,40.5825],[-80.66256,40.5916],[-80.65172,40.59774],[-80.63436,40.6161],[-80.62717,40.61994],[-80.59876,40.62526],[-80.59205,40.6225],[-80.58363,40.61552],[-80.57674,40.61422],[-80.56784,40.61755],[-80.56072,40.62368],[-80.55113,40.62885],[-80.53274,40.63559],[-80.52566,40.63607],[-80.51899,40.6388],[-80.51978,40.90032],[-80.82192,40.90093],[-80.82164,40.92978],[-80.89128,40.9302],[-80.89581,40.93019],[-80.89603,40.901],[-81.08668,40.90161],[-81.08739,40.72944]]]}},{"type":"Feature","id":"39031","properties":{"geoid":"39031","name":"Coshocton","displayName":"Coshocton County","state":"OH","stateName":"Ohio","type":"County or equivalent","lsad":"06","sourceType":"county"},"geometry":{"type":"Polygon","coordinates":[[[-82.19325,40.29029],[-82.19591,40.23907],[-82.18282,40.23862],[-82.1871,40.16688],[-82.0872,40.1617],[-81.6709,40.15098],[-81.66759,40.22247],[-81.62235,40.22131],[-81.61631,40.36812],[-81.71238,40.37076],[-81.70913,40.44478],[-81.89391,40.4481],[-82.18428,40.45638],[-82.19325,40.29029]]]}},{"type":"Feature","id":"39033","properties":{"geoid":"39033","name":"Crawford","displayName":"Crawford County","state":"OH","stateName":"Ohio","type":"County or equivalent","lsad":"06","sourceType":"county"},"geometry":{"type":"Polygon","coordinates":[[[-83.11274,40.99345],[-83.11136,40.70291],[-82.8583,40.70502],[-82.8582,40.71242],[-82.72716,40.7112],[-82.72418,40.93046],[-82.72479,40.99564],[-82.85297,40.99694],[-82.85318,40.99366],[-83.11274,40.99345]]]}},{"type":"Feature","id":"39035","properties":{"geoid":"39035","name":"Cuyahoga","displayName":"Cuyahoga County","state":"OH","stateName":"Ohio","type":"County or equivalent","lsad":"06","sourceType":"county"},"geometry":{"type":"Polygon","coordinates":[[[-81.97097,41.36911],[-81.97126,41.35127],[-81.87696,41.35068],[-81.87805,41.27504],[-81.56514,41.27776],[-81.56242,41.28039],[-81.56478,41.28421],[-81.56806,41.28602],[-81.56689,41.28797],[-81.56514,41.28785],[-81.56534,41.28918],[-81.5709,41.29081],[-81.56988,41.29342],[-81.57205,41.2939],[-81.57107,41.29587],[-81.57251,41.2965],[-81.57286,41.30075],[-81.57573,41.30091],[-81.57552,41.30266],[-81.57333,41.30329],[-81.58429,41.30698],[-81.58544,41.30886],[-81.58362,41.31152],[-81.58364,41.31568],[-81.58766,41.31977],[-81.58734,41.32371],[-81.59154,41.32788],[-81.59124,41.33128],[-81.5879,41.33631],[-81.5881,41.34265],[-81.59473,41.34354],[-81.59682,41.34721],[-81.59357,41.34768],[-81.59332,41.34963],[-81.59724,41.3493],[-81.59805,41.35116],[-81.39169,41.34827],[-81.39176,41.42427],[-81.37477,41.42443],[-81.37499,41.44529],[-81.39152,41.44522],[-81.39101,41.56972],[-81.48784,41.57005],[-81.48864,41.63135],[-81.5071,41.62103],[-81.52427,41.61614],[-81.53495,41.61071],[-81.56377,41.58685],[-81.58157,41.57375],[-81.58421,41.57425],[-81.58895,41.57064],[-81.59185,41.56621],[-81.6273,41.54408],[-81.63329,41.54818],[-81.63779,41.54316],[-81.63295,41.542],[-81.64062,41.5393],[-81.65533,41.53079],[-81.6555,41.5288],[-81.66753,41.52271],[-81.66818,41.52542],[-81.6624,41.52884],[-81.66511,41.5316],[-81.68887,41.51818],[-81.68767,41.51692],[-81.69324,41.51439],[-81.69136,41.51058],[-81.69213,41.50932],[-81.69538,41.50987],[-81.70921,41.50115],[-81.71808,41.49719],[-81.72065,41.49793],[-81.7272,41.49311],[-81.73261,41.4912],[-81.73403,41.49319],[-81.73965,41.49115],[-81.73876,41.48855],[-81.74476,41.48715],[-81.77754,41.49341],[-81.78202,41.4957],[-81.79041,41.49521],[-81.79811,41.49728],[-81.80027,41.4957],[-81.81228,41.49532],[-81.83513,41.48959],[-81.83862,41.49018],[-81.86364,41.4827],[-81.87699,41.48318],[-81.94445,41.49236],[-81.95226,41.49528],[-81.96833,41.50495],[-81.97097,41.36911]]]}},{"type":"Feature","id":"39037","properties":{"geoid":"39037","name":"Darke","displayName":"Darke County","state":"OH","stateName":"Ohio","type":"County or equivalent","lsad":"06","sourceType":"county"},"geometry":{"type":"Polygon","coordinates":[[[-84.81243,39.92258],[-84.81241,39.91692],[-84.61338,39.9166],[-84.4259,39.91962],[-84.43228,40.18084],[-84.43633,40.1808],[-84.43272,40.18891],[-84.43258,40.19704],[-84.43463,40.35426],[-84.59959,40.35321],[-84.5997,40.35176],[-84.8039,40.35276],[-84.80448,40.26263],[-84.81243,39.92258]]]}},{"type":"Feature","id":"39039","properties":{"geoid":"39039","name":"Defiance","displayName":"Defiance County","state":"OH","stateName":"Ohio","type":"County or equivalent","lsad":"06","sourceType":"county"},"geometry":{"type":"Polygon","coordinates":[[[-84.80406,41.42605],[-84.80353,41.25256],[-84.45722,41.25348],[-84.45706,41.20943],[-84.34161,41.20906],[-84.3416,41.16552],[-84.22822,41.16586],[-84.22736,41.34049],[-84.22845,41.42781],[-84.80406,41.42605]]]}},{"type":"Feature","id":"39041","properties":{"geoid":"39041","name":"Delaware","displayName":"Delaware County","state":"OH","stateName":"Ohio","type":"County or equivalent","lsad":"06","sourceType":"county"},"geometry":{"type":"Polygon","coordinates":[[[-83.24959,40.3643],[-83.24843,40.24447],[-83.17233,40.24426],[-83.16964,40.14279],[-82.76183,40.12586],[-82.74493,40.3496],[-82.92959,40.35812],[-82.92478,40.415],[-83.02208,40.41888],[-83.0208,40.4338],[-83.16037,40.43887],[-83.24859,40.44399],[-83.24959,40.3643]]]}},{"type":"Feature","id":"39043","properties":{"geoid":"39043","name":"Erie","displayName":"Erie County","state":"OH","stateName":"Ohio","type":"County or equivalent","lsad":"06","sourceType":"county"},"geometry":{"type":"MultiPolygon","coordinates":[[[[-82.73447,41.60351],[-82.73453,41.60113],[-82.72487,41.59578],[-82.71517,41.59496],[-82.70197,41.59122],[-82.7015,41.58994],[-82.70327,41.58882],[-82.70239,41.58657],[-82.69892,41.58522],[-82.6887,41.58654],[-82.6858,41.58764],[-82.68023,41.59546],[-82.67729,41.59621],[-82.67971,41.59891],[-82.6789,41.6079],[-82.68142,41.61178],[-82.67358,41.62322],[-82.6771,41.62286],[-82.68979,41.61149],[-82.69697,41.61078],[-82.70205,41.61231],[-82.70505,41.61523],[-82.70386,41.61739],[-82.70738,41.61949],[-82.71802,41.61942],[-82.72264,41.61679],[-82.72226,41.61299],[-82.72425,41.60897],[-82.73447,41.60351]]],[[[-82.90187,41.43051],[-82.84771,41.4305],[-82.84148,41.29002],[-82.44255,41.28387],[-82.34234,41.28424],[-82.34807,41.42831],[-82.3635,41.427],[-82.37258,41.42172],[-82.39149,41.41613],[-82.43132,41.39687],[-82.4606,41.38632],[-82.48121,41.38134],[-82.51221,41.38302],[-82.54836,41.39836],[-82.55162,41.39702],[-82.5576,41.39939],[-82.5708,41.40772],[-82.58319,41.4106],[-82.60096,41.41954],[-82.60331,41.41723],[-82.61179,41.42109],[-82.61448,41.42017],[-82.62549,41.42307],[-82.62035,41.43293],[-82.65807,41.46084],[-82.68169,41.48379],[-82.68693,41.4914],[-82.69406,41.48794],[-82.69355,41.48392],[-82.68117,41.47738],[-82.67233,41.46259],[-82.67378,41.45347],[-82.67968,41.45439],[-82.68002,41.45316],[-82.68406,41.45323],[-82.69106,41.45608],[-82.69227,41.45446],[-82.69931,41.45887],[-82.69828,41.45962],[-82.7016,41.46299],[-82.71808,41.45758],[-82.73066,41.45002],[-82.73431,41.45052],[-82.73114,41.4612],[-82.73351,41.46047],[-82.7369,41.45082],[-82.73614,41.44885],[-82.73854,41.44814],[-82.7408,41.45093],[-82.7439,41.45036],[-82.75467,41.44399],[-82.76632,41.44577],[-82.80102,41.4643],[-82.81171,41.47534],[-82.81266,41.46982],[-82.82122,41.46928],[-82.82645,41.47356],[-82.83002,41.47285],[-82.82812,41.45862],[-82.83256,41.45305],[-82.83775,41.44985],[-82.84625,41.4486],[-82.84815,41.44568],[-82.85884,41.44103],[-82.87305,41.44076],[-82.87443,41.43822],[-82.884,41.43573],[-82.888,41.43664],[-82.88845,41.4347],[-82.89556,41.43416],[-82.90187,41.43051]]]]}},{"type":"Feature","id":"39045","properties":{"geoid":"39045","name":"Fairfield","displayName":"Fairfield County","state":"OH","stateName":"Ohio","type":"County or equivalent","lsad":"06","sourceType":"county"},"geometry":{"type":"Polygon","coordinates":[[[-82.84154,39.57612],[-82.84295,39.56148],[-82.73152,39.55444],[-82.73027,39.56907],[-82.62009,39.56399],[-82.61755,39.6086],[-82.49612,39.60285],[-82.49033,39.6617],[-82.37453,39.65496],[-82.36605,39.74252],[-82.40425,39.7446],[-82.39659,39.83306],[-82.4724,39.83722],[-82.46281,39.93038],[-82.47342,39.92506],[-82.8108,39.94116],[-82.8131,39.91166],[-82.79438,39.91078],[-82.80248,39.82295],[-82.8215,39.82427],[-82.83762,39.64961],[-82.83438,39.64944],[-82.84154,39.57612]]]}},{"type":"Feature","id":"39047","properties":{"geoid":"39047","name":"Fayette","displayName":"Fayette County","state":"OH","stateName":"Ohio","type":"County or equivalent","lsad":"06","sourceType":"county"},"geometry":{"type":"Polygon","coordinates":[[[-83.66534,39.59877],[-83.6702,39.55025],[-83.57629,39.54455],[-83.59088,39.37874],[-83.37271,39.37742],[-83.26674,39.51625],[-83.25244,39.69544],[-83.4606,39.70504],[-83.65333,39.71688],[-83.66534,39.59877]]]}},{"type":"Feature","id":"39049","properties":{"geoid":"39049","name":"Franklin","displayName":"Franklin County","state":"OH","stateName":"Ohio","type":"County or equivalent","lsad":"06","sourceType":"county"},"geometry":{"type":"Polygon","coordinates":[[[-83.26088,40.00281],[-83.24611,39.98732],[-83.25012,39.98315],[-83.25023,39.97033],[-83.24694,39.97114],[-83.24544,39.96329],[-83.24017,39.96012],[-83.2417,39.95255],[-83.23186,39.94486],[-83.22564,39.93226],[-83.25203,39.91736],[-83.2437,39.8125],[-83.16794,39.80874],[-83.03763,39.80557],[-82.82425,39.795],[-82.8215,39.82427],[-82.80248,39.82295],[-82.79438,39.91078],[-82.8131,39.91166],[-82.8108,39.94116],[-82.7825,39.93966],[-82.77946,39.97629],[-82.77382,39.97613],[-82.76183,40.12586],[-83.16987,40.14308],[-83.17021,40.10707],[-83.20627,40.10773],[-83.2122,40.04807],[-83.25535,40.04825],[-83.2549,40.04268],[-83.25248,40.04059],[-83.25622,40.03055],[-83.25551,40.02879],[-83.25275,40.02845],[-83.25176,40.01963],[-83.25327,40.01432],[-83.25168,40.00838],[-83.25409,40.00505],[-83.25855,40.00482],[-83.26088,40.00281]]]}},{"type":"Feature","id":"39051","properties":{"geoid":"39051","name":"Fulton","displayName":"Fulton County","state":"OH","stateName":"Ohio","type":"County or equivalent","lsad":"06","sourceType":"county"},"geometry":{"type":"Polygon","coordinates":[[[-84.39955,41.70586],[-84.39838,41.61698],[-84.38131,41.61673],[-84.38074,41.51394],[-84.34205,41.51411],[-84.3419,41.48552],[-83.88294,41.48754],[-83.88244,41.61752],[-83.87737,41.61755],[-83.88039,41.72009],[-84.39955,41.70586]]]}},{"type":"Feature","id":"39053","properties":{"geoid":"39053","name":"Gallia","displayName":"Gallia County","state":"OH","stateName":"Ohio","type":"County or equivalent","lsad":"06","sourceType":"county"},"geometry":{"type":"Polygon","coordinates":[[[-82.57558,38.84448],[-82.58268,38.77908],[-82.48358,38.77228],[-82.48658,38.74298],[-82.46688,38.74148],[-82.47248,38.68228],[-82.35447,38.67607],[-82.36167,38.58518],[-82.2871,38.58259],[-82.27147,38.59538],[-82.26207,38.59818],[-82.25247,38.59878],[-82.24597,38.59848],[-82.22217,38.59138],[-82.19382,38.5931],[-82.18877,38.59498],[-82.17727,38.60378],[-82.17207,38.61928],[-82.17267,38.62968],[-82.17907,38.64888],[-82.18557,38.65958],[-82.18607,38.66678],[-82.19087,38.68038],[-82.19017,38.68738],[-82.18247,38.70878],[-82.18976,38.72952],[-82.19561,38.75244],[-82.20154,38.76037],[-82.21661,38.76835],[-82.22045,38.77374],[-82.22157,38.78719],[-82.21727,38.79568],[-82.20929,38.80267],[-82.19117,38.81514],[-82.17948,38.81738],[-82.16157,38.82463],[-82.14487,38.84048],[-82.13922,38.86502],[-82.14527,38.88348],[-82.14317,38.89808],[-82.12887,38.90998],[-82.11167,38.93258],[-82.10906,38.94558],[-82.09887,38.95832],[-82.09546,39.00278],[-82.32389,39.01315],[-82.32287,39.02767],[-82.43531,39.03508],[-82.43938,38.98478],[-82.4552,38.84458],[-82.57438,38.85348],[-82.57558,38.84448]]]}},{"type":"Feature","id":"39055","properties":{"geoid":"39055","name":"Geauga","displayName":"Geauga County","state":"OH","stateName":"Ohio","type":"County or equivalent","lsad":"06","sourceType":"county"},"geometry":{"type":"Polygon","coordinates":[[[-81.39193,41.40185],[-81.39169,41.34827],[-81.00319,41.34786],[-81.00293,41.71489],[-81.10226,41.71431],[-81.10142,41.64146],[-81.29467,41.64089],[-81.29588,41.56995],[-81.39101,41.56972],[-81.39152,41.44522],[-81.37499,41.44529],[-81.37477,41.42443],[-81.39176,41.42427],[-81.39193,41.40185]]]}},{"type":"Feature","id":"39057","properties":{"geoid":"39057","name":"Greene","displayName":"Greene County","state":"OH","stateName":"Ohio","type":"County or equivalent","lsad":"06","sourceType":"county"},"geometry":{"type":"Polygon","coordinates":[[[-84.11375,39.5845],[-84.11417,39.57823],[-83.6702,39.55025],[-83.64769,39.77521],[-83.74085,39.78151],[-83.73948,39.78896],[-83.82937,39.79777],[-83.82742,39.82256],[-83.94129,39.82884],[-83.93981,39.84345],[-84.05371,39.85071],[-84.05505,39.83621],[-84.09294,39.83834],[-84.11126,39.63802],[-84.11194,39.62636],[-84.10964,39.62596],[-84.11375,39.5845]]]}},{"type":"Feature","id":"39059","properties":{"geoid":"39059","name":"Guernsey","displayName":"Guernsey County","state":"OH","stateName":"Ohio","type":"County or equivalent","lsad":"06","sourceType":"county"},"geometry":{"type":"Polygon","coordinates":[[[-81.72606,39.97563],[-81.72861,39.93173],[-81.6911,39.93076],[-81.69415,39.84264],[-81.68271,39.84202],[-81.58031,39.8391],[-81.57859,39.89768],[-81.46411,39.89455],[-81.46275,39.9235],[-81.38681,39.92152],[-81.38601,39.95069],[-81.34784,39.94996],[-81.34776,39.95363],[-81.23405,39.95127],[-81.22592,40.17007],[-81.33956,40.172],[-81.33806,40.21408],[-81.66759,40.22247],[-81.6709,40.15098],[-81.71628,40.15217],[-81.72606,39.97563]]]}},{"type":"Feature","id":"39061","properties":{"geoid":"39061","name":"Hamilton","displayName":"Hamilton County","state":"OH","stateName":"Ohio","type":"County or equivalent","lsad":"06","sourceType":"county"},"geometry":{"type":"Polygon","coordinates":[[[-84.82015,39.11201],[-84.82016,39.10548],[-84.78768,39.1153],[-84.76675,39.13856],[-84.75445,39.14666],[-84.74415,39.14746],[-84.73205,39.14446],[-84.71855,39.13706],[-84.68975,39.10416],[-84.68485,39.10046],[-84.65725,39.09546],[-84.65035,39.09166],[-84.63245,39.07676],[-84.62011,39.07346],[-84.60793,39.07324],[-84.57214,39.08206],[-84.56394,39.08736],[-84.55754,39.09486],[-84.55084,39.09936],[-84.54134,39.09916],[-84.52464,39.09216],[-84.50974,39.09366],[-84.50206,39.09664],[-84.49374,39.10246],[-84.48774,39.11076],[-84.48094,39.11676],[-84.47054,39.12146],[-84.46204,39.12176],[-84.45534,39.12036],[-84.44524,39.11446],[-84.43554,39.10226],[-84.43284,39.09426],[-84.43464,39.08686],[-84.43294,39.08396],[-84.43234,39.06756],[-84.42984,39.05826],[-84.42573,39.05306],[-84.40694,39.04566],[-84.38684,39.04516],[-84.36044,39.04136],[-84.33634,39.03286],[-84.31994,39.02208],[-84.30272,39.14261],[-84.30174,39.15943],[-84.30012,39.16443],[-84.2952,39.16696],[-84.29945,39.17388],[-84.29289,39.17999],[-84.28893,39.1815],[-84.28704,39.18872],[-84.278,39.19692],[-84.27635,39.20078],[-84.27638,39.20387],[-84.28404,39.21313],[-84.28962,39.21293],[-84.29946,39.20906],[-84.31115,39.20963],[-84.31608,39.22051],[-84.32003,39.22343],[-84.30711,39.23441],[-84.29944,39.23516],[-84.29642,39.2393],[-84.29607,39.2452],[-84.29326,39.24886],[-84.28282,39.25194],[-84.27133,39.25844],[-84.26497,39.26396],[-84.26141,39.26469],[-84.25637,39.27682],[-84.26466,39.28066],[-84.26524,39.28222],[-84.26217,39.28834],[-84.3157,39.29269],[-84.35321,39.29229],[-84.39108,39.29758],[-84.42913,39.29876],[-84.46546,39.30292],[-84.48515,39.30155],[-84.50464,39.30596],[-84.52368,39.30328],[-84.56235,39.30808],[-84.59875,39.30856],[-84.63005,39.31206],[-84.63859,39.30975],[-84.64181,39.30504],[-84.81945,39.30515],[-84.82015,39.11201]]]}},{"type":"Feature","id":"39063","properties":{"geoid":"39063","name":"Hancock","displayName":"Hancock County","state":"OH","stateName":"Ohio","type":"County or equivalent","lsad":"06","sourceType":"county"},"geometry":{"type":"Polygon","coordinates":[[[-83.88115,41.16782],[-83.88006,40.81992],[-83.51588,40.81813],[-83.51473,40.90512],[-83.47674,40.90496],[-83.47679,40.94838],[-83.45768,40.94852],[-83.45785,40.99167],[-83.42032,40.99189],[-83.42105,41.16678],[-83.49993,41.16575],[-83.72712,41.16853],[-83.88115,41.16782]]]}},{"type":"Feature","id":"39065","properties":{"geoid":"39065","name":"Hardin","displayName":"Hardin County","state":"OH","stateName":"Ohio","type":"County or equivalent","lsad":"06","sourceType":"county"},"geometry":{"type":"Polygon","coordinates":[[[-83.88019,40.64469],[-83.88,40.53189],[-83.51973,40.50962],[-83.52023,40.50408],[-83.41867,40.50523],[-83.41562,40.51537],[-83.41987,40.58637],[-83.41984,40.68682],[-83.44028,40.68761],[-83.44017,40.7022],[-83.4958,40.70152],[-83.4963,40.81794],[-83.88006,40.81992],[-83.88019,40.64469]]]}},{"type":"Feature","id":"39067","properties":{"geoid":"39067","name":"Harrison","displayName":"Harrison County","state":"OH","stateName":"Ohio","type":"County or equivalent","lsad":"06","sourceType":"county"},"geometry":{"type":"Polygon","coordinates":[[[-81.33806,40.21408],[-81.33956,40.172],[-81.22592,40.17007],[-81.22581,40.17269],[-81.11195,40.1711],[-81.11207,40.16792],[-80.88289,40.1595],[-80.87227,40.37372],[-80.87155,40.37946],[-80.8672,40.37938],[-80.8655,40.42293],[-81.1001,40.42893],[-81.10008,40.4306],[-81.15788,40.43224],[-81.21231,40.43346],[-81.21235,40.43158],[-81.26995,40.43349],[-81.27532,40.30343],[-81.3346,40.30432],[-81.33806,40.21408]]]}},{"type":"Feature","id":"39069","properties":{"geoid":"39069","name":"Henry","displayName":"Henry County","state":"OH","stateName":"Ohio","type":"County or equivalent","lsad":"06","sourceType":"county"},"geometry":{"type":"Polygon","coordinates":[[[-84.3419,41.48552],[-84.34166,41.42757],[-84.22845,41.42781],[-84.22736,41.34049],[-84.22822,41.16586],[-83.88115,41.16782],[-83.88352,41.34256],[-83.88294,41.48754],[-84.3419,41.48552]]]}},{"type":"Feature","id":"39071","properties":{"geoid":"39071","name":"Highland","displayName":"Highland County","state":"OH","stateName":"Ohio","type":"County or equivalent","lsad":"06","sourceType":"county"},"geometry":{"type":"Polygon","coordinates":[[[-83.87206,39.02356],[-83.87221,39.0213],[-83.82068,39.0202],[-83.7052,39.02135],[-83.61159,39.01889],[-83.51139,39.03638],[-83.38564,39.0552],[-83.35353,39.19758],[-83.34348,39.23322],[-83.34785,39.23285],[-83.34597,39.23917],[-83.34691,39.246],[-83.34507,39.25073],[-83.34663,39.25266],[-83.35574,39.25006],[-83.357,39.24513],[-83.36179,39.24063],[-83.36574,39.24171],[-83.37389,39.24846],[-83.38112,39.24962],[-83.37819,39.25651],[-83.38004,39.26161],[-83.39369,39.26779],[-83.39317,39.27486],[-83.3813,39.27836],[-83.38214,39.28412],[-83.37663,39.29094],[-83.37667,39.29226],[-83.38184,39.29401],[-83.38309,39.2969],[-83.38198,39.30486],[-83.38477,39.30848],[-83.38334,39.31661],[-83.38699,39.32202],[-83.38586,39.32606],[-83.38284,39.32742],[-83.38402,39.33146],[-83.38223,39.3393],[-83.37505,39.34828],[-83.38025,39.35661],[-83.3734,39.36858],[-83.37458,39.37484],[-83.37271,39.37742],[-83.59088,39.37874],[-83.78479,39.26289],[-83.78741,39.25495],[-83.79241,39.24959],[-83.79565,39.24093],[-83.8025,39.23713],[-83.80134,39.23157],[-83.80642,39.23033],[-83.8083,39.22468],[-83.81888,39.22284],[-83.83587,39.2233],[-83.8344,39.24571],[-83.86568,39.24733],[-83.86846,39.10414],[-83.87206,39.02356]]]}},{"type":"Feature","id":"39073","properties":{"geoid":"39073","name":"Hocking","displayName":"Hocking County","state":"OH","stateName":"Ohio","type":"County or equivalent","lsad":"06","sourceType":"county"},"geometry":{"type":"Polygon","coordinates":[[[-82.74744,39.3819],[-82.74859,39.36816],[-82.63569,39.36157],[-82.63439,39.37597],[-82.51758,39.36947],[-82.51448,39.39577],[-82.28966,39.3842],[-82.28041,39.47291],[-82.16738,39.46631],[-82.15916,39.55657],[-82.26357,39.56214],[-82.26195,39.59059],[-82.37989,39.59674],[-82.37453,39.65496],[-82.49033,39.6617],[-82.49612,39.60285],[-82.61755,39.6086],[-82.62009,39.56399],[-82.73027,39.56907],[-82.73989,39.47795],[-82.74744,39.3819]]]}},{"type":"Feature","id":"39075","properties":{"geoid":"39075","name":"Holmes","displayName":"Holmes County","state":"OH","stateName":"Ohio","type":"County or equivalent","lsad":"06","sourceType":"county"},"geometry":{"type":"Polygon","coordinates":[[[-82.22112,40.66736],[-82.22027,40.56819],[-82.17854,40.5731],[-82.18428,40.45638],[-81.89391,40.4481],[-81.66976,40.44389],[-81.66278,40.62727],[-81.66819,40.62746],[-81.66795,40.63238],[-81.64911,40.63452],[-81.64892,40.66777],[-82.22112,40.66736]]]}},{"type":"Feature","id":"39077","properties":{"geoid":"39077","name":"Huron","displayName":"Huron County","state":"OH","stateName":"Ohio","type":"County or equivalent","lsad":"06","sourceType":"county"},"geometry":{"type":"Polygon","coordinates":[[[-82.84148,41.29002],[-82.82951,40.99662],[-82.43285,40.99294],[-82.43692,41.06538],[-82.3365,41.06576],[-82.33797,41.11582],[-82.34062,41.1379],[-82.34032,41.21128],[-82.34234,41.28424],[-82.44255,41.28387],[-82.84148,41.29002]]]}},{"type":"Feature","id":"39079","properties":{"geoid":"39079","name":"Jackson","displayName":"Jackson County","state":"OH","stateName":"Ohio","type":"County or equivalent","lsad":"06","sourceType":"county"},"geometry":{"type":"Polygon","coordinates":[[[-82.80709,38.94807],[-82.75339,38.94537],[-82.75849,38.88627],[-82.76198,38.86952],[-82.76069,38.85488],[-82.57558,38.84448],[-82.57438,38.85348],[-82.4552,38.84458],[-82.43938,38.98478],[-82.42469,39.13782],[-82.54028,39.14447],[-82.53707,39.18098],[-82.57448,39.18547],[-82.61098,39.18557],[-82.65149,39.18957],[-82.65009,39.20227],[-82.76289,39.20797],[-82.76669,39.16777],[-82.78589,39.16877],[-82.80709,38.94807]]]}},{"type":"Feature","id":"39081","properties":{"geoid":"39081","name":"Jefferson","displayName":"Jefferson County","state":"OH","stateName":"Ohio","type":"County or equivalent","lsad":"06","sourceType":"county"},"geometry":{"type":"Polygon","coordinates":[[[-80.94078,40.44745],[-80.94191,40.4247],[-80.8655,40.42293],[-80.8672,40.37938],[-80.87155,40.37946],[-80.87227,40.37372],[-80.88289,40.1595],[-80.76627,40.15511],[-80.76585,40.15985],[-80.70292,40.15726],[-80.68614,40.18161],[-80.6726,40.19237],[-80.6681,40.19967],[-80.66154,40.2298],[-80.6521,40.24497],[-80.6446,40.25127],[-80.6225,40.26177],[-80.6193,40.26517],[-80.6162,40.27227],[-80.6168,40.28527],[-80.6149,40.29197],[-80.6029,40.30707],[-80.5999,40.31767],[-80.6029,40.32787],[-80.6108,40.34087],[-80.6128,40.34767],[-80.6076,40.36957],[-80.6097,40.37497],[-80.6192,40.38177],[-80.63074,40.3849],[-80.6336,40.39047],[-80.6322,40.39367],[-80.6152,40.39987],[-80.6122,40.40267],[-80.6123,40.43487],[-80.59829,40.45837],[-80.59479,40.47137],[-80.59919,40.48257],[-80.60906,40.48951],[-80.618,40.50205],[-80.62751,40.53579],[-80.63311,40.5387],[-80.65244,40.56254],[-80.66692,40.57366],[-80.66796,40.5825],[-80.74732,40.58333],[-80.74711,40.59699],[-80.86199,40.5994],[-80.86357,40.55541],[-80.92092,40.55632],[-80.9247,40.46798],[-80.94015,40.46835],[-80.94078,40.44745]]]}},{"type":"Feature","id":"39083","properties":{"geoid":"39083","name":"Knox","displayName":"Knox County","state":"OH","stateName":"Ohio","type":"County or equivalent","lsad":"06","sourceType":"county"},"geometry":{"type":"Polygon","coordinates":[[[-82.75024,40.28409],[-82.75075,40.277],[-82.47611,40.2647],[-82.47727,40.24581],[-82.3175,40.23963],[-82.19591,40.23907],[-82.17854,40.5731],[-82.3749,40.55087],[-82.6428,40.55001],[-82.64284,40.52211],[-82.63318,40.52307],[-82.6465,40.34508],[-82.74493,40.3496],[-82.75024,40.28409]]]}},{"type":"Feature","id":"39085","properties":{"geoid":"39085","name":"Lake","displayName":"Lake County","state":"OH","stateName":"Ohio","type":"County or equivalent","lsad":"06","sourceType":"county"},"geometry":{"type":"Polygon","coordinates":[[[-81.48892,41.62676],[-81.48784,41.57005],[-81.29588,41.56995],[-81.29467,41.64089],[-81.10142,41.64146],[-81.10226,41.71431],[-81.00293,41.71489],[-81.00219,41.85305],[-81.01865,41.84542],[-81.04665,41.83882],[-81.05887,41.83275],[-81.06951,41.83091],[-81.08937,41.82291],[-81.11203,41.8171],[-81.12846,41.81108],[-81.1809,41.78722],[-81.20185,41.77939],[-81.22322,41.76827],[-81.23134,41.76738],[-81.24113,41.76239],[-81.26778,41.75802],[-81.28143,41.75904],[-81.28143,41.76125],[-81.28382,41.76205],[-81.3014,41.75006],[-81.32564,41.74069],[-81.34264,41.73037],[-81.35359,41.72672],[-81.35794,41.72265],[-81.38846,41.7073],[-81.42528,41.68286],[-81.4342,41.679],[-81.44457,41.67099],[-81.46718,41.64804],[-81.48864,41.63135],[-81.48892,41.62676]]]}},{"type":"Feature","id":"39087","properties":{"geoid":"39087","name":"Lawrence","displayName":"Lawrence County","state":"OH","stateName":"Ohio","type":"County or equivalent","lsad":"06","sourceType":"county"},"geometry":{"type":"Polygon","coordinates":[[[-82.81598,38.57072],[-82.78978,38.55995],[-82.73096,38.55926],[-82.72485,38.5576],[-82.71414,38.55054],[-82.70004,38.54434],[-82.68996,38.53592],[-82.67572,38.5155],[-82.65705,38.49682],[-82.63771,38.48445],[-82.61847,38.47709],[-82.61046,38.47146],[-82.60409,38.45984],[-82.60076,38.43742],[-82.59692,38.4267],[-82.59348,38.42182],[-82.59348,38.41825],[-82.58759,38.41274],[-82.57161,38.40514],[-82.5498,38.4032],[-82.52958,38.40518],[-82.48658,38.41808],[-82.43438,38.43008],[-82.40488,38.43935],[-82.38975,38.43435],[-82.38177,38.43478],[-82.34064,38.44095],[-82.33034,38.4445],[-82.324,38.44927],[-82.31811,38.45788],[-82.31394,38.46808],[-82.31064,38.48317],[-82.30422,38.49631],[-82.30287,38.52318],[-82.29567,38.53848],[-82.29327,38.56028],[-82.29347,38.57538],[-82.2871,38.58259],[-82.36167,38.58518],[-82.35447,38.67607],[-82.47248,38.68228],[-82.46688,38.74148],[-82.48658,38.74298],[-82.48358,38.77228],[-82.58268,38.77908],[-82.57558,38.84448],[-82.65004,38.84907],[-82.65909,38.76268],[-82.66139,38.76248],[-82.66289,38.74798],[-82.69539,38.74998],[-82.70149,38.69088],[-82.70638,38.67748],[-82.7639,38.67997],[-82.76619,38.64468],[-82.76239,38.64068],[-82.75603,38.62508],[-82.74038,38.59717],[-82.81598,38.57072]]]}},{"type":"Feature","id":"39089","properties":{"geoid":"39089","name":"Licking","displayName":"Licking County","state":"OH","stateName":"Ohio","type":"County or equivalent","lsad":"06","sourceType":"county"},"geometry":{"type":"Polygon","coordinates":[[[-82.78181,39.94698],[-82.7825,39.93966],[-82.47342,39.92506],[-82.46281,39.93038],[-82.41818,39.92794],[-82.41867,39.92245],[-82.23397,39.91326],[-82.2317,39.95108],[-82.19877,39.95014],[-82.18282,40.23862],[-82.3175,40.23963],[-82.47727,40.24581],[-82.47611,40.2647],[-82.75075,40.277],[-82.77268,39.98711],[-82.77382,39.97613],[-82.77946,39.97629],[-82.78181,39.94698]]]}},{"type":"Feature","id":"39091","properties":{"geoid":"39091","name":"Logan","displayName":"Logan County","state":"OH","stateName":"Ohio","type":"County or equivalent","lsad":"06","sourceType":"county"},"geometry":{"type":"Polygon","coordinates":[[[-84.01033,40.31718],[-84.01476,40.27346],[-83.7842,40.26005],[-83.78535,40.24521],[-83.55134,40.22937],[-83.51973,40.50962],[-83.88,40.53189],[-83.88004,40.53869],[-83.90854,40.53539],[-83.99387,40.53517],[-83.99378,40.483],[-84.00237,40.48312],[-84.00194,40.39069],[-84.00484,40.39038],[-84.0037,40.31293],[-84.00717,40.31671],[-84.01033,40.31718]]]}},{"type":"Feature","id":"39093","properties":{"geoid":"39093","name":"Lorain","displayName":"Lorain County","state":"OH","stateName":"Ohio","type":"County or equivalent","lsad":"06","sourceType":"county"},"geometry":{"type":"Polygon","coordinates":[[[-82.34807,41.42831],[-82.34032,41.21128],[-82.34062,41.1379],[-82.33797,41.11582],[-82.3365,41.06576],[-82.17149,41.06354],[-82.16988,41.1371],[-82.07427,41.13646],[-82.07246,41.19985],[-81.9739,41.19983],[-81.97249,41.27483],[-81.87805,41.27504],[-81.87696,41.35068],[-81.97126,41.35127],[-81.96833,41.50495],[-81.99519,41.51452],[-82.0124,41.51551],[-82.02713,41.51227],[-82.11954,41.48853],[-82.17145,41.47304],[-82.17373,41.4741],[-82.17781,41.47152],[-82.18082,41.47264],[-82.18607,41.4702],[-82.18732,41.47111],[-82.18915,41.46989],[-82.18967,41.46632],[-82.21645,41.4543],[-82.23684,41.44234],[-82.25465,41.43431],[-82.26848,41.43084],[-82.29158,41.42844],[-82.33206,41.43054],[-82.34807,41.42831]]]}},{"type":"Feature","id":"39095","properties":{"geoid":"39095","name":"Lucas","displayName":"Lucas County","state":"OH","stateName":"Ohio","type":"County or equivalent","lsad":"06","sourceType":"county"},"geometry":{"type":"MultiPolygon","coordinates":[[[[-83.11064,41.73789],[-83.10608,41.73686],[-83.10334,41.73837],[-83.10209,41.7418],[-83.10557,41.74251],[-83.11064,41.73789]]],[[[-83.44337,41.70445],[-83.4451,41.70095],[-83.43842,41.69432],[-83.42128,41.70338],[-83.42761,41.71174],[-83.44337,41.70445]]],[[[-83.46118,41.7057],[-83.46079,41.70126],[-83.44687,41.70699],[-83.44934,41.7105],[-83.46118,41.7057]]],[[[-83.883,41.44114],[-83.88323,41.4145],[-83.8729,41.41637],[-83.86736,41.41475],[-83.85434,41.41444],[-83.85156,41.41689],[-83.84976,41.42226],[-83.84562,41.42503],[-83.81755,41.4323],[-83.78285,41.44866],[-83.77916,41.45276],[-83.77994,41.4596],[-83.77669,41.463],[-83.75862,41.46204],[-83.74814,41.46585],[-83.73642,41.482],[-83.73265,41.48468],[-83.7203,41.48722],[-83.71284,41.49249],[-83.71153,41.49555],[-83.71363,41.50019],[-83.71123,41.50629],[-83.70964,41.52185],[-83.69974,41.53395],[-83.68008,41.54686],[-83.66563,41.54925],[-83.65984,41.55345],[-83.65203,41.55565],[-83.64494,41.56075],[-83.63614,41.56025],[-83.63133,41.56275],[-83.62563,41.57005],[-83.61273,41.57075],[-83.60953,41.57325],[-83.60843,41.57795],[-83.60074,41.58625],[-83.59443,41.58905],[-83.58803,41.60095],[-83.56993,41.61715],[-83.16955,41.62328],[-83.20819,41.63524],[-83.23674,41.64901],[-83.2378,41.65085],[-83.28328,41.67571],[-83.28628,41.67349],[-83.28856,41.67575],[-83.30625,41.67663],[-83.30903,41.67917],[-83.30996,41.68291],[-83.30575,41.68774],[-83.33587,41.70549],[-83.33819,41.70346],[-83.33798,41.69868],[-83.34301,41.69196],[-83.3496,41.68972],[-83.35173,41.68695],[-83.37971,41.68561],[-83.39495,41.69196],[-83.39802,41.69106],[-83.39811,41.68965],[-83.40217,41.69154],[-83.40955,41.69122],[-83.41171,41.68903],[-83.42321,41.68945],[-83.43187,41.69054],[-83.43959,41.69262],[-83.4428,41.69563],[-83.45569,41.69807],[-83.45864,41.69687],[-83.4602,41.69185],[-83.4674,41.68798],[-83.47222,41.68721],[-83.48021,41.68208],[-83.48414,41.68478],[-83.46997,41.69623],[-83.47782,41.69846],[-83.47883,41.7028],[-83.47463,41.70445],[-83.4754,41.7066],[-83.46768,41.72257],[-83.46082,41.72736],[-83.45597,41.72761],[-83.4554,41.73284],[-83.88039,41.72009],[-83.87737,41.61755],[-83.88244,41.61752],[-83.883,41.44114]]]]}},{"type":"Feature","id":"39097","properties":{"geoid":"39097","name":"Madison","displayName":"Madison County","state":"OH","stateName":"Ohio","type":"County or equivalent","lsad":"06","sourceType":"county"},"geometry":{"type":"Polygon","coordinates":[[[-83.65339,39.71774],[-83.4606,39.70504],[-83.25244,39.69544],[-83.2437,39.8125],[-83.25203,39.91736],[-83.22564,39.93226],[-83.23186,39.94486],[-83.2417,39.95255],[-83.24017,39.96012],[-83.24544,39.96329],[-83.24694,39.97114],[-83.25023,39.97033],[-83.25012,39.98315],[-83.24611,39.98732],[-83.26088,40.00281],[-83.25855,40.00482],[-83.25409,40.00505],[-83.25168,40.00838],[-83.25327,40.01432],[-83.25176,40.01963],[-83.25275,40.02845],[-83.25551,40.02879],[-83.25622,40.03055],[-83.25248,40.04059],[-83.2549,40.04268],[-83.25535,40.04825],[-83.2122,40.04807],[-83.20627,40.10773],[-83.50371,40.11147],[-83.51607,40.01082],[-83.51262,40.01002],[-83.58991,39.76881],[-83.64717,39.77303],[-83.65339,39.71774]]]}},{"type":"Feature","id":"39099","properties":{"geoid":"39099","name":"Mahoning","displayName":"Mahoning County","state":"OH","stateName":"Ohio","type":"County or equivalent","lsad":"06","sourceType":"county"},"geometry":{"type":"Polygon","coordinates":[[[-81.08671,40.93042],[-81.08668,40.90161],[-80.89603,40.901],[-80.89581,40.93019],[-80.89128,40.9302],[-80.82164,40.92978],[-80.82192,40.90093],[-80.51978,40.90032],[-80.51916,41.13322],[-81.00248,41.13419],[-81.00202,40.98779],[-81.08631,40.98803],[-81.08671,40.93042]]]}},{"type":"Feature","id":"39101","properties":{"geoid":"39101","name":"Marion","displayName":"Marion County","state":"OH","stateName":"Ohio","type":"County or equivalent","lsad":"06","sourceType":"county"},"geometry":{"type":"Polygon","coordinates":[[[-83.42025,40.61398],[-83.41562,40.51537],[-83.41867,40.50523],[-83.24829,40.50708],[-83.24859,40.44399],[-83.16037,40.43887],[-83.0208,40.4338],[-83.01678,40.48451],[-82.9584,40.49066],[-82.95782,40.64515],[-82.85975,40.6464],[-82.8583,40.70502],[-82.95777,40.70329],[-83.30469,40.70201],[-83.30473,40.68712],[-83.41983,40.68728],[-83.42025,40.61398]]]}},{"type":"Feature","id":"39103","properties":{"geoid":"39103","name":"Medina","displayName":"Medina County","state":"OH","stateName":"Ohio","type":"County or equivalent","lsad":"06","sourceType":"county"},"geometry":{"type":"Polygon","coordinates":[[[-82.17149,41.06354],[-82.17336,40.99208],[-81.82888,40.98827],[-81.68849,40.98859],[-81.68495,41.27715],[-81.97249,41.27483],[-81.9739,41.19983],[-82.07246,41.19985],[-82.07427,41.13646],[-82.16988,41.1371],[-82.17149,41.06354]]]}},{"type":"Feature","id":"39105","properties":{"geoid":"39105","name":"Meigs","displayName":"Meigs County","state":"OH","stateName":"Ohio","type":"County or equivalent","lsad":"06","sourceType":"county"},"geometry":{"type":"Polygon","coordinates":[[[-82.32287,39.02767],[-82.32389,39.01315],[-82.09546,39.00278],[-82.09887,38.95832],[-82.09486,38.96458],[-82.09316,38.97098],[-82.08907,38.97598],[-82.05156,38.99438],[-82.04566,39.00378],[-82.04206,39.01678],[-82.03775,39.02386],[-82.02256,39.02938],[-82.00599,39.02939],[-81.99496,39.02248],[-81.99136,39.01838],[-81.98376,39.00548],[-81.98203,38.9957],[-81.97937,38.99319],[-81.96777,38.99296],[-81.95145,38.99603],[-81.94183,38.9933],[-81.93319,38.98766],[-81.91821,38.9666],[-81.91244,38.95434],[-81.9006,38.93767],[-81.89847,38.9296],[-81.90091,38.92434],[-81.92667,38.90131],[-81.928,38.89349],[-81.90865,38.87846],[-81.89854,38.87458],[-81.88923,38.87428],[-81.85597,38.89273],[-81.84865,38.90141],[-81.84531,38.91009],[-81.84449,38.92875],[-81.83152,38.9437],[-81.82735,38.9459],[-81.81424,38.94617],[-81.80614,38.94211],[-81.79337,38.9302],[-81.78125,38.9248],[-81.76623,38.92295],[-81.75851,38.92794],[-81.75613,38.93354],[-81.75698,38.93715],[-81.76102,38.938],[-81.76708,38.94633],[-81.77884,38.95589],[-81.78182,38.96493],[-81.77988,38.97277],[-81.77573,38.98074],[-81.77672,38.98514],[-81.77406,38.99368],[-81.76515,39.00258],[-81.76425,39.01528],[-81.77285,39.02618],[-81.80336,39.04768],[-81.81166,39.05958],[-81.81386,39.07928],[-81.81066,39.08328],[-81.80306,39.08388],[-81.78555,39.07858],[-81.77555,39.07838],[-81.76485,39.08198],[-81.75235,39.08988],[-81.74545,39.09808],[-81.74295,39.10658],[-81.74215,39.11678],[-81.74457,39.12682],[-81.74356,39.14193],[-81.74462,39.14841],[-81.75425,39.17148],[-81.75582,39.18052],[-81.98869,39.18953],[-82.30667,39.20549],[-82.32287,39.02767]]]}},{"type":"Feature","id":"39107","properties":{"geoid":"39107","name":"Mercer","displayName":"Mercer County","state":"OH","stateName":"Ohio","type":"County or equivalent","lsad":"06","sourceType":"county"},"geometry":{"type":"Polygon","coordinates":[[[-84.80413,40.41301],[-84.8039,40.35276],[-84.5997,40.35176],[-84.59959,40.35321],[-84.43163,40.3542],[-84.45542,40.35859],[-84.45617,40.72831],[-84.80226,40.72815],[-84.80413,40.41301]]]}},{"type":"Feature","id":"39109","properties":{"geoid":"39109","name":"Miami","displayName":"Miami County","state":"OH","stateName":"Ohio","type":"County or equivalent","lsad":"06","sourceType":"county"},"geometry":{"type":"Polygon","coordinates":[[[-84.43272,40.18891],[-84.43633,40.1808],[-84.43228,40.18084],[-84.4259,39.91962],[-84.15767,39.92297],[-84.16719,39.91137],[-84.16446,39.89718],[-84.15722,39.88599],[-84.05101,39.87981],[-84.02292,40.18394],[-84.21914,40.1955],[-84.21866,40.2],[-84.43258,40.19704],[-84.43272,40.18891]]]}},{"type":"Feature","id":"39111","properties":{"geoid":"39111","name":"Monroe","displayName":"Monroe County","state":"OH","stateName":"Ohio","type":"County or equivalent","lsad":"06","sourceType":"county"},"geometry":{"type":"Polygon","coordinates":[[[-81.31824,39.73858],[-81.31912,39.70755],[-81.2806,39.70694],[-81.28323,39.60567],[-81.26431,39.60533],[-81.26535,39.57681],[-81.2468,39.57647],[-81.24662,39.57914],[-81.03678,39.57225],[-81.03871,39.54005],[-81.03017,39.54521],[-81.02006,39.55541],[-80.9968,39.56912],[-80.97044,39.59013],[-80.93329,39.61481],[-80.91762,39.6187],[-80.89221,39.61676],[-80.88036,39.62071],[-80.876,39.62708],[-80.86665,39.65262],[-80.86633,39.68317],[-80.8637,39.69172],[-80.852,39.69856],[-80.84472,39.69944],[-80.83388,39.7035],[-80.82976,39.71184],[-80.83155,39.71948],[-80.8366,39.72392],[-80.84609,39.73781],[-80.85472,39.74259],[-80.86534,39.75325],[-80.86993,39.76355],[-80.86633,39.77174],[-80.86305,39.7752],[-80.83531,39.79069],[-80.82608,39.79858],[-80.82218,39.81171],[-80.82248,39.82497],[-80.82696,39.84166],[-80.82128,39.84998],[-81.01715,39.85818],[-81.01709,39.85988],[-81.12713,39.86504],[-81.31359,39.86947],[-81.31824,39.73858]]]}},{"type":"Feature","id":"39113","properties":{"geoid":"39113","name":"Montgomery","displayName":"Montgomery County","state":"OH","stateName":"Ohio","type":"County or equivalent","lsad":"06","sourceType":"county"},"geometry":{"type":"Polygon","coordinates":[[[-84.48537,39.91849],[-84.47921,39.59102],[-84.28632,39.58958],[-84.11417,39.57823],[-84.10964,39.62596],[-84.11194,39.62636],[-84.11126,39.63802],[-84.09294,39.83834],[-84.05505,39.83621],[-84.05101,39.87981],[-84.15722,39.88599],[-84.16446,39.89718],[-84.16719,39.91137],[-84.15767,39.92297],[-84.48537,39.91849]]]}},{"type":"Feature","id":"39115","properties":{"geoid":"39115","name":"Morgan","displayName":"Morgan County","state":"OH","stateName":"Ohio","type":"County or equivalent","lsad":"06","sourceType":"county"},"geometry":{"type":"Polygon","coordinates":[[[-82.07981,39.73268],[-82.08022,39.72767],[-82.02422,39.72469],[-82.0396,39.55022],[-82.04753,39.55083],[-82.05578,39.46005],[-81.82576,39.44917],[-81.82316,39.49407],[-81.78346,39.49257],[-81.78376,39.48947],[-81.76096,39.48858],[-81.76096,39.48277],[-81.70853,39.48078],[-81.70507,39.53099],[-81.72222,39.53155],[-81.72119,39.53541],[-81.72351,39.54761],[-81.71634,39.56596],[-81.71686,39.57911],[-81.71552,39.5834],[-81.71081,39.5858],[-81.69433,39.5873],[-81.68893,39.59049],[-81.58818,39.58697],[-81.58613,39.66399],[-81.6432,39.66568],[-81.63989,39.75342],[-82.07664,39.77096],[-82.07981,39.73268]]]}},{"type":"Feature","id":"39117","properties":{"geoid":"39117","name":"Morrow","displayName":"Morrow County","state":"OH","stateName":"Ohio","type":"County or equivalent","lsad":"06","sourceType":"county"},"geometry":{"type":"Polygon","coordinates":[[[-83.0208,40.4338],[-83.02208,40.41888],[-82.92478,40.415],[-82.92959,40.35812],[-82.6465,40.34508],[-82.63318,40.52307],[-82.64284,40.52211],[-82.6428,40.55001],[-82.62361,40.54988],[-82.62476,40.63728],[-82.64412,40.63724],[-82.64498,40.66642],[-82.62616,40.66613],[-82.62719,40.70942],[-82.8582,40.71242],[-82.85975,40.6464],[-82.95782,40.64515],[-82.9584,40.49066],[-83.01678,40.48451],[-83.0208,40.4338]]]}},{"type":"Feature","id":"39119","properties":{"geoid":"39119","name":"Muskingum","displayName":"Muskingum County","state":"OH","stateName":"Ohio","type":"County or equivalent","lsad":"06","sourceType":"county"},"geometry":{"type":"Polygon","coordinates":[[[-82.23374,39.92058],[-82.23397,39.91326],[-82.16237,39.90937],[-82.17005,39.82075],[-82.07293,39.81623],[-82.07664,39.77096],[-81.69744,39.75557],[-81.6911,39.93076],[-81.72861,39.93173],[-81.71628,40.15285],[-82.0872,40.1617],[-82.1871,40.16688],[-82.19877,39.95014],[-82.2317,39.95108],[-82.23374,39.92058]]]}},{"type":"Feature","id":"39121","properties":{"geoid":"39121","name":"Noble","displayName":"Noble County","state":"OH","stateName":"Ohio","type":"County or equivalent","lsad":"06","sourceType":"county"},"geometry":{"type":"Polygon","coordinates":[[[-81.69744,39.75557],[-81.63989,39.75342],[-81.6432,39.66568],[-81.58613,39.66399],[-81.58818,39.58697],[-81.47347,39.58332],[-81.47316,39.64598],[-81.45194,39.64545],[-81.45271,39.63117],[-81.41366,39.6305],[-81.41385,39.61587],[-81.39504,39.61568],[-81.39493,39.60155],[-81.35629,39.60086],[-81.35644,39.59351],[-81.28353,39.59184],[-81.2806,39.70694],[-81.31912,39.70755],[-81.31359,39.86947],[-81.23732,39.86783],[-81.23405,39.95127],[-81.34776,39.95363],[-81.34784,39.94996],[-81.38601,39.95069],[-81.38681,39.92152],[-81.46275,39.9235],[-81.46411,39.89455],[-81.57859,39.89768],[-81.58031,39.8391],[-81.69415,39.84264],[-81.69744,39.75557]]]}},{"type":"Feature","id":"39123","properties":{"geoid":"39123","name":"Ottawa","displayName":"Ottawa County","state":"OH","stateName":"Ohio","type":"County or equivalent","lsad":"06","sourceType":"county"},"geometry":{"type":"MultiPolygon","coordinates":[[[[-82.74167,41.49666],[-82.74055,41.48945],[-82.73484,41.49055],[-82.7309,41.49386],[-82.72734,41.50212],[-82.73218,41.50286],[-82.74167,41.49666]]],[[[-82.787,41.67868],[-82.78551,41.67702],[-82.78387,41.6786],[-82.787,41.67868]]],[[[-82.80057,41.69439],[-82.79936,41.69292],[-82.78985,41.69312],[-82.78057,41.69562],[-82.7804,41.69678],[-82.80057,41.69439]]],[[[-82.82319,41.65815],[-82.82228,41.65721],[-82.81953,41.65854],[-82.82319,41.65815]]],[[[-82.82534,41.68501],[-82.82477,41.68249],[-82.81805,41.6826],[-82.81557,41.67903],[-82.81573,41.67536],[-82.81366,41.67135],[-82.80551,41.67234],[-82.80707,41.67473],[-82.81141,41.67407],[-82.81188,41.67522],[-82.80717,41.67688],[-82.80316,41.68149],[-82.80334,41.68924],[-82.81175,41.692],[-82.82534,41.68501]]],[[[-82.83038,41.69193],[-82.82972,41.69088],[-82.82278,41.69186],[-82.82611,41.69349],[-82.83038,41.69193]]],[[[-82.83477,41.59117],[-82.8343,41.59049],[-82.83414,41.59025],[-82.83279,41.59042],[-82.83032,41.59123],[-82.83054,41.59161],[-82.83085,41.59213],[-82.83346,41.59187],[-82.83477,41.59117]]],[[[-82.83551,41.71119],[-82.83512,41.70897],[-82.82901,41.71011],[-82.82321,41.70776],[-82.80932,41.70884],[-82.81231,41.71276],[-82.81116,41.72003],[-82.81349,41.72347],[-82.82041,41.72455],[-82.82572,41.72281],[-82.82795,41.71808],[-82.83271,41.71565],[-82.83041,41.71309],[-82.83186,41.71123],[-82.83551,41.71119]]],[[[-82.84385,41.64648],[-82.8377,41.64378],[-82.83662,41.64158],[-82.84152,41.62904],[-82.83503,41.62982],[-82.82674,41.63431],[-82.82319,41.63931],[-82.81283,41.64566],[-82.81228,41.65239],[-82.80792,41.655],[-82.80303,41.65435],[-82.80204,41.65664],[-82.79646,41.65971],[-82.79371,41.6648],[-82.80518,41.66428],[-82.80859,41.66168],[-82.80837,41.65932],[-82.81216,41.6548],[-82.81439,41.65423],[-82.82646,41.65464],[-82.82663,41.65968],[-82.83409,41.65712],[-82.84385,41.64648]]],[[[-82.85647,41.68174],[-82.84882,41.67712],[-82.84447,41.67883],[-82.85647,41.68174]]],[[[-82.86791,41.64622],[-82.86808,41.64496],[-82.86283,41.64554],[-82.86359,41.64689],[-82.86791,41.64622]]],[[[-83.41594,41.61911],[-83.41463,41.50023],[-83.33899,41.50119],[-83.3382,41.45751],[-83.03864,41.45754],[-83.03888,41.46471],[-83.02696,41.46528],[-83.02484,41.46752],[-83.00914,41.46935],[-83.00294,41.46772],[-83.00152,41.46269],[-82.9967,41.46037],[-82.99306,41.46053],[-82.99035,41.46497],[-82.98664,41.46716],[-82.97476,41.46725],[-82.96836,41.47761],[-82.96848,41.48079],[-82.95936,41.48856],[-82.95347,41.48935],[-82.93716,41.48644],[-82.92432,41.48844],[-82.88291,41.48879],[-82.86539,41.49274],[-82.85973,41.49488],[-82.85388,41.49971],[-82.84421,41.50209],[-82.82991,41.49627],[-82.82407,41.4903],[-82.82098,41.49154],[-82.81884,41.49902],[-82.81494,41.50292],[-82.80603,41.50657],[-82.79707,41.50486],[-82.78933,41.5071],[-82.78509,41.50568],[-82.77794,41.50648],[-82.77385,41.50489],[-82.77279,41.50295],[-82.76517,41.50286],[-82.75396,41.51041],[-82.74741,41.5123],[-82.72625,41.51199],[-82.72608,41.51395],[-82.72357,41.51428],[-82.71946,41.50561],[-82.72051,41.50189],[-82.7192,41.49968],[-82.71552,41.49882],[-82.71456,41.5013],[-82.72246,41.51758],[-82.71402,41.52437],[-82.71226,41.52788],[-82.7141,41.53339],[-82.71158,41.53632],[-82.71665,41.54073],[-82.7502,41.54625],[-82.76763,41.54173],[-82.77202,41.53852],[-82.77357,41.5402],[-82.7855,41.54068],[-82.79432,41.54649],[-82.80553,41.5601],[-82.82121,41.57141],[-82.83382,41.58699],[-82.85292,41.58332],[-82.85953,41.57637],[-82.85917,41.57454],[-82.85412,41.57191],[-82.85645,41.56788],[-82.85505,41.56421],[-82.85214,41.56328],[-82.85099,41.5663],[-82.84995,41.56344],[-82.85578,41.55566],[-82.8566,41.54879],[-82.85506,41.54755],[-82.86151,41.54441],[-82.86174,41.54072],[-82.86858,41.5337],[-82.87722,41.5276],[-82.89427,41.51981],[-82.92638,41.51426],[-82.93521,41.51483],[-82.93736,41.5168],[-82.96968,41.5239],[-83.00033,41.53868],[-83.03859,41.5622],[-83.05306,41.57864],[-83.06276,41.58621],[-83.06333,41.59133],[-83.06718,41.59517],[-83.08605,41.60642],[-83.10342,41.61289],[-83.1279,41.61637],[-83.13541,41.61518],[-83.16955,41.62328],[-83.41594,41.61911]]]]}},{"type":"Feature","id":"39125","properties":{"geoid":"39125","name":"Paulding","displayName":"Paulding County","state":"OH","stateName":"Ohio","type":"County or equivalent","lsad":"06","sourceType":"county"},"geometry":{"type":"Polygon","coordinates":[[[-84.80355,41.17208],[-84.80326,40.98939],[-84.34191,40.99069],[-84.34161,41.20906],[-84.45706,41.20943],[-84.45722,41.25348],[-84.80353,41.25256],[-84.80355,41.17208]]]}},{"type":"Feature","id":"39127","properties":{"geoid":"39127","name":"Perry","displayName":"Perry County","state":"OH","stateName":"Ohio","type":"County or equivalent","lsad":"06","sourceType":"county"},"geometry":{"type":"Polygon","coordinates":[[[-82.47222,39.84188],[-82.4724,39.83722],[-82.39659,39.83306],[-82.40425,39.7446],[-82.36605,39.74252],[-82.37989,39.59674],[-82.26195,39.59059],[-82.26357,39.56214],[-82.0396,39.55022],[-82.02422,39.72469],[-82.08022,39.72767],[-82.07293,39.81623],[-82.17005,39.82075],[-82.16237,39.90937],[-82.41867,39.92245],[-82.41818,39.92794],[-82.46281,39.93038],[-82.47222,39.84188]]]}},{"type":"Feature","id":"39129","properties":{"geoid":"39129","name":"Pickaway","displayName":"Pickaway County","state":"OH","stateName":"Ohio","type":"County or equivalent","lsad":"06","sourceType":"county"},"geometry":{"type":"Polygon","coordinates":[[[-83.26453,39.54016],[-83.26674,39.51625],[-82.98456,39.50675],[-82.98325,39.50616],[-82.98402,39.50403],[-82.97874,39.50085],[-82.9804,39.49026],[-82.9823,39.48936],[-82.9895,39.49105],[-82.9929,39.48986],[-82.9951,39.48816],[-82.9982,39.48006],[-82.75,39.46806],[-82.74073,39.46835],[-82.73152,39.55444],[-82.84295,39.56148],[-82.83438,39.64944],[-82.83762,39.64961],[-82.82425,39.795],[-83.03763,39.80557],[-83.16794,39.80874],[-83.2437,39.8125],[-83.26453,39.54016]]]}},{"type":"Feature","id":"39131","properties":{"geoid":"39131","name":"Pike","displayName":"Pike County","state":"OH","stateName":"Ohio","type":"County or equivalent","lsad":"06","sourceType":"county"},"geometry":{"type":"Polygon","coordinates":[[[-83.3823,39.06915],[-83.38564,39.0552],[-83.31459,39.05219],[-83.31296,39.04674],[-83.30943,39.04599],[-83.3088,39.04469],[-83.31053,39.04322],[-83.30811,39.04026],[-83.30308,39.03905],[-83.29135,39.03046],[-83.28813,39.02984],[-83.28547,39.02399],[-83.28216,39.02393],[-83.27504,39.02034],[-83.26873,39.01445],[-83.26183,39.01522],[-83.25995,39.01344],[-83.25718,39.01494],[-83.24842,39.01004],[-83.23781,39.00986],[-83.23823,39.0059],[-83.23225,39.00139],[-83.2343,38.99908],[-83.22732,38.998],[-83.22654,38.99548],[-83.21525,38.99192],[-83.214,38.99025],[-83.21336,38.98606],[-83.21656,38.97819],[-83.21723,38.97176],[-83.2133,38.9721],[-83.21137,38.97063],[-83.2105,38.96858],[-83.21465,38.96336],[-83.21211,38.96015],[-82.97483,38.95539],[-82.97316,38.95384],[-82.97076,38.95527],[-82.80709,38.94807],[-82.78589,39.16877],[-83.35353,39.19758],[-83.3823,39.06915]]]}},{"type":"Feature","id":"39133","properties":{"geoid":"39133","name":"Portage","displayName":"Portage County","state":"OH","stateName":"Ohio","type":"County or equivalent","lsad":"06","sourceType":"county"},"geometry":{"type":"Polygon","coordinates":[[[-81.39328,41.01994],[-81.39325,40.98853],[-81.00202,40.98779],[-81.00319,41.34786],[-81.39169,41.34827],[-81.39328,41.01994]]]}},{"type":"Feature","id":"39135","properties":{"geoid":"39135","name":"Preble","displayName":"Preble County","state":"OH","stateName":"Ohio","type":"County or equivalent","lsad":"06","sourceType":"county"},"geometry":{"type":"Polygon","coordinates":[[[-84.81512,39.57295],[-84.81494,39.56771],[-84.76309,39.5666],[-84.47893,39.56879],[-84.48537,39.91849],[-84.61338,39.9166],[-84.81241,39.91692],[-84.81512,39.57295]]]}},{"type":"Feature","id":"39137","properties":{"geoid":"39137","name":"Putnam","displayName":"Putnam County","state":"OH","stateName":"Ohio","type":"County or equivalent","lsad":"06","sourceType":"county"},"geometry":{"type":"Polygon","coordinates":[[[-84.39949,40.99032],[-84.39841,40.90326],[-84.34097,40.9036],[-84.34053,40.8591],[-84.10959,40.86099],[-84.10952,40.90473],[-83.99516,40.90507],[-83.99523,40.91984],[-83.88042,40.92043],[-83.88115,41.16782],[-84.3416,41.16552],[-84.34191,40.99069],[-84.39949,40.99032]]]}},{"type":"Feature","id":"39139","properties":{"geoid":"39139","name":"Richland","displayName":"Richland County","state":"OH","stateName":"Ohio","type":"County or equivalent","lsad":"06","sourceType":"county"},"geometry":{"type":"Polygon","coordinates":[[[-82.72695,40.73859],[-82.72716,40.7112],[-82.62719,40.70942],[-82.62616,40.66613],[-82.64498,40.66642],[-82.64493,40.65959],[-82.64412,40.63724],[-82.62476,40.63728],[-82.62361,40.54988],[-82.3749,40.55087],[-82.33696,40.555],[-82.33921,40.72668],[-82.3784,40.72714],[-82.37895,40.78723],[-82.38256,40.78859],[-82.38444,40.7923],[-82.38969,40.79603],[-82.38705,40.8003],[-82.38846,40.80142],[-82.38856,40.80817],[-82.40776,40.80825],[-82.408,40.81457],[-82.41685,40.81457],[-82.41839,40.81623],[-82.41706,40.81702],[-82.4172,40.82076],[-82.42075,40.82333],[-82.41958,40.82498],[-82.42043,40.82784],[-82.41851,40.82562],[-82.41549,40.82842],[-82.4179,40.99294],[-82.72479,40.99564],[-82.72418,40.93046],[-82.72695,40.73859]]]}},{"type":"Feature","id":"39141","properties":{"geoid":"39141","name":"Ross","displayName":"Ross County","state":"OH","stateName":"Ohio","type":"County or equivalent","lsad":"06","sourceType":"county"},"geometry":{"type":"Polygon","coordinates":[[[-83.39401,39.27259],[-83.39297,39.26666],[-83.38173,39.26274],[-83.37803,39.25861],[-83.38112,39.24962],[-83.37389,39.24846],[-83.36574,39.24171],[-83.36179,39.24063],[-83.35942,39.24222],[-83.35552,39.24768],[-83.35574,39.25006],[-83.35299,39.25148],[-83.34797,39.25283],[-83.34507,39.25073],[-83.34691,39.246],[-83.34597,39.23917],[-83.34785,39.23285],[-83.34348,39.23322],[-83.35353,39.19758],[-82.76669,39.16777],[-82.74073,39.46835],[-82.9982,39.48006],[-82.9951,39.48816],[-82.9929,39.48986],[-82.9895,39.49105],[-82.9823,39.48936],[-82.9804,39.49026],[-82.97874,39.50085],[-82.98402,39.50403],[-82.98325,39.50616],[-82.98456,39.50675],[-83.26674,39.51625],[-83.37458,39.37484],[-83.3734,39.36858],[-83.38025,39.35661],[-83.37505,39.34828],[-83.38223,39.3393],[-83.38402,39.33146],[-83.38284,39.32742],[-83.38586,39.32606],[-83.38699,39.32202],[-83.38334,39.31661],[-83.38477,39.30848],[-83.38198,39.30486],[-83.38309,39.2969],[-83.38184,39.29401],[-83.37667,39.29226],[-83.37663,39.29094],[-83.38214,39.28412],[-83.3813,39.27836],[-83.39097,39.27613],[-83.39401,39.27259]]]}},{"type":"Feature","id":"39143","properties":{"geoid":"39143","name":"Sandusky","displayName":"Sandusky County","state":"OH","stateName":"Ohio","type":"County or equivalent","lsad":"06","sourceType":"county"},"geometry":{"type":"Polygon","coordinates":[[[-83.41958,41.26215],[-83.41984,41.254],[-83.32316,41.25489],[-83.21642,41.25325],[-83.13161,41.2564],[-83.07276,41.25688],[-82.84009,41.25534],[-82.84771,41.4305],[-82.90193,41.43047],[-82.92281,41.41885],[-82.93875,41.42036],[-82.94039,41.41892],[-82.95709,41.42549],[-82.96058,41.43401],[-82.96732,41.43921],[-82.97132,41.44915],[-82.97662,41.45361],[-82.98647,41.4513],[-82.98637,41.44671],[-82.99338,41.44506],[-82.99602,41.44163],[-83.00256,41.43816],[-83.00333,41.43422],[-82.99947,41.43227],[-83.00162,41.42816],[-83.01063,41.42926],[-83.01118,41.44118],[-83.01436,41.44485],[-83.0249,41.44794],[-83.02297,41.44978],[-83.02571,41.45324],[-83.03124,41.45422],[-83.04122,41.45119],[-83.04061,41.45344],[-83.03729,41.45521],[-83.03864,41.45754],[-83.3382,41.45751],[-83.33899,41.50119],[-83.41463,41.50023],[-83.41958,41.26215]]]}},{"type":"Feature","id":"39145","properties":{"geoid":"39145","name":"Scioto","displayName":"Scioto County","state":"OH","stateName":"Ohio","type":"County or equivalent","lsad":"06","sourceType":"county"},"geometry":{"type":"Polygon","coordinates":[[[-83.27082,39.01579],[-83.26858,38.88252],[-83.26824,38.61853],[-83.26113,38.62272],[-83.25456,38.6234],[-83.24566,38.62856],[-83.23952,38.62859],[-83.2324,38.62757],[-83.21311,38.61889],[-83.20373,38.61673],[-83.17596,38.61918],[-83.15378,38.61883],[-83.14284,38.62508],[-83.13505,38.63172],[-83.12631,38.64524],[-83.12255,38.6592],[-83.11237,38.67168],[-83.10275,38.67732],[-83.08423,38.68109],[-83.06432,38.68898],[-83.0531,38.69583],[-83.04234,38.70832],[-83.03596,38.72015],[-83.0307,38.72572],[-83.01182,38.73006],[-82.9794,38.72598],[-82.9687,38.72878],[-82.94315,38.74328],[-82.92369,38.75008],[-82.89419,38.75658],[-82.88919,38.75608],[-82.87949,38.75148],[-82.87129,38.73938],[-82.87039,38.72208],[-82.87529,38.70498],[-82.87759,38.69018],[-82.87489,38.68283],[-82.86959,38.67818],[-82.86329,38.66928],[-82.85939,38.66038],[-82.85629,38.64608],[-82.85679,38.63288],[-82.85429,38.61345],[-82.84431,38.59086],[-82.83954,38.58616],[-82.81598,38.57072],[-82.74038,38.59717],[-82.75603,38.62508],[-82.76239,38.64068],[-82.76619,38.64468],[-82.7639,38.67997],[-82.70638,38.67748],[-82.70149,38.69088],[-82.69539,38.74998],[-82.66289,38.74798],[-82.66139,38.76248],[-82.65909,38.76268],[-82.65004,38.84907],[-82.76069,38.85488],[-82.76198,38.86952],[-82.75849,38.88627],[-82.75339,38.94537],[-82.97076,38.95527],[-82.97316,38.95384],[-82.97483,38.95539],[-83.21211,38.96015],[-83.21465,38.96336],[-83.2105,38.96858],[-83.21137,38.97063],[-83.2133,38.9721],[-83.21723,38.97176],[-83.21656,38.97819],[-83.21336,38.98606],[-83.21525,38.99192],[-83.22654,38.99548],[-83.22732,38.998],[-83.2343,38.99908],[-83.23225,39.00139],[-83.23823,39.0059],[-83.23781,39.00986],[-83.24842,39.01004],[-83.25718,39.01494],[-83.25995,39.01344],[-83.26183,39.01522],[-83.26873,39.01445],[-83.27082,39.01579]]]}},{"type":"Feature","id":"39147","properties":{"geoid":"39147","name":"Seneca","displayName":"Seneca County","state":"OH","stateName":"Ohio","type":"County or equivalent","lsad":"06","sourceType":"county"},"geometry":{"type":"Polygon","coordinates":[[[-83.42123,41.15158],[-83.42032,40.99189],[-82.85318,40.99366],[-82.85297,40.99694],[-82.82951,40.99662],[-82.84009,41.25534],[-83.07276,41.25688],[-83.13161,41.2564],[-83.21642,41.25325],[-83.32316,41.25489],[-83.41984,41.254],[-83.42123,41.15158]]]}},{"type":"Feature","id":"39149","properties":{"geoid":"39149","name":"Shelby","displayName":"Shelby County","state":"OH","stateName":"Ohio","type":"County or equivalent","lsad":"06","sourceType":"county"},"geometry":{"type":"Polygon","coordinates":[[[-84.43463,40.35426],[-84.43258,40.19704],[-84.21866,40.2],[-84.21914,40.1955],[-84.02292,40.18394],[-84.01033,40.31718],[-84.00717,40.31671],[-84.0037,40.31293],[-84.00484,40.39038],[-84.00194,40.39069],[-84.00237,40.48312],[-84.33914,40.48108],[-84.33863,40.37887],[-84.43402,40.37825],[-84.43439,40.35453],[-84.43163,40.3542],[-84.43463,40.35426]]]}},{"type":"Feature","id":"39151","properties":{"geoid":"39151","name":"Stark","displayName":"Stark County","state":"OH","stateName":"Ohio","type":"County or equivalent","lsad":"06","sourceType":"county"},"geometry":{"type":"Polygon","coordinates":[[[-81.64897,40.65528],[-81.64911,40.63452],[-81.4691,40.65494],[-81.46126,40.66611],[-81.45895,40.66696],[-81.43582,40.6614],[-81.43481,40.65935],[-81.43603,40.65826],[-81.44066,40.65765],[-81.44692,40.65364],[-81.24125,40.65053],[-81.23723,40.72354],[-81.19909,40.72221],[-81.19874,40.72915],[-81.08729,40.72782],[-81.08631,40.98803],[-81.41633,40.98846],[-81.42036,40.9065],[-81.64774,40.91402],[-81.64897,40.65528]]]}},{"type":"Feature","id":"39153","properties":{"geoid":"39153","name":"Summit","displayName":"Summit County","state":"OH","stateName":"Ohio","type":"County or equivalent","lsad":"06","sourceType":"county"},"geometry":{"type":"Polygon","coordinates":[[[-81.68815,41.00414],[-81.68849,40.98859],[-81.64769,40.98856],[-81.64774,40.91402],[-81.42036,40.9065],[-81.41633,40.98846],[-81.39325,40.98853],[-81.39169,41.34827],[-81.59805,41.35116],[-81.59724,41.3493],[-81.59332,41.34963],[-81.59357,41.34768],[-81.59682,41.34721],[-81.59473,41.34354],[-81.5881,41.34265],[-81.5879,41.33631],[-81.59124,41.33128],[-81.59154,41.32788],[-81.58734,41.32371],[-81.58766,41.31977],[-81.58364,41.31568],[-81.58362,41.31152],[-81.58544,41.30886],[-81.58429,41.30698],[-81.57333,41.30329],[-81.57552,41.30266],[-81.57573,41.30091],[-81.57286,41.30075],[-81.57251,41.2965],[-81.57107,41.29587],[-81.57205,41.2939],[-81.56988,41.29342],[-81.5709,41.29081],[-81.56534,41.28918],[-81.56514,41.28785],[-81.56689,41.28797],[-81.56806,41.28602],[-81.56478,41.28421],[-81.56218,41.27932],[-81.56514,41.27776],[-81.68495,41.27715],[-81.68815,41.00414]]]}},{"type":"Feature","id":"39155","properties":{"geoid":"39155","name":"Trumbull","displayName":"Trumbull County","state":"OH","stateName":"Ohio","type":"County or equivalent","lsad":"06","sourceType":"county"},"geometry":{"type":"Polygon","coordinates":[[[-81.00331,41.46281],[-81.00253,41.13419],[-80.51916,41.13322],[-80.51922,41.49934],[-80.61852,41.49841],[-81.00313,41.50148],[-81.00331,41.46281]]]}},{"type":"Feature","id":"39157","properties":{"geoid":"39157","name":"Tuscarawas","displayName":"Tuscarawas County","state":"OH","stateName":"Ohio","type":"County or equivalent","lsad":"06","sourceType":"county"},"geometry":{"type":"Polygon","coordinates":[[[-81.71237,40.3711],[-81.61631,40.36812],[-81.62235,40.22131],[-81.33806,40.21408],[-81.3346,40.30432],[-81.27532,40.30343],[-81.26474,40.56504],[-81.32166,40.56665],[-81.31788,40.65193],[-81.44692,40.65364],[-81.44066,40.65765],[-81.43603,40.65826],[-81.43481,40.65935],[-81.43582,40.6614],[-81.45895,40.66696],[-81.46126,40.66611],[-81.4691,40.65494],[-81.66795,40.63238],[-81.66819,40.62746],[-81.66278,40.62727],[-81.66976,40.44389],[-81.70913,40.44478],[-81.71237,40.3711]]]}},{"type":"Feature","id":"39159","properties":{"geoid":"39159","name":"Union","displayName":"Union County","state":"OH","stateName":"Ohio","type":"County or equivalent","lsad":"06","sourceType":"county"},"geometry":{"type":"Polygon","coordinates":[[[-83.54831,40.25601],[-83.55134,40.22937],[-83.4945,40.22547],[-83.50371,40.11147],[-83.17021,40.10707],[-83.17233,40.24426],[-83.24843,40.24447],[-83.24959,40.3643],[-83.24829,40.50708],[-83.52023,40.50408],[-83.54831,40.25601]]]}},{"type":"Feature","id":"39161","properties":{"geoid":"39161","name":"Van Wert","displayName":"Van Wert County","state":"OH","stateName":"Ohio","type":"County or equivalent","lsad":"06","sourceType":"county"},"geometry":{"type":"Polygon","coordinates":[[[-84.80326,40.98939],[-84.80226,40.72815],[-84.45617,40.72831],[-84.45618,40.68486],[-84.39678,40.68493],[-84.39737,40.81594],[-84.3401,40.81614],[-84.34097,40.9036],[-84.39841,40.90326],[-84.39949,40.99032],[-84.80326,40.98939]]]}},{"type":"Feature","id":"39163","properties":{"geoid":"39163","name":"Vinton","displayName":"Vinton County","state":"OH","stateName":"Ohio","type":"County or equivalent","lsad":"06","sourceType":"county"},"geometry":{"type":"Polygon","coordinates":[[[-82.76011,39.23764],[-82.76289,39.20797],[-82.65009,39.20227],[-82.65149,39.18957],[-82.61098,39.18557],[-82.57448,39.18547],[-82.53707,39.18098],[-82.54028,39.14447],[-82.42469,39.13782],[-82.43531,39.03508],[-82.32287,39.02767],[-82.30667,39.20549],[-82.26858,39.20376],[-82.26024,39.29292],[-82.29848,39.295],[-82.28966,39.3842],[-82.51448,39.39577],[-82.51758,39.36947],[-82.63439,39.37597],[-82.63569,39.36157],[-82.74859,39.36816],[-82.76011,39.23764]]]}},{"type":"Feature","id":"39165","properties":{"geoid":"39165","name":"Warren","displayName":"Warren County","state":"OH","stateName":"Ohio","type":"County or equivalent","lsad":"06","sourceType":"county"},"geometry":{"type":"Polygon","coordinates":[[[-84.36523,39.58949],[-84.3643,39.54381],[-84.36155,39.54217],[-84.33168,39.54921],[-84.34021,39.4567],[-84.33672,39.45599],[-84.35321,39.29229],[-84.3157,39.29269],[-84.26217,39.28834],[-84.26524,39.28222],[-84.26466,39.28066],[-84.25637,39.27682],[-84.25943,39.27086],[-84.00745,39.25511],[-83.97699,39.5694],[-84.28569,39.58955],[-84.36523,39.58949]]]}},{"type":"Feature","id":"39167","properties":{"geoid":"39167","name":"Washington","displayName":"Washington County","state":"OH","stateName":"Ohio","type":"County or equivalent","lsad":"06","sourceType":"county"},"geometry":{"type":"Polygon","coordinates":[[[-81.85293,39.32537],[-81.85367,39.31816],[-81.83464,39.31756],[-81.83545,39.30281],[-81.81661,39.30206],[-81.81836,39.27258],[-81.72181,39.26957],[-81.72558,39.21584],[-81.70091,39.22084],[-81.6946,39.22411],[-81.69134,39.22795],[-81.6922,39.23609],[-81.69664,39.24612],[-81.69638,39.25704],[-81.68948,39.26604],[-81.67833,39.27376],[-81.65614,39.27736],[-81.64318,39.2772],[-81.62131,39.27364],[-81.60841,39.27604],[-81.59516,39.27339],[-81.58556,39.26875],[-81.57025,39.26767],[-81.56525,39.27618],[-81.56505,39.29387],[-81.55755,39.33877],[-81.54235,39.35287],[-81.53447,39.35823],[-81.52431,39.36161],[-81.50319,39.37324],[-81.48904,39.38407],[-81.47319,39.40017],[-81.45614,39.40927],[-81.44654,39.41037],[-81.43564,39.40847],[-81.41271,39.39462],[-81.40669,39.38809],[-81.39379,39.35171],[-81.38456,39.34345],[-81.37596,39.3417],[-81.35691,39.34318],[-81.34757,39.34577],[-81.29752,39.37438],[-81.28141,39.37926],[-81.27072,39.38591],[-81.24184,39.39028],[-81.22358,39.38606],[-81.21732,39.38759],[-81.21165,39.39298],[-81.21143,39.40203],[-81.20823,39.40715],[-81.19071,39.42356],[-81.18595,39.43073],[-81.17063,39.43918],[-81.15253,39.44317],[-81.13813,39.44378],[-81.13253,39.44628],[-81.12473,39.45338],[-81.10083,39.48718],[-81.09143,39.49698],[-81.07595,39.50966],[-81.07059,39.51599],[-81.03871,39.54005],[-81.03678,39.57225],[-81.24662,39.57914],[-81.2468,39.57647],[-81.26535,39.57681],[-81.26431,39.60533],[-81.28308,39.60566],[-81.28353,39.59184],[-81.35644,39.59351],[-81.35629,39.60086],[-81.39493,39.60155],[-81.39504,39.61568],[-81.41385,39.61587],[-81.41366,39.6305],[-81.45271,39.63117],[-81.45194,39.64545],[-81.47316,39.64598],[-81.47347,39.58332],[-81.68893,39.59049],[-81.69688,39.58669],[-81.71081,39.5858],[-81.71646,39.58175],[-81.71634,39.56596],[-81.72351,39.54761],[-81.72119,39.53541],[-81.72222,39.53155],[-81.70507,39.53099],[-81.70853,39.48078],[-81.76096,39.48277],[-81.76096,39.48858],[-81.78376,39.48947],[-81.78346,39.49257],[-81.82316,39.49407],[-81.82576,39.44917],[-81.84486,39.45022],[-81.85293,39.32537]]]}},{"type":"Feature","id":"39169","properties":{"geoid":"39169","name":"Wayne","displayName":"Wayne County","state":"OH","stateName":"Ohio","type":"County or equivalent","lsad":"06","sourceType":"county"},"geometry":{"type":"Polygon","coordinates":[[[-82.12933,40.99181],[-82.1279,40.9009],[-82.12501,40.88626],[-82.12733,40.80425],[-82.1262,40.66836],[-81.64892,40.66777],[-81.64769,40.98856],[-81.82888,40.98827],[-82.12933,40.99181]]]}},{"type":"Feature","id":"39171","properties":{"geoid":"39171","name":"Williams","displayName":"Williams County","state":"OH","stateName":"Ohio","type":"County or equivalent","lsad":"06","sourceType":"county"},"geometry":{"type":"Polygon","coordinates":[[[-84.80605,41.68906],[-84.80406,41.42605],[-84.34166,41.42757],[-84.34205,41.51411],[-84.38074,41.51394],[-84.38131,41.61673],[-84.39838,41.61698],[-84.39955,41.70586],[-84.80597,41.69612],[-84.80605,41.68906]]]}},{"type":"Feature","id":"39173","properties":{"geoid":"39173","name":"Wood","displayName":"Wood County","state":"OH","stateName":"Ohio","type":"County or equivalent","lsad":"06","sourceType":"county"},"geometry":{"type":"Polygon","coordinates":[[[-83.8835,41.35712],[-83.88115,41.16782],[-83.72712,41.16853],[-83.49993,41.16575],[-83.42105,41.16678],[-83.41544,41.42803],[-83.41458,41.515],[-83.41594,41.61911],[-83.56993,41.61715],[-83.58803,41.60095],[-83.59443,41.58905],[-83.60074,41.58625],[-83.60843,41.57795],[-83.60953,41.57325],[-83.61273,41.57075],[-83.62563,41.57005],[-83.63133,41.56275],[-83.63614,41.56025],[-83.64494,41.56075],[-83.65203,41.55565],[-83.65984,41.55345],[-83.66563,41.54925],[-83.68008,41.54686],[-83.69974,41.53395],[-83.70964,41.52185],[-83.71123,41.50629],[-83.71363,41.50019],[-83.71153,41.49555],[-83.71284,41.49249],[-83.7203,41.48722],[-83.73265,41.48468],[-83.73642,41.482],[-83.74814,41.46585],[-83.75862,41.46204],[-83.77669,41.463],[-83.77994,41.4596],[-83.77916,41.45276],[-83.78285,41.44866],[-83.81755,41.4323],[-83.84562,41.42503],[-83.84976,41.42226],[-83.85156,41.41689],[-83.85434,41.41444],[-83.86736,41.41475],[-83.8729,41.41637],[-83.88323,41.4145],[-83.8835,41.35712]]]}},{"type":"Feature","id":"39175","properties":{"geoid":"39175","name":"Wyandot","displayName":"Wyandot County","state":"OH","stateName":"Ohio","type":"County or equivalent","lsad":"06","sourceType":"county"},"geometry":{"type":"Polygon","coordinates":[[[-83.51588,40.81813],[-83.4963,40.81794],[-83.4958,40.70152],[-83.44017,40.7022],[-83.44028,40.68761],[-83.30473,40.68712],[-83.30469,40.70201],[-83.11136,40.70291],[-83.11274,40.99345],[-83.45785,40.99167],[-83.45768,40.94852],[-83.47679,40.94838],[-83.47674,40.90496],[-83.51473,40.90512],[-83.51588,40.81813]]]}}]}