{"type":"FeatureCollection","features":[{"type":"Feature","id":"78010","properties":{"geoid":"78010","name":"St. Croix","displayName":"St. Croix Island","state":"VI","stateName":"United States Virgin Islands","type":"County or equivalent","lsad":"10","sourceType":"county"},"geometry":{"type":"MultiPolygon","coordinates":[[[[-64.62765,17.78857],[-64.62673,17.78608],[-64.62258,17.78384],[-64.61214,17.78722],[-64.62438,17.79017],[-64.62765,17.78857]]],[[[-64.66726,17.76532],[-64.66537,17.7646],[-64.66485,17.76858],[-64.66726,17.76532]]],[[[-64.70362,17.75062],[-64.70383,17.74926],[-64.70194,17.74891],[-64.70163,17.7503],[-64.70362,17.75062]]],[[[-64.76289,17.6845],[-64.76195,17.68246],[-64.75936,17.68359],[-64.76046,17.68505],[-64.76289,17.6845]]],[[[-64.90356,17.68042],[-64.9006,17.67468],[-64.88504,17.68572],[-64.8785,17.68419],[-64.86896,17.68659],[-64.86053,17.68539],[-64.84352,17.68736],[-64.83946,17.68469],[-64.83899,17.67999],[-64.82616,17.6867],[-64.80361,17.69391],[-64.79499,17.6935],[-64.78463,17.69648],[-64.77712,17.69535],[-64.76529,17.69036],[-64.76567,17.6948],[-64.77235,17.70267],[-64.77115,17.70902],[-64.76332,17.69663],[-64.74588,17.7018],[-64.7419,17.69578],[-64.74039,17.69666],[-64.74018,17.70064],[-64.733,17.70446],[-64.72699,17.70352],[-64.71776,17.69907],[-64.70714,17.70539],[-64.70112,17.70378],[-64.69823,17.70619],[-64.69209,17.70554],[-64.68626,17.70707],[-64.68432,17.71079],[-64.67512,17.71381],[-64.66665,17.71338],[-64.66216,17.71915],[-64.65275,17.72299],[-64.63783,17.72208],[-64.63444,17.72389],[-64.63073,17.72882],[-64.62126,17.73164],[-64.61696,17.73487],[-64.61233,17.73491],[-64.60963,17.73318],[-64.60909,17.73688],[-64.60239,17.74579],[-64.58872,17.74686],[-64.58577,17.74502],[-64.58,17.74735],[-64.57721,17.74584],[-64.57035,17.75177],[-64.56798,17.75187],[-64.56559,17.75521],[-64.56635,17.75685],[-64.5715,17.75761],[-64.57441,17.75981],[-64.5795,17.75909],[-64.5832,17.76208],[-64.58511,17.75887],[-64.59254,17.75597],[-64.59928,17.75651],[-64.60178,17.75436],[-64.60841,17.75607],[-64.61066,17.75733],[-64.61171,17.76047],[-64.61501,17.76106],[-64.61976,17.75914],[-64.62641,17.7589],[-64.63035,17.76055],[-64.63261,17.75868],[-64.6393,17.75872],[-64.65562,17.76346],[-64.65934,17.75959],[-64.67077,17.76133],[-64.67367,17.75927],[-64.67996,17.76057],[-64.68505,17.75442],[-64.69347,17.7549],[-64.69947,17.74544],[-64.7019,17.74738],[-64.70859,17.74683],[-64.71613,17.75285],[-64.72006,17.75411],[-64.72455,17.75935],[-64.73136,17.76233],[-64.73628,17.76722],[-64.73985,17.77467],[-64.74135,17.77447],[-64.74902,17.78344],[-64.75347,17.78098],[-64.75186,17.77743],[-64.75199,17.77129],[-64.75354,17.77095],[-64.7551,17.77498],[-64.75685,17.77464],[-64.7589,17.76808],[-64.76032,17.76926],[-64.76085,17.77541],[-64.75883,17.77907],[-64.76123,17.78111],[-64.77151,17.78076],[-64.77888,17.78385],[-64.79812,17.77817],[-64.80476,17.77904],[-64.80829,17.77748],[-64.81062,17.77253],[-64.81915,17.7674],[-64.83652,17.76155],[-64.85666,17.76459],[-64.87236,17.77104],[-64.878,17.76955],[-64.88149,17.7673],[-64.88234,17.76362],[-64.88768,17.76152],[-64.89151,17.74968],[-64.89403,17.74736],[-64.88379,17.71677],[-64.88364,17.708],[-64.88576,17.70182],[-64.89144,17.69341],[-64.90356,17.68042]]]]}},{"type":"Feature","id":"78020","properties":{"geoid":"78020","name":"St. John","displayName":"St. John Island","state":"VI","stateName":"United States Virgin Islands","type":"County or equivalent","lsad":"10","sourceType":"county"},"geometry":{"type":"MultiPolygon","coordinates":[[[[-64.65182,18.32613],[-64.65031,18.32434],[-64.64868,18.32808],[-64.65056,18.32839],[-64.65182,18.32613]]],[[[-64.6903,18.31676],[-64.68778,18.31483],[-64.68648,18.31561],[-64.68932,18.31758],[-64.6903,18.31676]]],[[[-64.75741,18.35727],[-64.75589,18.35571],[-64.75579,18.35729],[-64.75741,18.35727]]],[[[-64.75876,18.37052],[-64.75857,18.36918],[-64.75504,18.37052],[-64.75876,18.37052]]],[[[-64.79021,18.3563],[-64.78859,18.35416],[-64.78899,18.35643],[-64.79021,18.3563]]],[[[-64.79427,18.35361],[-64.79176,18.35248],[-64.79276,18.35431],[-64.79427,18.35361]]],[[[-64.79524,18.36965],[-64.79478,18.36878],[-64.79372,18.36882],[-64.79306,18.36961],[-64.79366,18.37056],[-64.79475,18.37046],[-64.79524,18.36965]]],[[[-64.79792,18.35601],[-64.79633,18.35497],[-64.79583,18.35614],[-64.79792,18.35601]]],[[[-64.79864,18.32825],[-64.79949,18.32685],[-64.79612,18.32592],[-64.79391,18.32119],[-64.78857,18.32359],[-64.78716,18.32261],[-64.78651,18.32071],[-64.79179,18.31774],[-64.79096,18.31496],[-64.78866,18.3143],[-64.78388,18.31796],[-64.7846,18.31366],[-64.78284,18.31125],[-64.78048,18.31088],[-64.77961,18.31265],[-64.78135,18.31456],[-64.77986,18.31652],[-64.77559,18.3166],[-64.77294,18.3209],[-64.76858,18.31986],[-64.76721,18.31643],[-64.76788,18.31229],[-64.76539,18.31156],[-64.76569,18.32269],[-64.76209,18.32097],[-64.76268,18.31806],[-64.75962,18.31624],[-64.7566,18.317],[-64.74804,18.32458],[-64.73391,18.31499],[-64.73128,18.31828],[-64.72812,18.31836],[-64.72806,18.31974],[-64.72072,18.31889],[-64.7208,18.31371],[-64.72255,18.31256],[-64.72131,18.30758],[-64.71754,18.31201],[-64.71598,18.31127],[-64.7163,18.3094],[-64.71232,18.30869],[-64.71178,18.3068],[-64.70532,18.30906],[-64.70692,18.30629],[-64.7031,18.30325],[-64.70312,18.2982],[-64.70019,18.30312],[-64.70262,18.31119],[-64.70073,18.3133],[-64.70213,18.31788],[-64.69738,18.32203],[-64.70038,18.32357],[-64.70004,18.33015],[-64.7054,18.33034],[-64.70857,18.33488],[-64.71227,18.33578],[-64.71543,18.3461],[-64.7103,18.34651],[-64.70833,18.34102],[-64.70516,18.3407],[-64.70266,18.34237],[-64.70209,18.34487],[-64.7052,18.34798],[-64.70411,18.354],[-64.70204,18.35523],[-64.69833,18.35327],[-64.69133,18.35667],[-64.69015,18.35582],[-64.69333,18.35184],[-64.6886,18.34996],[-64.69326,18.3451],[-64.69181,18.34306],[-64.69277,18.34015],[-64.69074,18.33992],[-64.68653,18.34679],[-64.68117,18.34676],[-64.67969,18.34414],[-64.67432,18.34215],[-64.67439,18.33702],[-64.67712,18.33369],[-64.67672,18.33219],[-64.67094,18.33012],[-64.66865,18.33138],[-64.66614,18.33773],[-64.66209,18.33399],[-64.66353,18.33871],[-64.66333,18.34003],[-64.66112,18.34025],[-64.66088,18.34293],[-64.66301,18.34496],[-64.66976,18.34473],[-64.6695,18.34815],[-64.67201,18.34978],[-64.67438,18.35027],[-64.67534,18.3476],[-64.67853,18.34774],[-64.68039,18.35227],[-64.68437,18.35264],[-64.68731,18.35495],[-64.68741,18.35862],[-64.69126,18.36111],[-64.70449,18.36067],[-64.70614,18.36112],[-64.70795,18.3651],[-64.71442,18.36728],[-64.72022,18.36715],[-64.72117,18.36539],[-64.7201,18.36314],[-64.72248,18.36226],[-64.72665,18.36427],[-64.73759,18.36425],[-64.73981,18.36635],[-64.73486,18.36671],[-64.73396,18.36987],[-64.74884,18.3729],[-64.75228,18.37042],[-64.75091,18.36831],[-64.7445,18.36696],[-64.74343,18.36488],[-64.74455,18.35751],[-64.74661,18.35568],[-64.75133,18.35767],[-64.7536,18.3548],[-64.75969,18.35243],[-64.76549,18.3559],[-64.76903,18.35555],[-64.76958,18.35168],[-64.77323,18.3511],[-64.77438,18.35322],[-64.7777,18.35356],[-64.77877,18.35221],[-64.77715,18.34774],[-64.78046,18.34602],[-64.78447,18.34763],[-64.78453,18.35272],[-64.78624,18.35312],[-64.78789,18.3503],[-64.78715,18.3469],[-64.78866,18.34569],[-64.78661,18.34264],[-64.798,18.33694],[-64.79815,18.33467],[-64.794,18.33293],[-64.79652,18.33054],[-64.79862,18.33088],[-64.79864,18.32825]]],[[[-64.80643,18.36745],[-64.80557,18.36612],[-64.79908,18.36876],[-64.8,18.36966],[-64.80643,18.36745]]],[[[-64.80838,18.33153],[-64.80686,18.32862],[-64.80688,18.33127],[-64.80838,18.33153]]],[[[-64.81278,18.36205],[-64.80917,18.3587],[-64.80659,18.36082],[-64.80152,18.36036],[-64.79835,18.36356],[-64.8012,18.3654],[-64.80361,18.36354],[-64.81278,18.36205]]],[[[-64.82454,18.36067],[-64.82258,18.35884],[-64.81658,18.35808],[-64.8153,18.35917],[-64.8156,18.36048],[-64.82454,18.36067]]],[[[-64.83932,18.35764],[-64.83713,18.35689],[-64.82618,18.36033],[-64.83932,18.35764]]]]}},{"type":"Feature","id":"78030","properties":{"geoid":"78030","name":"St. Thomas","displayName":"St. Thomas Island","state":"VI","stateName":"United States Virgin Islands","type":"County or equivalent","lsad":"10","sourceType":"county"},"geometry":{"type":"MultiPolygon","coordinates":[[[[-65.08536,18.33682],[-65.08469,18.33514],[-65.07783,18.33667],[-65.07389,18.34156],[-65.07497,18.34657],[-65.082,18.3417],[-65.08235,18.33872],[-65.08536,18.33682]]],[[[-64.81765,18.29648],[-64.81654,18.29459],[-64.81423,18.29528],[-64.81765,18.29648]]],[[[-64.82868,18.30007],[-64.82818,18.29753],[-64.82561,18.29882],[-64.82174,18.29805],[-64.82403,18.30323],[-64.82898,18.30122],[-64.82868,18.30007]]],[[[-64.83298,18.30721],[-64.83208,18.30496],[-64.82965,18.30565],[-64.82856,18.30825],[-64.82303,18.3113],[-64.82269,18.31294],[-64.82623,18.31254],[-64.82837,18.3151],[-64.83092,18.31541],[-64.83228,18.31448],[-64.83065,18.30922],[-64.83298,18.30721]]],[[[-64.86558,18.31394],[-64.86544,18.31296],[-64.86439,18.31283],[-64.86374,18.31367],[-64.86408,18.31429],[-64.86517,18.31437],[-64.86558,18.31394]]],[[[-64.8688,18.3157],[-64.86856,18.31462],[-64.86752,18.31445],[-64.86676,18.31516],[-64.86707,18.31554],[-64.8672,18.3157],[-64.86741,18.31597],[-64.86834,18.3161],[-64.8688,18.3157]]],[[[-64.8692,18.30849],[-64.8655,18.30559],[-64.86219,18.30725],[-64.8692,18.30849]]],[[[-64.87462,18.36082],[-64.87454,18.35924],[-64.8688,18.35954],[-64.85136,18.35553],[-64.84814,18.35763],[-64.85134,18.36112],[-64.85701,18.35977],[-64.86904,18.3617],[-64.87462,18.36082]]],[[[-64.8895,18.27579],[-64.88715,18.27397],[-64.8857,18.27599],[-64.8895,18.27579]]],[[[-64.8964,18.27745],[-64.89592,18.27466],[-64.89092,18.27745],[-64.89257,18.27947],[-64.8964,18.27745]]],[[[-64.90907,18.30985],[-64.90864,18.30885],[-64.90759,18.30887],[-64.90722,18.3098],[-64.90744,18.31056],[-64.90852,18.31058],[-64.90907,18.30985]]],[[[-64.90971,18.41536],[-64.90805,18.41386],[-64.90804,18.41575],[-64.90971,18.41536]]],[[[-64.91026,18.41131],[-64.9066,18.40664],[-64.90455,18.40632],[-64.90293,18.40816],[-64.90547,18.41212],[-64.91026,18.41131]]],[[[-64.91659,18.40507],[-64.91549,18.40175],[-64.9125,18.4003],[-64.91335,18.39573],[-64.90766,18.38757],[-64.90518,18.38807],[-64.90317,18.39212],[-64.89934,18.39266],[-64.90529,18.4027],[-64.91205,18.40539],[-64.91659,18.40507]]],[[[-64.93912,18.33419],[-64.9362,18.32693],[-64.93285,18.32309],[-64.93035,18.32593],[-64.9318,18.32885],[-64.93491,18.33035],[-64.93615,18.3359],[-64.93912,18.33419]]],[[[-64.96089,18.31373],[-64.95574,18.31269],[-64.95548,18.31132],[-64.96009,18.30983],[-64.9601,18.30775],[-64.95555,18.30661],[-64.95294,18.30989],[-64.95135,18.31966],[-64.94468,18.32129],[-64.9424,18.318],[-64.94026,18.31814],[-64.94276,18.32371],[-64.94267,18.32785],[-64.94682,18.32901],[-64.95224,18.32268],[-64.95818,18.31929],[-64.95642,18.31623],[-64.96089,18.31373]]],[[[-64.97464,18.40106],[-64.97412,18.39333],[-64.97094,18.3916],[-64.96825,18.39261],[-64.96865,18.39497],[-64.97464,18.40106]]],[[[-64.97571,18.38615],[-64.97318,18.38084],[-64.96579,18.37669],[-64.96814,18.38161],[-64.96773,18.38421],[-64.97323,18.38669],[-64.97571,18.38615]]],[[[-64.99041,18.31688],[-64.98976,18.31561],[-64.98833,18.31726],[-64.99041,18.31688]]],[[[-65.00286,18.30462],[-64.99822,18.30534],[-64.9999,18.30899],[-65.00286,18.30462]]],[[[-65.04158,18.35336],[-65.02646,18.3413],[-65.02254,18.3415],[-65.02189,18.34384],[-65.0176,18.34383],[-65.01566,18.34548],[-65.01154,18.34227],[-65.00698,18.34531],[-65.00164,18.34629],[-64.99574,18.35153],[-64.98766,18.35007],[-64.98567,18.34631],[-64.97745,18.34389],[-64.97575,18.33943],[-64.9759,18.33814],[-64.98406,18.3377],[-64.98372,18.33543],[-64.97507,18.33548],[-64.97214,18.33018],[-64.96959,18.33219],[-64.96869,18.33581],[-64.96389,18.33508],[-64.96553,18.32766],[-64.96495,18.32531],[-64.96236,18.32457],[-64.96118,18.33015],[-64.95679,18.32729],[-64.95233,18.33485],[-64.9471,18.33606],[-64.94301,18.33423],[-64.94084,18.33471],[-64.94064,18.33737],[-64.93833,18.33918],[-64.92742,18.34028],[-64.91938,18.3348],[-64.92455,18.33137],[-64.92413,18.3275],[-64.92138,18.32499],[-64.92289,18.31978],[-64.91752,18.31957],[-64.91122,18.31529],[-64.90774,18.31479],[-64.90586,18.31108],[-64.90241,18.31203],[-64.89863,18.30976],[-64.89605,18.3131],[-64.8939,18.31192],[-64.89,18.31345],[-64.88647,18.30914],[-64.87998,18.3074],[-64.878,18.30281],[-64.87338,18.30579],[-64.87037,18.30443],[-64.8704,18.30682],[-64.8718,18.30959],[-64.87657,18.30978],[-64.87691,18.31194],[-64.88135,18.31332],[-64.88243,18.31654],[-64.87619,18.31678],[-64.87277,18.31339],[-64.86664,18.32138],[-64.86554,18.31591],[-64.86103,18.31868],[-64.85536,18.31964],[-64.85214,18.31809],[-64.85255,18.31598],[-64.84807,18.31481],[-64.84527,18.31176],[-64.84375,18.31322],[-64.84483,18.31726],[-64.83682,18.31598],[-64.83821,18.31879],[-64.84288,18.32112],[-64.84238,18.32296],[-64.83772,18.32482],[-64.83184,18.32477],[-64.83384,18.32653],[-64.83837,18.32683],[-64.84601,18.32326],[-64.84831,18.32453],[-64.85409,18.32234],[-64.85435,18.32425],[-64.84614,18.32833],[-64.84498,18.33057],[-64.85116,18.33548],[-64.85083,18.33968],[-64.85681,18.33844],[-64.86223,18.34404],[-64.86786,18.34619],[-64.86773,18.34763],[-64.86332,18.34865],[-64.86347,18.35032],[-64.86792,18.34978],[-64.87298,18.35201],[-64.87776,18.35087],[-64.88112,18.35284],[-64.88066,18.35436],[-64.88403,18.35565],[-64.88938,18.35422],[-64.89158,18.3625],[-64.89698,18.36059],[-64.90299,18.36475],[-64.91406,18.3656],[-64.91516,18.36785],[-64.92132,18.3701],[-64.92599,18.37501],[-64.93726,18.3815],[-64.93837,18.38022],[-64.93482,18.37648],[-64.92206,18.36634],[-64.92729,18.35882],[-64.9398,18.3641],[-64.94247,18.36969],[-64.94855,18.37238],[-64.95206,18.37621],[-64.95192,18.36918],[-64.96203,18.36952],[-64.96342,18.37077],[-64.96718,18.36866],[-64.97411,18.37191],[-64.9899,18.37162],[-64.9944,18.36132],[-64.99729,18.36164],[-65.00057,18.36607],[-65.006,18.3678],[-65.00656,18.36253],[-65.01798,18.3603],[-65.02701,18.36182],[-65.02786,18.36],[-65.03304,18.3598],[-65.03189,18.35754],[-65.03488,18.35285],[-65.04158,18.35336]]],[[[-65.04815,18.3603],[-65.04603,18.35666],[-65.04425,18.35661],[-65.04332,18.35925],[-65.04665,18.36102],[-65.04815,18.3603]]],[[[-65.05599,18.36313],[-65.05079,18.35908],[-65.05008,18.36277],[-65.05599,18.36313]]],[[[-65.05852,18.35143],[-65.05851,18.3496],[-65.05714,18.34952],[-65.057,18.35137],[-65.05852,18.35143]]],[[[-65.06372,18.38056],[-65.06319,18.37845],[-65.06148,18.37818],[-65.05931,18.38118],[-65.06372,18.38056]]]]}}]}