{"type":"FeatureCollection","features":[{"type":"Feature","id":"AL:1:01073","properties":{"destinationId":"1","locality":"Birmingham","definition":"Jefferson","state":"AL","stateName":"Alabama","county":"Jefferson County","countyGeoid":"01073","countyGeoids":["01073"],"coverage":"complete-counties","sourceType":"gsa_county_defined_rate_area"},"geometry":{"type":"Polygon","coordinates":[[[-87.3372,33.4754],[-87.3417,33.4705],[-87.33551,33.47043],[-87.33558,33.45625],[-87.31411,33.45573],[-87.3144,33.44172],[-87.28436,33.44058],[-87.28428,33.42571],[-87.26684,33.4247],[-87.26698,33.41795],[-87.25379,33.41781],[-87.25376,33.41031],[-87.2487,33.41043],[-87.24931,33.39558],[-87.23204,33.39514],[-87.232,33.36585],[-87.21483,33.3658],[-87.21492,33.35832],[-87.19758,33.35813],[-87.19741,33.34309],[-87.18001,33.34298],[-87.17964,33.32111],[-87.16218,33.32101],[-87.16201,33.30659],[-87.12714,33.30601],[-87.12676,33.29084],[-87.0875,33.29068],[-87.08755,33.27967],[-87.0746,33.27968],[-87.07463,33.27602],[-87.06575,33.27594],[-87.06574,33.24691],[-86.98289,33.24601],[-86.98274,33.25299],[-86.97846,33.25291],[-86.97836,33.25622],[-86.9742,33.25659],[-86.97406,33.26011],[-86.96964,33.26016],[-86.96958,33.26747],[-86.94781,33.26711],[-86.94782,33.27444],[-86.93468,33.27449],[-86.9346,33.27816],[-86.92617,33.27816],[-86.92614,33.29653],[-86.92196,33.29653],[-86.92187,33.3003],[-86.91731,33.30021],[-86.91727,33.30379],[-86.90851,33.30396],[-86.90856,33.30769],[-86.89972,33.30784],[-86.89976,33.31507],[-86.89648,33.31505],[-86.89548,33.31869],[-86.89136,33.31866],[-86.89129,33.32579],[-86.88257,33.32565],[-86.88254,33.33296],[-86.83069,33.33202],[-86.83023,33.36077],[-86.81343,33.36053],[-86.81334,33.36346],[-86.80458,33.36337],[-86.80444,33.3675],[-86.77864,33.36688],[-86.77844,33.38859],[-86.76102,33.38832],[-86.76127,33.39521],[-86.75713,33.39566],[-86.75656,33.3991],[-86.75237,33.399],[-86.75234,33.41721],[-86.71788,33.41631],[-86.71775,33.43078],[-86.70036,33.43063],[-86.70064,33.44112],[-86.69634,33.44112],[-86.69631,33.44468],[-86.6921,33.44462],[-86.69202,33.45196],[-86.67445,33.45174],[-86.67442,33.46652],[-86.60463,33.46713],[-86.60458,33.47418],[-86.59576,33.47432],[-86.59581,33.48148],[-86.58705,33.48157],[-86.58701,33.49607],[-86.57786,33.49612],[-86.57808,33.49949],[-86.574,33.49954],[-86.57411,33.50326],[-86.56962,33.50335],[-86.56949,33.5106],[-86.56072,33.51063],[-86.56062,33.51751],[-86.54334,33.51729],[-86.54313,33.52458],[-86.5172,33.52414],[-86.51674,33.55338],[-86.54303,33.55396],[-86.54308,33.56117],[-86.55199,33.56102],[-86.55134,33.61997],[-86.54278,33.61984],[-86.54282,33.63437],[-86.53369,33.63438],[-86.53382,33.64889],[-86.52512,33.64871],[-86.52507,33.72124],[-86.53389,33.72128],[-86.53381,33.73546],[-86.54264,33.73564],[-86.54276,33.76517],[-86.63298,33.76572],[-86.63919,33.76938],[-86.639,33.76582],[-86.64776,33.7659],[-86.64788,33.77296],[-86.64529,33.77301],[-86.75914,33.84062],[-86.88395,33.84324],[-86.93654,33.81531],[-86.95366,33.8153],[-86.95373,33.80078],[-86.97124,33.80121],[-86.97093,33.78646],[-87.00596,33.78724],[-87.00589,33.77257],[-87.02329,33.77273],[-87.02336,33.74358],[-87.03169,33.74365],[-87.03158,33.72898],[-87.04064,33.72897],[-87.03979,33.68536],[-87.05725,33.68547],[-87.05776,33.65636],[-87.0927,33.65687],[-87.09273,33.62785],[-87.14447,33.6282],[-87.14441,33.61341],[-87.17943,33.61379],[-87.17956,33.59928],[-87.19692,33.59934],[-87.19777,33.58935],[-87.20458,33.57884],[-87.20411,33.57252],[-87.19691,33.5624],[-87.18579,33.55588],[-87.18762,33.55149],[-87.20029,33.54888],[-87.21393,33.53638],[-87.21937,33.53621],[-87.2326,33.53938],[-87.2373,33.53833],[-87.23923,33.53613],[-87.24101,33.5253],[-87.24674,33.51729],[-87.25144,33.51402],[-87.25614,33.51477],[-87.25901,33.51776],[-87.26189,33.52611],[-87.26444,33.52909],[-87.27021,33.53032],[-87.27354,33.52743],[-87.2755,33.52083],[-87.27326,33.51675],[-87.26692,33.51293],[-87.26131,33.50651],[-87.26136,33.50068],[-87.26358,33.49832],[-87.26827,33.49714],[-87.28223,33.50267],[-87.28738,33.50119],[-87.28901,33.49766],[-87.28485,33.48304],[-87.28733,33.4798],[-87.29771,33.48021],[-87.30348,33.48994],[-87.31462,33.48725],[-87.32218,33.49207],[-87.32715,33.49308],[-87.33117,33.49089],[-87.33174,33.48553],[-87.3372,33.4754]]]}},{"type":"Feature","id":"AL:2:01003","properties":{"destinationId":"2","locality":"Gulf Shores","definition":"Baldwin","state":"AL","stateName":"Alabama","county":"Baldwin County","countyGeoid":"01003","countyGeoids":["01003"],"coverage":"complete-counties","sourceType":"gsa_county_defined_rate_area"},"geometry":{"type":"Polygon","coordinates":[[[-88.02858,30.22676],[-88.02768,30.22364],[-88.02136,30.22333],[-87.96225,30.22952],[-87.92612,30.23037],[-87.83846,30.22718],[-87.80056,30.22936],[-87.73553,30.24068],[-87.65998,30.25059],[-87.57408,30.27088],[-87.55866,30.2713],[-87.51832,30.28044],[-87.51838,30.2839],[-87.45238,30.3002],[-87.45008,30.3111],[-87.46298,30.3078],[-87.47588,30.3079],[-87.48368,30.3048],[-87.49488,30.305],[-87.50278,30.3073],[-87.50578,30.3125],[-87.5047,30.32404],[-87.49998,30.32896],[-87.46488,30.3333],[-87.45998,30.3363],[-87.45096,30.34626],[-87.45138,30.3672],[-87.43868,30.3808],[-87.44088,30.3867],[-87.44068,30.3915],[-87.43428,30.3975],[-87.42958,30.4065],[-87.42268,30.4101],[-87.40888,30.4088],[-87.40348,30.4102],[-87.39568,30.4176],[-87.38638,30.4205],[-87.37117,30.43049],[-87.36659,30.43665],[-87.36694,30.44048],[-87.37077,30.44686],[-87.38118,30.4501],[-87.39988,30.451],[-87.40468,30.4529],[-87.40788,30.4564],[-87.41468,30.4573],[-87.42508,30.4656],[-87.42958,30.4706],[-87.43058,30.4766],[-87.43558,30.4805],[-87.43058,30.4911],[-87.43118,30.4958],[-87.43969,30.50665],[-87.44322,30.50678],[-87.4477,30.51046],[-87.44494,30.51494],[-87.44659,30.52707],[-87.43544,30.54914],[-87.43144,30.55026],[-87.42789,30.55416],[-87.42604,30.56007],[-87.41865,30.56184],[-87.41666,30.56631],[-87.41835,30.57004],[-87.41451,30.57346],[-87.41271,30.57323],[-87.40874,30.5837],[-87.40656,30.59993],[-87.4046,30.60339],[-87.39927,30.60561],[-87.39503,30.61528],[-87.39643,30.61773],[-87.39359,30.63088],[-87.39718,30.64812],[-87.39618,30.65045],[-87.39726,30.65435],[-87.40071,30.65715],[-87.40587,30.66662],[-87.40696,30.67516],[-87.41953,30.67998],[-87.43037,30.68864],[-87.43602,30.68867],[-87.43981,30.69048],[-87.4514,30.69981],[-87.45695,30.69756],[-87.46634,30.70084],[-87.4704,30.70528],[-87.47443,30.70659],[-87.48122,30.71651],[-87.50232,30.72159],[-87.51173,30.73354],[-87.53261,30.74349],[-87.53536,30.74978],[-87.53653,30.76138],[-87.54616,30.77202],[-87.54504,30.77867],[-87.55205,30.78625],[-87.55948,30.79045],[-87.56421,30.79625],[-87.57204,30.80053],[-87.57685,30.80816],[-87.58187,30.8124],[-87.60049,30.82063],[-87.60578,30.8313],[-87.61592,30.83469],[-87.61537,30.83703],[-87.61728,30.84035],[-87.62732,30.84796],[-87.62538,30.85436],[-87.62623,30.85713],[-87.63494,30.86589],[-87.62945,30.88012],[-87.62079,30.88749],[-87.6222,30.89751],[-87.61601,30.90145],[-87.60781,30.92449],[-87.60268,30.93428],[-87.59689,30.94113],[-87.59206,30.95149],[-87.58919,30.96446],[-87.59411,30.97634],[-87.59268,30.98014],[-87.59672,30.98761],[-87.59893,30.99746],[-87.61543,30.99736],[-87.61589,31.24446],[-87.6254,31.24341],[-87.63108,31.24442],[-87.6318,31.24318],[-87.63737,31.24516],[-87.64073,31.24433],[-87.64591,31.24892],[-87.64937,31.24846],[-87.6606,31.25191],[-87.66671,31.2578],[-87.67642,31.26199],[-87.67919,31.26726],[-87.68149,31.26765],[-87.68808,31.27542],[-87.69061,31.28292],[-87.70217,31.28564],[-87.70233,31.2891],[-87.70524,31.29208],[-87.70534,31.29449],[-87.71236,31.30113],[-87.71677,31.30168],[-87.71794,31.30331],[-87.72454,31.30037],[-87.72934,31.30058],[-87.73046,31.30243],[-87.74439,31.30169],[-87.75031,31.29693],[-87.76013,31.29957],[-87.7604,31.2975],[-87.76515,31.29735],[-87.76652,31.29451],[-87.77158,31.29372],[-87.77997,31.29772],[-87.78849,31.29741],[-87.79234,31.29988],[-87.79744,31.30531],[-87.79893,31.31621],[-87.80276,31.31882],[-87.80559,31.3187],[-87.80888,31.31528],[-87.80897,31.30664],[-87.79556,31.29233],[-87.79352,31.28676],[-87.7841,31.28113],[-87.7839,31.27777],[-87.79435,31.2708],[-87.79961,31.26954],[-87.81822,31.27862],[-87.8241,31.27926],[-87.82831,31.2753],[-87.83106,31.26347],[-87.83548,31.25778],[-87.84129,31.25594],[-87.84705,31.25948],[-87.85196,31.25911],[-87.85278,31.25414],[-87.84772,31.25374],[-87.84341,31.25599],[-87.8371,31.24725],[-87.84463,31.23934],[-87.84409,31.23614],[-87.83592,31.23105],[-87.83565,31.22864],[-87.84134,31.22541],[-87.84392,31.22703],[-87.84861,31.23483],[-87.85455,31.23723],[-87.86007,31.2354],[-87.86376,31.2311],[-87.86359,31.22611],[-87.85966,31.21844],[-87.8498,31.21158],[-87.8485,31.20838],[-87.84954,31.2061],[-87.8535,31.20344],[-87.85995,31.20463],[-87.86977,31.21576],[-87.875,31.21474],[-87.8759,31.21219],[-87.87334,31.20454],[-87.87667,31.19839],[-87.87917,31.198],[-87.88575,31.20139],[-87.88593,31.20541],[-87.88958,31.20435],[-87.89921,31.19735],[-87.90624,31.19916],[-87.91137,31.19106],[-87.9155,31.18997],[-87.91422,31.18674],[-87.92568,31.18612],[-87.93167,31.18951],[-87.94051,31.18976],[-87.94659,31.19293],[-87.94519,31.183],[-87.94698,31.1761],[-87.94595,31.17228],[-87.94094,31.16585],[-87.94132,31.16305],[-87.94375,31.16134],[-87.95234,31.162],[-87.96107,31.16041],[-87.97134,31.16302],[-87.97411,31.16115],[-87.97228,31.15276],[-87.96628,31.14826],[-87.95633,31.14626],[-87.94373,31.14968],[-87.9397,31.1458],[-87.94424,31.13481],[-87.94456,31.12518],[-87.94658,31.12168],[-87.96585,31.09822],[-87.97505,31.09122],[-87.97684,31.08747],[-87.97585,31.08242],[-87.96382,31.06829],[-87.9487,31.06786],[-87.94479,31.06628],[-87.94156,31.06134],[-87.94115,31.04816],[-87.94458,31.04307],[-87.9536,31.0376],[-87.95779,31.03283],[-87.95735,31.02937],[-87.95051,31.02209],[-87.95022,31.01958],[-87.95394,31.01248],[-87.95895,31.01286],[-87.9648,31.00778],[-87.96413,31.00604],[-87.9584,31.00312],[-87.95662,30.98978],[-87.96055,30.98286],[-87.96119,30.97487],[-87.96519,30.96778],[-87.96326,30.96605],[-87.95274,30.96654],[-87.9459,30.96414],[-87.94355,30.96177],[-87.94055,30.9519],[-87.92833,30.94626],[-87.92572,30.94291],[-87.92394,30.9363],[-87.9357,30.92979],[-87.9471,30.92795],[-87.95231,30.92488],[-87.9544,30.91942],[-87.95442,30.91176],[-87.95884,30.90399],[-87.96769,30.8996],[-87.97615,30.89275],[-87.9835,30.88357],[-87.98641,30.87517],[-87.98504,30.8665],[-87.98097,30.86187],[-87.96073,30.85383],[-87.95049,30.84499],[-87.94491,30.83703],[-87.94455,30.82705],[-87.94667,30.82364],[-87.95105,30.8215],[-87.96344,30.82057],[-87.98937,30.80974],[-87.99158,30.80636],[-87.99034,30.79577],[-87.99239,30.79126],[-87.99896,30.78764],[-88.01416,30.78328],[-88.0222,30.77449],[-88.0202,30.76459],[-88.02632,30.75336],[-88.02524,30.74934],[-88.02034,30.74596],[-88.01422,30.73794],[-88.01548,30.72714],[-88.01254,30.71689],[-88.00342,30.7083],[-88.00166,30.70462],[-88.001,30.69829],[-88.00241,30.69386],[-88.0089,30.68343],[-87.98556,30.67751],[-87.95599,30.65886],[-87.93672,30.65743],[-87.9317,30.65436],[-87.92984,30.65034],[-87.92538,30.64889],[-87.92466,30.64154],[-87.91935,30.63606],[-87.91857,30.63073],[-87.92133,30.62938],[-87.92144,30.62689],[-87.91398,30.62009],[-87.91253,30.6158],[-87.91496,30.58589],[-87.91143,30.57626],[-87.90789,30.57311],[-87.90417,30.56598],[-87.90171,30.55088],[-87.90534,30.53757],[-87.91114,30.52585],[-87.92152,30.51137],[-87.92656,30.49672],[-87.93697,30.4831],[-87.93203,30.48165],[-87.92128,30.47385],[-87.91414,30.44614],[-87.90891,30.41424],[-87.90634,30.40938],[-87.86502,30.38345],[-87.85381,30.37848],[-87.83737,30.37633],[-87.83748,30.36814],[-87.82988,30.35381],[-87.80927,30.3327],[-87.79672,30.3242],[-87.77276,30.3117],[-87.75614,30.29233],[-87.75028,30.2924],[-87.74721,30.29085],[-87.74717,30.28777],[-87.768,30.26246],[-87.78775,30.25424],[-87.80209,30.25305],[-87.81774,30.25429],[-87.86008,30.24029],[-87.87934,30.23859],[-87.8932,30.23924],[-87.91376,30.24784],[-87.91825,30.25331],[-87.93604,30.26147],[-87.94898,30.25656],[-87.96685,30.23562],[-88.01173,30.23245],[-88.02399,30.23039],[-88.02858,30.22676]]]}},{"type":"Feature","id":"AL:3:01089","properties":{"destinationId":"3","locality":"Huntsville","definition":"Madison","state":"AL","stateName":"Alabama","county":"Madison County","countyGeoid":"01089","countyGeoids":["01089"],"coverage":"complete-counties","sourceType":"gsa_county_defined_rate_area"},"geometry":{"type":"Polygon","coordinates":[[[-86.78955,34.56799],[-86.79006,34.55079],[-86.77825,34.55012],[-86.761,34.55245],[-86.75314,34.55567],[-86.72048,34.58357],[-86.7094,34.58837],[-86.70218,34.589],[-86.68543,34.58514],[-86.6778,34.57947],[-86.67508,34.5746],[-86.67415,34.55959],[-86.6679,34.55352],[-86.65866,34.55014],[-86.64639,34.54892],[-86.63746,34.55378],[-86.63068,34.56358],[-86.61417,34.57723],[-86.59849,34.58211],[-86.58079,34.58193],[-86.56489,34.57371],[-86.55812,34.56827],[-86.55354,34.56166],[-86.54996,34.55158],[-86.55055,34.53939],[-86.53594,34.5136],[-86.53452,34.50428],[-86.53175,34.50128],[-86.49999,34.48229],[-86.47549,34.47976],[-86.46883,34.47565],[-86.45286,34.48414],[-86.43513,34.48344],[-86.43181,34.48115],[-86.42391,34.47958],[-86.41245,34.49416],[-86.40449,34.49709],[-86.39774,34.4951],[-86.38904,34.49971],[-86.38838,34.5027],[-86.39011,34.50508],[-86.38726,34.50569],[-86.38673,34.50752],[-86.3922,34.50807],[-86.38967,34.51068],[-86.39239,34.51791],[-86.39081,34.52007],[-86.38739,34.51691],[-86.38312,34.52094],[-86.36921,34.51374],[-86.36399,34.5164],[-86.36209,34.51922],[-86.35743,34.52043],[-86.35552,34.52348],[-86.33818,34.5101],[-86.33432,34.50959],[-86.33522,34.51179],[-86.32982,34.51313],[-86.33301,34.51795],[-86.3278,34.51935],[-86.32727,34.52425],[-86.3245,34.52914],[-86.31119,34.53928],[-86.31296,34.5505],[-86.30665,34.56074],[-86.31006,34.56397],[-86.31346,34.56301],[-86.32885,34.56524],[-86.33193,34.5707],[-86.33142,34.57326],[-86.32672,34.57221],[-86.32188,34.57651],[-86.31434,34.57653],[-86.29969,34.58011],[-86.30204,34.58202],[-86.30682,34.58218],[-86.30698,34.58583],[-86.30341,34.59333],[-86.31062,34.59544],[-86.31623,34.59968],[-86.32385,34.59833],[-86.32685,34.5994],[-86.33105,34.60291],[-86.33162,34.60541],[-86.33051,34.60829],[-86.32586,34.60959],[-86.35903,34.63261],[-86.35812,34.73503],[-86.34225,34.74431],[-86.34287,34.75009],[-86.33971,34.7532],[-86.33785,34.76304],[-86.34195,34.77178],[-86.34175,34.78086],[-86.33816,34.78732],[-86.33402,34.78797],[-86.33496,34.79348],[-86.33993,34.79434],[-86.3422,34.7971],[-86.34131,34.80055],[-86.3461,34.80427],[-86.34445,34.80618],[-86.34481,34.81256],[-86.34336,34.81399],[-86.34354,34.81706],[-86.33642,34.81841],[-86.33428,34.82087],[-86.3351,34.82319],[-86.32683,34.82959],[-86.32655,34.83132],[-86.33832,34.83585],[-86.33548,34.8413],[-86.3349,34.84789],[-86.33699,34.85144],[-86.33935,34.8519],[-86.34227,34.85529],[-86.34454,34.85478],[-86.34697,34.85769],[-86.3452,34.86761],[-86.3513,34.87366],[-86.34672,34.87609],[-86.33984,34.885],[-86.33894,34.88829],[-86.3416,34.89477],[-86.33461,34.8965],[-86.32943,34.9014],[-86.31882,34.90213],[-86.31132,34.91233],[-86.31131,34.91479],[-86.31639,34.92295],[-86.31879,34.92274],[-86.32236,34.92583],[-86.32624,34.9371],[-86.31749,34.93564],[-86.31576,34.93787],[-86.31104,34.9347],[-86.30048,34.94284],[-86.29326,34.94504],[-86.29048,34.9438],[-86.28856,34.93962],[-86.28009,34.93925],[-86.27965,34.9339],[-86.27667,34.93027],[-86.27366,34.92994],[-86.27224,34.9241],[-86.26597,34.92242],[-86.25694,34.92648],[-86.25577,34.92923],[-86.25912,34.9362],[-86.25708,34.93723],[-86.25958,34.94547],[-86.26738,34.94702],[-86.27468,34.95355],[-86.27934,34.95321],[-86.28705,34.95774],[-86.28913,34.96444],[-86.28783,34.96679],[-86.28983,34.96878],[-86.29518,34.96716],[-86.29972,34.96907],[-86.30112,34.97166],[-86.3052,34.97205],[-86.30632,34.97492],[-86.313,34.97585],[-86.30918,34.98024],[-86.3088,34.9849],[-86.31127,34.9911],[-86.78363,34.99193],[-86.78667,34.67678],[-86.78955,34.56799]]]}},{"type":"Feature","id":"AL:460:01097","properties":{"destinationId":"460","locality":"Mobile","definition":"Mobile","state":"AL","stateName":"Alabama","county":"Mobile County","countyGeoid":"01097","countyGeoids":["01097"],"coverage":"complete-counties","sourceType":"gsa_county_defined_rate_area"},"geometry":{"type":"MultiPolygon","coordinates":[[[[-88.05338,30.50699],[-88.04504,30.50119],[-88.02433,30.49077],[-88.02622,30.51661],[-88.02916,30.51965],[-88.0351,30.52197],[-88.03867,30.5204],[-88.05338,30.50699]]],[[[-88.22572,30.32156],[-88.22542,30.31989],[-88.21958,30.32141],[-88.22572,30.32156]]],[[[-88.2619,30.33508],[-88.25976,30.32763],[-88.25621,30.32512],[-88.25329,30.3348],[-88.25717,30.35255],[-88.25629,30.36382],[-88.25947,30.36678],[-88.25931,30.35554],[-88.26155,30.34662],[-88.25794,30.344],[-88.2577,30.34086],[-88.25914,30.33713],[-88.2619,30.33508]]],[[[-88.3273,30.22988],[-88.32637,30.22846],[-88.30477,30.22803],[-88.1998,30.24779],[-88.13776,30.24965],[-88.12272,30.24754],[-88.10938,30.24333],[-88.0924,30.2436],[-88.07586,30.24614],[-88.07485,30.24912],[-88.08681,30.25986],[-88.11774,30.27912],[-88.12472,30.27354],[-88.13063,30.26212],[-88.14114,30.25502],[-88.19213,30.25025],[-88.20147,30.25118],[-88.27915,30.23516],[-88.2997,30.23181],[-88.32014,30.23204],[-88.3273,30.22988]]],[[[-88.43201,31.1143],[-88.41863,30.86653],[-88.39502,30.36942],[-88.37467,30.38561],[-88.36402,30.38801],[-88.35961,30.4004],[-88.3605,30.40324],[-88.35736,30.40662],[-88.34374,30.40199],[-88.33802,30.40475],[-88.32114,30.39635],[-88.31508,30.39163],[-88.31484,30.38446],[-88.31223,30.37656],[-88.31461,30.37144],[-88.31152,30.37021],[-88.30474,30.37133],[-88.30332,30.37318],[-88.30355,30.37923],[-88.29987,30.38558],[-88.2881,30.38733],[-88.28739,30.38425],[-88.28264,30.38288],[-88.26753,30.38108],[-88.2607,30.38238],[-88.23447,30.37172],[-88.22454,30.37131],[-88.21646,30.3676],[-88.20923,30.36002],[-88.19626,30.36348],[-88.1871,30.3627],[-88.18853,30.34505],[-88.19635,30.34359],[-88.19836,30.33882],[-88.19661,30.33743],[-88.19322,30.32604],[-88.19556,30.32382],[-88.19566,30.32124],[-88.19158,30.31868],[-88.17339,30.326],[-88.15625,30.32757],[-88.15209,30.33049],[-88.14632,30.33099],[-88.14452,30.32686],[-88.14468,30.3212],[-88.13904,30.31279],[-88.13139,30.33431],[-88.12461,30.34162],[-88.11543,30.35657],[-88.10727,30.37725],[-88.10407,30.4273],[-88.10644,30.45274],[-88.10065,30.46122],[-88.09687,30.47105],[-88.10299,30.49303],[-88.10377,30.5009],[-88.10087,30.50975],[-88.09073,30.52357],[-88.08279,30.52871],[-88.08162,30.54632],[-88.08549,30.56326],[-88.08766,30.56439],[-88.08562,30.56992],[-88.0649,30.58829],[-88.0612,30.5965],[-88.05905,30.60829],[-88.054,30.61249],[-88.0596,30.61909],[-88.06029,30.62656],[-88.05469,30.63376],[-88.05601,30.63755],[-88.06188,30.64359],[-88.04472,30.64992],[-88.03841,30.6479],[-88.02919,30.65904],[-88.02604,30.65856],[-88.02398,30.66001],[-88.0201,30.67567],[-88.01141,30.68513],[-88.0089,30.68343],[-88.001,30.69829],[-88.00342,30.7083],[-88.01033,30.71344],[-88.0149,30.72299],[-88.01422,30.73794],[-88.02627,30.75148],[-88.0202,30.76459],[-88.0222,30.77449],[-88.01416,30.78328],[-87.99896,30.78764],[-87.99239,30.79126],[-87.99034,30.79577],[-87.99158,30.80636],[-87.98706,30.81144],[-87.96344,30.82057],[-87.95105,30.8215],[-87.94667,30.82364],[-87.94455,30.82705],[-87.94491,30.83703],[-87.95049,30.84499],[-87.96073,30.85383],[-87.98097,30.86187],[-87.98504,30.8665],[-87.98641,30.87517],[-87.9835,30.88357],[-87.97615,30.89275],[-87.96769,30.8996],[-87.95884,30.90399],[-87.95442,30.91176],[-87.9544,30.91942],[-87.95231,30.92488],[-87.9471,30.92795],[-87.9357,30.92979],[-87.92394,30.9363],[-87.92572,30.94291],[-87.92833,30.94626],[-87.94055,30.9519],[-87.94355,30.96177],[-87.9459,30.96414],[-87.95274,30.96654],[-87.96491,30.96682],[-87.96119,30.97487],[-87.96055,30.98286],[-87.95662,30.98978],[-87.9584,31.00312],[-87.96413,31.00604],[-87.9648,31.00778],[-87.95895,31.01286],[-87.95394,31.01248],[-87.95022,31.01958],[-87.95051,31.02209],[-87.95735,31.02937],[-87.95779,31.03283],[-87.9536,31.0376],[-87.94458,31.04307],[-87.94115,31.04816],[-87.94156,31.06134],[-87.94479,31.06628],[-87.9487,31.06786],[-87.96382,31.06829],[-87.97688,31.08534],[-87.97505,31.09122],[-87.96585,31.09822],[-87.94658,31.12168],[-87.94456,31.12518],[-87.94424,31.13481],[-87.93992,31.14361],[-87.94012,31.14724],[-87.94373,31.14968],[-87.95633,31.14626],[-87.96628,31.14826],[-87.97228,31.15276],[-87.97419,31.15681],[-87.97347,31.16429],[-87.98882,31.17331],[-88.02265,31.14427],[-88.32978,31.14382],[-88.32993,31.11436],[-88.43201,31.1143]]]]}}]}