{"type":"FeatureCollection","features":[{"type":"Feature","id":"AR:6:05051","properties":{"destinationId":"6","locality":"Hot Springs","definition":"Garland","state":"AR","stateName":"Arkansas","county":"Garland County","countyGeoid":"05051","countyGeoids":["05051"],"coverage":"complete-counties","sourceType":"gsa_county_defined_rate_area"},"geometry":{"type":"Polygon","coordinates":[[[-93.40692,34.40895],[-93.4072,34.39745],[-92.94808,34.38926],[-92.94679,34.41861],[-92.94783,34.449],[-92.91346,34.44836],[-92.91506,34.50613],[-92.79319,34.50357],[-92.7915,34.56198],[-92.80895,34.56225],[-92.80803,34.59041],[-92.87692,34.59117],[-92.87539,34.6352],[-92.97998,34.63725],[-92.97905,34.68489],[-92.96975,34.68477],[-92.96932,34.77226],[-93.39449,34.77242],[-93.39395,34.68522],[-93.40224,34.68523],[-93.40692,34.40895]]]}}]}