{"type":"FeatureCollection","features":[{"type":"Feature","id":"AZ:10:04013","properties":{"destinationId":"10","locality":"Phoenix / Scottsdale","definition":"Maricopa","state":"AZ","stateName":"Arizona","county":"Maricopa County","countyGeoid":"04013","countyGeoids":["04013"],"coverage":"complete-counties","sourceType":"gsa_county_defined_rate_area"},"geometry":{"type":"Polygon","coordinates":[[[-113.33505,33.55195],[-113.33336,33.20464],[-113.33389,32.50519],[-112.20362,32.50672],[-112.20349,32.94173],[-112.20215,33.02915],[-112.20204,33.29047],[-112.20318,33.29046],[-112.20317,33.3105],[-112.19369,33.29894],[-112.19318,33.29645],[-112.19749,33.28933],[-112.19565,33.2848],[-112.19751,33.27844],[-112.19178,33.26504],[-112.18104,33.26253],[-112.17453,33.26355],[-112.17559,33.2616],[-112.17427,33.25822],[-112.16961,33.25959],[-112.16563,33.25654],[-112.16221,33.25622],[-112.16132,33.25428],[-112.14912,33.25381],[-112.14012,33.24675],[-112.13967,33.24367],[-112.13473,33.24156],[-112.13247,33.23348],[-112.13049,33.23283],[-112.12647,33.23552],[-112.12278,33.23495],[-112.11964,33.23162],[-112.11622,33.2316],[-112.11368,33.22747],[-112.10298,33.23056],[-112.09581,33.23036],[-112.09,33.2255],[-112.08822,33.22026],[-112.09213,33.20929],[-112.08349,33.20456],[-111.89308,33.20471],[-111.89307,33.20351],[-111.88435,33.20343],[-111.58263,33.20541],[-111.58426,33.3788],[-111.5807,33.37874],[-111.58063,33.4658],[-111.0399,33.4661],[-111.15335,33.67761],[-111.16966,33.66732],[-111.17176,33.66138],[-111.17469,33.65944],[-111.18062,33.65979],[-111.20028,33.64026],[-111.20704,33.63688],[-111.20944,33.6335],[-111.20745,33.62057],[-111.21493,33.61406],[-111.21675,33.60832],[-111.22206,33.60245],[-111.22425,33.60312],[-111.23195,33.60951],[-111.23078,33.61241],[-111.23737,33.6154],[-111.23836,33.61845],[-111.24675,33.62149],[-111.24954,33.62433],[-111.2557,33.62113],[-111.26283,33.62316],[-111.2693,33.62923],[-111.27384,33.63865],[-111.27599,33.63888],[-111.27979,33.64586],[-111.28228,33.64648],[-111.28727,33.65243],[-111.2862,33.65632],[-111.2876,33.65897],[-111.29504,33.66087],[-111.29951,33.66382],[-111.30528,33.67211],[-111.30916,33.67386],[-111.31522,33.68155],[-111.32601,33.68438],[-111.33139,33.68834],[-111.33832,33.70275],[-111.33752,33.72116],[-111.34363,33.72484],[-111.34426,33.7274],[-111.35073,33.73223],[-111.35483,33.73325],[-111.35582,33.73813],[-111.35934,33.74097],[-111.37214,33.74521],[-111.37278,33.74909],[-111.37469,33.74984],[-111.38088,33.74768],[-111.38681,33.75004],[-111.38216,33.76096],[-111.3833,33.76279],[-111.38698,33.7631],[-111.38937,33.77081],[-111.38668,33.77341],[-111.38944,33.77666],[-111.38546,33.78319],[-111.3812,33.78523],[-111.3828,33.78813],[-111.3785,33.79317],[-111.38791,33.80321],[-111.38833,33.80535],[-111.38499,33.81068],[-111.3841,33.81619],[-111.37152,33.81885],[-111.37232,33.82392],[-111.37803,33.82739],[-111.37862,33.82958],[-111.38356,33.83362],[-111.39211,33.83585],[-111.39041,33.83772],[-111.39548,33.84086],[-111.39579,33.84428],[-111.39199,33.85261],[-111.39232,33.85483],[-111.38697,33.86161],[-111.39631,33.86857],[-111.39758,33.87504],[-111.39596,33.87677],[-111.40565,33.87953],[-111.40524,33.88176],[-111.41224,33.8846],[-111.41332,33.88814],[-111.41147,33.89141],[-111.41373,33.89736],[-111.41284,33.9019],[-111.40812,33.90518],[-111.4085,33.91238],[-111.40507,33.91922],[-111.42639,33.92607],[-111.43064,33.924],[-111.43729,33.91626],[-111.45174,33.921],[-111.44926,33.92937],[-111.45204,33.93377],[-111.44716,33.93476],[-111.44739,33.94174],[-111.45218,33.94863],[-111.45162,33.95395],[-111.44797,33.95752],[-111.45196,33.96055],[-111.45255,33.96593],[-111.44889,33.9686],[-111.44809,33.97328],[-111.44127,33.97838],[-111.43506,33.98069],[-111.43312,33.98396],[-111.43493,33.98696],[-111.43811,33.98728],[-111.44281,33.99137],[-111.44036,33.99642],[-111.44459,33.99922],[-111.44508,34.00118],[-111.44952,34.00042],[-111.45442,34.00475],[-111.45838,34.00221],[-111.46604,34.00577],[-111.47,34.00377],[-111.47244,34.00469],[-111.47354,34.00321],[-111.48751,34.00175],[-111.49172,33.99981],[-111.72633,34.00004],[-112.16476,34.04817],[-112.16259,34.04633],[-112.16148,34.04223],[-112.15841,34.04377],[-112.15365,34.04091],[-112.1587,34.04004],[-112.16445,34.03676],[-112.16477,34.02695],[-112.16113,34.01772],[-112.16625,34.0125],[-112.1715,34.0178],[-112.18324,34.01194],[-112.18038,34.00403],[-112.19188,33.99312],[-112.19337,33.9903],[-112.19414,33.97793],[-112.19649,33.97416],[-112.20286,33.9705],[-112.21501,33.96714],[-112.21451,33.96374],[-112.22194,33.96067],[-112.22923,33.95419],[-112.24035,33.95664],[-112.24026,33.95049],[-112.2358,33.94729],[-112.24137,33.94053],[-112.23601,33.93953],[-112.23156,33.93604],[-112.23505,33.91641],[-112.23646,33.91508],[-112.24295,33.91546],[-112.24364,33.91314],[-112.24073,33.90826],[-112.24304,33.90536],[-112.2589,33.90504],[-112.26748,33.89694],[-112.27516,33.8934],[-112.2776,33.89044],[-112.27617,33.88247],[-112.7438,33.99986],[-113.33331,34.00004],[-113.33505,33.55195]]]}},{"type":"Feature","id":"AZ:12:04019","properties":{"destinationId":"12","locality":"Tucson","definition":"Pima","state":"AZ","stateName":"Arizona","county":"Pima County","countyGeoid":"04019","countyGeoids":["04019"],"coverage":"complete-counties","sourceType":"gsa_county_defined_rate_area"},"geometry":{"type":"Polygon","coordinates":[[[-113.33389,32.50519],[-113.33381,32.03878],[-113.12596,31.97278],[-112.86707,31.89549],[-112.2461,31.7042],[-111.36637,31.42607],[-111.36692,31.52136],[-111.16372,31.52172],[-111.16418,31.72589],[-110.85577,31.7267],[-110.85576,31.7317],[-110.4523,31.73122],[-110.45082,31.90512],[-110.45154,32.07968],[-110.44992,32.07972],[-110.44837,32.13761],[-110.44767,32.25376],[-110.45096,32.25375],[-110.45152,32.514],[-110.8451,32.51387],[-110.84508,32.51112],[-111.15749,32.51126],[-111.15757,32.50162],[-111.56925,32.50139],[-111.56926,32.50677],[-113.33389,32.50519]]]}},{"type":"Feature","id":"AZ:8:04017","properties":{"destinationId":"8","locality":"Kayenta","definition":"Navajo","state":"AZ","stateName":"Arizona","county":"Navajo County","countyGeoid":"04017","countyGeoids":["04017"],"coverage":"complete-counties","sourceType":"gsa_county_defined_rate_area"},"geometry":{"type":"Polygon","coordinates":[[[-110.75069,35.03165],[-110.75067,34.00005],[-110.00066,34.00005],[-110.00065,33.57693],[-109.99509,33.58257],[-109.98386,33.57905],[-109.98108,33.57627],[-109.97047,33.57735],[-109.96852,33.5764],[-109.96767,33.57272],[-109.96636,33.57316],[-109.96606,33.5787],[-109.96228,33.5798],[-109.96046,33.57893],[-109.96013,33.57257],[-109.9501,33.57322],[-109.94275,33.56878],[-109.93796,33.57053],[-109.9235,33.56751],[-109.91503,33.57553],[-109.9004,33.5754],[-109.89753,33.57296],[-109.89754,33.56924],[-109.89531,33.56739],[-109.89168,33.56787],[-109.89177,33.77778],[-109.85927,33.77768],[-109.85916,34.12577],[-109.84941,34.12592],[-109.84823,34.47339],[-109.8468,34.47346],[-109.86523,34.55969],[-109.8505,34.64744],[-109.85193,34.82249],[-109.84462,34.82256],[-109.84489,34.90952],[-109.84338,34.95231],[-109.84504,35.00004],[-109.84294,35.17024],[-109.84376,35.51773],[-109.82696,35.51782],[-109.82696,35.66263],[-110.00067,35.66266],[-110.00088,36.9985],[-110.47019,36.998],[-110.49091,37.00357],[-110.50069,37.00426],[-110.75069,37.0032],[-110.75069,35.03165]]]}}]}