{"type":"FeatureCollection","features":[{"type":"Feature","id":"CO:427:08035","properties":{"destinationId":"427","locality":"Douglas","definition":"Douglas","state":"CO","stateName":"Colorado","county":"Douglas County","countyGeoid":"08035","countyGeoids":["08035"],"coverage":"complete-counties","sourceType":"gsa_county_defined_rate_area"},"geometry":{"type":"Polygon","coordinates":[[[-105.32739,39.13087],[-105.32944,39.12949],[-104.66248,39.12953],[-104.66257,39.36204],[-104.66016,39.56591],[-105.04028,39.56619],[-105.04874,39.56609],[-105.05137,39.56326],[-105.05725,39.56231],[-105.05826,39.56038],[-105.06071,39.55994],[-105.06113,39.55691],[-105.07411,39.54427],[-105.07642,39.54006],[-105.07774,39.53671],[-105.07611,39.53269],[-105.0801,39.52316],[-105.07794,39.51749],[-105.0784,39.51149],[-105.08523,39.50543],[-105.08675,39.49342],[-105.09871,39.48539],[-105.11068,39.48355],[-105.11469,39.4858],[-105.11765,39.48539],[-105.11827,39.48299],[-105.11588,39.48254],[-105.11628,39.48145],[-105.11854,39.48021],[-105.12102,39.48145],[-105.12708,39.47819],[-105.13036,39.47368],[-105.13499,39.47078],[-105.13262,39.46791],[-105.13294,39.46191],[-105.12418,39.45498],[-105.12321,39.44783],[-105.12614,39.44019],[-105.12347,39.43431],[-105.14532,39.41881],[-105.15598,39.4138],[-105.16126,39.41376],[-105.16667,39.40851],[-105.17096,39.40783],[-105.16941,39.40159],[-105.16719,39.39975],[-105.16726,39.39431],[-105.1655,39.39401],[-105.16434,39.39114],[-105.16997,39.3891],[-105.17352,39.3832],[-105.16978,39.38034],[-105.173,39.37772],[-105.17226,39.37641],[-105.1671,39.3722],[-105.16911,39.3691],[-105.16657,39.36175],[-105.16786,39.35902],[-105.17152,39.35722],[-105.17185,39.35345],[-105.17719,39.34958],[-105.17716,39.34471],[-105.17954,39.34231],[-105.17873,39.34079],[-105.18396,39.33549],[-105.18784,39.33419],[-105.18227,39.33137],[-105.1823,39.3298],[-105.18818,39.32796],[-105.18549,39.3244],[-105.18881,39.32115],[-105.18859,39.31738],[-105.19349,39.31258],[-105.19816,39.31043],[-105.19668,39.30854],[-105.19782,39.30499],[-105.196,39.30208],[-105.20021,39.30203],[-105.20137,39.29927],[-105.20498,39.2998],[-105.20768,39.29819],[-105.20717,39.29623],[-105.20289,39.29475],[-105.20258,39.29332],[-105.20698,39.2932],[-105.20553,39.29168],[-105.20791,39.29152],[-105.21247,39.28448],[-105.21132,39.28097],[-105.21639,39.27762],[-105.21553,39.27679],[-105.21751,39.2746],[-105.21558,39.27223],[-105.22078,39.26866],[-105.2187,39.26704],[-105.21783,39.26012],[-105.2251,39.26052],[-105.2236,39.25599],[-105.22697,39.25635],[-105.22812,39.25377],[-105.23458,39.25509],[-105.2342,39.25241],[-105.23768,39.25047],[-105.23478,39.2493],[-105.23394,39.24687],[-105.23563,39.24426],[-105.24056,39.24406],[-105.24728,39.24042],[-105.25357,39.24316],[-105.25503,39.24027],[-105.25432,39.23792],[-105.25723,39.23355],[-105.26178,39.23148],[-105.26357,39.22881],[-105.26166,39.2268],[-105.2613,39.22327],[-105.26353,39.22117],[-105.26058,39.21669],[-105.26152,39.21476],[-105.25974,39.2109],[-105.26319,39.208],[-105.26952,39.20942],[-105.27629,39.20722],[-105.2777,39.2028],[-105.28293,39.19995],[-105.28639,39.18631],[-105.28918,39.18417],[-105.28738,39.17944],[-105.29475,39.17484],[-105.29422,39.17298],[-105.29944,39.17253],[-105.30153,39.17061],[-105.30102,39.16678],[-105.3052,39.16402],[-105.30706,39.16536],[-105.31306,39.16002],[-105.31309,39.15708],[-105.31531,39.1549],[-105.31563,39.1458],[-105.32156,39.14619],[-105.32328,39.14499],[-105.32196,39.13697],[-105.32739,39.13087]]]}},{"type":"Feature","id":"CO:493:08049","properties":{"destinationId":"493","locality":"Grand Lake","definition":"Grand","state":"CO","stateName":"Colorado","county":"Grand County","countyGeoid":"08049","countyGeoids":["08049"],"coverage":"complete-counties","sourceType":"gsa_county_defined_rate_area"},"geometry":{"type":"Polygon","coordinates":[[[-106.65274,40.38897],[-106.65283,40.34156],[-106.63226,40.34156],[-106.63312,40.179],[-106.637,40.17898],[-106.63703,40.00211],[-106.62653,40.00187],[-106.62611,39.99999],[-106.62657,39.92478],[-106.39526,39.92459],[-106.39543,39.91402],[-106.29462,39.91396],[-106.29478,39.91892],[-106.25203,39.91471],[-106.25058,39.91305],[-106.24691,39.9127],[-106.23169,39.90081],[-106.22836,39.89352],[-106.22078,39.88769],[-106.21686,39.88063],[-106.21417,39.8788],[-106.2065,39.8777],[-106.20637,39.87499],[-106.20139,39.86852],[-106.20057,39.86404],[-106.19308,39.85883],[-106.18045,39.85246],[-106.17847,39.84979],[-106.17251,39.84791],[-106.17114,39.84529],[-106.1676,39.84554],[-106.14889,39.83945],[-106.1434,39.83935],[-106.13791,39.84354],[-106.13148,39.8442],[-106.12499,39.84213],[-106.11704,39.83199],[-106.11243,39.82971],[-106.10528,39.82238],[-106.09992,39.8198],[-106.08997,39.80934],[-106.08412,39.80666],[-106.08216,39.79634],[-106.07808,39.79368],[-106.08121,39.7874],[-106.07517,39.78096],[-106.06957,39.76624],[-106.06483,39.76073],[-106.0659,39.7538],[-106.06218,39.75164],[-106.06454,39.74838],[-106.05947,39.73943],[-106.05855,39.7247],[-106.05595,39.7214],[-106.04864,39.72107],[-106.04158,39.71602],[-106.03811,39.71206],[-106.03789,39.70758],[-106.03431,39.70296],[-106.03364,39.69676],[-106.02591,39.68914],[-106.01299,39.68634],[-106.00648,39.68795],[-105.99634,39.68412],[-105.99098,39.68752],[-105.9854,39.68738],[-105.97235,39.69169],[-105.96194,39.69078],[-105.95104,39.69515],[-105.9456,39.68887],[-105.94057,39.6906],[-105.93009,39.69752],[-105.92462,39.69897],[-105.92455,39.70342],[-105.92141,39.70994],[-105.91178,39.71529],[-105.9105,39.72071],[-105.90746,39.72404],[-105.90828,39.72625],[-105.90473,39.72878],[-105.89176,39.73039],[-105.88371,39.73701],[-105.88234,39.74558],[-105.885,39.74999],[-105.88459,39.75286],[-105.88048,39.7593],[-105.88285,39.76338],[-105.88672,39.766],[-105.89003,39.77864],[-105.89266,39.78264],[-105.8877,39.78902],[-105.88762,39.7966],[-105.87557,39.79926],[-105.87231,39.79669],[-105.85494,39.79615],[-105.85136,39.78803],[-105.84409,39.78952],[-105.83,39.78822],[-105.82295,39.7856],[-105.81841,39.79001],[-105.81051,39.79148],[-105.80752,39.79805],[-105.80194,39.79934],[-105.79956,39.80328],[-105.79373,39.80194],[-105.79094,39.8031],[-105.78466,39.80243],[-105.77971,39.79905],[-105.7646,39.79489],[-105.75056,39.8013],[-105.73581,39.80528],[-105.73346,39.81254],[-105.72518,39.81733],[-105.72424,39.82407],[-105.71924,39.82754],[-105.71934,39.83105],[-105.71698,39.83547],[-105.71337,39.83821],[-105.70327,39.83671],[-105.69575,39.83948],[-105.69354,39.84785],[-105.69035,39.852],[-105.69612,39.86152],[-105.69777,39.86799],[-105.69685,39.8717],[-105.70077,39.87894],[-105.69838,39.88096],[-105.69779,39.88446],[-105.69942,39.88587],[-105.69972,39.8915],[-105.69791,39.894],[-105.69118,39.89722],[-105.69032,39.9019],[-105.68723,39.90419],[-105.68853,39.90715],[-105.68786,39.9117],[-105.68574,39.91583],[-105.683,39.91725],[-105.68227,39.92191],[-105.67888,39.92765],[-105.67661,39.92856],[-105.67788,39.93072],[-105.67526,39.93332],[-105.68294,39.93379],[-105.69359,39.94188],[-105.6918,39.94624],[-105.69436,39.94968],[-105.69366,39.95115],[-105.6894,39.95351],[-105.68838,39.95653],[-105.68511,39.95874],[-105.68818,39.95966],[-105.68883,39.96776],[-105.69032,39.96977],[-105.68841,39.97543],[-105.68494,39.97933],[-105.68513,39.9831],[-105.68748,39.98542],[-105.68316,39.99288],[-105.68321,39.99465],[-105.69059,39.99628],[-105.69105,40.00376],[-105.68847,40.00695],[-105.69002,40.00932],[-105.68982,40.01511],[-105.68783,40.01598],[-105.68043,40.01402],[-105.67014,40.01688],[-105.66161,40.01647],[-105.66019,40.01835],[-105.65191,40.0209],[-105.65279,40.02377],[-105.64394,40.0333],[-105.6412,40.03417],[-105.63741,40.04551],[-105.6451,40.05067],[-105.65106,40.05844],[-105.64669,40.06522],[-105.64181,40.06787],[-105.63887,40.06703],[-105.64112,40.073],[-105.63543,40.07495],[-105.63457,40.07997],[-105.63262,40.08145],[-105.63425,40.08151],[-105.636,40.08455],[-105.63376,40.08838],[-105.63454,40.09548],[-105.63202,40.09719],[-105.63661,40.10254],[-105.63668,40.10699],[-105.63465,40.11323],[-105.62997,40.11416],[-105.62912,40.11704],[-105.62657,40.11865],[-105.62878,40.12351],[-105.62609,40.12735],[-105.62998,40.13043],[-105.63016,40.1381],[-105.63547,40.14042],[-105.63566,40.14601],[-105.64481,40.14808],[-105.64734,40.14921],[-105.64729,40.15097],[-105.656,40.15128],[-105.66134,40.15652],[-105.66773,40.15828],[-105.66754,40.16119],[-105.67058,40.16269],[-105.67134,40.1665],[-105.66692,40.16989],[-105.66973,40.17426],[-105.66828,40.17691],[-105.67179,40.18003],[-105.67063,40.18539],[-105.67547,40.18639],[-105.67755,40.18851],[-105.6764,40.1995],[-105.67764,40.20233],[-105.67056,40.2078],[-105.67126,40.21708],[-105.66946,40.22004],[-105.66346,40.21993],[-105.66892,40.22372],[-105.66844,40.22814],[-105.66438,40.23321],[-105.66544,40.23727],[-105.6602,40.24518],[-105.66001,40.24883],[-105.64426,40.24979],[-105.6512,40.25425],[-105.65332,40.26046],[-105.65724,40.26289],[-105.66791,40.26772],[-105.67819,40.26812],[-105.68151,40.27168],[-105.68223,40.27316],[-105.68035,40.27467],[-105.68147,40.27905],[-105.67926,40.27891],[-105.68058,40.28446],[-105.68505,40.28641],[-105.6864,40.28892],[-105.68116,40.29194],[-105.68737,40.29373],[-105.68827,40.29733],[-105.68618,40.30308],[-105.6893,40.30348],[-105.69128,40.30616],[-105.69014,40.30865],[-105.70211,40.31208],[-105.69765,40.31827],[-105.69872,40.32078],[-105.70202,40.32171],[-105.70168,40.32431],[-105.71313,40.32557],[-105.72144,40.33202],[-105.72909,40.33528],[-105.72879,40.33794],[-105.73544,40.34298],[-105.73634,40.34662],[-105.74244,40.34926],[-105.74776,40.34751],[-105.75238,40.34909],[-105.75378,40.35152],[-105.75712,40.35165],[-105.75976,40.35578],[-105.76444,40.35926],[-105.7677,40.35976],[-105.76913,40.36447],[-105.7741,40.36523],[-105.77644,40.36954],[-105.78195,40.37376],[-105.78182,40.37699],[-105.78725,40.38087],[-105.79123,40.38786],[-105.79095,40.39864],[-105.80042,40.40722],[-105.80129,40.41018],[-105.80826,40.41495],[-105.81113,40.4194],[-105.81534,40.42149],[-105.81727,40.42432],[-105.81723,40.42649],[-105.81446,40.42852],[-105.81578,40.43743],[-105.80569,40.44788],[-105.80761,40.45226],[-105.80448,40.46422],[-105.81067,40.47109],[-105.80713,40.47241],[-105.80679,40.47391],[-105.80854,40.47506],[-105.82011,40.47597],[-105.8346,40.47987],[-105.83782,40.48303],[-105.84697,40.48279],[-105.85493,40.48625],[-105.86247,40.48023],[-105.86915,40.48099],[-105.87226,40.4783],[-105.88155,40.47587],[-105.88602,40.47734],[-105.89175,40.47666],[-105.8943,40.46955],[-105.89722,40.4692],[-105.89934,40.46564],[-105.89833,40.4574],[-105.89982,40.4545],[-105.89889,40.45026],[-105.89707,40.44879],[-105.90326,40.43276],[-105.90268,40.43034],[-105.89858,40.42681],[-105.89767,40.41773],[-105.9021,40.41291],[-105.90166,40.40649],[-105.90332,40.40075],[-105.90507,40.39882],[-105.9136,40.40162],[-105.92073,40.40156],[-105.92441,40.39316],[-105.92754,40.39103],[-105.94046,40.38452],[-105.94661,40.38505],[-105.94671,40.37725],[-105.93731,40.37194],[-105.9387,40.36606],[-105.95434,40.3603],[-105.95544,40.35481],[-105.95966,40.34815],[-105.96937,40.34955],[-105.97231,40.35156],[-105.97595,40.35822],[-105.98126,40.35963],[-105.98665,40.36458],[-106.01118,40.36225],[-106.01308,40.36798],[-106.0116,40.37028],[-106.0139,40.37059],[-106.01458,40.37286],[-106.01862,40.3733],[-106.02739,40.37087],[-106.02983,40.36843],[-106.03603,40.3691],[-106.04338,40.3629],[-106.05457,40.35764],[-106.0644,40.3566],[-106.06577,40.35436],[-106.08568,40.34718],[-106.08744,40.35038],[-106.09153,40.35009],[-106.09939,40.35447],[-106.10162,40.35384],[-106.10506,40.35017],[-106.11674,40.34585],[-106.1279,40.33804],[-106.13317,40.33651],[-106.1368,40.33013],[-106.14938,40.33197],[-106.16201,40.34261],[-106.17049,40.34401],[-106.17473,40.34318],[-106.17919,40.33826],[-106.17983,40.33399],[-106.18918,40.32653],[-106.19693,40.32562],[-106.19887,40.32711],[-106.21706,40.32908],[-106.221,40.32758],[-106.22172,40.32579],[-106.23046,40.32341],[-106.23898,40.32796],[-106.2389,40.32982],[-106.24477,40.33732],[-106.25122,40.34076],[-106.25357,40.35032],[-106.25556,40.35092],[-106.26035,40.35819],[-106.26566,40.36095],[-106.27795,40.35372],[-106.28423,40.35579],[-106.28663,40.35885],[-106.29107,40.3582],[-106.29862,40.34996],[-106.29718,40.34693],[-106.2987,40.34483],[-106.29806,40.34039],[-106.29387,40.33763],[-106.29648,40.33528],[-106.29593,40.33336],[-106.29955,40.33029],[-106.30534,40.33083],[-106.30551,40.3287],[-106.31224,40.33018],[-106.32122,40.33732],[-106.337,40.33964],[-106.33742,40.34266],[-106.34389,40.34653],[-106.3452,40.35005],[-106.35037,40.35311],[-106.35376,40.35754],[-106.35648,40.35807],[-106.3601,40.35835],[-106.36631,40.35592],[-106.37246,40.35703],[-106.38526,40.35237],[-106.38973,40.3457],[-106.39583,40.34701],[-106.40402,40.34495],[-106.40769,40.34642],[-106.41033,40.35016],[-106.4171,40.35008],[-106.42179,40.35279],[-106.43304,40.34956],[-106.43908,40.35015],[-106.44342,40.34653],[-106.45428,40.35429],[-106.45702,40.35451],[-106.45783,40.35612],[-106.45555,40.35798],[-106.45615,40.36334],[-106.45834,40.36653],[-106.46318,40.36699],[-106.4644,40.37591],[-106.46712,40.37919],[-106.47308,40.37939],[-106.47111,40.38228],[-106.47449,40.38798],[-106.48128,40.38943],[-106.47708,40.39972],[-106.47825,40.40481],[-106.48984,40.41158],[-106.4949,40.40688],[-106.49578,40.40358],[-106.50098,40.4026],[-106.51048,40.39339],[-106.5103,40.38928],[-106.5123,40.38675],[-106.5189,40.39102],[-106.52041,40.38846],[-106.52528,40.38581],[-106.52972,40.36911],[-106.53492,40.36508],[-106.53903,40.37095],[-106.54372,40.37206],[-106.55292,40.36986],[-106.55529,40.37204],[-106.55668,40.37728],[-106.5593,40.37808],[-106.57655,40.37856],[-106.58542,40.38226],[-106.59105,40.38058],[-106.59462,40.38318],[-106.59652,40.37885],[-106.60105,40.3758],[-106.60373,40.37833],[-106.61232,40.37938],[-106.61198,40.38683],[-106.61764,40.3932],[-106.61952,40.40524],[-106.62915,40.41892],[-106.62652,40.42696],[-106.62217,40.42976],[-106.62349,40.43173],[-106.6386,40.43224],[-106.65034,40.43978],[-106.65211,40.44523],[-106.65274,40.38897]]]}},{"type":"Feature","id":"CO:50:08097","properties":{"destinationId":"50","locality":"Aspen","definition":"Pitkin","state":"CO","stateName":"Colorado","county":"Pitkin County","countyGeoid":"08097","countyGeoids":["08097"],"coverage":"complete-counties","sourceType":"gsa_county_defined_rate_area"},"geometry":{"type":"Polygon","coordinates":[[[-107.46596,39.32212],[-107.46324,39.31685],[-107.46519,39.31452],[-107.45694,39.30924],[-107.45646,39.30693],[-107.44966,39.30456],[-107.44528,39.30852],[-107.4388,39.30902],[-107.43766,39.30668],[-107.43973,39.30249],[-107.43748,39.29956],[-107.42117,39.29686],[-107.41297,39.292],[-107.40856,39.2941],[-107.40384,39.29279],[-107.39851,39.29511],[-107.39696,39.29447],[-107.39768,39.29182],[-107.39615,39.28951],[-107.39696,39.28356],[-107.39396,39.28159],[-107.39422,39.27981],[-107.37838,39.2748],[-107.37748,39.27221],[-107.37918,39.2691],[-107.39146,39.26388],[-107.39142,39.26059],[-107.39449,39.2563],[-107.39219,39.25501],[-107.39042,39.25059],[-107.38639,39.2503],[-107.38443,39.24804],[-107.37609,39.24575],[-107.37584,39.24289],[-107.37152,39.23925],[-107.37573,39.237],[-107.37924,39.23134],[-107.37684,39.22036],[-107.38062,39.21023],[-107.37709,39.20413],[-107.37721,39.19965],[-107.3669,39.19204],[-107.36353,39.18632],[-107.35986,39.18491],[-107.35343,39.17304],[-107.34283,39.16845],[-107.33708,39.16907],[-107.33414,39.16644],[-107.31874,39.16531],[-107.30764,39.15713],[-107.30354,39.1556],[-107.3004,39.15658],[-107.29628,39.15433],[-107.29384,39.14471],[-107.28656,39.13692],[-107.28358,39.12829],[-107.28537,39.12499],[-107.28273,39.12405],[-107.28249,39.11872],[-107.06632,39.1188],[-107.06019,39.11196],[-107.05323,39.11057],[-107.04859,39.10428],[-107.03633,39.09493],[-107.01956,39.08937],[-107.01249,39.08438],[-107.00539,39.07572],[-106.99696,39.06935],[-106.98897,39.07071],[-106.9864,39.06247],[-106.99085,39.06004],[-106.98976,39.05198],[-106.99684,39.04934],[-106.99967,39.04277],[-107.00162,39.04227],[-106.99614,39.03417],[-106.98801,39.0308],[-106.97953,39.03076],[-106.97378,39.02888],[-106.96734,39.03085],[-106.96431,39.02958],[-106.9647,39.01754],[-106.95811,39.01551],[-106.95098,39.0166],[-106.94464,39.01443],[-106.93506,39.00608],[-106.92839,39.00456],[-106.91788,38.99918],[-106.91007,38.99999],[-106.90763,38.99509],[-106.9082,38.99258],[-106.90033,38.99249],[-106.89313,38.98952],[-106.8912,38.99102],[-106.88435,38.99041],[-106.87804,38.99428],[-106.87663,38.99999],[-106.87867,39.00286],[-106.87809,39.00591],[-106.86775,39.00686],[-106.86085,39.00929],[-106.85694,38.99999],[-106.8469,38.98701],[-106.83592,38.98358],[-106.83427,38.98084],[-106.82725,38.97772],[-106.81693,38.98138],[-106.81068,38.97868],[-106.80187,38.9783],[-106.79969,38.97965],[-106.79979,38.98225],[-106.79659,38.98417],[-106.78765,38.98433],[-106.78399,38.98692],[-106.78221,38.99074],[-106.78372,38.99581],[-106.78251,38.99927],[-106.77812,39.00128],[-106.77501,39.00612],[-106.76859,39.00817],[-106.76818,39.01023],[-106.7616,39.01618],[-106.7619,39.0193],[-106.75737,39.01971],[-106.75134,39.02579],[-106.74512,39.02692],[-106.74718,39.04002],[-106.74936,39.04253],[-106.74214,39.044],[-106.7407,39.04591],[-106.73461,39.04492],[-106.7295,39.04648],[-106.72266,39.04516],[-106.71722,39.0483],[-106.71032,39.04757],[-106.70785,39.05346],[-106.70304,39.05592],[-106.693,39.05506],[-106.68531,39.04538],[-106.67405,39.04581],[-106.6641,39.04185],[-106.65549,39.04442],[-106.64685,39.03328],[-106.64653,39.03085],[-106.64988,39.02736],[-106.64839,39.02215],[-106.63833,39.01922],[-106.63789,39.0147],[-106.63324,39.0121],[-106.63004,39.01221],[-106.62417,39.00364],[-106.61755,39.00174],[-106.61396,38.99889],[-106.6135,38.99632],[-106.6116,38.99543],[-106.59921,38.99799],[-106.59446,39.00418],[-106.59492,39.02081],[-106.59169,39.02492],[-106.59438,39.02996],[-106.59952,39.03379],[-106.59723,39.04482],[-106.58424,39.04719],[-106.58073,39.04872],[-106.57755,39.05321],[-106.57759,39.07276],[-106.57952,39.07557],[-106.57708,39.07944],[-106.58492,39.08483],[-106.58634,39.08774],[-106.58616,39.09405],[-106.58031,39.10216],[-106.56399,39.10604],[-106.56499,39.11401],[-106.55817,39.12022],[-106.56041,39.12845],[-106.56457,39.13242],[-106.56054,39.13782],[-106.55868,39.14385],[-106.56263,39.15195],[-106.56126,39.15568],[-106.55719,39.15671],[-106.55168,39.16146],[-106.53853,39.15789],[-106.53452,39.16313],[-106.52116,39.15733],[-106.51108,39.16353],[-106.50861,39.16668],[-106.51,39.17465],[-106.49961,39.18385],[-106.49832,39.19201],[-106.49365,39.19833],[-106.49495,39.20854],[-106.49294,39.21586],[-106.49387,39.21873],[-106.49126,39.22279],[-106.49226,39.2252],[-106.48975,39.22772],[-106.49874,39.23493],[-106.49735,39.24273],[-106.4891,39.24854],[-106.48615,39.25391],[-106.48309,39.25525],[-106.48298,39.25802],[-106.48106,39.25989],[-106.48407,39.2654],[-106.48329,39.27267],[-106.48983,39.27314],[-106.49323,39.27763],[-106.49854,39.27932],[-106.50403,39.28476],[-106.50269,39.29807],[-106.4999,39.30148],[-106.49252,39.304],[-106.49185,39.30662],[-106.48743,39.30897],[-106.48512,39.31257],[-106.47622,39.31475],[-106.4762,39.3125],[-106.47288,39.30842],[-106.46827,39.30732],[-106.46613,39.3113],[-106.45908,39.31304],[-106.45422,39.31226],[-106.45065,39.3167],[-106.44254,39.31529],[-106.43977,39.31732],[-106.43208,39.3167],[-106.42695,39.32336],[-106.4287,39.32818],[-106.42868,39.3354],[-106.43355,39.33749],[-106.4351,39.34728],[-106.43348,39.35417],[-106.42649,39.36187],[-106.74014,39.3622],[-107.01993,39.36613],[-107.43095,39.36618],[-107.42846,39.36248],[-107.43051,39.34822],[-107.43676,39.34639],[-107.43887,39.34328],[-107.43854,39.34102],[-107.45,39.33266],[-107.45082,39.33003],[-107.46253,39.32722],[-107.46596,39.32212]]]}},{"type":"Feature","id":"CO:52:08013","properties":{"destinationId":"52","locality":"Boulder / Broomfield","definition":"Boulder / Broomfield","state":"CO","stateName":"Colorado","county":"Boulder County","countyGeoid":"08013","countyGeoids":["08013","08014"],"coverage":"complete-counties","sourceType":"gsa_county_defined_rate_area"},"geometry":{"type":"MultiPolygon","coordinates":[[[[-105.08257,39.95928],[-105.08005,39.95793],[-105.05289,39.95783],[-105.05283,39.96589],[-105.05775,39.96864],[-105.05847,39.97434],[-105.06508,39.97155],[-105.08257,39.95928]]],[[[-105.69366,39.95115],[-105.69436,39.94968],[-105.6918,39.94624],[-105.69359,39.94188],[-105.68294,39.93379],[-105.6758,39.93244],[-105.45565,39.93229],[-105.448,39.93649],[-105.44003,39.93839],[-105.43083,39.93176],[-105.42206,39.93163],[-105.41911,39.92882],[-105.41397,39.93441],[-105.40604,39.93174],[-105.40084,39.93503],[-105.39797,39.93487],[-105.39785,39.91289],[-105.14714,39.91389],[-105.14704,39.92894],[-105.1376,39.92893],[-105.13758,39.93971],[-105.12816,39.93962],[-105.128,39.95417],[-105.12194,39.95416],[-105.12126,39.95239],[-105.10952,39.957],[-105.12084,39.95129],[-105.10933,39.95064],[-105.10935,39.94334],[-105.11856,39.94321],[-105.11866,39.93297],[-105.10941,39.92548],[-105.11342,39.93186],[-105.10924,39.93614],[-105.09085,39.93605],[-105.09107,39.94328],[-105.07664,39.94333],[-105.07657,39.95054],[-105.0719,39.9502],[-105.072,39.95767],[-105.08861,39.95803],[-105.08726,39.95998],[-105.08002,39.96145],[-105.06806,39.97093],[-105.0528,39.97767],[-105.05282,40.00026],[-105.05552,40.00025],[-105.05557,40.00566],[-105.05509,40.26179],[-105.21262,40.26118],[-105.28922,40.26278],[-105.37523,40.26129],[-105.391,40.25788],[-105.53535,40.26128],[-105.65332,40.26046],[-105.6512,40.25425],[-105.64426,40.24979],[-105.66001,40.24883],[-105.6602,40.24518],[-105.66544,40.23727],[-105.66438,40.23321],[-105.66844,40.22814],[-105.66892,40.22372],[-105.66346,40.21993],[-105.66946,40.22004],[-105.67126,40.21708],[-105.67056,40.2078],[-105.67764,40.20233],[-105.6764,40.1995],[-105.67755,40.18851],[-105.67547,40.18639],[-105.67063,40.18539],[-105.67179,40.18003],[-105.66828,40.17691],[-105.66973,40.17426],[-105.66692,40.16989],[-105.67134,40.1665],[-105.67058,40.16269],[-105.66754,40.16119],[-105.66773,40.15828],[-105.66134,40.15652],[-105.656,40.15128],[-105.64729,40.15097],[-105.64734,40.14921],[-105.64481,40.14808],[-105.63566,40.14601],[-105.63547,40.14042],[-105.63016,40.1381],[-105.62998,40.13043],[-105.62609,40.12735],[-105.62878,40.12351],[-105.62657,40.11865],[-105.62912,40.11704],[-105.62997,40.11416],[-105.63465,40.11323],[-105.63668,40.10699],[-105.63661,40.10254],[-105.63202,40.09719],[-105.63454,40.09548],[-105.63376,40.08838],[-105.636,40.08455],[-105.63425,40.08151],[-105.63262,40.08145],[-105.63457,40.07997],[-105.63543,40.07495],[-105.64112,40.073],[-105.63887,40.06703],[-105.64181,40.06787],[-105.64669,40.06522],[-105.65106,40.05844],[-105.6451,40.05067],[-105.63741,40.04551],[-105.6412,40.03417],[-105.64394,40.0333],[-105.65279,40.02377],[-105.65191,40.0209],[-105.66019,40.01835],[-105.66161,40.01647],[-105.67014,40.01688],[-105.68043,40.01402],[-105.68783,40.01598],[-105.68982,40.01511],[-105.69002,40.00932],[-105.68847,40.00695],[-105.69105,40.00376],[-105.69059,39.99628],[-105.68321,39.99465],[-105.68748,39.98542],[-105.68513,39.9831],[-105.68494,39.97933],[-105.68841,39.97543],[-105.69032,39.96977],[-105.68883,39.96776],[-105.68818,39.95966],[-105.68511,39.95874],[-105.68838,39.95653],[-105.6894,39.95351],[-105.69366,39.95115]],[[-105.10918,39.95657],[-105.09996,39.95898],[-105.09996,39.95786],[-105.09102,39.95778],[-105.10918,39.95657]]]]}},{"type":"Feature","id":"CO:52:08014","properties":{"destinationId":"52","locality":"Boulder / Broomfield","definition":"Boulder / Broomfield","state":"CO","stateName":"Colorado","county":"Broomfield County","countyGeoid":"08014","countyGeoids":["08013","08014"],"coverage":"complete-counties","sourceType":"gsa_county_defined_rate_area"},"geometry":{"type":"MultiPolygon","coordinates":[[[[-105.10667,39.95783],[-105.10918,39.95657],[-105.09102,39.95778],[-105.09996,39.95786],[-105.09996,39.95898],[-105.10667,39.95783]]],[[[-105.16569,39.9105],[-105.16556,39.89099],[-105.13485,39.88929],[-105.13714,39.89083],[-105.13631,39.89202],[-105.13088,39.8927],[-105.1289,39.89035],[-105.12868,39.89998],[-105.1474,39.90009],[-105.14712,39.91389],[-105.10861,39.91414],[-105.10695,39.91173],[-105.10064,39.90864],[-105.1001,39.90221],[-105.09669,39.89979],[-105.08428,39.89896],[-105.07169,39.89983],[-105.07178,39.90702],[-105.06239,39.90702],[-105.06238,39.91399],[-105.05529,39.91243],[-105.05532,39.91372],[-105.05297,39.91422],[-105.03435,39.91418],[-105.0344,39.92137],[-105.02355,39.92132],[-105.02354,39.91922],[-105.02154,39.91921],[-105.02154,39.92136],[-105.01547,39.92131],[-105.01566,39.94313],[-104.99702,39.94324],[-104.99706,39.94677],[-105.00626,39.9468],[-105.0063,39.95044],[-105.01253,39.95034],[-105.01684,39.95312],[-105.01556,39.95519],[-105.01569,39.97044],[-105.01342,39.97045],[-105.01341,39.97226],[-105.01572,39.97228],[-105.01584,39.98119],[-104.99742,39.98121],[-104.9974,39.97842],[-104.99948,39.97842],[-104.99738,39.97578],[-104.99712,39.96853],[-104.98816,39.96847],[-104.98811,39.97218],[-104.99706,39.97215],[-104.99708,39.97395],[-104.99438,39.97395],[-104.99441,39.9758],[-104.98811,39.97575],[-104.98759,39.98706],[-104.98094,40.00032],[-104.9614,40.00034],[-104.96116,40.04414],[-104.97924,40.04376],[-104.98005,40.02941],[-104.9865,40.02931],[-104.98654,40.0258],[-104.99901,40.02578],[-104.999,40.02351],[-104.99674,40.02351],[-104.99618,40.01943],[-104.99906,40.01489],[-104.98961,40.01489],[-104.98965,40.00768],[-105.008,40.00758],[-105.00791,40.00048],[-105.05282,40.00026],[-105.0528,39.97767],[-105.06806,39.97093],[-105.08002,39.96145],[-105.08869,39.95842],[-105.072,39.95767],[-105.0719,39.9502],[-105.07657,39.95054],[-105.07664,39.94333],[-105.09107,39.94328],[-105.09085,39.93605],[-105.10924,39.93614],[-105.11342,39.93186],[-105.10941,39.92548],[-105.11866,39.93297],[-105.11856,39.94321],[-105.10935,39.94334],[-105.10933,39.95064],[-105.12084,39.95129],[-105.10952,39.957],[-105.12126,39.95239],[-105.12194,39.95416],[-105.128,39.95417],[-105.12816,39.93962],[-105.13758,39.93971],[-105.1376,39.92893],[-105.14704,39.92894],[-105.14714,39.91389],[-105.16569,39.9105]],[[-105.08005,39.95793],[-105.08257,39.95928],[-105.06508,39.97155],[-105.05847,39.97434],[-105.05775,39.96864],[-105.05283,39.96589],[-105.05289,39.95783],[-105.08005,39.95793]],[[-104.97992,40.02949],[-104.97989,40.03305],[-104.97305,40.03304],[-104.97307,40.02951],[-104.97992,40.02949]]]]}},{"type":"Feature","id":"CO:53:08041","properties":{"destinationId":"53","locality":"Colorado Springs","definition":"El Paso","state":"CO","stateName":"Colorado","county":"El Paso County","countyGeoid":"08041","countyGeoids":["08041"],"coverage":"complete-counties","sourceType":"gsa_county_defined_rate_area"},"geometry":{"type":"Polygon","coordinates":[[[-105.07253,38.8084],[-105.07218,38.79938],[-105.01555,38.79782],[-104.94878,38.79856],[-104.93987,38.79654],[-104.93896,38.71052],[-104.93972,38.69632],[-104.94223,38.69627],[-104.94153,38.51957],[-104.05426,38.52239],[-104.05334,38.68164],[-104.05298,38.69434],[-104.05194,38.69435],[-104.05553,38.86887],[-104.05312,38.95402],[-104.05157,39.12814],[-105.03347,39.12978],[-105.02714,39.02895],[-105.02994,38.99963],[-105.0273,38.98537],[-105.02863,38.86873],[-105.06644,38.86918],[-105.07253,38.8084]]]}},{"type":"Feature","id":"CO:54:08083","properties":{"destinationId":"54","locality":"Cortez","definition":"Montezuma","state":"CO","stateName":"Colorado","county":"Montezuma County","countyGeoid":"08083","countyGeoids":["08083"],"coverage":"complete-counties","sourceType":"gsa_county_defined_rate_area"},"geometry":{"type":"Polygon","coordinates":[[[-109.0459,37.32686],[-109.04522,36.99908],[-108.3793,36.99946],[-108.38107,37.00147],[-108.37643,37.00662],[-108.37668,37.01184],[-108.37178,37.02124],[-108.37334,37.02469],[-108.37232,37.02848],[-108.35539,37.02559],[-108.35644,37.02843],[-108.35286,37.03329],[-108.35512,37.03557],[-108.35439,37.03881],[-108.35071,37.0407],[-108.347,37.04777],[-108.33479,37.05422],[-108.33472,37.05982],[-108.33339,37.0608],[-108.33431,37.06456],[-108.33318,37.06744],[-108.32827,37.06912],[-108.32773,37.07125],[-108.33017,37.07459],[-108.3257,37.07616],[-108.32675,37.07916],[-108.32411,37.08135],[-108.32509,37.08338],[-108.32242,37.08876],[-108.32106,37.0971],[-108.31734,37.09754],[-108.31609,37.10297],[-108.31013,37.1054],[-108.31117,37.10984],[-108.30984,37.11281],[-108.3118,37.11682],[-108.30962,37.11984],[-108.31112,37.12313],[-108.30966,37.12497],[-108.31033,37.12935],[-108.29423,37.14445],[-108.29046,37.14598],[-108.29017,37.1542],[-108.29607,37.15842],[-108.29404,37.16476],[-108.29742,37.17116],[-108.29462,37.18019],[-108.29572,37.19007],[-108.2929,37.19432],[-108.29263,37.19832],[-108.29288,37.20246],[-108.29747,37.20843],[-108.29728,37.21323],[-108.29042,37.22358],[-108.28628,37.22479],[-108.28168,37.22856],[-108.27884,37.22724],[-108.27079,37.22921],[-108.26754,37.23309],[-108.26145,37.23503],[-108.26008,37.2393],[-108.25767,37.24035],[-108.25597,37.2437],[-108.25064,37.24631],[-108.24946,37.24974],[-108.24731,37.24989],[-108.2466,37.25493],[-108.24246,37.26143],[-108.23859,37.26267],[-108.23484,37.27477],[-108.22731,37.27817],[-108.22803,37.28195],[-108.22517,37.28666],[-108.21969,37.28742],[-108.21799,37.29725],[-108.21377,37.29812],[-108.2125,37.30015],[-108.21308,37.3033],[-108.21649,37.30623],[-108.21648,37.31162],[-108.21362,37.31316],[-108.21048,37.32174],[-108.20305,37.32679],[-108.20778,37.33453],[-108.20484,37.34408],[-108.19824,37.3515],[-108.19778,37.35494],[-108.19043,37.36015],[-108.17303,37.36639],[-108.16659,37.36517],[-108.1643,37.36234],[-108.15811,37.36389],[-108.15247,37.36259],[-108.14704,37.36538],[-108.14048,37.37282],[-108.13235,37.37468],[-108.12048,37.37472],[-108.11362,37.38035],[-108.10586,37.38207],[-108.10565,37.38912],[-108.10756,37.39432],[-108.10534,37.40557],[-108.09955,37.41263],[-108.09815,37.41706],[-108.08951,37.42122],[-108.08729,37.42777],[-108.08004,37.42919],[-108.08105,37.43241],[-108.07804,37.43888],[-108.05303,37.43752],[-108.04844,37.44256],[-108.0445,37.4427],[-108.0424,37.44835],[-108.03826,37.45245],[-108.03881,37.45653],[-108.03469,37.46075],[-108.03315,37.46494],[-108.03639,37.47118],[-108.03264,37.47891],[-108.03389,37.48475],[-108.03655,37.48776],[-108.0346,37.49717],[-108.03793,37.50319],[-108.03408,37.50841],[-108.03153,37.50931],[-108.03452,37.51314],[-108.03214,37.51805],[-108.03464,37.52323],[-108.03474,37.5325],[-108.02544,37.53972],[-108.02025,37.55378],[-108.0197,37.55852],[-108.02175,37.56282],[-108.01828,37.56714],[-108.02085,37.57144],[-108.01951,37.57403],[-108.01971,37.58495],[-108.02301,37.591],[-108.01664,37.59247],[-108.01689,37.5954],[-108.01394,37.59647],[-108.01553,37.60085],[-108.0143,37.60359],[-108.00484,37.60605],[-108.00075,37.61118],[-108.0002,37.61432],[-107.99315,37.61586],[-107.98722,37.625],[-107.97988,37.62888],[-107.9721,37.63022],[-107.97009,37.63959],[-108.108,37.63875],[-108.16114,37.63526],[-108.40829,37.63189],[-108.66606,37.6332],[-108.66606,37.63158],[-108.91708,37.6319],[-109.02494,37.50454],[-109.04346,37.48482],[-109.0459,37.32686]]]}},{"type":"Feature","id":"CO:55:08051","properties":{"destinationId":"55","locality":"Crested Butte / Gunnison","definition":"Gunnison","state":"CO","stateName":"Colorado","county":"Gunnison County","countyGeoid":"08051","countyGeoids":["08051"],"coverage":"complete-counties","sourceType":"gsa_county_defined_rate_area"},"geometry":{"type":"Polygon","coordinates":[[[-107.63504,38.3019],[-107.62962,38.29416],[-107.62924,38.28786],[-107.62656,38.28597],[-107.62448,38.27971],[-107.61994,38.27527],[-107.61714,38.27545],[-107.61272,38.26216],[-107.60016,38.2539],[-107.5907,38.25205],[-107.58665,38.24303],[-107.58748,38.24023],[-107.58268,38.2346],[-107.58191,38.2309],[-107.58024,38.23082],[-107.57902,38.22266],[-107.58087,38.21809],[-107.58078,38.21246],[-107.57558,38.2098],[-107.57584,38.20273],[-107.57261,38.19406],[-107.57234,38.18744],[-107.57026,38.18135],[-107.56801,38.18081],[-107.56657,38.17664],[-107.56799,38.17147],[-107.56429,38.16666],[-107.56229,38.1579],[-107.56473,38.14982],[-107.56862,38.14727],[-107.00112,38.14707],[-107.0006,38.42562],[-106.24694,38.42277],[-106.24948,38.43324],[-106.24553,38.4389],[-106.26133,38.44236],[-106.26607,38.44174],[-106.27412,38.44689],[-106.27225,38.44878],[-106.27266,38.4552],[-106.28061,38.45434],[-106.28893,38.46196],[-106.29054,38.47353],[-106.30449,38.47835],[-106.30412,38.48005],[-106.3093,38.48796],[-106.31138,38.49465],[-106.31832,38.49515],[-106.32011,38.49769],[-106.32723,38.49759],[-106.33098,38.4939],[-106.33631,38.49665],[-106.33876,38.50057],[-106.34423,38.50459],[-106.34811,38.5125],[-106.3437,38.51746],[-106.3426,38.52154],[-106.34713,38.52876],[-106.35418,38.53338],[-106.35371,38.53922],[-106.35539,38.54237],[-106.35353,38.54997],[-106.34664,38.55886],[-106.34687,38.5651],[-106.34462,38.56856],[-106.35167,38.5769],[-106.35342,38.58147],[-106.3513,38.58349],[-106.36102,38.59449],[-106.35932,38.59939],[-106.3647,38.60589],[-106.36384,38.61362],[-106.36913,38.61868],[-106.37558,38.62122],[-106.37915,38.62012],[-106.38537,38.625],[-106.38517,38.63236],[-106.3799,38.63848],[-106.38579,38.63863],[-106.39016,38.64103],[-106.40119,38.6397],[-106.40172,38.64578],[-106.40794,38.64768],[-106.41722,38.64492],[-106.42954,38.65124],[-106.42909,38.65762],[-106.43221,38.66792],[-106.43591,38.67115],[-106.43807,38.67663],[-106.43786,38.6825],[-106.44018,38.68687],[-106.44596,38.68899],[-106.45187,38.69834],[-106.45014,38.70266],[-106.44553,38.70553],[-106.44349,38.70923],[-106.43166,38.70871],[-106.42528,38.71031],[-106.42322,38.71617],[-106.42347,38.72085],[-106.41666,38.72781],[-106.41675,38.73376],[-106.42005,38.7388],[-106.41801,38.74203],[-106.4184,38.74915],[-106.41995,38.75153],[-106.4151,38.7571],[-106.41714,38.76444],[-106.41926,38.766],[-106.4155,38.77244],[-106.41382,38.77909],[-106.41659,38.78762],[-106.41287,38.79091],[-106.41459,38.79914],[-106.41791,38.80069],[-106.42273,38.80838],[-106.41504,38.81528],[-106.41626,38.82385],[-106.40699,38.82933],[-106.39502,38.82239],[-106.38359,38.8248],[-106.38175,38.83286],[-106.37882,38.83613],[-106.3702,38.83872],[-106.36446,38.84642],[-106.36481,38.85308],[-106.35689,38.85532],[-106.34926,38.8552],[-106.34894,38.86511],[-106.33585,38.87229],[-106.33678,38.87499],[-106.33406,38.88131],[-106.3275,38.8823],[-106.3267,38.88732],[-106.32131,38.8926],[-106.32056,38.89471],[-106.32472,38.90293],[-106.3261,38.911],[-106.33498,38.91167],[-106.33813,38.90872],[-106.34524,38.90707],[-106.35707,38.91294],[-106.36154,38.91234],[-106.36577,38.90987],[-106.36748,38.90692],[-106.37344,38.90661],[-106.37622,38.90954],[-106.37698,38.92267],[-106.38084,38.92568],[-106.39234,38.91877],[-106.39396,38.91225],[-106.40212,38.91062],[-106.41563,38.91853],[-106.41823,38.92663],[-106.42183,38.92807],[-106.43026,38.92491],[-106.43718,38.91491],[-106.44215,38.91557],[-106.45381,38.91275],[-106.45781,38.91008],[-106.46194,38.9113],[-106.46503,38.91035],[-106.47221,38.91593],[-106.4809,38.91864],[-106.48994,38.92632],[-106.49071,38.92968],[-106.50437,38.93685],[-106.50531,38.9444],[-106.50716,38.94609],[-106.51574,38.94866],[-106.51988,38.95397],[-106.52668,38.95541],[-106.52851,38.95988],[-106.52186,38.96867],[-106.52442,38.97109],[-106.52839,38.98073],[-106.53605,38.98349],[-106.54676,38.99108],[-106.55016,38.99154],[-106.55453,38.99876],[-106.56043,38.99823],[-106.56613,38.99379],[-106.57472,38.99282],[-106.57716,38.99044],[-106.5868,38.99269],[-106.59551,38.99128],[-106.59921,38.99799],[-106.6116,38.99543],[-106.61755,39.00174],[-106.62417,39.00364],[-106.63004,39.01221],[-106.63324,39.0121],[-106.63789,39.0147],[-106.63833,39.01922],[-106.64839,39.02215],[-106.64988,39.02736],[-106.64653,39.03085],[-106.64685,39.03328],[-106.65549,39.04442],[-106.6641,39.04185],[-106.67405,39.04581],[-106.68531,39.04538],[-106.68615,39.0479],[-106.69497,39.05567],[-106.70304,39.05592],[-106.70785,39.05346],[-106.71032,39.04757],[-106.71722,39.0483],[-106.72266,39.04516],[-106.7295,39.04648],[-106.73461,39.04492],[-106.7407,39.04591],[-106.74214,39.044],[-106.74936,39.04253],[-106.74718,39.04002],[-106.74512,39.02692],[-106.75134,39.02579],[-106.75737,39.01971],[-106.7619,39.0193],[-106.7616,39.01618],[-106.76818,39.01023],[-106.76859,39.00817],[-106.77501,39.00612],[-106.77812,39.00128],[-106.78251,38.99927],[-106.78372,38.99581],[-106.78221,38.99074],[-106.78399,38.98692],[-106.78765,38.98433],[-106.79659,38.98417],[-106.79979,38.98225],[-106.79969,38.97965],[-106.80187,38.9783],[-106.81068,38.97868],[-106.81693,38.98138],[-106.82725,38.97772],[-106.83427,38.98084],[-106.83592,38.98358],[-106.8469,38.98701],[-106.85694,38.99999],[-106.86085,39.00929],[-106.86775,39.00686],[-106.87809,39.00591],[-106.87867,39.00286],[-106.87663,38.99999],[-106.87804,38.99428],[-106.88435,38.99041],[-106.8912,38.99102],[-106.89313,38.98952],[-106.90033,38.99249],[-106.9082,38.99258],[-106.90763,38.99509],[-106.91007,38.99999],[-106.91788,38.99918],[-106.92839,39.00456],[-106.93506,39.00608],[-106.94464,39.01443],[-106.95098,39.0166],[-106.95811,39.01551],[-106.9647,39.01754],[-106.96431,39.02958],[-106.96734,39.03085],[-106.97378,39.02888],[-106.97953,39.03076],[-106.98801,39.0308],[-106.99614,39.03417],[-107.00162,39.04227],[-106.99967,39.04277],[-106.99684,39.04934],[-106.98976,39.05198],[-106.99085,39.06004],[-106.9864,39.06247],[-106.98897,39.07071],[-106.99696,39.06935],[-107.00539,39.07572],[-107.01249,39.08438],[-107.01956,39.08937],[-107.03633,39.09493],[-107.04859,39.10428],[-107.05323,39.11057],[-107.06019,39.11196],[-107.06632,39.1188],[-107.28249,39.11872],[-107.28273,39.12405],[-107.28537,39.12499],[-107.28358,39.12829],[-107.28656,39.13692],[-107.29384,39.14471],[-107.29628,39.15433],[-107.3004,39.15658],[-107.30354,39.1556],[-107.30764,39.15713],[-107.31874,39.16531],[-107.33414,39.16644],[-107.33708,39.16907],[-107.34283,39.16845],[-107.35343,39.17304],[-107.35986,39.18491],[-107.36353,39.18632],[-107.3669,39.19204],[-107.37721,39.19965],[-107.37709,39.20413],[-107.38062,39.21023],[-107.37684,39.22036],[-107.37924,39.23134],[-107.37573,39.237],[-107.37152,39.23925],[-107.37584,39.24289],[-107.37609,39.24575],[-107.38443,39.24804],[-107.38639,39.2503],[-107.39042,39.25059],[-107.39219,39.25501],[-107.39449,39.2563],[-107.4003,39.25295],[-107.42807,39.2576],[-107.43052,39.2565],[-107.42973,39.24101],[-107.44284,39.23647],[-107.45108,39.23067],[-107.46042,39.23028],[-107.46349,39.22841],[-107.4747,39.22905],[-107.47744,39.23046],[-107.47874,39.23355],[-107.48439,39.23522],[-107.48775,39.22561],[-107.49497,39.21822],[-107.50061,39.21792],[-107.50002,38.30193],[-107.63504,38.3019]]]}},{"type":"Feature","id":"CO:56:08001","properties":{"destinationId":"56","locality":"Denver / Aurora","definition":"Denver / Adams / Arapahoe / Jefferson","state":"CO","stateName":"Colorado","county":"Adams County","countyGeoid":"08001","countyGeoids":["08001","08005","08031","08059"],"coverage":"complete-counties","sourceType":"gsa_county_defined_rate_area"},"geometry":{"type":"Polygon","coordinates":[[[-105.05329,39.85676],[-105.05325,39.79106],[-105.02526,39.79111],[-105.02515,39.794],[-105.02184,39.79446],[-105.02054,39.79109],[-104.97595,39.79104],[-104.97595,39.79242],[-104.97306,39.79242],[-104.97467,39.79561],[-104.97116,39.79557],[-104.97164,39.79829],[-104.96872,39.7984],[-104.96877,39.79321],[-104.96752,39.79327],[-104.96886,39.79104],[-104.96019,39.79102],[-104.95544,39.79463],[-104.94048,39.7946],[-104.93988,39.79099],[-104.92703,39.79105],[-104.927,39.78378],[-104.90344,39.78389],[-104.90356,39.79839],[-104.89907,39.8002],[-104.89907,39.79837],[-104.88447,39.79832],[-104.8844,39.81282],[-104.86607,39.81285],[-104.86604,39.79839],[-104.7909,39.79825],[-104.79086,39.8418],[-104.76232,39.84179],[-104.76228,39.84539],[-104.73095,39.84519],[-104.73039,39.89613],[-104.70331,39.89595],[-104.70318,39.90693],[-104.69214,39.90685],[-104.69205,39.91418],[-104.67958,39.91402],[-104.67966,39.90701],[-104.63094,39.90664],[-104.63094,39.89929],[-104.59958,39.89904],[-104.59981,39.88131],[-104.60515,39.88135],[-104.60526,39.87311],[-104.61915,39.87322],[-104.6198,39.82242],[-104.65539,39.82261],[-104.65544,39.813],[-104.66618,39.81308],[-104.66606,39.82279],[-104.76246,39.82344],[-104.76261,39.79843],[-104.7344,39.79844],[-104.73475,39.76921],[-104.76457,39.76919],[-104.76456,39.77157],[-104.77217,39.7715],[-104.77216,39.77641],[-104.78156,39.77648],[-104.78158,39.7728],[-104.82816,39.77237],[-104.82832,39.76916],[-104.83301,39.76918],[-104.83297,39.76639],[-104.85639,39.76858],[-104.85634,39.75813],[-104.84821,39.75642],[-104.84694,39.75469],[-104.8799,39.75465],[-104.88014,39.74743],[-104.88466,39.74747],[-104.88465,39.74016],[-104.73196,39.74082],[-104.39459,39.73804],[-103.9723,39.7404],[-103.70655,39.73989],[-103.7057,40.00137],[-104.98094,40.00032],[-104.98759,39.98706],[-104.98811,39.97575],[-104.99441,39.9758],[-104.99438,39.97395],[-104.99708,39.97395],[-104.99706,39.97215],[-104.98811,39.97218],[-104.98816,39.96847],[-104.99712,39.96853],[-104.99738,39.97578],[-104.99948,39.97842],[-104.9974,39.97842],[-104.99742,39.98121],[-105.01584,39.98119],[-105.01572,39.97228],[-105.01341,39.97226],[-105.01342,39.97045],[-105.01569,39.97044],[-105.01556,39.95519],[-105.01684,39.95312],[-105.01253,39.95034],[-105.0063,39.95044],[-105.00626,39.9468],[-104.99706,39.94677],[-104.99702,39.94324],[-105.01566,39.94313],[-105.01547,39.92131],[-105.02154,39.92136],[-105.02154,39.91921],[-105.02354,39.91922],[-105.02355,39.92132],[-105.0344,39.92137],[-105.03435,39.91418],[-105.05289,39.91422],[-105.05329,39.85676]]]}},{"type":"Feature","id":"CO:56:08005","properties":{"destinationId":"56","locality":"Denver / Aurora","definition":"Denver / Adams / Arapahoe / Jefferson","state":"CO","stateName":"Colorado","county":"Arapahoe County","countyGeoid":"08005","countyGeoids":["08001","08005","08031","08059"],"coverage":"complete-counties","sourceType":"gsa_county_defined_rate_area"},"geometry":{"type":"MultiPolygon","coordinates":[[[[-104.89879,39.6857],[-104.90267,39.68571],[-104.89878,39.6834],[-104.89879,39.6857]]],[[[-104.90405,39.62544],[-104.9029,39.62418],[-104.90379,39.62683],[-104.90405,39.62544]]],[[[-104.91103,39.68207],[-104.91104,39.67989],[-104.9082,39.68031],[-104.9082,39.68207],[-104.91103,39.68207]]],[[[-104.93024,39.67483],[-104.92643,39.66939],[-104.9207,39.66817],[-104.92058,39.66694],[-104.92222,39.66695],[-104.92102,39.66034],[-104.9159,39.65851],[-104.91657,39.65612],[-104.91298,39.65621],[-104.91297,39.66313],[-104.91594,39.66347],[-104.91756,39.67298],[-104.92575,39.67664],[-104.92572,39.67528],[-104.93024,39.67483]]],[[[-104.93388,39.67335],[-104.93388,39.67119],[-104.9317,39.67056],[-104.93162,39.66747],[-104.92926,39.66938],[-104.9272,39.66896],[-104.92965,39.67238],[-104.93388,39.67335]]],[[[-104.94074,39.70634],[-104.94073,39.69772],[-104.93854,39.69793],[-104.94062,39.6954],[-104.93621,39.69478],[-104.93646,39.69785],[-104.93587,39.6966],[-104.92818,39.69663],[-104.92878,39.70022],[-104.93414,39.70132],[-104.93402,39.70376],[-104.93171,39.70206],[-104.93154,39.70386],[-104.92699,39.70389],[-104.92696,39.7067],[-104.92959,39.70641],[-104.93165,39.7111],[-104.94068,39.71108],[-104.94074,39.70634]],[[-104.93408,39.69844],[-104.93414,39.70018],[-104.93171,39.70021],[-104.93165,39.6984],[-104.93408,39.69844]]],[[[-105.05417,39.56771],[-105.05414,39.56609],[-104.60484,39.56591],[-104.43954,39.56365],[-103.97864,39.56636],[-103.70707,39.56629],[-103.70655,39.73989],[-103.9723,39.7404],[-104.39459,39.73804],[-104.73196,39.74082],[-104.88465,39.74016],[-104.88514,39.73019],[-104.88661,39.72922],[-104.88193,39.72496],[-104.87533,39.72558],[-104.87495,39.71845],[-104.8706,39.71818],[-104.87062,39.71017],[-104.86597,39.71105],[-104.86597,39.70381],[-104.86862,39.70306],[-104.87066,39.69838],[-104.8683,39.69837],[-104.86831,39.70019],[-104.86596,39.69928],[-104.86596,39.69656],[-104.87531,39.6965],[-104.87532,39.69844],[-104.87773,39.69844],[-104.87772,39.69651],[-104.8991,39.6954],[-104.89976,39.69715],[-104.90354,39.69854],[-104.90012,39.69298],[-104.90351,39.69297],[-104.90351,39.68935],[-104.89881,39.68934],[-104.8988,39.69297],[-104.89409,39.69271],[-104.89406,39.68569],[-104.88933,39.68568],[-104.88931,39.68206],[-104.89405,39.68206],[-104.89453,39.67846],[-104.90344,39.6786],[-104.90344,39.68486],[-104.90522,39.68606],[-104.90459,39.68032],[-104.90809,39.67973],[-104.90358,39.67668],[-104.90351,39.66762],[-104.89433,39.66759],[-104.8902,39.66451],[-104.88835,39.66567],[-104.89,39.66758],[-104.88505,39.66749],[-104.87926,39.66393],[-104.87621,39.66393],[-104.87538,39.66865],[-104.87746,39.67207],[-104.87531,39.67206],[-104.87529,39.67477],[-104.87088,39.67476],[-104.86605,39.67085],[-104.86633,39.66031],[-104.85544,39.6608],[-104.84868,39.65922],[-104.8486,39.6571],[-104.8473,39.6571],[-104.87557,39.64499],[-104.87545,39.65147],[-104.877,39.65305],[-104.88014,39.65306],[-104.88033,39.64131],[-104.88512,39.63895],[-104.88526,39.62413],[-104.91341,39.62408],[-104.91323,39.63867],[-104.92246,39.64585],[-104.93187,39.64583],[-104.9317,39.65304],[-104.95498,39.65299],[-104.95379,39.65668],[-104.95948,39.65669],[-104.95944,39.66153],[-104.96878,39.66042],[-104.9688,39.66584],[-104.97349,39.66587],[-104.97349,39.66768],[-105.00036,39.66773],[-105.00358,39.66661],[-105.0044,39.66048],[-105.01094,39.66051],[-105.00636,39.6677],[-105.00636,39.67676],[-105.00864,39.67678],[-105.00866,39.67863],[-105.0157,39.67868],[-105.0158,39.66051],[-105.02298,39.6605],[-105.023,39.6568],[-105.03308,39.65695],[-105.03216,39.65328],[-105.03462,39.65328],[-105.03466,39.64371],[-105.02998,39.64225],[-105.03,39.63858],[-105.03471,39.63859],[-105.03476,39.63318],[-105.02536,39.63144],[-105.02542,39.62856],[-105.0368,39.62813],[-105.038,39.62684],[-105.04416,39.62804],[-105.04414,39.63146],[-105.05341,39.6315],[-105.05417,39.56771]]]]}},{"type":"Feature","id":"CO:56:08031","properties":{"destinationId":"56","locality":"Denver / Aurora","definition":"Denver / Adams / Arapahoe / Jefferson","state":"CO","stateName":"Colorado","county":"Denver County","countyGeoid":"08031","countyGeoids":["08001","08005","08031","08059"],"coverage":"complete-counties","sourceType":"gsa_county_defined_rate_area"},"geometry":{"type":"MultiPolygon","coordinates":[[[[-104.93414,39.70018],[-104.93408,39.69844],[-104.93165,39.6984],[-104.93171,39.70021],[-104.93414,39.70018]]],[[[-105.10988,39.6299],[-105.10992,39.62708],[-105.1075,39.62709],[-105.1075,39.62422],[-105.09126,39.6242],[-105.09116,39.62708],[-105.08563,39.62611],[-105.08558,39.62853],[-105.08173,39.62731],[-105.08181,39.63015],[-105.08374,39.63016],[-105.08371,39.63133],[-105.08095,39.63133],[-105.07452,39.62423],[-105.07612,39.62423],[-105.06613,39.62076],[-105.06514,39.61858],[-105.09703,39.61836],[-105.09701,39.61451],[-105.0914,39.61433],[-105.05823,39.61441],[-105.05724,39.62091],[-105.05352,39.62086],[-105.05348,39.62425],[-105.05581,39.62424],[-105.05346,39.62953],[-105.05954,39.63538],[-105.05904,39.63876],[-105.05334,39.63877],[-105.05341,39.6315],[-105.04414,39.63146],[-105.04416,39.62804],[-105.04281,39.62758],[-105.038,39.62684],[-105.0368,39.62813],[-105.02542,39.62856],[-105.02536,39.63144],[-105.03476,39.63318],[-105.03471,39.63859],[-105.03,39.63858],[-105.02998,39.64225],[-105.03466,39.64371],[-105.03462,39.65328],[-105.03216,39.65328],[-105.03308,39.65695],[-105.023,39.6568],[-105.02298,39.6605],[-105.0158,39.66051],[-105.0157,39.67868],[-105.00866,39.67863],[-105.00864,39.67678],[-105.00636,39.67676],[-105.00636,39.6677],[-105.01094,39.66051],[-105.0044,39.66048],[-105.00358,39.66661],[-105.00036,39.66773],[-104.97349,39.66768],[-104.97349,39.66587],[-104.9688,39.66584],[-104.96878,39.66042],[-104.95944,39.66153],[-104.95948,39.65669],[-104.95379,39.65668],[-104.95498,39.65299],[-104.9317,39.65304],[-104.93187,39.64583],[-104.92246,39.64585],[-104.91323,39.63867],[-104.91341,39.62408],[-104.88526,39.62413],[-104.88512,39.63895],[-104.88033,39.64131],[-104.88014,39.65306],[-104.877,39.65305],[-104.87545,39.65147],[-104.87557,39.64499],[-104.8473,39.6571],[-104.8486,39.6571],[-104.84868,39.65922],[-104.85544,39.6608],[-104.86633,39.66031],[-104.86605,39.67085],[-104.87088,39.67476],[-104.87529,39.67477],[-104.87531,39.67206],[-104.87746,39.67207],[-104.87538,39.66865],[-104.87621,39.66393],[-104.87926,39.66393],[-104.88505,39.66749],[-104.89,39.66758],[-104.88835,39.66567],[-104.8902,39.66451],[-104.89433,39.66759],[-104.90351,39.66762],[-104.90358,39.67668],[-104.90809,39.67973],[-104.90459,39.68032],[-104.90522,39.68606],[-104.90344,39.68486],[-104.90344,39.6786],[-104.89453,39.67846],[-104.89405,39.68206],[-104.88931,39.68206],[-104.88933,39.68568],[-104.89406,39.68569],[-104.89409,39.69271],[-104.8988,39.69297],[-104.89881,39.68934],[-104.90351,39.68935],[-104.90351,39.69297],[-104.90012,39.69298],[-104.90354,39.69854],[-104.89976,39.69715],[-104.8991,39.6954],[-104.87772,39.69651],[-104.87773,39.69844],[-104.87532,39.69844],[-104.87531,39.6965],[-104.86596,39.69656],[-104.86596,39.69928],[-104.86831,39.70019],[-104.8683,39.69837],[-104.87066,39.69838],[-104.86862,39.70306],[-104.86597,39.70381],[-104.86597,39.71105],[-104.87062,39.71017],[-104.8706,39.71818],[-104.87495,39.71845],[-104.87533,39.72558],[-104.88193,39.72496],[-104.88661,39.72922],[-104.88471,39.73285],[-104.88466,39.74747],[-104.88014,39.74743],[-104.8799,39.75465],[-104.84694,39.75469],[-104.84821,39.75642],[-104.85634,39.75813],[-104.85639,39.76858],[-104.83297,39.76639],[-104.83301,39.76918],[-104.82832,39.76916],[-104.82816,39.77237],[-104.78158,39.7728],[-104.78156,39.77648],[-104.77216,39.77641],[-104.77217,39.7715],[-104.76456,39.77157],[-104.76457,39.76919],[-104.73475,39.76921],[-104.7344,39.79844],[-104.76261,39.79843],[-104.76246,39.82344],[-104.66606,39.82279],[-104.66618,39.81308],[-104.65544,39.813],[-104.65539,39.82261],[-104.6198,39.82242],[-104.61915,39.87322],[-104.60526,39.87311],[-104.60515,39.88135],[-104.59981,39.88131],[-104.59958,39.89904],[-104.63094,39.89929],[-104.63094,39.90664],[-104.67966,39.90701],[-104.67958,39.91402],[-104.69205,39.91418],[-104.69214,39.90685],[-104.70318,39.90693],[-104.70331,39.89595],[-104.73039,39.89613],[-104.73095,39.84519],[-104.76228,39.84539],[-104.76232,39.84179],[-104.79086,39.8418],[-104.7909,39.79825],[-104.86604,39.79839],[-104.86607,39.81285],[-104.8844,39.81282],[-104.88447,39.79832],[-104.89907,39.79837],[-104.89907,39.8002],[-104.90356,39.79839],[-104.90344,39.78389],[-104.927,39.78378],[-104.92703,39.79105],[-104.93988,39.79099],[-104.94048,39.7946],[-104.95544,39.79463],[-104.96019,39.79102],[-104.96886,39.79104],[-104.96752,39.79327],[-104.96877,39.79321],[-104.96872,39.7984],[-104.97164,39.79829],[-104.97116,39.79557],[-104.97467,39.79561],[-104.97306,39.79242],[-104.97595,39.79242],[-104.97595,39.79104],[-105.02054,39.79109],[-105.02184,39.79446],[-105.02515,39.794],[-105.02526,39.79111],[-105.0644,39.79108],[-105.06499,39.78836],[-105.06265,39.78834],[-105.06266,39.78385],[-105.05318,39.7838],[-105.05323,39.73492],[-105.05559,39.73451],[-105.05554,39.7331],[-105.05323,39.73311],[-105.05322,39.68229],[-105.0578,39.68227],[-105.05779,39.6787],[-105.06034,39.67795],[-105.06262,39.67928],[-105.06262,39.67501],[-105.05325,39.67504],[-105.05326,39.66778],[-105.07199,39.66776],[-105.072,39.66934],[-105.0745,39.67025],[-105.07667,39.66906],[-105.08135,39.67013],[-105.08145,39.66206],[-105.07916,39.66204],[-105.07668,39.65931],[-105.07197,39.65995],[-105.07002,39.65907],[-105.07014,39.65687],[-105.06729,39.65688],[-105.06728,39.65332],[-105.07083,39.64958],[-105.06393,39.64962],[-105.062,39.65124],[-105.05806,39.65125],[-105.05715,39.65295],[-105.05358,39.65116],[-105.0632,39.64963],[-105.06322,39.64599],[-105.07205,39.64582],[-105.07429,39.64427],[-105.0768,39.63873],[-105.07327,39.63874],[-105.07331,39.63656],[-105.08156,39.63617],[-105.08168,39.63876],[-105.0911,39.63872],[-105.0911,39.63508],[-105.10988,39.63507],[-105.10988,39.6299]],[[-105.0816,39.635],[-105.08157,39.63569],[-105.08087,39.63568],[-105.08087,39.635],[-105.0816,39.635]],[[-105.06356,39.65186],[-105.06354,39.65298],[-105.06256,39.65299],[-105.06259,39.65185],[-105.06356,39.65186]],[[-104.94069,39.70381],[-104.94068,39.71108],[-104.93165,39.7111],[-104.92959,39.70641],[-104.92696,39.7067],[-104.92699,39.70389],[-104.93154,39.70386],[-104.93171,39.70206],[-104.93402,39.70376],[-104.93414,39.70132],[-104.92878,39.70022],[-104.92818,39.69663],[-104.93587,39.6966],[-104.93646,39.69785],[-104.93621,39.69478],[-104.94062,39.6954],[-104.93854,39.69793],[-104.94073,39.69772],[-104.94069,39.70381]],[[-104.93388,39.67119],[-104.93388,39.67335],[-104.93164,39.67337],[-104.9272,39.66896],[-104.92926,39.66938],[-104.93162,39.66747],[-104.9317,39.67056],[-104.93388,39.67119]],[[-104.92643,39.66939],[-104.93024,39.67483],[-104.92572,39.67528],[-104.92575,39.67664],[-104.91756,39.67298],[-104.91594,39.66347],[-104.91297,39.66313],[-104.91298,39.65621],[-104.91657,39.65612],[-104.9159,39.65851],[-104.92102,39.66034],[-104.92222,39.66695],[-104.92058,39.66694],[-104.9207,39.66817],[-104.92643,39.66939]],[[-104.91104,39.67989],[-104.91103,39.68207],[-104.9082,39.68207],[-104.9082,39.68031],[-104.91104,39.67989]],[[-104.90403,39.62412],[-104.90379,39.62683],[-104.9028,39.6243],[-104.90403,39.62412]],[[-104.90267,39.68571],[-104.89879,39.6857],[-104.89878,39.6834],[-104.90267,39.68571]]]]}},{"type":"Feature","id":"CO:56:08059","properties":{"destinationId":"56","locality":"Denver / Aurora","definition":"Denver / Adams / Arapahoe / Jefferson","state":"CO","stateName":"Colorado","county":"Jefferson County","countyGeoid":"08059","countyGeoids":["08001","08005","08031","08059"],"coverage":"complete-counties","sourceType":"gsa_county_defined_rate_area"},"geometry":{"type":"MultiPolygon","coordinates":[[[[-105.05578,39.626],[-105.05581,39.62424],[-105.05348,39.62425],[-105.05333,39.62799],[-105.05578,39.626]]],[[[-105.05914,39.63824],[-105.05954,39.63538],[-105.05346,39.62953],[-105.05334,39.63877],[-105.05914,39.63824]]],[[[-105.06354,39.65298],[-105.06356,39.65186],[-105.06259,39.65185],[-105.06256,39.65299],[-105.06354,39.65298]]],[[[-105.08157,39.63569],[-105.0816,39.635],[-105.08087,39.635],[-105.08087,39.63568],[-105.08157,39.63569]]],[[[-105.39915,39.58159],[-105.3979,39.46696],[-105.39865,39.32619],[-105.39671,39.26488],[-105.3979,39.24999],[-105.39788,39.12956],[-105.32944,39.12949],[-105.32739,39.13087],[-105.32196,39.13697],[-105.32328,39.14499],[-105.32156,39.14619],[-105.31563,39.1458],[-105.31531,39.1549],[-105.31309,39.15708],[-105.31306,39.16002],[-105.30706,39.16536],[-105.3052,39.16402],[-105.30102,39.16678],[-105.30153,39.17061],[-105.29944,39.17253],[-105.29422,39.17298],[-105.29475,39.17484],[-105.28738,39.17944],[-105.28918,39.18417],[-105.28639,39.18631],[-105.28293,39.19995],[-105.2777,39.2028],[-105.27629,39.20722],[-105.26952,39.20942],[-105.26319,39.208],[-105.25974,39.2109],[-105.26152,39.21476],[-105.26058,39.21669],[-105.26353,39.22117],[-105.2613,39.22327],[-105.26166,39.2268],[-105.26357,39.22881],[-105.26178,39.23148],[-105.25723,39.23355],[-105.25432,39.23792],[-105.25503,39.24027],[-105.25357,39.24316],[-105.24728,39.24042],[-105.24056,39.24406],[-105.23563,39.24426],[-105.23394,39.24687],[-105.23478,39.2493],[-105.23768,39.25047],[-105.2342,39.25241],[-105.23458,39.25509],[-105.22812,39.25377],[-105.22697,39.25635],[-105.2236,39.25599],[-105.2251,39.26052],[-105.21783,39.26012],[-105.2187,39.26704],[-105.22078,39.26866],[-105.21558,39.27223],[-105.21751,39.2746],[-105.21553,39.27679],[-105.21639,39.27762],[-105.21132,39.28097],[-105.21247,39.28448],[-105.20791,39.29152],[-105.20553,39.29168],[-105.20698,39.2932],[-105.20258,39.29332],[-105.20289,39.29475],[-105.20717,39.29623],[-105.20768,39.29819],[-105.20498,39.2998],[-105.20137,39.29927],[-105.20021,39.30203],[-105.196,39.30208],[-105.19782,39.30499],[-105.19668,39.30854],[-105.19816,39.31043],[-105.19349,39.31258],[-105.18859,39.31738],[-105.18881,39.32115],[-105.18549,39.3244],[-105.18818,39.32796],[-105.1823,39.3298],[-105.18227,39.33137],[-105.18784,39.33419],[-105.18396,39.33549],[-105.17873,39.34079],[-105.17954,39.34231],[-105.17716,39.34471],[-105.17719,39.34958],[-105.17185,39.35345],[-105.17152,39.35722],[-105.16786,39.35902],[-105.16657,39.36175],[-105.16911,39.3691],[-105.1671,39.3722],[-105.17226,39.37641],[-105.173,39.37772],[-105.16978,39.38034],[-105.17352,39.3832],[-105.16997,39.3891],[-105.16434,39.39114],[-105.1655,39.39401],[-105.16726,39.39431],[-105.16719,39.39975],[-105.16941,39.40159],[-105.17096,39.40783],[-105.16667,39.40851],[-105.16126,39.41376],[-105.15598,39.4138],[-105.14532,39.41881],[-105.12347,39.43431],[-105.12614,39.44019],[-105.12321,39.44783],[-105.12418,39.45498],[-105.13294,39.46191],[-105.13262,39.46791],[-105.13499,39.47078],[-105.13036,39.47368],[-105.12708,39.47819],[-105.12102,39.48145],[-105.11854,39.48021],[-105.11628,39.48145],[-105.11588,39.48254],[-105.11827,39.48299],[-105.11765,39.48539],[-105.11469,39.4858],[-105.11068,39.48355],[-105.09871,39.48539],[-105.08675,39.49342],[-105.08523,39.50543],[-105.0784,39.51149],[-105.07794,39.51749],[-105.0801,39.52316],[-105.07611,39.53269],[-105.07774,39.53671],[-105.07642,39.54006],[-105.07411,39.54427],[-105.06113,39.55691],[-105.06071,39.55994],[-105.05826,39.56038],[-105.05725,39.56231],[-105.05137,39.56326],[-105.04874,39.56609],[-105.05414,39.56609],[-105.05352,39.62086],[-105.05724,39.62091],[-105.05823,39.61441],[-105.09701,39.61451],[-105.09703,39.61836],[-105.06514,39.61858],[-105.06509,39.61978],[-105.07612,39.62423],[-105.07452,39.62423],[-105.08095,39.63133],[-105.08371,39.63133],[-105.08374,39.63016],[-105.08181,39.63015],[-105.08173,39.62731],[-105.08558,39.62853],[-105.08563,39.62611],[-105.09116,39.62708],[-105.09126,39.6242],[-105.1075,39.62422],[-105.1075,39.62709],[-105.10992,39.62708],[-105.10988,39.63507],[-105.0911,39.63508],[-105.0911,39.63872],[-105.08168,39.63876],[-105.08156,39.63617],[-105.07331,39.63656],[-105.07327,39.63874],[-105.0768,39.63873],[-105.07429,39.64427],[-105.07205,39.64582],[-105.06322,39.64599],[-105.0632,39.64963],[-105.05358,39.65116],[-105.05715,39.65295],[-105.05806,39.65125],[-105.062,39.65124],[-105.06393,39.64962],[-105.07083,39.64958],[-105.06728,39.65332],[-105.06729,39.65688],[-105.07014,39.65687],[-105.07002,39.65907],[-105.07197,39.65995],[-105.07668,39.65931],[-105.07916,39.66204],[-105.08145,39.66206],[-105.08145,39.66774],[-105.08135,39.67013],[-105.07667,39.66906],[-105.0745,39.67025],[-105.072,39.66934],[-105.07199,39.66776],[-105.05326,39.66778],[-105.05325,39.67504],[-105.06262,39.67501],[-105.06262,39.67928],[-105.06034,39.67795],[-105.05779,39.6787],[-105.0578,39.68227],[-105.05322,39.68229],[-105.05323,39.73311],[-105.05554,39.7331],[-105.05559,39.73451],[-105.05323,39.73492],[-105.05318,39.7838],[-105.06266,39.78385],[-105.06265,39.78834],[-105.06499,39.78836],[-105.06501,39.79016],[-105.05325,39.79106],[-105.05289,39.91422],[-105.05532,39.91372],[-105.05529,39.91243],[-105.06238,39.91399],[-105.06239,39.90702],[-105.07178,39.90702],[-105.07169,39.89983],[-105.09062,39.8989],[-105.09669,39.89979],[-105.1001,39.90221],[-105.10064,39.90864],[-105.10695,39.91173],[-105.10861,39.91414],[-105.14712,39.91389],[-105.1474,39.90009],[-105.12868,39.89998],[-105.1289,39.89035],[-105.13088,39.8927],[-105.13631,39.89202],[-105.13714,39.89083],[-105.13485,39.88929],[-105.16556,39.89099],[-105.16569,39.9105],[-105.14714,39.91389],[-105.39785,39.91289],[-105.39915,39.58159]]]]}},{"type":"Feature","id":"CO:57:08067","properties":{"destinationId":"57","locality":"Durango","definition":"La Plata","state":"CO","stateName":"Colorado","county":"La Plata County","countyGeoid":"08067","countyGeoids":["08067"],"coverage":"complete-counties","sourceType":"gsa_county_defined_rate_area"},"geometry":{"type":"Polygon","coordinates":[[[-108.37961,37.00418],[-108.38107,37.00147],[-108.3793,36.99946],[-107.48174,37.0],[-107.48218,37.6395],[-107.97009,37.63959],[-107.9721,37.63022],[-107.97988,37.62888],[-107.98722,37.625],[-107.99315,37.61586],[-108.0002,37.61432],[-108.00075,37.61118],[-108.00484,37.60605],[-108.0143,37.60359],[-108.01553,37.60085],[-108.01394,37.59647],[-108.01689,37.5954],[-108.01664,37.59247],[-108.02301,37.591],[-108.01971,37.58495],[-108.01951,37.57403],[-108.02085,37.57144],[-108.01828,37.56714],[-108.02175,37.56282],[-108.0197,37.55852],[-108.02025,37.55378],[-108.02544,37.53972],[-108.03474,37.5325],[-108.03464,37.52323],[-108.03214,37.51805],[-108.03452,37.51314],[-108.03153,37.50931],[-108.03408,37.50841],[-108.03793,37.50319],[-108.0346,37.49717],[-108.03655,37.48776],[-108.03389,37.48475],[-108.03264,37.47891],[-108.03639,37.47118],[-108.03315,37.46494],[-108.03469,37.46075],[-108.03881,37.45653],[-108.03826,37.45245],[-108.0424,37.44835],[-108.04328,37.44435],[-108.0445,37.4427],[-108.04844,37.44256],[-108.05303,37.43752],[-108.07804,37.43888],[-108.08105,37.43241],[-108.08004,37.42919],[-108.08729,37.42777],[-108.08951,37.42122],[-108.09815,37.41706],[-108.09955,37.41263],[-108.10534,37.40557],[-108.10756,37.39432],[-108.10565,37.38912],[-108.10586,37.38207],[-108.11362,37.38035],[-108.12048,37.37472],[-108.13235,37.37468],[-108.14048,37.37282],[-108.14704,37.36538],[-108.15247,37.36259],[-108.15811,37.36389],[-108.1643,37.36234],[-108.16659,37.36517],[-108.17303,37.36639],[-108.19043,37.36015],[-108.19778,37.35494],[-108.19824,37.3515],[-108.20484,37.34408],[-108.20778,37.33453],[-108.20305,37.32679],[-108.21048,37.32174],[-108.21362,37.31316],[-108.21648,37.31162],[-108.21649,37.30623],[-108.21308,37.3033],[-108.2125,37.30015],[-108.21377,37.29812],[-108.21799,37.29725],[-108.21969,37.28742],[-108.22517,37.28666],[-108.22803,37.28195],[-108.22731,37.27817],[-108.23484,37.27477],[-108.23859,37.26267],[-108.24246,37.26143],[-108.2466,37.25493],[-108.24731,37.24989],[-108.24946,37.24974],[-108.25064,37.24631],[-108.25597,37.2437],[-108.25767,37.24035],[-108.26008,37.2393],[-108.26145,37.23503],[-108.26754,37.23309],[-108.27079,37.22921],[-108.27884,37.22724],[-108.28168,37.22856],[-108.28628,37.22479],[-108.29042,37.22358],[-108.29728,37.21323],[-108.29747,37.20843],[-108.29288,37.20246],[-108.29263,37.19832],[-108.2929,37.19432],[-108.29572,37.19007],[-108.29462,37.18019],[-108.29742,37.17116],[-108.29404,37.16476],[-108.29607,37.15842],[-108.29017,37.1542],[-108.29046,37.14598],[-108.29423,37.14445],[-108.31033,37.12935],[-108.30966,37.12497],[-108.31112,37.12313],[-108.30962,37.11984],[-108.3118,37.11682],[-108.30984,37.11281],[-108.31117,37.10984],[-108.31013,37.1054],[-108.31609,37.10297],[-108.31734,37.09754],[-108.32106,37.0971],[-108.32242,37.08876],[-108.32509,37.08338],[-108.32411,37.08135],[-108.32675,37.07916],[-108.3257,37.07616],[-108.33017,37.07459],[-108.32773,37.07125],[-108.32827,37.06912],[-108.33318,37.06744],[-108.33431,37.06456],[-108.33339,37.0608],[-108.33472,37.05982],[-108.33479,37.05422],[-108.347,37.04777],[-108.35071,37.0407],[-108.35439,37.03881],[-108.35512,37.03557],[-108.35286,37.03329],[-108.35644,37.02843],[-108.35539,37.02559],[-108.3718,37.0291],[-108.37334,37.02469],[-108.37178,37.02124],[-108.37668,37.01184],[-108.37643,37.00662],[-108.37961,37.00418]]]}},{"type":"Feature","id":"CO:58:08069","properties":{"destinationId":"58","locality":"Fort Collins / Loveland","definition":"Larimer","state":"CO","stateName":"Colorado","county":"Larimer County","countyGeoid":"08069","countyGeoids":["08069"],"coverage":"complete-counties","sourceType":"gsa_county_defined_rate_area"},"geometry":{"type":"Polygon","coordinates":[[[-106.19537,40.98994],[-106.19494,40.98694],[-106.19112,40.98603],[-106.19055,40.98425],[-106.19214,40.98284],[-106.19004,40.97864],[-106.18973,40.97309],[-106.1871,40.97117],[-106.1877,40.96491],[-106.18484,40.96383],[-106.18739,40.95872],[-106.18423,40.95521],[-106.18929,40.94589],[-106.18531,40.93397],[-106.17994,40.93152],[-106.17344,40.92478],[-106.17003,40.9238],[-106.16817,40.9184],[-106.1589,40.91427],[-106.15855,40.91062],[-106.14788,40.90464],[-106.14407,40.9049],[-106.13691,40.90203],[-106.13622,40.89923],[-106.13125,40.89661],[-106.13143,40.89286],[-106.12762,40.88489],[-106.12998,40.87821],[-106.13242,40.87655],[-106.13067,40.87387],[-106.12318,40.8675],[-106.1208,40.86763],[-106.11897,40.86578],[-106.11654,40.86644],[-106.10509,40.86051],[-106.10428,40.85926],[-106.10807,40.85251],[-106.10244,40.85233],[-106.09852,40.84974],[-106.10126,40.84356],[-106.09878,40.8417],[-106.09269,40.84084],[-106.08791,40.8334],[-106.07639,40.82792],[-106.07132,40.82233],[-106.06483,40.82157],[-106.05772,40.81712],[-106.0578,40.81444],[-106.05378,40.81266],[-106.0515,40.80914],[-106.05235,40.80586],[-106.04797,40.80464],[-106.04647,40.80245],[-106.0449,40.79768],[-106.04537,40.79186],[-106.03965,40.78576],[-106.03521,40.78555],[-106.02968,40.78156],[-106.03103,40.77787],[-106.02891,40.77752],[-106.02925,40.77344],[-106.02449,40.77126],[-106.02664,40.76832],[-106.02434,40.7663],[-106.02388,40.76133],[-106.02067,40.75843],[-106.02226,40.75469],[-106.01527,40.75282],[-106.01398,40.74664],[-106.0107,40.74104],[-106.00057,40.73434],[-105.99627,40.73313],[-105.99058,40.72718],[-105.99094,40.7248],[-105.98808,40.72137],[-105.99008,40.71831],[-105.98874,40.70961],[-105.97708,40.70265],[-105.9722,40.69481],[-105.97358,40.68927],[-105.97003,40.68626],[-105.97187,40.68186],[-105.96666,40.67568],[-105.96504,40.66821],[-105.95582,40.65885],[-105.95669,40.65496],[-105.95384,40.64698],[-105.94848,40.64232],[-105.94926,40.62732],[-105.94511,40.62119],[-105.94702,40.61669],[-105.94206,40.60908],[-105.93021,40.60619],[-105.92498,40.58093],[-105.92125,40.57256],[-105.91503,40.57072],[-105.91089,40.56642],[-105.90991,40.55881],[-105.91183,40.55269],[-105.9051,40.53536],[-105.90787,40.52621],[-105.91118,40.52218],[-105.90786,40.51549],[-105.90417,40.51444],[-105.89458,40.5202],[-105.88195,40.52285],[-105.86909,40.52074],[-105.85706,40.50786],[-105.8523,40.50655],[-105.85203,40.49757],[-105.85477,40.49511],[-105.8561,40.49041],[-105.85493,40.48625],[-105.84697,40.48279],[-105.83782,40.48303],[-105.8346,40.47987],[-105.80679,40.47391],[-105.80886,40.47108],[-105.81067,40.47109],[-105.80448,40.46422],[-105.80761,40.45226],[-105.80569,40.44788],[-105.81578,40.43743],[-105.81446,40.42852],[-105.81723,40.42649],[-105.81727,40.42432],[-105.81534,40.42149],[-105.81113,40.4194],[-105.80826,40.41495],[-105.80129,40.41018],[-105.80042,40.40722],[-105.79095,40.39864],[-105.79073,40.38626],[-105.78725,40.38087],[-105.78182,40.37699],[-105.78195,40.37376],[-105.77644,40.36954],[-105.7741,40.36523],[-105.76913,40.36447],[-105.7677,40.35976],[-105.76444,40.35926],[-105.75976,40.35578],[-105.75927,40.35331],[-105.75378,40.35152],[-105.75238,40.34909],[-105.74776,40.34751],[-105.74244,40.34926],[-105.73634,40.34662],[-105.73544,40.34298],[-105.72879,40.33794],[-105.72909,40.33528],[-105.72144,40.33202],[-105.71313,40.32557],[-105.70168,40.32431],[-105.70202,40.32171],[-105.69872,40.32078],[-105.69765,40.31827],[-105.70211,40.31208],[-105.69014,40.30865],[-105.69128,40.30616],[-105.6893,40.30348],[-105.68618,40.30308],[-105.68827,40.29733],[-105.68737,40.29373],[-105.68116,40.29194],[-105.6864,40.28892],[-105.68635,40.28749],[-105.68058,40.28446],[-105.67926,40.27891],[-105.68147,40.27905],[-105.68035,40.27467],[-105.68223,40.27316],[-105.67819,40.26812],[-105.66791,40.26772],[-105.65332,40.26046],[-105.53535,40.26128],[-105.391,40.25788],[-105.37523,40.26129],[-105.28922,40.26278],[-105.21262,40.26118],[-105.05509,40.26179],[-105.05514,40.33518],[-105.05672,40.34928],[-104.94555,40.3491],[-104.94311,40.6965],[-104.94337,40.99808],[-106.19055,40.99761],[-106.19537,40.98994]]]}},{"type":"Feature","id":"CO:61:08085","properties":{"destinationId":"61","locality":"Montrose","definition":"Montrose","state":"CO","stateName":"Colorado","county":"Montrose County","countyGeoid":"08085","countyGeoids":["08085"],"coverage":"complete-counties","sourceType":"gsa_county_defined_rate_area"},"geometry":{"type":"Polygon","coordinates":[[[-109.05996,38.49999],[-109.06006,38.27549],[-109.04176,38.16469],[-109.04184,38.15303],[-108.90675,38.15329],[-108.90675,38.15496],[-108.53959,38.15265],[-107.94696,38.15249],[-107.94774,38.17377],[-107.93814,38.17394],[-107.93759,38.21899],[-107.94702,38.21895],[-107.94714,38.22648],[-107.96541,38.22651],[-107.96542,38.23402],[-107.98418,38.23394],[-107.98408,38.24839],[-108.01153,38.2482],[-108.01153,38.25526],[-108.0866,38.2552],[-108.08635,38.28433],[-108.10416,38.28418],[-108.10482,38.31372],[-108.12327,38.31364],[-108.12368,38.32093],[-108.13175,38.32076],[-108.13238,38.33157],[-107.6357,38.33215],[-107.63096,38.32568],[-107.6365,38.31615],[-107.63299,38.30952],[-107.63504,38.3019],[-107.50002,38.30193],[-107.50066,38.66855],[-108.3787,38.6681],[-108.37914,38.49999],[-109.05996,38.49999]]]}},{"type":"Feature","id":"CO:63:08117","properties":{"destinationId":"63","locality":"Silverthorne / Breckenridge","definition":"Summit","state":"CO","stateName":"Colorado","county":"Summit County","countyGeoid":"08117","countyGeoids":["08117"],"coverage":"complete-counties","sourceType":"gsa_county_defined_rate_area"},"geometry":{"type":"Polygon","coordinates":[[[-106.4392,39.91994],[-106.4403,39.91832],[-106.43918,39.91563],[-106.43288,39.91261],[-106.4304,39.90891],[-106.43076,39.90162],[-106.42868,39.89511],[-106.42947,39.88711],[-106.4281,39.88216],[-106.43396,39.87738],[-106.43297,39.8654],[-106.42362,39.85011],[-106.42558,39.84549],[-106.42374,39.84142],[-106.42061,39.84],[-106.41255,39.82926],[-106.41071,39.82036],[-106.40716,39.8128],[-106.40189,39.80754],[-106.40128,39.79986],[-106.39642,39.79578],[-106.39686,39.79009],[-106.39431,39.79056],[-106.38902,39.7877],[-106.39103,39.77694],[-106.38548,39.76716],[-106.37922,39.76304],[-106.3742,39.76222],[-106.37054,39.75661],[-106.3622,39.75195],[-106.35399,39.75256],[-106.35074,39.75688],[-106.34328,39.75873],[-106.3421,39.75303],[-106.33563,39.74953],[-106.33127,39.74013],[-106.32542,39.73323],[-106.32048,39.73167],[-106.3162,39.72718],[-106.29835,39.72057],[-106.29519,39.71642],[-106.29419,39.70934],[-106.29092,39.70407],[-106.2774,39.69954],[-106.27205,39.70435],[-106.26408,39.70094],[-106.26262,39.69785],[-106.2659,39.68954],[-106.26162,39.68587],[-106.26132,39.68272],[-106.25825,39.6798],[-106.23874,39.68027],[-106.24048,39.66932],[-106.23986,39.66696],[-106.23432,39.66203],[-106.22646,39.66094],[-106.2242,39.66259],[-106.21996,39.66259],[-106.21866,39.6615],[-106.21896,39.65628],[-106.21716,39.65459],[-106.2077,39.65529],[-106.19439,39.65112],[-106.1892,39.65334],[-106.18384,39.65215],[-106.18349,39.64861],[-106.17934,39.6425],[-106.17956,39.6396],[-106.17616,39.63333],[-106.17746,39.63168],[-106.17592,39.61611],[-106.1776,39.60906],[-106.18519,39.60241],[-106.19396,39.6055],[-106.2021,39.60584],[-106.20904,39.5994],[-106.21122,39.59321],[-106.21086,39.5868],[-106.21395,39.58202],[-106.21503,39.57519],[-106.20982,39.57034],[-106.20946,39.56358],[-106.20572,39.55821],[-106.19627,39.55689],[-106.19871,39.55002],[-106.20993,39.54694],[-106.21178,39.53971],[-106.2104,39.5346],[-106.2117,39.53015],[-106.21731,39.53203],[-106.22533,39.53187],[-106.22886,39.5384],[-106.23427,39.54278],[-106.23541,39.54826],[-106.23675,39.54859],[-106.24342,39.54412],[-106.24857,39.54391],[-106.25058,39.53854],[-106.25577,39.53223],[-106.25452,39.52853],[-106.25577,39.5199],[-106.24844,39.5157],[-106.24642,39.51275],[-106.2489,39.50486],[-106.25366,39.50032],[-106.25688,39.49966],[-106.25951,39.4946],[-106.24728,39.4913],[-106.24555,39.48939],[-106.24906,39.4846],[-106.25148,39.47671],[-106.2504,39.47093],[-106.25164,39.46504],[-106.24515,39.46148],[-106.23926,39.45585],[-106.23811,39.45416],[-106.23892,39.45136],[-106.23609,39.44683],[-106.22318,39.43335],[-106.2276,39.4281],[-106.23269,39.42625],[-106.23006,39.42226],[-106.23091,39.41887],[-106.22977,39.41605],[-106.21898,39.41233],[-106.21698,39.40993],[-106.21786,39.40835],[-106.20124,39.39593],[-106.20312,39.38961],[-106.2104,39.38412],[-106.20673,39.37964],[-106.13641,39.37969],[-106.11481,39.3765],[-106.09721,39.37799],[-106.08563,39.36972],[-106.08121,39.3692],[-106.08024,39.37044],[-106.07419,39.36863],[-106.0561,39.35843],[-106.04393,39.35738],[-106.02197,39.36171],[-106.01762,39.3655],[-106.01679,39.37499],[-106.01838,39.3814],[-106.01385,39.3869],[-106.0084,39.38736],[-106.00334,39.39177],[-105.99593,39.395],[-105.99302,39.40156],[-105.98502,39.40167],[-105.98192,39.40597],[-105.97687,39.40857],[-105.9517,39.41462],[-105.95509,39.42155],[-105.95484,39.42622],[-105.96073,39.42902],[-105.96501,39.43344],[-105.96679,39.43804],[-105.96175,39.44009],[-105.95644,39.4384],[-105.94416,39.44091],[-105.9437,39.44618],[-105.94185,39.44825],[-105.94217,39.45277],[-105.93866,39.4585],[-105.92667,39.45942],[-105.91164,39.45674],[-105.90596,39.45966],[-105.90184,39.46425],[-105.90161,39.46962],[-105.89673,39.47566],[-105.89733,39.47714],[-105.89472,39.47752],[-105.8922,39.48104],[-105.89197,39.48417],[-105.87909,39.48377],[-105.87835,39.48962],[-105.87471,39.49352],[-105.87241,39.49481],[-105.86658,39.49435],[-105.86358,39.5023],[-105.8604,39.50471],[-105.85412,39.50452],[-105.85946,39.50922],[-105.85995,39.51215],[-105.86689,39.5167],[-105.86806,39.51949],[-105.8647,39.52212],[-105.85951,39.53154],[-105.85773,39.53206],[-105.85456,39.52787],[-105.84538,39.52375],[-105.84433,39.52599],[-105.83002,39.53204],[-105.82321,39.52995],[-105.81763,39.53831],[-105.81893,39.54581],[-105.81631,39.54815],[-105.81581,39.55198],[-105.82234,39.55301],[-105.82577,39.55568],[-105.83062,39.56646],[-105.8366,39.56879],[-105.83837,39.57295],[-105.82654,39.5802],[-105.80808,39.5834],[-105.80043,39.59321],[-105.79437,39.59483],[-105.79166,39.59789],[-105.78274,39.60014],[-105.77627,39.60496],[-105.77614,39.61108],[-105.78271,39.61796],[-105.78267,39.62902],[-105.7846,39.63115],[-105.79273,39.63611],[-105.81094,39.63535],[-105.81724,39.63356],[-105.82099,39.64256],[-105.82626,39.64093],[-105.83395,39.64222],[-105.84155,39.64618],[-105.84866,39.64416],[-105.85434,39.64908],[-105.85677,39.65783],[-105.85948,39.6587],[-105.86477,39.66722],[-105.87961,39.66364],[-105.88486,39.65708],[-105.89394,39.65942],[-105.89681,39.66466],[-105.91075,39.66229],[-105.92629,39.67298],[-105.92703,39.6767],[-105.92133,39.68431],[-105.91958,39.69029],[-105.92004,39.69389],[-105.92462,39.69897],[-105.93009,39.69752],[-105.9328,39.69468],[-105.9456,39.68887],[-105.95104,39.69515],[-105.96194,39.69078],[-105.97235,39.69169],[-105.9854,39.68738],[-105.99098,39.68752],[-105.99634,39.68412],[-106.00648,39.68795],[-106.01299,39.68634],[-106.02591,39.68914],[-106.03364,39.69676],[-106.03431,39.70296],[-106.03789,39.70758],[-106.03811,39.71206],[-106.04158,39.71602],[-106.04864,39.72107],[-106.05595,39.7214],[-106.05855,39.7247],[-106.05947,39.73943],[-106.06454,39.74838],[-106.06218,39.75164],[-106.0659,39.7538],[-106.06483,39.76073],[-106.06957,39.76624],[-106.07517,39.78096],[-106.08121,39.7874],[-106.07808,39.79368],[-106.08216,39.79634],[-106.08412,39.80666],[-106.08997,39.80934],[-106.09992,39.8198],[-106.10528,39.82238],[-106.11243,39.82971],[-106.11704,39.83199],[-106.12499,39.84213],[-106.13148,39.8442],[-106.13791,39.84354],[-106.1434,39.83935],[-106.14889,39.83945],[-106.1676,39.84554],[-106.17114,39.84529],[-106.17251,39.84791],[-106.17847,39.84979],[-106.18045,39.85246],[-106.19308,39.85883],[-106.20057,39.86404],[-106.20139,39.86852],[-106.20637,39.87499],[-106.2065,39.8777],[-106.21417,39.8788],[-106.21686,39.88063],[-106.22078,39.88769],[-106.22836,39.89352],[-106.23169,39.90081],[-106.24691,39.9127],[-106.25058,39.91305],[-106.25203,39.91471],[-106.29478,39.91892],[-106.29462,39.91396],[-106.39543,39.91402],[-106.39526,39.92459],[-106.43451,39.92491],[-106.43442,39.92339],[-106.4392,39.91994]]]}},{"type":"Feature","id":"CO:64:08107","properties":{"destinationId":"64","locality":"Steamboat Springs","definition":"Routt","state":"CO","stateName":"Colorado","county":"Routt County","countyGeoid":"08107","countyGeoids":["08107"],"coverage":"complete-counties","sourceType":"gsa_county_defined_rate_area"},"geometry":{"type":"Polygon","coordinates":[[[-107.44259,40.33476],[-107.43939,40.22338],[-107.0381,40.22536],[-107.03736,40.00308],[-107.03205,40.00294],[-107.03217,39.93967],[-107.03397,39.91891],[-106.72054,39.92061],[-106.62656,39.91867],[-106.62611,39.99999],[-106.62653,40.00187],[-106.63703,40.00211],[-106.637,40.17898],[-106.63312,40.179],[-106.63226,40.34156],[-106.65283,40.34156],[-106.65176,40.44978],[-106.65581,40.45019],[-106.6565,40.45604],[-106.65896,40.45938],[-106.65746,40.46243],[-106.65788,40.47156],[-106.6653,40.47052],[-106.66728,40.47265],[-106.66706,40.47606],[-106.66328,40.48027],[-106.65716,40.48344],[-106.65618,40.48561],[-106.65915,40.49037],[-106.65392,40.49244],[-106.65311,40.49473],[-106.65604,40.49998],[-106.65581,40.50914],[-106.6611,40.51194],[-106.65897,40.51428],[-106.6671,40.52014],[-106.67206,40.52121],[-106.6737,40.52368],[-106.67328,40.52693],[-106.66949,40.53248],[-106.66984,40.53445],[-106.67669,40.53804],[-106.67844,40.54423],[-106.68338,40.54453],[-106.68622,40.55133],[-106.69285,40.55664],[-106.69219,40.56354],[-106.69713,40.57266],[-106.70234,40.57802],[-106.69864,40.58349],[-106.6997,40.58602],[-106.69477,40.59201],[-106.69415,40.59524],[-106.69526,40.59819],[-106.69827,40.59939],[-106.69872,40.60204],[-106.70435,40.60739],[-106.70374,40.61055],[-106.70622,40.61561],[-106.70101,40.62596],[-106.70362,40.62777],[-106.69826,40.62748],[-106.69421,40.6329],[-106.68677,40.63473],[-106.68866,40.63965],[-106.68285,40.64686],[-106.68014,40.64804],[-106.68065,40.64928],[-106.68773,40.64987],[-106.69208,40.65775],[-106.69183,40.65996],[-106.68576,40.66233],[-106.68723,40.67194],[-106.68608,40.67371],[-106.68106,40.67517],[-106.68239,40.6779],[-106.68707,40.68061],[-106.68688,40.68308],[-106.68146,40.68325],[-106.67948,40.68592],[-106.67286,40.68834],[-106.66795,40.69631],[-106.67248,40.70848],[-106.66892,40.71026],[-106.67119,40.71638],[-106.66978,40.71979],[-106.67381,40.72402],[-106.66952,40.72879],[-106.67053,40.73217],[-106.67669,40.73663],[-106.66833,40.73912],[-106.66295,40.74302],[-106.66519,40.74886],[-106.66131,40.75335],[-106.66344,40.75408],[-106.66607,40.75828],[-106.6695,40.75966],[-106.6697,40.7617],[-106.66333,40.76698],[-106.66206,40.77058],[-106.65924,40.77286],[-106.65238,40.77562],[-106.64916,40.77539],[-106.64928,40.7801],[-106.6475,40.78265],[-106.63993,40.78705],[-106.63596,40.79193],[-106.63688,40.79959],[-106.63554,40.80476],[-106.63714,40.80921],[-106.63548,40.81136],[-106.63923,40.81452],[-106.63839,40.817],[-106.64374,40.82159],[-106.65846,40.82393],[-106.66401,40.82928],[-106.66294,40.83171],[-106.66404,40.83497],[-106.6613,40.8409],[-106.66264,40.84334],[-106.65447,40.84554],[-106.65454,40.84912],[-106.65755,40.85324],[-106.66452,40.85676],[-106.66448,40.85908],[-106.66597,40.85823],[-106.66736,40.85979],[-106.66816,40.86514],[-106.67799,40.86787],[-106.67948,40.86956],[-106.6803,40.8743],[-106.68616,40.88062],[-106.68588,40.88582],[-106.69416,40.88802],[-106.69926,40.88537],[-106.70576,40.876],[-106.72687,40.87138],[-106.73659,40.8731],[-106.73899,40.8727],[-106.73934,40.87084],[-106.74263,40.87497],[-106.7422,40.8771],[-106.74682,40.88233],[-106.74085,40.8898],[-106.74356,40.89199],[-106.75148,40.89402],[-106.76164,40.89417],[-106.76493,40.89637],[-106.77007,40.897],[-106.76754,40.89864],[-106.769,40.90414],[-106.78127,40.90697],[-106.78859,40.90284],[-106.78789,40.90056],[-106.79426,40.90056],[-106.79782,40.89647],[-106.80104,40.89614],[-106.80975,40.89975],[-106.80534,40.90198],[-106.80634,40.90664],[-106.81131,40.91595],[-106.81901,40.91864],[-106.81998,40.92531],[-106.82503,40.93212],[-106.82487,40.92927],[-106.82936,40.92426],[-106.85235,40.92518],[-106.84877,40.92631],[-106.85239,40.92973],[-106.85225,40.93379],[-106.85612,40.93498],[-106.85645,40.93759],[-106.8621,40.94093],[-106.86399,40.9537],[-106.86989,40.95672],[-106.87319,40.97439],[-106.87058,40.98122],[-106.86231,40.9837],[-106.8574,40.98128],[-106.85543,40.98708],[-106.85054,40.99065],[-106.86161,40.9968],[-106.86145,40.99997],[-106.85777,41.00266],[-107.31779,41.00297],[-107.31415,40.60028],[-107.37149,40.6003],[-107.37133,40.5424],[-107.42881,40.54221],[-107.42934,40.44077],[-107.43207,40.33488],[-107.44259,40.33476]]]}},{"type":"Feature","id":"CO:65:08113","properties":{"destinationId":"65","locality":"Telluride","definition":"San Miguel","state":"CO","stateName":"Colorado","county":"San Miguel County","countyGeoid":"08113","countyGeoids":["08113"],"coverage":"complete-counties","sourceType":"gsa_county_defined_rate_area"},"geometry":{"type":"Polygon","coordinates":[[[-109.04282,37.99707],[-109.04165,37.88109],[-108.82052,37.88085],[-108.82053,37.88604],[-108.818,37.88781],[-108.81812,37.89375],[-108.81673,37.8955],[-108.37429,37.89348],[-108.2565,37.89461],[-108.25773,37.89058],[-108.25036,37.88457],[-108.24793,37.87938],[-108.23784,37.87639],[-108.2316,37.86174],[-108.22959,37.86104],[-108.227,37.84348],[-108.21706,37.83675],[-108.21842,37.8349],[-108.21235,37.83204],[-108.21016,37.82112],[-108.18317,37.82648],[-108.17491,37.83259],[-108.16914,37.83111],[-108.16385,37.83492],[-108.15017,37.83433],[-108.14724,37.83885],[-108.14481,37.83836],[-108.14061,37.83229],[-108.13743,37.83789],[-108.12663,37.84534],[-108.12465,37.84859],[-108.12512,37.85196],[-108.12095,37.85384],[-108.11332,37.85502],[-108.10823,37.85364],[-108.09828,37.84841],[-108.09572,37.8454],[-108.09595,37.84042],[-108.09053,37.83999],[-108.07185,37.84794],[-108.06894,37.85133],[-108.06648,37.85105],[-108.0642,37.84673],[-108.06034,37.84488],[-108.05795,37.84108],[-108.05469,37.84222],[-108.05585,37.84422],[-108.05159,37.8462],[-108.04697,37.85099],[-108.03584,37.85218],[-108.03086,37.8555],[-108.01891,37.85551],[-108.01295,37.85704],[-108.00729,37.85507],[-108.00268,37.85709],[-107.99899,37.85583],[-107.98921,37.85664],[-107.98417,37.84504],[-107.97982,37.84301],[-107.97139,37.83243],[-107.9659,37.83182],[-107.95054,37.83564],[-107.94818,37.83382],[-107.94674,37.82841],[-107.93867,37.82301],[-107.92135,37.82371],[-107.91361,37.81411],[-107.90965,37.81115],[-107.90624,37.81103],[-107.90344,37.80636],[-107.89251,37.80266],[-107.88898,37.79808],[-107.89087,37.79092],[-107.88626,37.78545],[-107.87385,37.78648],[-107.87001,37.7843],[-107.8705,37.78145],[-107.86425,37.77913],[-107.86084,37.77552],[-107.85083,37.77626],[-107.84455,37.77365],[-107.84085,37.77414],[-107.83593,37.78284],[-107.82465,37.79023],[-107.82239,37.79584],[-107.82846,37.79962],[-107.8247,37.80485],[-107.82851,37.80786],[-107.82852,37.81186],[-107.82183,37.81452],[-107.81722,37.81934],[-107.81124,37.82102],[-107.80869,37.82411],[-107.80432,37.82495],[-107.79645,37.82272],[-107.78901,37.83812],[-107.78341,37.84037],[-107.7825,37.84324],[-107.78507,37.84657],[-107.7791,37.84978],[-107.78027,37.8627],[-107.7828,37.8659],[-107.78246,37.86777],[-107.77393,37.86917],[-107.76584,37.87754],[-107.76092,37.87756],[-107.75605,37.88322],[-107.75619,37.89003],[-107.74821,37.89486],[-107.74901,37.89795],[-107.74438,37.89857],[-107.74103,37.90135],[-107.73512,37.91129],[-107.73749,37.91769],[-107.7334,37.91992],[-107.73556,37.92486],[-107.73279,37.92967],[-107.73833,37.93529],[-107.73915,37.93926],[-107.74389,37.94204],[-107.74432,37.9458],[-107.7489,37.95312],[-107.75575,37.95465],[-107.76086,37.95963],[-107.7636,37.95921],[-107.76888,37.96173],[-107.78041,37.96188],[-107.78918,37.97527],[-107.78685,37.97851],[-107.79173,37.98236],[-107.79547,37.98852],[-107.8019,37.98691],[-107.81432,37.99067],[-107.82483,37.98816],[-107.83605,37.99221],[-107.84872,37.99246],[-107.84937,37.99443],[-107.84768,37.99752],[-107.8415,38.00113],[-107.84211,38.00567],[-107.84891,38.00853],[-107.86242,38.00943],[-107.87357,38.00682],[-107.87865,38.00823],[-107.8833,38.00737],[-107.88972,38.01162],[-107.89104,38.01353],[-107.88934,38.01762],[-107.8911,38.02464],[-107.8998,38.02584],[-107.89656,38.03475],[-107.89316,38.0392],[-107.89333,38.0416],[-107.88804,38.04539],[-107.89136,38.04871],[-107.892,38.05784],[-107.89377,38.05774],[-107.89293,38.07247],[-107.89671,38.08683],[-107.89205,38.08701],[-107.89147,38.11596],[-107.95157,38.11612],[-107.95172,38.14498],[-107.96545,38.1449],[-107.96579,38.15233],[-108.53959,38.15265],[-108.90675,38.15496],[-108.90675,38.15329],[-109.04184,38.15303],[-109.04282,37.99707]]]}},{"type":"Feature","id":"CO:66:08037","properties":{"destinationId":"66","locality":"Vail","definition":"Eagle","state":"CO","stateName":"Colorado","county":"Eagle County","countyGeoid":"08037","countyGeoids":["08037"],"coverage":"complete-counties","sourceType":"gsa_county_defined_rate_area"},"geometry":{"type":"Polygon","coordinates":[[[-107.1137,39.56638],[-107.11345,39.36607],[-107.01993,39.36613],[-106.71283,39.36201],[-106.42649,39.36187],[-106.41478,39.36749],[-106.40815,39.3737],[-106.40515,39.37893],[-106.40063,39.38096],[-106.38063,39.37615],[-106.3782,39.3694],[-106.37198,39.36371],[-106.37082,39.36064],[-106.36314,39.35923],[-106.36264,39.35722],[-106.35802,39.35514],[-106.35174,39.35368],[-106.33925,39.35906],[-106.32383,39.35898],[-106.31237,39.36228],[-106.30042,39.36007],[-106.29631,39.35734],[-106.29531,39.35294],[-106.28659,39.35222],[-106.28381,39.34947],[-106.27095,39.35807],[-106.26382,39.35877],[-106.25908,39.36201],[-106.25107,39.35783],[-106.25015,39.3607],[-106.23952,39.36567],[-106.23392,39.37294],[-106.2269,39.37424],[-106.22563,39.37963],[-106.20673,39.37964],[-106.2104,39.38412],[-106.20312,39.38961],[-106.20124,39.39593],[-106.21786,39.40835],[-106.21698,39.40993],[-106.21898,39.41233],[-106.22977,39.41605],[-106.23091,39.41887],[-106.23006,39.42226],[-106.23269,39.42625],[-106.2276,39.4281],[-106.22318,39.43335],[-106.23609,39.44683],[-106.23892,39.45136],[-106.23811,39.45416],[-106.23926,39.45585],[-106.24515,39.46148],[-106.25164,39.46504],[-106.2504,39.47093],[-106.25148,39.47671],[-106.24906,39.4846],[-106.24555,39.48939],[-106.24728,39.4913],[-106.25951,39.4946],[-106.25688,39.49966],[-106.25366,39.50032],[-106.2489,39.50486],[-106.24642,39.51275],[-106.24844,39.5157],[-106.25577,39.5199],[-106.25452,39.52853],[-106.25577,39.53223],[-106.25058,39.53854],[-106.24857,39.54391],[-106.24342,39.54412],[-106.23675,39.54859],[-106.23541,39.54826],[-106.23427,39.54278],[-106.22886,39.5384],[-106.22533,39.53187],[-106.21731,39.53203],[-106.2117,39.53015],[-106.2104,39.5346],[-106.21178,39.53971],[-106.20993,39.54694],[-106.19871,39.55002],[-106.19627,39.55689],[-106.20572,39.55821],[-106.20946,39.56358],[-106.20982,39.57034],[-106.21503,39.57519],[-106.21395,39.58202],[-106.21086,39.5868],[-106.21122,39.59321],[-106.20904,39.5994],[-106.2021,39.60584],[-106.19396,39.6055],[-106.18519,39.60241],[-106.1776,39.60906],[-106.17592,39.61611],[-106.17746,39.63168],[-106.17616,39.63333],[-106.17956,39.6396],[-106.17934,39.6425],[-106.18349,39.64861],[-106.18384,39.65215],[-106.1892,39.65334],[-106.19439,39.65112],[-106.2077,39.65529],[-106.21716,39.65459],[-106.21896,39.65628],[-106.21866,39.6615],[-106.21996,39.66259],[-106.2242,39.66259],[-106.22646,39.66094],[-106.23432,39.66203],[-106.23986,39.66696],[-106.24048,39.66932],[-106.23874,39.68027],[-106.25058,39.68021],[-106.25199,39.67904],[-106.25825,39.6798],[-106.26132,39.68272],[-106.26162,39.68587],[-106.2659,39.68954],[-106.26262,39.69785],[-106.26408,39.70094],[-106.27205,39.70435],[-106.2774,39.69954],[-106.29092,39.70407],[-106.29419,39.70934],[-106.29519,39.71642],[-106.29835,39.72057],[-106.3162,39.72718],[-106.32048,39.73167],[-106.32542,39.73323],[-106.33127,39.74013],[-106.33563,39.74953],[-106.3421,39.75303],[-106.34328,39.75873],[-106.35074,39.75688],[-106.35399,39.75256],[-106.3622,39.75195],[-106.37054,39.75661],[-106.3742,39.76222],[-106.37922,39.76304],[-106.38548,39.76716],[-106.39103,39.77694],[-106.38902,39.7877],[-106.39431,39.79056],[-106.39686,39.79009],[-106.39642,39.79578],[-106.40128,39.79986],[-106.40189,39.80754],[-106.40716,39.8128],[-106.41071,39.82036],[-106.41255,39.82926],[-106.42061,39.84],[-106.42374,39.84142],[-106.42558,39.84549],[-106.42362,39.85011],[-106.43297,39.8654],[-106.43396,39.87738],[-106.4281,39.88216],[-106.4304,39.90891],[-106.43288,39.91261],[-106.43918,39.91563],[-106.4403,39.91832],[-106.43442,39.92339],[-106.43451,39.92491],[-106.6185,39.92523],[-106.62657,39.92478],[-106.62656,39.91867],[-106.72054,39.92061],[-107.11367,39.91911],[-107.1137,39.56638]]]}}]}