{"type":"FeatureCollection","features":[{"type":"Feature","id":"DE:77:10005","properties":{"destinationId":"77","locality":"Lewes","definition":"Sussex","state":"DE","stateName":"Delaware","county":"Sussex County","countyGeoid":"10005","countyGeoids":["10005"],"coverage":"complete-counties","sourceType":"gsa_county_defined_rate_area"},"geometry":{"type":"Polygon","coordinates":[[[-75.7226,38.82986],[-75.69367,38.46008],[-75.40199,38.45226],[-75.04894,38.45126],[-75.04975,38.48639],[-75.06003,38.60771],[-75.06192,38.60887],[-75.06522,38.63239],[-75.06551,38.66103],[-75.07922,38.73824],[-75.08215,38.77216],[-75.09201,38.8039],[-75.09748,38.80594],[-75.09914,38.80353],[-75.0933,38.79762],[-75.09365,38.79399],[-75.0971,38.7887],[-75.11333,38.783],[-75.13402,38.78224],[-75.15902,38.79019],[-75.19055,38.80686],[-75.20533,38.82339],[-75.23203,38.84425],[-75.26312,38.87735],[-75.27336,38.88387],[-75.28027,38.89235],[-75.30408,38.91316],[-75.3171,38.93344],[-75.31591,38.93973],[-75.31154,38.94463],[-75.31429,38.94728],[-75.31353,38.95043],[-75.31669,38.95291],[-75.32127,38.95346],[-75.32629,38.94901],[-75.33244,38.95071],[-75.335,38.94732],[-75.3387,38.94626],[-75.34352,38.94744],[-75.34217,38.95143],[-75.34406,38.95527],[-75.34934,38.9481],[-75.35277,38.94792],[-75.36015,38.95756],[-75.36621,38.95394],[-75.36789,38.95958],[-75.37213,38.96144],[-75.37685,38.96055],[-75.38065,38.96187],[-75.38252,38.95591],[-75.389,38.95467],[-75.39066,38.95678],[-75.39321,38.95574],[-75.39362,38.95285],[-75.40072,38.94772],[-75.39853,38.94074],[-75.40287,38.93747],[-75.40032,38.93555],[-75.39789,38.93619],[-75.40095,38.92948],[-75.39911,38.92691],[-75.40335,38.92277],[-75.40141,38.91836],[-75.40483,38.91745],[-75.40561,38.91941],[-75.40892,38.9197],[-75.40882,38.91682],[-75.41046,38.91642],[-75.41668,38.91803],[-75.41842,38.91674],[-75.41695,38.91552],[-75.41832,38.91426],[-75.42158,38.91552],[-75.42207,38.91404],[-75.4301,38.91335],[-75.43405,38.91082],[-75.44039,38.91313],[-75.46058,38.90938],[-75.46515,38.91131],[-75.48583,38.90355],[-75.48816,38.89898],[-75.48803,38.89278],[-75.49156,38.88852],[-75.49438,38.88788],[-75.49778,38.88213],[-75.50334,38.88162],[-75.50817,38.87895],[-75.52044,38.85574],[-75.53623,38.84989],[-75.53597,38.84762],[-75.53958,38.84363],[-75.54873,38.84108],[-75.55501,38.83565],[-75.7226,38.82986]]]}},{"type":"Feature","id":"DE:78:10003","properties":{"destinationId":"78","locality":"Wilmington","definition":"New Castle","state":"DE","stateName":"Delaware","county":"New Castle County","countyGeoid":"10003","countyGeoids":["10003"],"coverage":"complete-counties","sourceType":"gsa_county_defined_rate_area"},"geometry":{"type":"MultiPolygon","coordinates":[[[[-75.56752,39.5102],[-75.56545,39.50941],[-75.56144,39.51552],[-75.56132,39.51947],[-75.56752,39.5102]]],[[[-75.5708,39.62677],[-75.57105,39.62132],[-75.562,39.60574],[-75.55617,39.60639],[-75.55945,39.62981],[-75.5708,39.62677]]],[[[-75.57971,39.59789],[-75.57543,39.58812],[-75.57212,39.58586],[-75.56769,39.58573],[-75.56488,39.58898],[-75.57077,39.59409],[-75.57822,39.59847],[-75.57971,39.59789]]],[[[-75.78866,39.65957],[-75.7601,39.29682],[-75.7149,39.29937],[-75.68519,39.29709],[-75.68139,39.2932],[-75.6752,39.2905],[-75.65446,39.29118],[-75.64918,39.29315],[-75.64824,39.29573],[-75.64193,39.30089],[-75.63266,39.30125],[-75.62613,39.30413],[-75.61963,39.31006],[-75.6066,39.30809],[-75.60384,39.31118],[-75.60203,39.30811],[-75.59547,39.31008],[-75.59389,39.30842],[-75.59041,39.31175],[-75.58434,39.30872],[-75.57462,39.31343],[-75.56872,39.32352],[-75.56901,39.32874],[-75.55621,39.33532],[-75.55572,39.33707],[-75.55833,39.33923],[-75.55785,39.34276],[-75.56052,39.34507],[-75.55738,39.3491],[-75.55422,39.3454],[-75.55104,39.34557],[-75.5511,39.34948],[-75.55468,39.35151],[-75.55337,39.35301],[-75.54964,39.35386],[-75.54522,39.35076],[-75.54159,39.35437],[-75.53585,39.35062],[-75.53191,39.3546],[-75.5287,39.35343],[-75.52726,39.35468],[-75.52845,39.3583],[-75.52588,39.35964],[-75.52142,39.35861],[-75.5169,39.36099],[-75.51598,39.36436],[-75.51237,39.36566],[-75.5158,39.37835],[-75.52126,39.38165],[-75.52168,39.38787],[-75.53598,39.40938],[-75.53851,39.4165],[-75.55589,39.43035],[-75.57183,39.4389],[-75.57098,39.44249],[-75.57308,39.44537],[-75.57891,39.44788],[-75.58944,39.46081],[-75.59233,39.46758],[-75.59307,39.47919],[-75.58781,39.49033],[-75.58773,39.49635],[-75.57644,39.5092],[-75.57236,39.5171],[-75.56936,39.54059],[-75.56564,39.55851],[-75.56303,39.56224],[-75.59875,39.58912],[-75.60464,39.58992],[-75.61187,39.59741],[-75.61379,39.60619],[-75.61134,39.61018],[-75.61493,39.61595],[-75.61315,39.62096],[-75.58715,39.65101],[-75.56904,39.65649],[-75.56225,39.65671],[-75.50911,39.72009],[-75.49024,39.75479],[-75.4685,39.78647],[-75.42342,39.80662],[-75.45374,39.82031],[-75.48124,39.82911],[-75.49884,39.83331],[-75.53935,39.83821],[-75.57046,39.83901],[-75.59367,39.83746],[-75.63471,39.83016],[-75.66282,39.82115],[-75.70121,39.80261],[-75.72705,39.78413],[-75.75307,39.75763],[-75.76606,39.73781],[-75.77379,39.7222],[-75.7886,39.7222],[-75.78866,39.65957]]]]}}]}