{"type":"FeatureCollection","features":[{"type":"Feature","id":"GA:110:13059","properties":{"destinationId":"110","locality":"Athens","definition":"Clarke","state":"GA","stateName":"Georgia","county":"Clarke County","countyGeoid":"13059","countyGeoids":["13059"],"coverage":"complete-counties","sourceType":"gsa_county_defined_rate_area"},"geometry":{"type":"Polygon","coordinates":[[[-83.5369,33.96618],[-83.50831,33.9312],[-83.49544,33.93033],[-83.49168,33.93245],[-83.47529,33.92889],[-83.46895,33.93106],[-83.46672,33.92623],[-83.46097,33.92661],[-83.45499,33.92446],[-83.44704,33.9255],[-83.43835,33.92246],[-83.43133,33.92575],[-83.42193,33.92706],[-83.41896,33.92398],[-83.41988,33.92208],[-83.41551,33.91854],[-83.40628,33.91594],[-83.40555,33.91348],[-83.39459,33.90781],[-83.39347,33.90229],[-83.39081,33.89997],[-83.3828,33.89865],[-83.38216,33.89778],[-83.38491,33.89545],[-83.37903,33.89301],[-83.37341,33.88559],[-83.36624,33.88778],[-83.35995,33.87557],[-83.35346,33.87458],[-83.35246,33.87729],[-83.34547,33.87859],[-83.34438,33.87526],[-83.32753,33.8689],[-83.32401,33.86436],[-83.32533,33.86112],[-83.3276,33.8604],[-83.32546,33.8581],[-83.32669,33.85559],[-83.32306,33.85466],[-83.31304,33.85566],[-83.30184,33.85038],[-83.28955,33.85135],[-83.27593,33.84798],[-83.24086,33.90443],[-83.27541,33.9422],[-83.27765,33.94674],[-83.27914,33.95465],[-83.26955,33.95797],[-83.26592,33.96309],[-83.26623,33.97032],[-83.26865,33.97384],[-83.27556,33.97751],[-83.26918,33.98167],[-83.26899,34.0006],[-83.26198,33.99835],[-83.25841,33.9991],[-83.26331,34.00614],[-83.26601,34.00625],[-83.2666,34.00461],[-83.27354,34.00665],[-83.28015,34.00362],[-83.2864,34.00716],[-83.29421,34.00815],[-83.32024,34.02602],[-83.3595,34.04029],[-83.3777,34.03338],[-83.37984,34.03738],[-83.38288,34.0355],[-83.38442,34.03853],[-83.39296,34.03372],[-83.38396,34.03102],[-83.48447,33.99283],[-83.49543,33.99752],[-83.50113,33.9961],[-83.50305,33.99958],[-83.5016,33.99021],[-83.49824,33.98753],[-83.5369,33.96618]]]}},{"type":"Feature","id":"GA:111:13089","properties":{"destinationId":"111","locality":"Atlanta","definition":"Fulton / Dekalb","state":"GA","stateName":"Georgia","county":"DeKalb County","countyGeoid":"13089","countyGeoids":["13089","13121"],"coverage":"complete-counties","sourceType":"gsa_county_defined_rate_area"},"geometry":{"type":"Polygon","coordinates":[[[-84.34984,33.66383],[-84.34988,33.64794],[-84.24577,33.64692],[-84.24545,33.63073],[-84.22424,33.63066],[-84.22395,33.64657],[-84.17018,33.6459],[-84.17313,33.64097],[-84.16199,33.6378],[-84.15849,33.64246],[-84.15861,33.64448],[-84.15447,33.64575],[-84.15058,33.63858],[-84.14314,33.63626],[-84.13832,33.63767],[-84.1412,33.63213],[-84.13892,33.63083],[-84.12922,33.63137],[-84.12801,33.62677],[-84.12384,33.62561],[-84.12379,33.62404],[-84.11577,33.61913],[-84.117,33.6172],[-84.11579,33.61467],[-84.05661,33.72661],[-84.02371,33.75281],[-84.04031,33.75771],[-84.04331,33.76231],[-84.05199,33.76664],[-84.0582,33.77277],[-84.07094,33.77476],[-84.07591,33.77751],[-84.09778,33.79929],[-84.11342,33.8075],[-84.13212,33.82936],[-84.13337,33.83345],[-84.13682,33.8367],[-84.14543,33.8399],[-84.15841,33.8536],[-84.17494,33.85963],[-84.17932,33.86428],[-84.19354,33.86802],[-84.1973,33.87175],[-84.20132,33.87185],[-84.20459,33.87448],[-84.20509,33.8768],[-84.22486,33.8929],[-84.2322,33.90198],[-84.25602,33.9144],[-84.25982,33.9189],[-84.26929,33.94015],[-84.26811,33.94068],[-84.27047,33.94401],[-84.26991,33.94591],[-84.26616,33.94767],[-84.27147,33.95589],[-84.27532,33.9541],[-84.27709,33.95761],[-84.2805,33.95602],[-84.29411,33.95972],[-84.29982,33.95934],[-84.31329,33.9654],[-84.33734,33.97088],[-84.34644,33.96602],[-84.34741,33.96811],[-84.34984,33.66383]]]}},{"type":"Feature","id":"GA:111:13121","properties":{"destinationId":"111","locality":"Atlanta","definition":"Fulton / Dekalb","state":"GA","stateName":"Georgia","county":"Fulton County","countyGeoid":"13121","countyGeoids":["13089","13121"],"coverage":"complete-counties","sourceType":"gsa_county_defined_rate_area"},"geometry":{"type":"Polygon","coordinates":[[[-84.84913,33.51308],[-84.85116,33.51106],[-84.6804,33.5115],[-84.67098,33.50977],[-84.66999,33.51154],[-84.6213,33.51129],[-84.62113,33.50313],[-84.60937,33.50258],[-84.60664,33.50487],[-84.60717,33.50934],[-84.60467,33.51211],[-84.59766,33.51426],[-84.59422,33.51944],[-84.53219,33.53468],[-84.53165,33.53591],[-84.5306,33.5351],[-84.45866,33.55093],[-84.45788,33.64856],[-84.45309,33.64887],[-84.4531,33.6411],[-84.4483,33.6411],[-84.44835,33.6467],[-84.4458,33.6467],[-84.44577,33.64881],[-84.34988,33.64794],[-84.34741,33.96811],[-84.34644,33.96602],[-84.33734,33.97088],[-84.31329,33.9654],[-84.29982,33.95934],[-84.29411,33.95972],[-84.2805,33.95602],[-84.2725,33.95884],[-84.26762,33.96378],[-84.25809,33.96818],[-84.26285,33.97368],[-84.2616,33.9772],[-84.2633,33.98598],[-84.26174,33.98757],[-84.25672,33.98602],[-84.25333,33.98718],[-84.2496,33.99248],[-84.24832,33.99826],[-84.2372,34.00018],[-84.22814,34.00393],[-84.21249,34.00378],[-84.20215,33.99714],[-84.20164,33.9941],[-84.20509,33.99147],[-84.20477,33.9901],[-84.19245,33.99092],[-84.18545,33.99436],[-84.18088,33.99871],[-84.18009,34.00594],[-84.17506,34.02092],[-84.1695,34.028],[-84.15713,34.03243],[-84.14277,34.02966],[-84.12346,34.03335],[-84.11602,34.03664],[-84.11189,34.04201],[-84.10064,34.04727],[-84.09769,34.05071],[-84.11716,34.05126],[-84.13351,34.05709],[-84.14362,34.05537],[-84.1592,34.06267],[-84.16271,34.06639],[-84.17765,34.06994],[-84.18558,34.08256],[-84.19067,34.08648],[-84.20597,34.09068],[-84.21376,34.09914],[-84.22116,34.10039],[-84.23084,34.09672],[-84.2354,34.10135],[-84.25409,34.10429],[-84.25534,34.10802],[-84.25901,34.10956],[-84.25902,34.18592],[-84.32864,34.18617],[-84.3386,34.17815],[-84.34318,34.1762],[-84.3522,34.17691],[-84.35617,34.1743],[-84.35523,34.17198],[-84.35636,34.16825],[-84.36076,34.16183],[-84.35707,34.1554],[-84.36042,34.1513],[-84.35879,34.14817],[-84.36,34.1437],[-84.35885,34.14136],[-84.36133,34.13702],[-84.35979,34.13158],[-84.36158,34.1247],[-84.37664,34.11951],[-84.38826,34.11939],[-84.38832,34.11824],[-84.39207,34.11747],[-84.39354,34.11461],[-84.3948,34.11548],[-84.39954,34.10967],[-84.40407,34.11039],[-84.41145,34.10798],[-84.41414,34.11033],[-84.41843,34.10904],[-84.41913,34.05517],[-84.4168,34.05163],[-84.41109,34.04965],[-84.41134,34.04208],[-84.40686,34.03612],[-84.4056,34.03735],[-84.40213,34.03497],[-84.404,34.0332],[-84.4013,34.03028],[-84.40114,34.02418],[-84.39866,34.02306],[-84.39962,34.02057],[-84.3983,34.01646],[-84.40103,34.01197],[-84.39925,34.01014],[-84.4008,34.00889],[-84.40014,34.00775],[-84.39637,34.00815],[-84.39726,34.00657],[-84.39252,34.00106],[-84.39292,33.99968],[-84.38769,33.99672],[-84.38997,33.99537],[-84.38647,33.99261],[-84.38333,33.9928],[-84.37677,33.98937],[-84.37467,33.9861],[-84.37512,33.97854],[-84.37841,33.97291],[-84.38446,33.97108],[-84.38339,33.96325],[-84.38948,33.95704],[-84.39776,33.95156],[-84.41724,33.93245],[-84.43639,33.92297],[-84.43918,33.91751],[-84.44738,33.91089],[-84.44771,33.90847],[-84.44165,33.89983],[-84.4438,33.89589],[-84.44153,33.89132],[-84.4443,33.88664],[-84.44331,33.87925],[-84.45169,33.87257],[-84.45204,33.86921],[-84.45618,33.86388],[-84.45445,33.8588],[-84.46022,33.85254],[-84.45878,33.84604],[-84.46043,33.83835],[-84.45507,33.82825],[-84.45612,33.8259],[-84.458,33.82458],[-84.46327,33.82702],[-84.46972,33.82704],[-84.48033,33.81748],[-84.49151,33.81208],[-84.50955,33.79382],[-84.53077,33.78234],[-84.53937,33.76992],[-84.55513,33.76088],[-84.57343,33.74551],[-84.57928,33.7426],[-84.58693,33.72895],[-84.59369,33.72938],[-84.59945,33.72626],[-84.60748,33.71327],[-84.61581,33.70959],[-84.6214,33.7044],[-84.63171,33.70098],[-84.63287,33.69899],[-84.63033,33.69312],[-84.63214,33.68837],[-84.64214,33.68388],[-84.64798,33.68599],[-84.65064,33.68538],[-84.65273,33.68361],[-84.65387,33.67537],[-84.65193,33.66791],[-84.65732,33.65863],[-84.66168,33.65688],[-84.67395,33.65653],[-84.68755,33.65047],[-84.70904,33.64716],[-84.71416,33.64325],[-84.72966,33.63685],[-84.73221,33.62943],[-84.73841,33.62329],[-84.74184,33.62363],[-84.74488,33.62834],[-84.75094,33.63202],[-84.76227,33.6152],[-84.77766,33.6084],[-84.78665,33.60082],[-84.79585,33.59635],[-84.80607,33.58613],[-84.81016,33.57188],[-84.82472,33.56343],[-84.82802,33.55359],[-84.83317,33.5471],[-84.83118,33.54353],[-84.82506,33.53854],[-84.81488,33.52196],[-84.8184,33.51836],[-84.82805,33.51338],[-84.84297,33.51485],[-84.84913,33.51308]]]}},{"type":"Feature","id":"GA:115:13127","properties":{"destinationId":"115","locality":"Jekyll Island / Brunswick","definition":"Glynn","state":"GA","stateName":"Georgia","county":"Glynn County","countyGeoid":"13127","countyGeoids":["13127"],"coverage":"complete-counties","sourceType":"gsa_county_defined_rate_area"},"geometry":{"type":"Polygon","coordinates":[[[-81.78263,31.1725],[-81.78183,31.16581],[-81.77628,31.16447],[-81.76893,31.16911],[-81.76624,31.16965],[-81.76363,31.16811],[-81.76303,31.16391],[-81.76503,31.15901],[-81.76413,31.1545],[-81.76243,31.1533],[-81.75403,31.1503],[-81.73732,31.15191],[-81.72419,31.14959],[-81.71703,31.145],[-81.71053,31.13681],[-81.70223,31.13391],[-81.68622,31.12242],[-81.6621,31.12563],[-81.65733,31.12319],[-81.65792,31.12135],[-81.65187,31.1209],[-81.64703,31.11524],[-81.64182,31.11778],[-81.63283,31.10781],[-81.62302,31.11661],[-81.61726,31.11712],[-81.61032,31.11291],[-81.59959,31.11594],[-81.59302,31.11588],[-81.5907,31.1178],[-81.58772,31.11808],[-81.58207,31.11504],[-81.57883,31.11605],[-81.57318,31.12699],[-81.56761,31.13027],[-81.56355,31.13063],[-81.55886,31.12721],[-81.55781,31.12189],[-81.56409,31.1055],[-81.57194,31.0993],[-81.57267,31.09556],[-81.57008,31.09308],[-81.56512,31.09194],[-81.5583,31.08214],[-81.55473,31.08014],[-81.5434,31.08403],[-81.53455,31.08152],[-81.53128,31.0771],[-81.52949,31.06598],[-81.52657,31.06319],[-81.49187,31.05389],[-81.48959,31.0496],[-81.48899,31.04211],[-81.4863,31.0346],[-81.47891,31.03219],[-81.45689,31.0372],[-81.45252,31.03639],[-81.44493,31.02899],[-81.44315,31.01666],[-81.43492,31.0178],[-81.43471,31.01464],[-81.43248,31.01299],[-81.42473,31.01368],[-81.42047,31.0167],[-81.41512,31.02672],[-81.40127,31.07278],[-81.40121,31.08614],[-81.40373,31.10712],[-81.40952,31.12061],[-81.39968,31.13411],[-81.38774,31.13443],[-81.37589,31.14034],[-81.36581,31.14794],[-81.35488,31.1672],[-81.33111,31.19696],[-81.3159,31.20915],[-81.30306,31.21688],[-81.2957,31.21505],[-81.29047,31.21769],[-81.28284,31.24433],[-81.27686,31.25473],[-81.26955,31.25874],[-81.27123,31.26589],[-81.27953,31.27174],[-81.28352,31.2934],[-81.29052,31.29183],[-81.29823,31.29246],[-81.30518,31.29707],[-81.31602,31.30889],[-81.33133,31.30612],[-81.33312,31.30643],[-81.33593,31.3118],[-81.33851,31.31314],[-81.35657,31.3138],[-81.3688,31.3187],[-81.38299,31.31711],[-81.39576,31.30664],[-81.40302,31.29246],[-81.40865,31.29118],[-81.41231,31.29473],[-81.40401,31.30627],[-81.40437,31.30924],[-81.40868,31.31111],[-81.41488,31.30569],[-81.42669,31.3115],[-81.43587,31.31326],[-81.43762,31.31596],[-81.43504,31.32931],[-81.43759,31.33182],[-81.4426,31.33139],[-81.45373,31.32634],[-81.47018,31.33972],[-81.47251,31.33836],[-81.4707,31.3332],[-81.47352,31.33282],[-81.47484,31.33913],[-81.47774,31.33854],[-81.47744,31.33442],[-81.47942,31.33768],[-81.48108,31.33597],[-81.4829,31.33683],[-81.48144,31.33963],[-81.48477,31.33963],[-81.48611,31.34263],[-81.48865,31.34181],[-81.48951,31.34479],[-81.49307,31.34345],[-81.49135,31.34598],[-81.49206,31.34736],[-81.49553,31.34795],[-81.50216,31.35372],[-81.50555,31.35561],[-81.51862,31.35734],[-81.52621,31.36632],[-81.53426,31.3678],[-81.53615,31.37008],[-81.53536,31.37533],[-81.53812,31.37776],[-81.54379,31.37808],[-81.54729,31.37597],[-81.55148,31.37612],[-81.55144,31.37812],[-81.54516,31.38215],[-81.54567,31.38483],[-81.54932,31.38711],[-81.55716,31.38698],[-81.56045,31.38846],[-81.57758,31.39943],[-81.58027,31.4058],[-81.58352,31.40918],[-81.58863,31.41006],[-81.58739,31.41626],[-81.59312,31.41545],[-81.5977,31.42169],[-81.60461,31.42555],[-81.6058,31.43187],[-81.6114,31.43557],[-81.60694,31.43856],[-81.61126,31.44588],[-81.61697,31.44635],[-81.62292,31.44914],[-81.6249,31.45067],[-81.62429,31.45298],[-81.62599,31.45302],[-81.66503,31.3999],[-81.69198,31.40054],[-81.69721,31.39238],[-81.70483,31.37487],[-81.69813,31.36788],[-81.69903,31.363],[-81.70713,31.3493],[-81.72524,31.32721],[-81.73169,31.33005],[-81.73299,31.32578],[-81.73252,31.30246],[-81.73427,31.29583],[-81.73796,31.2891],[-81.7472,31.28146],[-81.75867,31.23785],[-81.76439,31.22316],[-81.76678,31.20184],[-81.77599,31.17664],[-81.78263,31.1725]]]}},{"type":"Feature","id":"GA:116:13051","properties":{"destinationId":"116","locality":"Savannah","definition":"Chatham","state":"GA","stateName":"Georgia","county":"Chatham County","countyGeoid":"13051","countyGeoids":["13051"],"coverage":"complete-counties","sourceType":"gsa_county_defined_rate_area"},"geometry":{"type":"Polygon","coordinates":[[[-81.3917,32.09589],[-81.38714,32.09023],[-81.38897,32.08705],[-81.38473,32.07952],[-81.37875,32.07432],[-81.36917,32.06916],[-81.36887,32.06804],[-81.37269,32.06847],[-81.37523,32.06669],[-81.37038,32.06374],[-81.36874,32.05968],[-81.3698,32.05887],[-81.36723,32.05729],[-81.37021,32.05446],[-81.36749,32.0509],[-81.36809,32.04868],[-81.36108,32.04892],[-81.36124,32.04572],[-81.356,32.04207],[-81.35043,32.03424],[-81.34821,32.03907],[-81.34774,32.03549],[-81.34377,32.03306],[-81.34237,32.03418],[-81.34068,32.03132],[-81.33826,32.03291],[-81.33464,32.0277],[-81.33661,32.02393],[-81.33573,32.022],[-81.32793,32.0194],[-81.32503,32.0218],[-81.32345,32.02006],[-81.32473,32.01661],[-81.32333,32.01521],[-81.3183,32.0155],[-81.32291,32.01161],[-81.32191,32.00741],[-81.31942,32.00688],[-81.31642,32.01141],[-81.31492,32.01141],[-81.31412,32.00451],[-81.30873,32.00391],[-81.30444,32.00071],[-81.30556,31.99779],[-81.31015,31.9951],[-81.30744,31.98964],[-81.30885,31.98233],[-81.30322,31.97978],[-81.29125,31.97922],[-81.28863,31.9772],[-81.28754,31.97418],[-81.29053,31.96051],[-81.28703,31.95066],[-81.28884,31.9459],[-81.28803,31.94411],[-81.28547,31.94299],[-81.28043,31.94531],[-81.27312,31.94128],[-81.27272,31.93713],[-81.27614,31.93182],[-81.27594,31.92814],[-81.27303,31.925],[-81.26993,31.92421],[-81.26313,31.92711],[-81.25803,31.92671],[-81.25753,31.92372],[-81.26363,31.91971],[-81.26583,31.91585],[-81.26568,31.91059],[-81.26355,31.90808],[-81.25639,31.90537],[-81.24983,31.91071],[-81.24615,31.91166],[-81.24096,31.91198],[-81.23525,31.9101],[-81.23318,31.90795],[-81.23345,31.90397],[-81.24142,31.89614],[-81.24307,31.89232],[-81.23874,31.88709],[-81.2356,31.88767],[-81.22797,31.89648],[-81.22559,31.90263],[-81.21108,31.9193],[-81.20359,31.92226],[-81.19382,31.92138],[-81.19064,31.918],[-81.19368,31.90891],[-81.20223,31.90237],[-81.22075,31.89569],[-81.22266,31.89308],[-81.22234,31.89037],[-81.21839,31.88774],[-81.21217,31.88737],[-81.18557,31.89988],[-81.1734,31.89975],[-81.16904,31.89704],[-81.16119,31.88757],[-81.16103,31.87713],[-81.15512,31.86431],[-81.13832,31.85522],[-81.14884,31.84332],[-81.15583,31.83812],[-81.16162,31.82114],[-81.17392,31.81852],[-81.17703,31.81611],[-81.17672,31.80802],[-81.18122,31.79561],[-81.18052,31.79212],[-81.17792,31.79062],[-81.16442,31.78812],[-81.16102,31.78553],[-81.16042,31.78252],[-81.16192,31.77922],[-81.16913,31.77282],[-81.17182,31.76792],[-81.17332,31.75723],[-81.15642,31.74233],[-81.15473,31.73772],[-81.15469,31.7262],[-81.13845,31.72093],[-81.13063,31.72269],[-81.07917,31.76268],[-81.07038,31.77137],[-81.04637,31.80087],[-81.03591,31.81036],[-81.03472,31.81642],[-81.03981,31.823],[-81.04794,31.82488],[-81.05231,31.81905],[-81.06212,31.82107],[-81.06728,31.82613],[-81.07581,31.82903],[-81.07618,31.83613],[-81.06279,31.84474],[-81.05907,31.85011],[-81.0586,31.85781],[-81.06525,31.8771],[-81.04155,31.8762],[-81.03141,31.87293],[-81.02841,31.86814],[-81.01448,31.86747],[-81.00032,31.85674],[-80.99269,31.85764],[-80.97143,31.87794],[-80.93014,31.90807],[-80.94136,31.91298],[-80.95447,31.91177],[-80.96849,31.91582],[-80.98362,31.93167],[-80.98434,31.94014],[-80.97239,31.94127],[-80.94849,31.95723],[-80.9494,31.96132],[-80.94274,31.96374],[-80.93252,31.96193],[-80.93028,31.9567],[-80.92801,31.93853],[-80.92135,31.93873],[-80.89769,31.94906],[-80.8819,31.95668],[-80.86281,31.96935],[-80.85942,31.97382],[-80.85843,31.98426],[-80.8473,31.98755],[-80.84191,32.00264],[-80.84038,32.00304],[-80.84346,32.02365],[-80.85273,32.02878],[-80.85506,32.02546],[-80.86621,32.01938],[-80.87595,32.01676],[-80.89074,32.03073],[-80.90668,32.03479],[-80.90766,32.03815],[-80.92103,32.03999],[-80.92508,32.04194],[-80.95388,32.07014],[-80.95957,32.07285],[-80.97192,32.07463],[-80.98351,32.07955],[-80.99214,32.09492],[-81.0043,32.10237],[-81.01102,32.10205],[-81.01735,32.09878],[-81.02162,32.09168],[-81.02626,32.08813],[-81.03812,32.08373],[-81.04354,32.0861],[-81.05955,32.08862],[-81.07431,32.09739],[-81.08827,32.09993],[-81.08697,32.10397],[-81.09124,32.11089],[-81.09498,32.11182],[-81.1067,32.1097],[-81.11537,32.1147],[-81.11723,32.1198],[-81.11524,32.1255],[-81.11994,32.134],[-81.11833,32.1444],[-81.11223,32.14931],[-81.11224,32.1508],[-81.12112,32.1545],[-81.12203,32.1618],[-81.12975,32.16593],[-81.12813,32.1691],[-81.12119,32.17492],[-81.11901,32.17467],[-81.11775,32.17116],[-81.11113,32.1727],[-81.11023,32.1768],[-81.11193,32.178],[-81.11638,32.17617],[-81.12045,32.17829],[-81.11793,32.1853],[-81.11823,32.1892],[-81.12155,32.19042],[-81.12158,32.1922],[-81.11623,32.193],[-81.11402,32.19545],[-81.12206,32.1955],[-81.12315,32.20133],[-81.12828,32.20863],[-81.13673,32.21367],[-81.13844,32.21926],[-81.14314,32.22173],[-81.15084,32.2212],[-81.15215,32.22232],[-81.14522,32.22663],[-81.19568,32.23747],[-81.3917,32.09589]]]}},{"type":"Feature","id":"GA:413:13245","properties":{"destinationId":"413","locality":"Augusta","definition":"Richmond","state":"GA","stateName":"Georgia","county":"Richmond County","countyGeoid":"13245","countyGeoids":["13245"],"coverage":"complete-counties","sourceType":"gsa_county_defined_rate_area"},"geometry":{"type":"Polygon","coordinates":[[[-82.3503,33.3148],[-82.3535,33.31232],[-82.34916,33.31324],[-82.33428,33.30931],[-82.32421,33.30317],[-82.32225,33.30017],[-82.31154,33.29715],[-82.30129,33.2883],[-82.29595,33.27657],[-82.29255,33.27659],[-82.27351,33.26761],[-82.26758,33.2674],[-82.17424,33.29677],[-82.16508,33.296],[-82.16109,33.28938],[-82.15205,33.28239],[-82.142,33.28115],[-82.13375,33.27588],[-82.133,33.27042],[-82.12994,33.2667],[-82.13018,33.26069],[-82.12533,33.24966],[-82.10913,33.2413],[-82.1034,33.23301],[-82.09259,33.23008],[-82.08853,33.23028],[-82.0719,33.23915],[-82.06003,33.24257],[-82.04684,33.23669],[-82.0291,33.23194],[-82.01149,33.23391],[-81.99677,33.23105],[-81.98995,33.22792],[-81.98713,33.22877],[-81.97889,33.22719],[-81.9524,33.23857],[-81.94048,33.24693],[-81.93739,33.25171],[-81.92697,33.25473],[-81.92442,33.25692],[-81.91462,33.25914],[-81.90611,33.25912],[-81.90146,33.26126],[-81.89044,33.26014],[-81.88604,33.26185],[-81.87748,33.25872],[-81.86502,33.24829],[-81.85615,33.2458],[-81.85246,33.24668],[-81.85256,33.25141],[-81.84983,33.25292],[-81.84514,33.25254],[-81.84004,33.25464],[-81.84154,33.25724],[-81.84634,33.25844],[-81.84814,33.26454],[-81.84691,33.2666],[-81.84386,33.26662],[-81.83441,33.25838],[-81.82834,33.26304],[-81.83054,33.26438],[-81.83335,33.26229],[-81.83604,33.26354],[-81.83554,33.27144],[-81.83252,33.27556],[-81.83914,33.2739],[-81.84414,33.27884],[-81.84454,33.28294],[-81.84619,33.28433],[-81.85158,33.28354],[-81.86074,33.28584],[-81.86334,33.28924],[-81.86204,33.29694],[-81.86004,33.29914],[-81.85254,33.29934],[-81.85034,33.29644],[-81.84874,33.29674],[-81.84964,33.29954],[-81.84604,33.30434],[-81.84764,33.30714],[-81.85365,33.31033],[-81.85606,33.30985],[-81.86206,33.30248],[-81.86393,33.30204],[-81.86494,33.31184],[-81.86654,33.31374],[-81.86925,33.31377],[-81.87944,33.30234],[-81.88124,33.30254],[-81.88464,33.30924],[-81.88154,33.31404],[-81.88254,33.31704],[-81.89254,33.31534],[-81.88916,33.32109],[-81.89102,33.32249],[-81.89554,33.32164],[-81.89859,33.3229],[-81.89927,33.32542],[-81.89694,33.32764],[-81.89694,33.33054],[-81.90195,33.33588],[-81.90364,33.33484],[-81.90261,33.33026],[-81.90604,33.32604],[-81.90613,33.32162],[-81.91214,33.31914],[-81.91374,33.32004],[-81.90914,33.32394],[-81.90814,33.32714],[-81.91884,33.33344],[-81.91893,33.33496],[-81.91551,33.34078],[-81.90844,33.34384],[-81.90893,33.34627],[-81.91302,33.34689],[-81.91928,33.34034],[-81.92346,33.3449],[-81.93274,33.34354],[-81.93974,33.34494],[-81.93984,33.34774],[-81.93481,33.35376],[-81.93531,33.35679],[-81.94474,33.36404],[-81.94674,33.36734],[-81.94634,33.37064],[-81.93964,33.37254],[-81.93464,33.36894],[-81.93063,33.36816],[-81.92574,33.37114],[-81.92484,33.37414],[-81.93086,33.38008],[-81.93508,33.39724],[-81.94563,33.40584],[-81.94315,33.40903],[-81.93139,33.40696],[-81.92477,33.41242],[-81.92386,33.41046],[-81.91775,33.4072],[-81.91237,33.40809],[-81.90963,33.4126],[-81.91076,33.41504],[-81.92489,33.41931],[-81.93174,33.42451],[-81.93231,33.42659],[-81.9308,33.42903],[-81.91697,33.43259],[-81.91428,33.4353],[-81.91353,33.44127],[-81.91944,33.4491],[-81.92634,33.46294],[-81.92944,33.46584],[-81.98594,33.48654],[-81.99094,33.49424],[-81.99038,33.50076],[-81.99194,33.50444],[-82.00134,33.52014],[-82.00714,33.52284],[-82.01004,33.53043],[-82.01984,33.53504],[-82.02824,33.54493],[-82.17995,33.43873],[-82.24528,33.38967],[-82.3503,33.3148]]]}},{"type":"Feature","id":"GA:494:13067","properties":{"destinationId":"494","locality":"Marietta","definition":"Cobb","state":"GA","stateName":"Georgia","county":"Cobb County","countyGeoid":"13067","countyGeoids":["13067"],"coverage":"complete-counties","sourceType":"gsa_county_defined_rate_area"},"geometry":{"type":"Polygon","coordinates":[[[-84.73968,33.956],[-84.73958,33.94779],[-84.72298,33.94758],[-84.72474,33.86693],[-84.72414,33.80639],[-84.62269,33.80484],[-84.57785,33.7456],[-84.57793,33.74368],[-84.57343,33.74551],[-84.55513,33.76088],[-84.53937,33.76992],[-84.53077,33.78234],[-84.50955,33.79382],[-84.49151,33.81208],[-84.48033,33.81748],[-84.47094,33.82637],[-84.46676,33.82764],[-84.45895,33.82468],[-84.45612,33.8259],[-84.45507,33.82825],[-84.46043,33.83835],[-84.45878,33.84604],[-84.46022,33.85254],[-84.45445,33.8588],[-84.45618,33.86388],[-84.45204,33.86921],[-84.45169,33.87257],[-84.44331,33.87925],[-84.4443,33.88664],[-84.44153,33.89132],[-84.4438,33.89589],[-84.44165,33.89983],[-84.44771,33.90847],[-84.44738,33.91089],[-84.43918,33.91751],[-84.43639,33.92297],[-84.41724,33.93245],[-84.39776,33.95156],[-84.38339,33.96325],[-84.38446,33.97108],[-84.37841,33.97291],[-84.37626,33.97542],[-84.37467,33.9861],[-84.37912,33.99103],[-84.38647,33.99261],[-84.38997,33.99537],[-84.38769,33.99672],[-84.39292,33.99968],[-84.39252,34.00106],[-84.39726,34.00657],[-84.39637,34.00815],[-84.40014,34.00775],[-84.4008,34.00889],[-84.39925,34.01014],[-84.40103,34.01197],[-84.3983,34.01646],[-84.39962,34.02057],[-84.39866,34.02306],[-84.40114,34.02418],[-84.4013,34.03028],[-84.404,34.0332],[-84.40253,34.03568],[-84.4056,34.03735],[-84.40686,34.03612],[-84.41134,34.04208],[-84.41109,34.04965],[-84.4168,34.05163],[-84.41913,34.05517],[-84.41893,34.07354],[-84.51151,34.07527],[-84.51148,34.0792],[-84.51586,34.07923],[-84.51587,34.0753],[-84.61538,34.07746],[-84.6153,34.08161],[-84.62422,34.08178],[-84.62428,34.0776],[-84.73784,34.07935],[-84.73968,33.956]]]}}]}