{"type":"FeatureCollection","features":[{"type":"Feature","id":"IA:118:19153","properties":{"destinationId":"118","locality":"Des Moines","definition":"Polk","state":"IA","stateName":"Iowa","county":"Polk County","countyGeoid":"19153","countyGeoids":["19153"],"coverage":"complete-counties","sourceType":"gsa_county_defined_rate_area"},"geometry":{"type":"Polygon","coordinates":[[[-93.81572,41.86342],[-93.81428,41.60046],[-93.79063,41.60042],[-93.79061,41.51192],[-93.54824,41.51131],[-93.44129,41.50759],[-93.44206,41.50457],[-93.44023,41.50256],[-93.4367,41.50228],[-93.42768,41.50505],[-93.42488,41.50749],[-93.41384,41.50742],[-93.41335,41.50412],[-93.41539,41.50031],[-93.42258,41.49499],[-93.42062,41.49253],[-93.41426,41.49236],[-93.40978,41.49501],[-93.40445,41.50161],[-93.40014,41.50201],[-93.3972,41.49985],[-93.39663,41.4963],[-93.39887,41.49256],[-93.40546,41.48977],[-93.40467,41.48674],[-93.39717,41.48636],[-93.39238,41.48839],[-93.38783,41.49378],[-93.38381,41.4948],[-93.37481,41.49329],[-93.37203,41.48607],[-93.36349,41.48658],[-93.35836,41.48976],[-93.35908,41.49634],[-93.35604,41.49816],[-93.35253,41.49689],[-93.34793,41.4843],[-93.34381,41.48184],[-93.33934,41.48272],[-93.33506,41.4874],[-93.32841,41.49079],[-93.32868,41.60115],[-93.34868,41.601],[-93.34793,41.8631],[-93.81572,41.86342]]]}},{"type":"Feature","id":"IA:476:19049","properties":{"destinationId":"476","locality":"Dallas","definition":"Dallas","state":"IA","stateName":"Iowa","county":"Dallas County","countyGeoid":"19049","countyGeoids":["19049"],"coverage":"complete-counties","sourceType":"gsa_county_defined_rate_area"},"geometry":{"type":"Polygon","coordinates":[[[-94.2807,41.79098],[-94.28006,41.60131],[-94.24136,41.60097],[-94.24159,41.50368],[-93.89712,41.5031],[-93.79061,41.51192],[-93.79063,41.60042],[-93.81428,41.60046],[-93.81572,41.86342],[-94.28034,41.863],[-94.2807,41.79098]]]}}]}