{"type":"FeatureCollection","features":[{"type":"Feature","id":"ID:120:16055","properties":{"destinationId":"120","locality":"Coeur d'Alene","definition":"Kootenai","state":"ID","stateName":"Idaho","county":"Kootenai County","countyGeoid":"16055","countyGeoids":["16055"],"coverage":"complete-counties","sourceType":"gsa_county_defined_rate_area"},"geometry":{"type":"Polygon","coordinates":[[[-117.04262,47.76122],[-117.04007,47.36603],[-116.8108,47.36631],[-116.81081,47.38066],[-116.7682,47.38071],[-116.76817,47.38584],[-116.73522,47.38592],[-116.7354,47.37146],[-116.62906,47.37144],[-116.62911,47.40033],[-116.58649,47.40028],[-116.58655,47.4147],[-116.48564,47.41297],[-116.32941,47.41401],[-116.32954,47.89039],[-116.5051,47.89014],[-116.50433,47.99139],[-116.63302,47.9915],[-116.63411,47.97707],[-117.04226,47.97745],[-117.04262,47.76122]]]}},{"type":"Feature","id":"ID:122:16013","properties":{"destinationId":"122","locality":"Sun Valley / Ketchum","definition":"Blaine / Elmore","state":"ID","stateName":"Idaho","county":"Blaine County","countyGeoid":"16013","countyGeoids":["16013","16039"],"coverage":"complete-counties","sourceType":"gsa_county_defined_rate_area"},"geometry":{"type":"Polygon","coordinates":[[[-114.99669,43.91441],[-114.99582,43.90837],[-114.98852,43.90098],[-114.98781,43.8956],[-114.98956,43.8947],[-114.98838,43.88583],[-114.98552,43.8858],[-114.97407,43.8787],[-114.97482,43.87655],[-114.97284,43.87162],[-114.97389,43.86736],[-114.97738,43.86425],[-114.98212,43.86509],[-114.98945,43.86166],[-114.98926,43.85856],[-114.98127,43.85494],[-114.97474,43.85402],[-114.97023,43.8486],[-114.95896,43.85374],[-114.95188,43.85428],[-114.93325,43.84112],[-114.92413,43.83708],[-114.91604,43.83673],[-114.91112,43.83181],[-114.9008,43.82855],[-114.8944,43.82986],[-114.88826,43.82808],[-114.8858,43.82428],[-114.86535,43.822],[-114.85728,43.81744],[-114.85012,43.81782],[-114.84778,43.81638],[-114.84764,43.81119],[-114.85374,43.80588],[-114.85596,43.79551],[-114.85439,43.79166],[-114.85151,43.79108],[-114.83981,43.79455],[-114.83177,43.79306],[-114.83144,43.79053],[-114.82733,43.78818],[-114.8151,43.79853],[-114.80256,43.80043],[-114.80047,43.80273],[-114.79413,43.80165],[-114.78688,43.80261],[-114.78046,43.80069],[-114.77491,43.79241],[-114.77144,43.79358],[-114.76023,43.79164],[-114.75509,43.80064],[-114.75006,43.80124],[-114.74037,43.80684],[-114.73636,43.80593],[-114.73052,43.80741],[-114.72484,43.8058],[-114.72028,43.81057],[-114.7195,43.8148],[-114.71634,43.81539],[-114.70205,43.80541],[-114.69815,43.79417],[-114.69263,43.78426],[-114.69541,43.77529],[-114.68914,43.76632],[-114.69085,43.75136],[-114.6803,43.74232],[-114.67637,43.74448],[-114.66983,43.74413],[-114.66607,43.73896],[-114.67498,43.72983],[-114.67633,43.72572],[-114.6801,43.7241],[-114.68223,43.70846],[-114.67621,43.69806],[-114.6878,43.69098],[-114.6875,43.68342],[-114.68205,43.67584],[-114.67916,43.67417],[-114.67915,43.66995],[-114.67565,43.66842],[-114.66856,43.66863],[-114.66231,43.6607],[-114.66275,43.65792],[-114.66114,43.65548],[-114.66332,43.65076],[-114.6627,43.64452],[-114.66985,43.64027],[-114.67251,43.63642],[-114.6687,43.62949],[-114.67108,43.62671],[-114.67086,43.62398],[-114.68082,43.61308],[-114.682,43.60891],[-114.68046,43.60273],[-114.68314,43.59337],[-114.68236,43.59035],[-114.66245,43.59464],[-114.65867,43.59297],[-114.65165,43.593],[-114.6425,43.58319],[-114.64207,43.57825],[-114.6368,43.57597],[-114.63613,43.57361],[-114.62269,43.5754],[-114.61686,43.56934],[-114.6116,43.56826],[-114.611,43.56509],[-114.60223,43.56745],[-114.59987,43.56475],[-114.59424,43.5632],[-114.58674,43.55883],[-114.58907,43.55255],[-114.58495,43.54991],[-114.59092,43.54642],[-114.595,43.53806],[-114.5957,43.53124],[-114.5895,43.5292],[-114.58019,43.52333],[-114.57987,43.51584],[-114.57345,43.51177],[-114.56819,43.50448],[-114.56249,43.50254],[-114.56077,43.49802],[-114.54328,43.4973],[-114.52943,43.49072],[-114.51555,43.49315],[-114.51674,43.49069],[-114.51395,43.48352],[-114.50823,43.48151],[-114.50609,43.4779],[-114.50806,43.47705],[-114.50822,43.47108],[-114.51223,43.46435],[-114.51244,43.46045],[-114.51406,43.45794],[-114.51747,43.45827],[-114.52856,43.44822],[-114.53148,43.44731],[-114.53368,43.43983],[-114.54153,43.44122],[-114.54698,43.43566],[-114.54638,43.3984],[-114.52651,43.39836],[-114.52694,43.3686],[-114.53433,43.36862],[-114.53431,43.3334],[-114.52979,43.33184],[-114.50864,43.3329],[-114.50311,43.3291],[-114.49864,43.32862],[-114.48834,43.32903],[-114.48439,43.33179],[-114.48021,43.33242],[-114.46173,43.32501],[-114.44988,43.33219],[-114.43977,43.33078],[-114.42984,43.33414],[-114.41894,43.32844],[-114.40726,43.32956],[-114.39461,43.32621],[-114.39485,43.25756],[-114.37476,43.25751],[-114.37496,43.19964],[-113.41387,43.19986],[-113.41314,42.84917],[-113.47216,42.8492],[-113.47218,42.66935],[-113.44849,42.67076],[-113.43465,42.67358],[-113.41493,42.67318],[-113.39685,42.6849],[-113.37312,42.68764],[-113.36416,42.67967],[-113.35949,42.67076],[-113.35112,42.66631],[-113.34166,42.65697],[-113.33184,42.65317],[-113.32738,42.64434],[-113.31589,42.63762],[-113.31056,42.63116],[-113.3044,42.62875],[-113.29364,42.63102],[-113.28221,42.62728],[-113.26217,42.6283],[-113.25882,42.6247],[-113.25873,42.62046],[-113.25683,42.61776],[-113.25088,42.61585],[-113.24666,42.61689],[-113.23697,42.62525],[-113.23684,42.67531],[-113.17863,42.67546],[-113.17888,42.76236],[-113.23694,42.76221],[-113.23702,42.84816],[-113.24372,42.84821],[-113.24348,43.11095],[-113.00771,43.11093],[-113.00732,43.28478],[-113.36196,43.28468],[-113.36191,43.36716],[-113.63523,43.36755],[-113.63432,43.49747],[-113.64012,43.49863],[-113.6429,43.49612],[-113.65363,43.49373],[-113.66123,43.49784],[-113.66591,43.49713],[-113.67283,43.50036],[-113.66556,43.51177],[-113.67166,43.52462],[-113.68526,43.53231],[-113.68581,43.53925],[-113.68893,43.54192],[-113.68701,43.55311],[-113.6901,43.55489],[-113.69079,43.5571],[-113.68886,43.56152],[-113.69344,43.56497],[-113.69268,43.56679],[-113.69551,43.57448],[-113.69427,43.57541],[-113.69474,43.57956],[-113.69692,43.57959],[-113.70115,43.58455],[-113.71336,43.58572],[-113.71359,43.58704],[-113.72766,43.59014],[-113.74835,43.5872],[-113.74792,43.58438],[-113.75286,43.57524],[-113.75928,43.57609],[-113.7662,43.57391],[-113.76966,43.57095],[-113.77361,43.57135],[-113.77713,43.56685],[-113.78545,43.56671],[-113.80238,43.56999],[-113.808,43.5745],[-113.80646,43.57662],[-113.80888,43.57986],[-113.80879,43.58286],[-113.81058,43.58375],[-113.81238,43.5914],[-113.81047,43.59382],[-113.81102,43.59638],[-113.81342,43.59729],[-113.81336,43.60006],[-113.82131,43.60544],[-113.83561,43.60491],[-113.83719,43.60877],[-113.83571,43.61198],[-113.84116,43.61768],[-113.83954,43.61861],[-113.84252,43.6206],[-113.84389,43.62497],[-113.85164,43.62766],[-113.85563,43.63301],[-113.85999,43.63413],[-113.8626,43.6377],[-113.8627,43.64525],[-113.86883,43.64659],[-113.87533,43.6505],[-113.88022,43.65053],[-113.88338,43.64851],[-113.88724,43.65036],[-113.89064,43.65001],[-113.89335,43.64798],[-113.90492,43.64972],[-113.90859,43.65832],[-113.90798,43.66457],[-113.91008,43.6662],[-113.9119,43.67172],[-113.93352,43.67936],[-113.94016,43.68632],[-113.94609,43.68924],[-113.94832,43.69396],[-113.95656,43.70127],[-113.97422,43.70782],[-113.9786,43.71905],[-113.98596,43.72488],[-113.98411,43.73369],[-113.9857,43.73718],[-113.99326,43.74303],[-113.9971,43.74258],[-113.99563,43.74679],[-113.99743,43.74837],[-113.99354,43.75368],[-113.99363,43.75583],[-113.99955,43.75763],[-114.00415,43.76499],[-114.00813,43.76664],[-114.01873,43.76708],[-114.02144,43.77022],[-114.02972,43.77336],[-114.03315,43.76696],[-114.05345,43.76215],[-114.05184,43.75657],[-114.05386,43.75332],[-114.05313,43.74646],[-114.05648,43.74186],[-114.06283,43.74035],[-114.06516,43.73698],[-114.07002,43.7347],[-114.08152,43.73512],[-114.08889,43.73832],[-114.10179,43.73577],[-114.117,43.74035],[-114.12478,43.74715],[-114.12838,43.74753],[-114.13273,43.75076],[-114.13356,43.75388],[-114.13771,43.75629],[-114.13502,43.75861],[-114.13469,43.76118],[-114.13665,43.76806],[-114.14001,43.77013],[-114.14241,43.77437],[-114.15307,43.77627],[-114.16012,43.77453],[-114.16501,43.77644],[-114.16652,43.77881],[-114.17108,43.78022],[-114.17101,43.78263],[-114.17338,43.78523],[-114.1805,43.79007],[-114.19542,43.78959],[-114.2041,43.79386],[-114.20565,43.79774],[-114.2137,43.79917],[-114.22572,43.80622],[-114.22898,43.80608],[-114.24162,43.81078],[-114.24916,43.81922],[-114.25205,43.82079],[-114.25672,43.8206],[-114.2683,43.83062],[-114.27102,43.82954],[-114.27572,43.83114],[-114.27795,43.83429],[-114.27964,43.84341],[-114.27612,43.85177],[-114.28348,43.86106],[-114.28197,43.86662],[-114.28255,43.87183],[-114.27881,43.87885],[-114.28507,43.88384],[-114.29248,43.88706],[-114.31006,43.88548],[-114.31598,43.88808],[-114.32351,43.88585],[-114.34353,43.89028],[-114.34788,43.88554],[-114.35236,43.88444],[-114.35256,43.87844],[-114.35665,43.87419],[-114.35929,43.87418],[-114.37053,43.87922],[-114.37229,43.88142],[-114.38845,43.88427],[-114.39804,43.89136],[-114.40451,43.89244],[-114.41,43.89565],[-114.42017,43.89174],[-114.42748,43.89151],[-114.44227,43.89531],[-114.44371,43.89719],[-114.45033,43.89551],[-114.46087,43.89701],[-114.47454,43.89652],[-114.48507,43.9045],[-114.49172,43.90182],[-114.49532,43.90227],[-114.49838,43.90043],[-114.50778,43.89909],[-114.51511,43.89474],[-114.51401,43.89193],[-114.51006,43.88985],[-114.50955,43.88513],[-114.51332,43.88269],[-114.5192,43.87516],[-114.51967,43.87168],[-114.51616,43.86515],[-114.51325,43.86322],[-114.51615,43.8547],[-114.5214,43.85247],[-114.5235,43.84856],[-114.52845,43.84566],[-114.54939,43.84674],[-114.55754,43.84389],[-114.56235,43.84437],[-114.56985,43.84627],[-114.5705,43.84825],[-114.57616,43.85068],[-114.58199,43.85145],[-114.58124,43.85662],[-114.58537,43.86064],[-114.58276,43.86644],[-114.58528,43.86738],[-114.58635,43.86988],[-114.58369,43.87084],[-114.58347,43.8751],[-114.59385,43.88049],[-114.60046,43.8887],[-114.60442,43.88977],[-114.60615,43.89362],[-114.61967,43.8981],[-114.62519,43.89802],[-114.6333,43.90238],[-114.6345,43.90783],[-114.64223,43.9112],[-114.64441,43.91426],[-114.65143,43.91581],[-114.65539,43.91419],[-114.66006,43.92188],[-114.66796,43.92281],[-114.67041,43.92131],[-114.67421,43.92567],[-114.68117,43.9277],[-114.81379,43.92777],[-114.81387,43.99294],[-114.87337,43.99295],[-114.8837,43.98917],[-114.88811,43.98911],[-114.89265,43.98541],[-114.89619,43.98562],[-114.90478,43.98231],[-114.90721,43.97972],[-114.91963,43.9754],[-114.9222,43.97194],[-114.93208,43.96792],[-114.93717,43.95657],[-114.94238,43.95068],[-114.95037,43.94692],[-114.9568,43.94742],[-114.96681,43.93774],[-114.97135,43.93831],[-114.97429,43.93509],[-114.97949,43.93295],[-114.97831,43.92951],[-114.98376,43.92102],[-114.99056,43.92155],[-114.99669,43.91441]]]}},{"type":"Feature","id":"ID:122:16039","properties":{"destinationId":"122","locality":"Sun Valley / Ketchum","definition":"Blaine / Elmore","state":"ID","stateName":"Idaho","county":"Elmore County","countyGeoid":"16039","countyGeoids":["16013","16039"],"coverage":"complete-counties","sourceType":"gsa_county_defined_rate_area"},"geometry":{"type":"Polygon","coordinates":[[[-116.26783,43.10812],[-116.26684,43.1061],[-116.26002,43.10272],[-116.23738,43.09446],[-116.22386,43.09644],[-116.21164,43.09498],[-116.20447,43.09245],[-116.19167,43.08247],[-116.19568,43.0779],[-116.20636,43.07069],[-116.20809,43.06764],[-116.20602,43.05364],[-116.20174,43.04893],[-116.1862,43.04361],[-116.17771,43.04265],[-116.17084,43.0378],[-116.15755,43.03958],[-116.14713,43.03763],[-116.14158,43.03412],[-116.13968,43.03048],[-116.14074,43.027],[-116.14883,43.02126],[-116.15021,43.01822],[-116.14582,43.01342],[-116.13793,43.01323],[-116.13058,43.01505],[-116.11878,43.01261],[-116.10488,42.99987],[-116.09672,42.99536],[-116.09074,42.98788],[-116.07516,42.98574],[-116.06187,42.98789],[-116.05145,42.98634],[-116.04114,42.97535],[-116.03217,42.96188],[-116.01283,42.95021],[-115.97858,42.94758],[-115.96497,42.94367],[-115.96093,42.95192],[-115.96185,42.9563],[-115.97211,42.97048],[-115.96679,42.97726],[-115.96747,42.9802],[-115.96448,42.98546],[-115.96165,42.98887],[-115.95757,42.9893],[-115.95371,42.99236],[-115.94502,42.99384],[-115.93906,43.00024],[-115.92898,43.00186],[-115.926,43.00133],[-115.91744,42.99523],[-115.9171,42.9874],[-115.90672,42.98228],[-115.89347,42.98266],[-115.88729,42.98763],[-115.88012,42.98912],[-115.86756,42.98295],[-115.8647,42.97478],[-115.84627,42.96926],[-115.83212,42.97296],[-115.81715,42.97236],[-115.80828,42.97415],[-115.79087,42.97192],[-115.78854,42.96926],[-115.78607,42.9604],[-115.79676,42.9516],[-115.79631,42.94871],[-115.7715,42.93866],[-115.75227,42.9376],[-115.73987,42.94325],[-115.73154,42.93863],[-115.72251,42.94069],[-115.69447,42.93936],[-115.66552,42.94474],[-115.64135,42.95519],[-115.62589,42.95624],[-115.61367,42.951],[-115.61171,42.9466],[-115.60306,42.93727],[-115.58116,42.93719],[-115.56063,42.93468],[-115.55356,42.93988],[-115.53642,42.94293],[-115.53039,42.94269],[-115.5147,42.93723],[-115.50885,42.93155],[-115.50061,42.92723],[-115.49493,42.92643],[-115.48441,42.92991],[-115.46829,42.92793],[-115.4559,42.92829],[-115.44152,42.93113],[-115.44141,42.8511],[-115.45405,42.85111],[-115.45422,42.76794],[-115.0377,42.76841],[-115.03777,42.91186],[-115.04958,42.91706],[-115.06367,42.91265],[-115.07777,42.91568],[-115.08685,42.91467],[-115.08657,43.37033],[-115.08359,43.37045],[-115.08307,43.6044],[-115.07984,43.60431],[-115.07568,43.60695],[-115.0651,43.60003],[-115.06222,43.60571],[-115.05156,43.61484],[-115.04116,43.61977],[-115.0339,43.61877],[-115.0325,43.62203],[-115.03606,43.62639],[-115.03423,43.6309],[-115.03514,43.63355],[-115.03313,43.63477],[-115.03692,43.6468],[-115.03469,43.64883],[-115.03007,43.66058],[-115.03364,43.67029],[-115.03626,43.67304],[-115.03609,43.67538],[-115.03439,43.67774],[-115.0291,43.67997],[-115.02663,43.68464],[-115.02322,43.68568],[-115.02212,43.68989],[-115.01021,43.69504],[-115.00884,43.69691],[-115.0116,43.70586],[-115.0097,43.71558],[-115.01546,43.72312],[-115.01534,43.72669],[-115.01815,43.72827],[-115.0301,43.72878],[-115.03216,43.73541],[-115.04039,43.7413],[-115.0423,43.74463],[-115.03657,43.75121],[-115.03901,43.758],[-115.03539,43.76028],[-115.03523,43.76191],[-115.03594,43.76592],[-115.03819,43.768],[-115.02995,43.78248],[-115.0288,43.78843],[-115.03005,43.79688],[-115.02533,43.80822],[-115.02218,43.80938],[-115.0227,43.81443],[-115.0187,43.81758],[-115.01976,43.82296],[-115.0125,43.82751],[-115.00416,43.82876],[-115.00196,43.83126],[-115.00337,43.84214],[-114.99909,43.84768],[-115.0005,43.85124],[-114.98926,43.85856],[-114.98945,43.86166],[-114.98212,43.86509],[-114.97738,43.86425],[-114.97389,43.86736],[-114.97284,43.87162],[-114.97482,43.87655],[-114.97407,43.8787],[-114.98552,43.8858],[-114.98838,43.88583],[-114.98956,43.8947],[-114.98781,43.8956],[-114.98852,43.90098],[-114.99582,43.90837],[-114.99669,43.91441],[-114.99056,43.92155],[-114.98376,43.92102],[-114.97831,43.92951],[-114.97949,43.93295],[-114.97429,43.93509],[-114.97135,43.93831],[-114.97201,43.94022],[-114.97888,43.94682],[-114.98391,43.94604],[-114.99078,43.94972],[-114.9969,43.94881],[-115.00617,43.95115],[-115.01196,43.94982],[-115.01665,43.95284],[-115.03129,43.95402],[-115.03845,43.95768],[-115.04733,43.94951],[-115.05382,43.94909],[-115.05557,43.94621],[-115.06217,43.94618],[-115.06743,43.94042],[-115.0696,43.94284],[-115.07448,43.94404],[-115.07633,43.94592],[-115.07415,43.95349],[-115.07555,43.95481],[-115.08459,43.95286],[-115.09221,43.95806],[-115.09258,43.96056],[-115.08564,43.96621],[-115.08283,43.97088],[-115.08547,43.97659],[-115.09049,43.9762],[-115.0904,43.97416],[-115.09252,43.97281],[-115.09377,43.97405],[-115.10212,43.97371],[-115.10591,43.97025],[-115.10952,43.971],[-115.11515,43.97546],[-115.11604,43.97904],[-115.13742,43.98466],[-115.13873,43.9934],[-115.14802,44.00188],[-115.14315,44.0058],[-115.14807,44.00971],[-115.14468,44.01376],[-115.1469,44.02501],[-115.15163,44.03376],[-115.14912,44.04116],[-115.15137,44.04535],[-115.15066,44.04766],[-115.15245,44.05215],[-115.15662,44.05512],[-115.15596,44.06211],[-115.1624,44.06693],[-115.16438,44.07585],[-115.16627,44.07792],[-115.17208,44.0788],[-115.17346,44.08097],[-115.17249,44.08363],[-115.18228,44.09186],[-115.18537,44.08989],[-115.19079,44.0897],[-115.19368,44.09195],[-115.21027,44.09653],[-115.23053,44.09877],[-115.2329,44.09584],[-115.21883,44.09201],[-115.20727,44.0833],[-115.20389,44.07634],[-115.19707,44.06855],[-115.20985,44.05628],[-115.20947,44.05142],[-115.21399,44.04323],[-115.21589,44.0326],[-115.22322,44.02686],[-115.23258,44.01519],[-115.23424,44.00682],[-115.2519,43.99572],[-115.2563,43.98802],[-115.26406,43.98016],[-115.26309,43.97904],[-115.2644,43.97703],[-115.26838,43.97356],[-115.26835,43.97022],[-115.27594,43.96069],[-115.27514,43.95666],[-115.27686,43.95634],[-115.27612,43.94979],[-115.2782,43.94845],[-115.27706,43.94486],[-115.27833,43.94188],[-115.286,43.94017],[-115.28743,43.93912],[-115.28589,43.93747],[-115.28653,43.93588],[-115.29657,43.93396],[-115.2993,43.93182],[-115.30799,43.92953],[-115.31773,43.93031],[-115.31932,43.92905],[-115.31861,43.92723],[-115.33029,43.92606],[-115.33639,43.92397],[-115.33779,43.921],[-115.34375,43.92199],[-115.3494,43.91973],[-115.354,43.92102],[-115.35581,43.91943],[-115.35799,43.92085],[-115.35868,43.92369],[-115.36363,43.92195],[-115.36685,43.92489],[-115.37082,43.9232],[-115.37347,43.92435],[-115.37729,43.92278],[-115.37856,43.92398],[-115.38195,43.92291],[-115.38184,43.92122],[-115.38619,43.92062],[-115.38622,43.91874],[-115.39076,43.91607],[-115.39727,43.91591],[-115.40808,43.91158],[-115.41554,43.91219],[-115.44202,43.9018],[-115.45894,43.90229],[-115.47098,43.89403],[-115.48339,43.89371],[-115.48665,43.89175],[-115.49634,43.89128],[-115.50037,43.8899],[-115.50118,43.887],[-115.50323,43.88594],[-115.50872,43.88486],[-115.5142,43.88038],[-115.51448,43.87771],[-115.52057,43.8686],[-115.51922,43.8677],[-115.51938,43.86293],[-115.52447,43.86134],[-115.52287,43.85846],[-115.53288,43.85716],[-115.53708,43.85406],[-115.53632,43.85106],[-115.53333,43.84959],[-115.5346,43.84768],[-115.53909,43.84741],[-115.53922,43.84582],[-115.53549,43.84008],[-115.53198,43.84026],[-115.53324,43.83737],[-115.53122,43.83526],[-115.53416,43.83374],[-115.5318,43.83113],[-115.53236,43.82818],[-115.53474,43.82596],[-115.5337,43.81835],[-115.53028,43.81804],[-115.52967,43.8165],[-115.53553,43.8116],[-115.53783,43.80745],[-115.54677,43.8028],[-115.54754,43.79267],[-115.55768,43.79442],[-115.57214,43.79371],[-115.57886,43.79719],[-115.58399,43.79767],[-115.58564,43.79464],[-115.58936,43.79513],[-115.59036,43.79756],[-115.5928,43.79829],[-115.59426,43.79373],[-115.5993,43.7935],[-115.60835,43.78408],[-115.6111,43.78228],[-115.61344,43.78283],[-115.62062,43.76955],[-115.61659,43.76211],[-115.62034,43.76114],[-115.62436,43.75648],[-115.6233,43.75456],[-115.62755,43.75491],[-115.62775,43.75172],[-115.63211,43.75113],[-115.62912,43.74776],[-115.63012,43.74586],[-115.63394,43.74565],[-115.63238,43.7429],[-115.6267,43.74235],[-115.62801,43.73367],[-115.62515,43.7334],[-115.62412,43.72934],[-115.62094,43.73125],[-115.61468,43.72879],[-115.61636,43.72578],[-115.62562,43.72826],[-115.62936,43.72757],[-115.63012,43.72681],[-115.62732,43.72286],[-115.63452,43.72348],[-115.63457,43.72022],[-115.63769,43.71793],[-115.63792,43.71549],[-115.63517,43.71317],[-115.63513,43.71094],[-115.64213,43.70759],[-115.64249,43.70534],[-115.64476,43.70391],[-115.64487,43.70095],[-115.65375,43.70149],[-115.6588,43.69667],[-115.66295,43.69766],[-115.66569,43.69493],[-115.66844,43.69521],[-115.66744,43.6931],[-115.66923,43.69024],[-115.6749,43.68683],[-115.6759,43.68093],[-115.68125,43.68209],[-115.68359,43.67987],[-115.68374,43.67688],[-115.68806,43.67306],[-115.69528,43.67203],[-115.69751,43.66537],[-115.70163,43.66825],[-115.70419,43.66748],[-115.70521,43.66473],[-115.71184,43.66178],[-115.71337,43.66418],[-115.72159,43.66391],[-115.72639,43.66799],[-115.7311,43.66487],[-115.72582,43.66171],[-115.7284,43.65545],[-115.73054,43.65372],[-115.73822,43.65527],[-115.74092,43.65403],[-115.74453,43.64646],[-115.75339,43.64307],[-115.75545,43.64379],[-115.75404,43.64651],[-115.75876,43.65041],[-115.78234,43.64802],[-115.783,43.64542],[-115.7879,43.64379],[-115.79019,43.64095],[-115.79629,43.63987],[-115.79711,43.63861],[-115.79488,43.63407],[-115.80022,43.62767],[-115.80577,43.62591],[-115.80664,43.62284],[-115.81268,43.61928],[-115.82186,43.62001],[-115.82359,43.61869],[-115.82426,43.61609],[-115.82202,43.61113],[-115.82932,43.60564],[-115.83087,43.60525],[-115.83511,43.60842],[-115.84113,43.60685],[-115.84721,43.60799],[-115.85309,43.60274],[-115.86452,43.60228],[-115.86652,43.59854],[-115.87593,43.59126],[-115.88258,43.59352],[-115.88522,43.5974],[-115.8972,43.5988],[-115.90689,43.59297],[-115.91905,43.59225],[-115.92238,43.59569],[-115.92988,43.59557],[-115.93513,43.60824],[-115.94123,43.60725],[-115.94483,43.60877],[-115.95082,43.60654],[-115.95578,43.60167],[-115.95346,43.59337],[-115.9565,43.58955],[-115.96351,43.58918],[-115.97572,43.59144],[-115.97491,43.28577],[-115.97647,43.28571],[-115.97716,43.20044],[-115.97858,43.20042],[-115.97871,43.11343],[-116.26621,43.11227],[-116.26783,43.10812]]]}},{"type":"Feature","id":"ID:495:16001","properties":{"destinationId":"495","locality":"Boise","definition":"Ada","state":"ID","stateName":"Idaho","county":"Ada County","countyGeoid":"16001","countyGeoids":["16001"],"coverage":"complete-counties","sourceType":"gsa_county_defined_rate_area"},"geometry":{"type":"Polygon","coordinates":[[[-116.51362,43.38654],[-116.51368,43.372],[-116.51233,43.37176],[-116.5119,43.29052],[-116.50116,43.28213],[-116.49882,43.28187],[-116.49395,43.2857],[-116.48408,43.28927],[-116.44733,43.29251],[-116.4399,43.2958],[-116.43304,43.29625],[-116.42528,43.29354],[-116.40816,43.28283],[-116.4059,43.2796],[-116.40662,43.27794],[-116.40264,43.27361],[-116.40194,43.26541],[-116.40333,43.26298],[-116.39796,43.25808],[-116.38858,43.25317],[-116.37718,43.23931],[-116.37606,43.23109],[-116.38435,43.21711],[-116.3827,43.20545],[-116.38596,43.19358],[-116.38088,43.18823],[-116.36806,43.18125],[-116.36471,43.17566],[-116.35253,43.16512],[-116.3445,43.16475],[-116.33604,43.16137],[-116.33297,43.15382],[-116.33328,43.14906],[-116.31941,43.14397],[-116.3164,43.14132],[-116.3128,43.13621],[-116.30967,43.12514],[-116.3051,43.12058],[-116.29994,43.11922],[-116.27656,43.11926],[-116.26768,43.11626],[-116.26621,43.11227],[-115.97871,43.11343],[-115.97858,43.20042],[-115.97716,43.20044],[-115.97647,43.28571],[-115.97491,43.28577],[-115.97572,43.59144],[-115.97754,43.59086],[-115.98028,43.58595],[-116.27992,43.80736],[-116.5125,43.80716],[-116.51312,43.63418],[-116.47349,43.6341],[-116.47339,43.48829],[-116.4736,43.45922],[-116.51336,43.45926],[-116.51362,43.38654]]]}}]}