{"type":"FeatureCollection","features":[{"type":"Feature","id":"IL:123:17031","properties":{"destinationId":"123","locality":"Chicago","definition":"Cook / Lake","state":"IL","stateName":"Illinois","county":"Cook County","countyGeoid":"17031","countyGeoids":["17031","17097"],"coverage":"complete-counties","sourceType":"gsa_county_defined_rate_area"},"geometry":{"type":"Polygon","coordinates":[[[-88.26364,42.06687],[-88.26288,41.98638],[-88.1451,41.98824],[-88.03145,41.99253],[-87.92048,41.99389],[-87.92047,41.86783],[-87.91426,41.7166],[-87.92107,41.7164],[-87.94209,41.70272],[-87.94222,41.6991],[-87.94784,41.69513],[-87.9554,41.69312],[-87.96667,41.68674],[-88.02897,41.68524],[-88.02769,41.64151],[-87.91193,41.64393],[-87.90938,41.55682],[-87.79279,41.55854],[-87.79213,41.53831],[-87.79044,41.53959],[-87.7903,41.46985],[-87.5257,41.47028],[-87.52416,41.70831],[-87.52823,41.71088],[-87.5266,41.71223],[-87.52902,41.71538],[-87.52522,41.71755],[-87.52462,41.72352],[-87.52926,41.73276],[-87.53106,41.74807],[-87.54326,41.752],[-87.54449,41.75482],[-87.54075,41.75726],[-87.54388,41.75996],[-87.54752,41.75854],[-87.5542,41.76058],[-87.56047,41.76552],[-87.56036,41.76845],[-87.57286,41.77934],[-87.5723,41.78106],[-87.5795,41.79343],[-87.5758,41.79629],[-87.58016,41.79883],[-87.58219,41.80436],[-87.60055,41.82683],[-87.60945,41.84523],[-87.6105,41.85191],[-87.60652,41.8532],[-87.60586,41.86685],[-87.61625,41.86893],[-87.61654,41.8824],[-87.61318,41.8836],[-87.61369,41.89054],[-87.60955,41.88961],[-87.60968,41.89318],[-87.60227,41.8933],[-87.60237,41.89634],[-87.61009,41.89637],[-87.61204,41.89371],[-87.61428,41.89364],[-87.61985,41.90139],[-87.62294,41.90202],[-87.62405,41.90423],[-87.62554,41.91047],[-87.62068,41.91321],[-87.62712,41.91706],[-87.6333,41.94238],[-87.64074,41.95385],[-87.64145,41.96169],[-87.63593,41.96141],[-87.63148,41.96348],[-87.63242,41.96529],[-87.6392,41.9662],[-87.64564,41.97143],[-87.64991,41.97852],[-87.654,41.98898],[-87.65766,42.00697],[-87.66898,42.02914],[-87.67316,42.04798],[-87.67051,42.05298],[-87.67146,42.05833],[-87.68236,42.07573],[-87.68146,42.07844],[-87.69452,42.08438],[-87.71096,42.09533],[-87.72466,42.10773],[-87.73616,42.12081],[-87.75914,42.15225],[-88.23845,42.15425],[-88.23819,42.06698],[-88.26364,42.06687]]]}},{"type":"Feature","id":"IL:123:17097","properties":{"destinationId":"123","locality":"Chicago","definition":"Cook / Lake","state":"IL","stateName":"Illinois","county":"Lake County","countyGeoid":"17097","countyGeoids":["17031","17097"],"coverage":"complete-counties","sourceType":"gsa_county_defined_rate_area"},"geometry":{"type":"Polygon","coordinates":[[[-88.19955,42.18325],[-88.19958,42.15426],[-87.75914,42.15225],[-87.7688,42.1671],[-87.7959,42.20135],[-87.81152,42.22845],[-87.81959,42.25178],[-87.82857,42.26992],[-87.83477,42.30152],[-87.83039,42.31225],[-87.832,42.32835],[-87.8272,42.33743],[-87.82583,42.35549],[-87.82401,42.35691],[-87.82352,42.36418],[-87.82176,42.36433],[-87.82069,42.36151],[-87.8168,42.36159],[-87.81501,42.36936],[-87.80581,42.38366],[-87.80326,42.39048],[-87.80458,42.43122],[-87.80084,42.44506],[-87.79807,42.47172],[-87.80047,42.4782],[-87.79937,42.48402],[-87.80209,42.49258],[-88.19939,42.49602],[-88.19824,42.24156],[-88.19955,42.18325]]]}},{"type":"Feature","id":"IL:124:17043","properties":{"destinationId":"124","locality":"Oak Brook Terrace","definition":"DuPage","state":"IL","stateName":"Illinois","county":"DuPage County","countyGeoid":"17043","countyGeoids":["17043"],"coverage":"complete-counties","sourceType":"gsa_county_defined_rate_area"},"geometry":{"type":"Polygon","coordinates":[[[-88.26288,41.98244],[-88.26195,41.72465],[-88.03035,41.72889],[-88.02897,41.68524],[-87.96667,41.68674],[-87.9554,41.69312],[-87.94784,41.69513],[-87.94222,41.6991],[-87.94209,41.70272],[-87.92107,41.7164],[-87.91426,41.7166],[-87.92047,41.86783],[-87.92048,41.99389],[-88.03145,41.99253],[-88.1451,41.98824],[-88.26288,41.98638],[-88.26288,41.98244]]]}},{"type":"Feature","id":"IL:422:17197","properties":{"destinationId":"422","locality":"Bolingbrook / Romeoville / Lemont","definition":"Will","state":"IL","stateName":"Illinois","county":"Will County","countyGeoid":"17197","countyGeoids":["17197"],"coverage":"complete-counties","sourceType":"gsa_county_defined_rate_area"},"geometry":{"type":"Polygon","coordinates":[[[-88.26128,41.72466],[-88.24414,41.20157],[-88.01181,41.20551],[-88.01392,41.29245],[-87.52673,41.29805],[-87.5257,41.47028],[-87.7903,41.46985],[-87.79044,41.53959],[-87.79213,41.53831],[-87.79279,41.55854],[-87.90938,41.55682],[-87.91193,41.64393],[-88.02769,41.64151],[-88.03035,41.72889],[-88.26128,41.72466]]]}},{"type":"Feature","id":"IL:462:17163","properties":{"destinationId":"462","locality":"East St. Louis / O'Fallon / Fairview Heights","definition":"St. Clair","state":"IL","stateName":"Illinois","county":"St. Clair County","countyGeoid":"17163","countyGeoids":["17163"],"coverage":"complete-counties","sourceType":"gsa_county_defined_rate_area"},"geometry":{"type":"Polygon","coordinates":[[[-90.26381,38.52055],[-90.1454,38.42667],[-90.14556,38.41205],[-90.0361,38.32354],[-90.03611,38.30894],[-89.91306,38.3081],[-89.90978,38.3027],[-89.90408,38.29783],[-89.90684,38.2936],[-89.90185,38.28842],[-89.9025,38.28147],[-89.9088,38.27618],[-89.91719,38.27781],[-89.91766,38.28048],[-89.91215,38.28224],[-89.9113,38.2847],[-89.91886,38.28585],[-89.92247,38.27539],[-89.92521,38.27326],[-89.9209,38.27202],[-89.92374,38.26902],[-89.91452,38.25879],[-89.91338,38.2549],[-89.91728,38.25183],[-89.91118,38.24816],[-89.90754,38.24309],[-89.90874,38.23759],[-89.90097,38.23506],[-89.89749,38.23208],[-89.89788,38.22856],[-89.90371,38.2284],[-89.90447,38.22714],[-89.89904,38.22075],[-89.70326,38.2194],[-89.70695,38.65502],[-90.18124,38.66006],[-90.17771,38.64275],[-90.17801,38.63375],[-90.18451,38.61155],[-90.19181,38.59895],[-90.20251,38.58865],[-90.22421,38.57505],[-90.24891,38.54475],[-90.26031,38.52835],[-90.26381,38.52055]]]}}]}