{"type":"FeatureCollection","features":[{"type":"Feature","id":"IN:127:18105","properties":{"destinationId":"127","locality":"Bloomington","definition":"Monroe","state":"IN","stateName":"Indiana","county":"Monroe County","countyGeoid":"18105","countyGeoids":["18105"],"coverage":"complete-counties","sourceType":"gsa_county_defined_rate_area"},"geometry":{"type":"Polygon","coordinates":[[[-86.68561,39.33604],[-86.68228,38.9924],[-86.31747,38.99087],[-86.31813,39.04881],[-86.37007,39.04838],[-86.36969,39.14376],[-86.37241,39.25091],[-86.37994,39.25108],[-86.3814,39.33975],[-86.46512,39.3383],[-86.63084,39.34076],[-86.63082,39.34695],[-86.63481,39.34874],[-86.64038,39.34827],[-86.64166,39.3506],[-86.65155,39.35559],[-86.6584,39.35028],[-86.65914,39.34434],[-86.65534,39.34],[-86.65638,39.33065],[-86.65878,39.3301],[-86.66298,39.33424],[-86.66453,39.33377],[-86.66633,39.32914],[-86.68561,39.33604]]]}},{"type":"Feature","id":"IN:130:18057","properties":{"destinationId":"130","locality":"Indianapolis / Carmel","definition":"Marion / Hamilton","state":"IN","stateName":"Indiana","county":"Hamilton County","countyGeoid":"18057","countyGeoids":["18057","18097"],"coverage":"complete-counties","sourceType":"gsa_county_defined_rate_area"},"geometry":{"type":"Polygon","coordinates":[[[-86.24274,40.21583],[-86.24074,39.92606],[-85.97012,39.92686],[-85.8624,39.92894],[-85.86358,40.133],[-85.8619,40.21894],[-86.24274,40.21583]]]}},{"type":"Feature","id":"IN:130:18097","properties":{"destinationId":"130","locality":"Indianapolis / Carmel","definition":"Marion / Hamilton","state":"IN","stateName":"Indiana","county":"Marion County","countyGeoid":"18097","countyGeoids":["18057","18097"],"coverage":"complete-counties","sourceType":"gsa_county_defined_rate_area"},"geometry":{"type":"Polygon","coordinates":[[[-86.32812,39.86612],[-86.32641,39.77928],[-86.32634,39.63218],[-85.95208,39.63834],[-85.95182,39.74093],[-85.95401,39.86965],[-85.93807,39.86981],[-85.93759,39.92714],[-86.14588,39.92717],[-86.32629,39.92403],[-86.32537,39.86618],[-86.32812,39.86612]]]}},{"type":"Feature","id":"IN:131:18157","properties":{"destinationId":"131","locality":"Lafayette / West Lafayette","definition":"Tippecanoe","state":"IN","stateName":"Indiana","county":"Tippecanoe County","countyGeoid":"18157","countyGeoids":["18157"],"coverage":"complete-counties","sourceType":"gsa_county_defined_rate_area"},"geometry":{"type":"Polygon","coordinates":[[[-87.09536,40.56289],[-87.09198,40.38814],[-87.09253,40.21465],[-86.69564,40.21437],[-86.69535,40.56187],[-86.92495,40.56121],[-87.09536,40.56289]]]}}]}