{"type":"FeatureCollection","features":[{"type":"Feature","id":"KS:137:20091","properties":{"destinationId":"137","locality":"Kansas City / Overland Park","definition":"Wyandotte / Johnson / Leavenworth","state":"KS","stateName":"Kansas","county":"Johnson County","countyGeoid":"20091","countyGeoids":["20091","20103","20209"],"coverage":"complete-counties","sourceType":"gsa_county_defined_rate_area"},"geometry":{"type":"Polygon","coordinates":[[[-95.05636,38.9808],[-95.05641,38.73859],[-94.60951,38.7381],[-94.60762,38.82756],[-94.60752,39.04409],[-94.80333,39.04352],[-94.84248,39.06092],[-94.86775,39.06019],[-94.87642,39.05714],[-94.88357,39.05069],[-94.89114,39.03068],[-94.88843,39.01614],[-94.90876,38.9914],[-94.91749,38.98429],[-94.91943,38.98354],[-94.92175,38.98579],[-94.91624,38.9969],[-94.9199,39.00154],[-94.92335,39.00263],[-94.93192,39.00111],[-94.93892,38.99466],[-94.94055,38.98998],[-94.94439,38.98639],[-94.95654,38.98197],[-94.96488,38.98214],[-94.9716,38.98519],[-94.98036,38.99241],[-95.01406,39.00086],[-95.02182,38.99962],[-95.02464,38.99585],[-95.02604,38.99234],[-95.02364,38.98824],[-95.02451,38.98411],[-95.03055,38.97695],[-95.04067,38.97416],[-95.05626,38.98212],[-95.05636,38.9808]]]}},{"type":"Feature","id":"KS:137:20103","properties":{"destinationId":"137","locality":"Kansas City / Overland Park","definition":"Wyandotte / Johnson / Leavenworth","state":"KS","stateName":"Kansas","county":"Leavenworth County","countyGeoid":"20103","countyGeoids":["20091","20103","20209"],"coverage":"complete-counties","sourceType":"gsa_county_defined_rate_area"},"geometry":{"type":"Polygon","coordinates":[[[-95.18796,39.12891],[-95.18619,38.96454],[-95.16954,38.96647],[-95.16486,38.97152],[-95.1665,38.97591],[-95.16412,38.98163],[-95.13969,38.96939],[-95.12689,38.9677],[-95.12036,38.97016],[-95.11091,38.96934],[-95.10753,38.96667],[-95.10454,38.95907],[-95.10086,38.95622],[-95.08523,38.95384],[-95.07644,38.95983],[-95.07445,38.96437],[-95.0868,38.97433],[-95.08669,38.98022],[-95.08477,38.98236],[-95.06663,38.98705],[-95.06071,38.98562],[-95.04391,38.97513],[-95.03509,38.97489],[-95.02625,38.98086],[-95.02364,38.98824],[-95.02604,38.99234],[-95.02182,38.99962],[-95.01143,39.00081],[-95.00362,38.99893],[-94.99356,38.99504],[-94.98036,38.99241],[-94.9716,38.98519],[-94.96488,38.98214],[-94.95654,38.98197],[-94.94439,38.98639],[-94.94055,38.98998],[-94.93892,38.99466],[-94.93192,39.00111],[-94.92335,39.00263],[-94.9199,39.00154],[-94.91624,38.9969],[-94.92175,38.98579],[-94.91943,38.98354],[-94.9138,38.98648],[-94.90876,38.9914],[-94.90828,39.12865],[-94.90139,39.12869],[-94.90019,39.20291],[-94.77554,39.2006],[-94.78384,39.20715],[-94.79966,39.20602],[-94.82069,39.20863],[-94.83168,39.21594],[-94.83506,39.22066],[-94.8349,39.22384],[-94.82779,39.234],[-94.82566,39.24173],[-94.82749,39.24989],[-94.83147,39.25627],[-94.84632,39.26848],[-94.88258,39.28333],[-94.90005,39.30019],[-94.90533,39.31195],[-94.90806,39.32366],[-94.91064,39.34834],[-94.90941,39.35426],[-94.9025,39.36038],[-94.89093,39.36403],[-94.88136,39.37038],[-94.87909,39.3757],[-94.87928,39.37978],[-94.88503,39.3898],[-94.88897,39.39243],[-94.90182,39.3928],[-94.92311,39.38449],[-94.93716,39.38653],[-94.94558,39.39385],[-94.94629,39.40565],[-94.94786,39.4086],[-94.95482,39.41384],[-94.96885,39.41907],[-95.18089,39.41922],[-95.18012,39.12889],[-95.18796,39.12891]]]}},{"type":"Feature","id":"KS:137:20209","properties":{"destinationId":"137","locality":"Kansas City / Overland Park","definition":"Wyandotte / Johnson / Leavenworth","state":"KS","stateName":"Kansas","county":"Wyandotte County","countyGeoid":"20209","countyGeoids":["20091","20103","20209"],"coverage":"complete-counties","sourceType":"gsa_county_defined_rate_area"},"geometry":{"type":"Polygon","coordinates":[[[-94.90883,39.04342],[-94.90876,38.9914],[-94.88843,39.01614],[-94.89114,39.03068],[-94.88357,39.05069],[-94.87642,39.05714],[-94.86775,39.06019],[-94.84248,39.06092],[-94.80333,39.04352],[-94.60752,39.04409],[-94.60829,39.11794],[-94.60043,39.1285],[-94.5899,39.13898],[-94.58841,39.14987],[-94.59066,39.15477],[-94.59603,39.1577],[-94.60866,39.16104],[-94.63978,39.15371],[-94.65579,39.15568],[-94.65921,39.15784],[-94.6614,39.16274],[-94.65916,39.17413],[-94.66384,39.1791],[-94.66914,39.182],[-94.68034,39.1843],[-94.68724,39.1835],[-94.71414,39.1704],[-94.72364,39.169],[-94.74194,39.1702],[-94.75234,39.1732],[-94.76314,39.1799],[-94.77554,39.2006],[-94.77724,39.201],[-94.90019,39.20291],[-94.90139,39.12869],[-94.90828,39.12865],[-94.90883,39.04342]]]}}]}