{"type":"FeatureCollection","features":[{"type":"Feature","id":"KY:139:21015","properties":{"destinationId":"139","locality":"Boone","definition":"Boone","state":"KY","stateName":"Kentucky","county":"Boone County","countyGeoid":"21015","countyGeoids":["21015"],"coverage":"complete-counties","sourceType":"gsa_county_defined_rate_area"},"geometry":{"type":"Polygon","coordinates":[[[-84.89691,39.05747],[-84.89673,39.0533],[-84.88566,39.03749],[-84.87182,39.02776],[-84.85061,39.00469],[-84.84774,38.99801],[-84.83712,38.98806],[-84.83062,38.9749],[-84.82986,38.96939],[-84.83516,38.95796],[-84.84932,38.94826],[-84.85374,38.94294],[-84.86473,38.93489],[-84.87776,38.92036],[-84.87882,38.9134],[-84.87012,38.90039],[-84.86076,38.89765],[-84.83047,38.89726],[-84.81275,38.89513],[-84.80025,38.89107],[-84.79248,38.88674],[-84.78641,38.88222],[-84.78458,38.87532],[-84.7883,38.86432],[-84.79483,38.8572],[-84.78325,38.85484],[-84.78315,38.85755],[-84.77862,38.85936],[-84.77779,38.84724],[-84.77298,38.84548],[-84.7658,38.84893],[-84.76002,38.84719],[-84.75822,38.84195],[-84.75308,38.83836],[-84.75274,38.833],[-84.75012,38.83065],[-84.66011,38.77729],[-84.65491,38.77806],[-84.65687,38.77998],[-84.65602,38.78233],[-84.6577,38.78585],[-84.65573,38.78703],[-84.65617,38.79012],[-84.64497,38.79285],[-84.64358,38.798],[-84.63265,38.80083],[-84.63001,38.8029],[-84.61566,38.80228],[-84.59793,38.87943],[-84.60344,38.91001],[-84.62348,39.07436],[-84.63245,39.07676],[-84.65035,39.09166],[-84.65725,39.09546],[-84.68485,39.10046],[-84.68975,39.10416],[-84.71855,39.13706],[-84.73205,39.14446],[-84.74415,39.14746],[-84.75075,39.14736],[-84.75445,39.14666],[-84.76675,39.13856],[-84.78768,39.1153],[-84.81075,39.10914],[-84.81377,39.10649],[-84.83244,39.10049],[-84.86069,39.07814],[-84.88887,39.06638],[-84.89691,39.05747]]]}},{"type":"Feature","id":"KY:140:21067","properties":{"destinationId":"140","locality":"Lexington","definition":"Fayette","state":"KY","stateName":"Kentucky","county":"Fayette County","countyGeoid":"21067","countyGeoids":["21067"],"coverage":"complete-counties","sourceType":"gsa_county_defined_rate_area"},"geometry":{"type":"Polygon","coordinates":[[[-84.6575,38.01784],[-84.66014,38.00374],[-84.59234,37.98643],[-84.47963,37.94022],[-84.47822,37.93642],[-84.47387,37.93208],[-84.4717,37.92011],[-84.46583,37.91875],[-84.46213,37.91425],[-84.45265,37.90881],[-84.44822,37.89372],[-84.44309,37.88724],[-84.44328,37.8793],[-84.4344,37.86845],[-84.4376,37.86211],[-84.43475,37.85589],[-84.43801,37.84874],[-84.43572,37.8472],[-84.42859,37.8534],[-84.42146,37.86932],[-84.41441,37.87222],[-84.41067,37.87126],[-84.4045,37.86046],[-84.39794,37.85467],[-84.39301,37.84749],[-84.38818,37.8453],[-84.37605,37.85254],[-84.36928,37.8541],[-84.36569,37.85876],[-84.36641,37.86334],[-84.37259,37.87621],[-84.38359,37.89381],[-84.38179,37.89991],[-84.37861,37.90154],[-84.37221,37.90057],[-84.3499,37.88726],[-84.34408,37.8813],[-84.34114,37.88197],[-84.33884,37.88532],[-84.33739,37.89201],[-84.33914,37.89356],[-84.34272,37.8933],[-84.34305,37.89717],[-84.34527,37.89736],[-84.34515,37.89596],[-84.34903,37.89869],[-84.33883,37.90759],[-84.34152,37.90726],[-84.34283,37.91052],[-84.34156,37.9122],[-84.34809,37.91497],[-84.33937,37.91596],[-84.343,37.91787],[-84.33988,37.92285],[-84.3377,37.92321],[-84.33628,37.92066],[-84.33136,37.92028],[-84.33007,37.92468],[-84.33277,37.92495],[-84.33253,37.92816],[-84.33999,37.93111],[-84.33965,37.93476],[-84.33081,37.93621],[-84.3313,37.93756],[-84.33838,37.93923],[-84.33273,37.94181],[-84.33202,37.94659],[-84.32356,37.94628],[-84.31074,37.95246],[-84.31161,37.95431],[-84.31837,37.95475],[-84.31952,37.9535],[-84.32324,37.95578],[-84.31988,37.95894],[-84.32047,37.95989],[-84.31439,37.96093],[-84.31181,37.96291],[-84.3125,37.96707],[-84.32356,37.96497],[-84.32442,37.96643],[-84.32083,37.97521],[-84.32079,37.97956],[-84.32182,37.98322],[-84.32469,37.98602],[-84.32508,37.99097],[-84.31962,37.99512],[-84.32246,38.00088],[-84.28263,38.0191],[-84.28763,38.02227],[-84.28898,38.02494],[-84.28744,38.02594],[-84.29268,38.03335],[-84.29161,38.0357],[-84.28469,38.0401],[-84.28575,38.04569],[-84.28463,38.04906],[-84.28637,38.05235],[-84.28372,38.05749],[-84.28498,38.05937],[-84.28439,38.0647],[-84.28646,38.06703],[-84.28447,38.07034],[-84.28777,38.07322],[-84.28726,38.07559],[-84.29289,38.07794],[-84.29296,38.08001],[-84.295,38.081],[-84.29798,38.07998],[-84.3048,38.08575],[-84.30746,38.08427],[-84.30855,38.08653],[-84.31173,38.08676],[-84.31437,38.09301],[-84.31812,38.09289],[-84.32038,38.08911],[-84.32696,38.08472],[-84.33409,38.08638],[-84.34358,38.09104],[-84.34461,38.09494],[-84.34923,38.095],[-84.35054,38.09753],[-84.36056,38.09871],[-84.36168,38.10098],[-84.3634,38.10038],[-84.36729,38.1046],[-84.37012,38.10522],[-84.36991,38.109],[-84.37653,38.11004],[-84.38061,38.11247],[-84.37983,38.11656],[-84.37745,38.1179],[-84.37776,38.12131],[-84.36859,38.1259],[-84.36739,38.13004],[-84.37052,38.14029],[-84.36935,38.14333],[-84.37107,38.1503],[-84.37003,38.15337],[-84.37376,38.15757],[-84.37379,38.16045],[-84.37246,38.1625],[-84.36881,38.16186],[-84.36315,38.1669],[-84.36303,38.17085],[-84.3589,38.17227],[-84.35515,38.17804],[-84.36006,38.18381],[-84.35779,38.18664],[-84.35863,38.19482],[-84.36705,38.19657],[-84.36798,38.20032],[-84.37221,38.20098],[-84.37479,38.20554],[-84.37274,38.20769],[-84.37513,38.20795],[-84.37638,38.21045],[-84.38709,38.2103],[-84.39716,38.20559],[-84.40079,38.20528],[-84.40185,38.20789],[-84.6206,38.12954],[-84.6575,38.01784]]]}},{"type":"Feature","id":"KY:141:21111","properties":{"destinationId":"141","locality":"Louisville","definition":"Jefferson","state":"KY","stateName":"Kentucky","county":"Jefferson County","countyGeoid":"21111","countyGeoids":["21111"],"coverage":"complete-counties","sourceType":"gsa_county_defined_rate_area"},"geometry":{"type":"Polygon","coordinates":[[[-85.94711,38.00508],[-85.93832,37.99876],[-85.93464,37.99722],[-85.93196,37.99864],[-85.92993,38.00233],[-85.92297,38.00836],[-85.91985,38.01034],[-85.91814,38.00912],[-85.91387,38.01084],[-85.91537,38.01394],[-85.91279,38.02065],[-85.91006,38.01956],[-85.91007,38.02303],[-85.90709,38.02254],[-85.90703,38.02025],[-85.90514,38.02236],[-85.90668,38.02399],[-85.90439,38.02884],[-85.89757,38.02972],[-85.88349,38.03758],[-85.8828,38.04054],[-85.71258,38.08731],[-85.55727,38.07384],[-85.42883,38.11838],[-85.4049,38.26373],[-85.46821,38.28531],[-85.56132,38.33712],[-85.57473,38.33398],[-85.58527,38.33943],[-85.56941,38.34175],[-85.63786,38.38025],[-85.63868,38.36395],[-85.64431,38.34602],[-85.65136,38.33074],[-85.65536,38.32385],[-85.66792,38.31063],[-85.67357,38.30233],[-85.68356,38.29547],[-85.74086,38.26787],[-85.74508,38.26719],[-85.75148,38.268],[-85.76093,38.27198],[-85.76716,38.27732],[-85.76599,38.28034],[-85.77227,38.28559],[-85.78103,38.28848],[-85.7869,38.28853],[-85.8174,38.28239],[-85.82922,38.27651],[-85.83617,38.26529],[-85.83909,38.23973],[-85.84438,38.23105],[-85.85236,38.22194],[-85.88026,38.20337],[-85.89354,38.18902],[-85.90387,38.17414],[-85.90796,38.16147],[-85.90913,38.14439],[-85.90423,38.0998],[-85.90527,38.08893],[-85.91384,38.07196],[-85.92128,38.03032],[-85.92565,38.02178],[-85.93122,38.01602],[-85.94711,38.00508]]]}},{"type":"Feature","id":"KY:436:21117","properties":{"destinationId":"436","locality":"Kenton","definition":"Kenton","state":"KY","stateName":"Kentucky","county":"Kenton County","countyGeoid":"21117","countyGeoids":["21117"],"coverage":"complete-counties","sourceType":"gsa_county_defined_rate_area"},"geometry":{"type":"Polygon","coordinates":[[[-84.62348,39.07436],[-84.60344,38.91001],[-84.59793,38.87943],[-84.61566,38.80228],[-84.60501,38.79283],[-84.59772,38.79117],[-84.54726,38.79009],[-84.41849,38.8059],[-84.42087,38.8082],[-84.41746,38.81194],[-84.41803,38.815],[-84.42161,38.82393],[-84.42715,38.82792],[-84.43031,38.82855],[-84.43586,38.82686],[-84.44233,38.81784],[-84.44502,38.81698],[-84.44992,38.81874],[-84.45332,38.82804],[-84.45311,38.83804],[-84.46203,38.84717],[-84.46384,38.85095],[-84.44943,38.86129],[-84.45271,38.86629],[-84.44493,38.88055],[-84.43965,38.89726],[-84.43891,38.90488],[-84.44463,38.91174],[-84.4439,38.9159],[-84.44864,38.92078],[-84.4519,38.92898],[-84.46012,38.93887],[-84.46322,38.94847],[-84.44941,38.94987],[-84.44537,38.95232],[-84.43993,38.96327],[-84.42849,38.9751],[-84.42728,38.98086],[-84.4347,38.98524],[-84.44037,38.98442],[-84.45019,38.97563],[-84.4548,38.96546],[-84.45933,38.96529],[-84.46528,38.96983],[-84.46657,38.97434],[-84.46488,38.98004],[-84.4508,38.99361],[-84.45062,38.99642],[-84.45442,39.0001],[-84.46206,39.00363],[-84.47333,39.00451],[-84.48524,39.0154],[-84.4892,39.02122],[-84.49005,39.03075],[-84.48522,39.04102],[-84.49721,39.05515],[-84.49774,39.05853],[-84.49322,39.07063],[-84.50437,39.08585],[-84.50333,39.09151],[-84.50608,39.09508],[-84.52464,39.09216],[-84.54134,39.09916],[-84.55084,39.09936],[-84.55754,39.09486],[-84.56394,39.08736],[-84.57214,39.08206],[-84.59241,39.07809],[-84.60168,39.07412],[-84.62348,39.07436]]]}}]}