{"type":"FeatureCollection","features":[{"type":"Feature","id":"MD:161:24025","properties":{"destinationId":"161","locality":"Aberdeen / Bel Air / Belcamp","definition":"Harford","state":"MD","stateName":"Maryland","county":"Harford County","countyGeoid":"24025","countyGeoids":["24025"],"coverage":"complete-counties","sourceType":"gsa_county_defined_rate_area"},"geometry":{"type":"MultiPolygon","coordinates":[[[[-76.0921,39.53522],[-76.0903,39.53383],[-76.08822,39.53602],[-76.0921,39.53522]]],[[[-76.27226,39.27456],[-76.26495,39.27952],[-76.26622,39.28201],[-76.26431,39.28388],[-76.26192,39.28414],[-76.25799,39.28779],[-76.26036,39.29245],[-76.26641,39.29054],[-76.27226,39.27456]]],[[[-76.56939,39.7212],[-76.56519,39.6145],[-76.56199,39.60796],[-76.5629,39.60624],[-76.55946,39.59766],[-76.56007,39.59606],[-76.55603,39.59385],[-76.55325,39.58943],[-76.54782,39.58822],[-76.54352,39.57864],[-76.54386,39.57503],[-76.54126,39.57502],[-76.54041,39.56909],[-76.53684,39.56546],[-76.5361,39.56182],[-76.53228,39.56156],[-76.53106,39.5554],[-76.53483,39.55325],[-76.53412,39.55133],[-76.53208,39.55132],[-76.53217,39.54398],[-76.52801,39.54356],[-76.52591,39.53996],[-76.52205,39.53888],[-76.52253,39.53672],[-76.51903,39.53671],[-76.51785,39.53252],[-76.51607,39.53198],[-76.51654,39.52918],[-76.51256,39.52905],[-76.5106,39.52459],[-76.50852,39.52379],[-76.50498,39.52506],[-76.499,39.5235],[-76.49457,39.52655],[-76.48359,39.51949],[-76.47873,39.51861],[-76.47773,39.51465],[-76.4748,39.51734],[-76.47294,39.51713],[-76.46944,39.51391],[-76.46325,39.51251],[-76.46021,39.51065],[-76.45929,39.5072],[-76.44797,39.50846],[-76.43698,39.50196],[-76.43221,39.50662],[-76.42792,39.50172],[-76.42996,39.49898],[-76.42864,39.49764],[-76.43214,39.49412],[-76.43183,39.49262],[-76.43362,39.49232],[-76.43311,39.48827],[-76.42924,39.4883],[-76.4248,39.48115],[-76.4209,39.47841],[-76.41119,39.47853],[-76.4085,39.47645],[-76.4081,39.47263],[-76.40666,39.4719],[-76.40501,39.47403],[-76.40182,39.47274],[-76.40032,39.46907],[-76.39554,39.4683],[-76.39275,39.46598],[-76.39027,39.45971],[-76.3867,39.4597],[-76.38654,39.45547],[-76.38876,39.45377],[-76.38308,39.45038],[-76.37895,39.44543],[-76.37958,39.43823],[-76.37764,39.43617],[-76.37827,39.43266],[-76.38098,39.4295],[-76.38032,39.42482],[-76.37301,39.42121],[-76.37025,39.41529],[-76.37194,39.4051],[-76.36633,39.40421],[-76.36522,39.40181],[-76.36105,39.40026],[-76.35878,39.3903],[-76.35756,39.38969],[-76.35712,39.39408],[-76.35344,39.39518],[-76.35094,39.39261],[-76.3488,39.39445],[-76.34595,39.39408],[-76.34441,39.39169],[-76.33538,39.3904],[-76.3292,39.38765],[-76.32302,39.38995],[-76.31529,39.3893],[-76.30709,39.38545],[-76.30246,39.37727],[-76.30305,39.37066],[-76.3059,39.36441],[-76.30935,39.35963],[-76.31339,39.35779],[-76.3225,39.35735],[-76.31168,39.35581],[-76.29691,39.35131],[-76.29438,39.34894],[-76.29878,39.34021],[-76.29878,39.32921],[-76.29352,39.32505],[-76.28962,39.31717],[-76.29039,39.30978],[-76.29662,39.30203],[-76.28175,39.29966],[-76.28126,39.31036],[-76.27772,39.31555],[-76.27774,39.32213],[-76.25659,39.33886],[-76.25884,39.34125],[-76.25849,39.34695],[-76.26528,39.35001],[-76.26692,39.35614],[-76.2655,39.35917],[-76.27346,39.36147],[-76.2756,39.36441],[-76.28,39.36606],[-76.28356,39.36505],[-76.28689,39.369],[-76.28119,39.37194],[-76.27774,39.37148],[-76.27215,39.37644],[-76.2756,39.38085],[-76.26883,39.38866],[-76.26847,39.39114],[-76.26514,39.39233],[-76.26906,39.40308],[-76.26348,39.40813],[-76.2548,39.41189],[-76.25421,39.41667],[-76.251,39.41942],[-76.25052,39.43108],[-76.24744,39.43503],[-76.25362,39.44255],[-76.25159,39.44962],[-76.24684,39.45329],[-76.24316,39.45412],[-76.24399,39.45788],[-76.24149,39.46127],[-76.23294,39.45944],[-76.23104,39.45641],[-76.23947,39.43861],[-76.23698,39.43806],[-76.22997,39.43016],[-76.22509,39.42759],[-76.22462,39.42566],[-76.23008,39.41814],[-76.24268,39.40749],[-76.24161,39.404],[-76.24978,39.38889],[-76.2466,39.38742],[-76.24474,39.3836],[-76.24983,39.37912],[-76.25339,39.37875],[-76.25382,39.37717],[-76.25171,39.37681],[-76.24815,39.37258],[-76.24636,39.37277],[-76.24625,39.37029],[-76.2485,39.36882],[-76.25266,39.37001],[-76.25338,39.36671],[-76.25148,39.36606],[-76.25011,39.36132],[-76.23988,39.36141],[-76.23378,39.35201],[-76.22698,39.34991],[-76.22168,39.35636],[-76.19693,39.36784],[-76.18671,39.38094],[-76.18007,39.37761],[-76.17595,39.38224],[-76.17411,39.38924],[-76.16206,39.4042],[-76.15877,39.40631],[-76.14637,39.40531],[-76.13633,39.41101],[-76.12189,39.42123],[-76.11682,39.42761],[-76.10481,39.43322],[-76.10223,39.43566],[-76.10031,39.4432],[-76.08926,39.44512],[-76.08451,39.44347],[-76.0851,39.44136],[-76.08118,39.43671],[-76.06612,39.44677],[-76.06046,39.44834],[-76.06093,39.45221],[-76.07197,39.47505],[-76.07959,39.47499],[-76.0816,39.47789],[-76.09792,39.47518],[-76.10466,39.47879],[-76.11206,39.48622],[-76.1154,39.48687],[-76.11457,39.48356],[-76.11873,39.48118],[-76.12242,39.48136],[-76.12812,39.48668],[-76.12099,39.4909],[-76.11992,39.49439],[-76.11322,39.50193],[-76.11107,39.50946],[-76.10484,39.52164],[-76.0982,39.52948],[-76.09607,39.53691],[-76.08858,39.53822],[-76.08356,39.54187],[-76.07616,39.54365],[-76.08597,39.55901],[-76.13597,39.61411],[-76.14747,39.61941],[-76.16176,39.64962],[-76.18658,39.66951],[-76.21268,39.6864],[-76.22928,39.70913],[-76.23326,39.72131],[-76.56939,39.7212]]]]}},{"type":"Feature","id":"MD:162:24003","properties":{"destinationId":"162","locality":"Annapolis","definition":"Anne Arundel","state":"MD","stateName":"Maryland","county":"Anne Arundel County","countyGeoid":"24003","countyGeoids":["24003"],"coverage":"complete-counties","sourceType":"gsa_county_defined_rate_area"},"geometry":{"type":"Polygon","coordinates":[[[-76.83849,39.10421],[-76.84036,39.10314],[-76.8378,39.10095],[-76.83756,39.09685],[-76.82852,39.095],[-76.82712,39.08983],[-76.83491,39.08287],[-76.83272,39.07594],[-76.83808,39.07359],[-76.83562,39.06792],[-76.83153,39.06916],[-76.82897,39.06444],[-76.82649,39.0657],[-76.81726,39.06177],[-76.81317,39.06228],[-76.81054,39.06092],[-76.80394,39.06245],[-76.80075,39.05539],[-76.79571,39.05457],[-76.79385,39.05207],[-76.79262,39.04618],[-76.78759,39.04463],[-76.78372,39.04625],[-76.77653,39.04531],[-76.77379,39.0437],[-76.77504,39.04234],[-76.77319,39.04071],[-76.77029,39.04087],[-76.76915,39.03896],[-76.76539,39.04044],[-76.76445,39.03762],[-76.76131,39.03538],[-76.757,39.03776],[-76.74765,39.03342],[-76.74992,39.03],[-76.74589,39.02819],[-76.74313,39.0237],[-76.74278,39.02047],[-76.74452,39.01712],[-76.74038,39.01287],[-76.73811,39.01254],[-76.73328,39.00682],[-76.72566,39.0061],[-76.724,39.00417],[-76.7259,38.99922],[-76.72127,38.99971],[-76.71207,38.99532],[-76.69846,38.98378],[-76.69887,38.98121],[-76.70218,38.97984],[-76.70244,38.97696],[-76.70103,38.97626],[-76.70374,38.97152],[-76.69942,38.96906],[-76.69898,38.96268],[-76.69417,38.95678],[-76.69346,38.95144],[-76.69543,38.94822],[-76.69102,38.94084],[-76.69218,38.93632],[-76.6889,38.93354],[-76.68142,38.93127],[-76.68312,38.9263],[-76.69053,38.92476],[-76.69059,38.92346],[-76.68651,38.91816],[-76.68281,38.91895],[-76.67937,38.91651],[-76.67852,38.91054],[-76.67061,38.90738],[-76.66952,38.90443],[-76.6715,38.89942],[-76.67626,38.89595],[-76.6763,38.89191],[-76.67179,38.88757],[-76.67524,38.88567],[-76.67658,38.87596],[-76.68066,38.87228],[-76.68316,38.86672],[-76.6881,38.86456],[-76.69187,38.85921],[-76.69117,38.8544],[-76.69827,38.84303],[-76.69972,38.83678],[-76.69637,38.82272],[-76.69697,38.81878],[-76.70178,38.81554],[-76.70942,38.81626],[-76.71231,38.81292],[-76.71146,38.80902],[-76.70807,38.80487],[-76.71068,38.79843],[-76.71012,38.796],[-76.70254,38.7904],[-76.70208,38.78848],[-76.70615,38.78566],[-76.71225,38.78436],[-76.71439,38.78076],[-76.71402,38.7769],[-76.70095,38.76875],[-76.69927,38.75341],[-76.69727,38.75012],[-76.68636,38.74848],[-76.68426,38.75161],[-76.68522,38.75609],[-76.68266,38.75593],[-76.68122,38.75763],[-76.67898,38.75551],[-76.67327,38.7554],[-76.66961,38.7567],[-76.6698,38.75836],[-76.66664,38.76006],[-76.66752,38.7614],[-76.66609,38.76223],[-76.65492,38.76441],[-76.64673,38.76895],[-76.63994,38.7688],[-76.63449,38.76666],[-76.62308,38.76728],[-76.62304,38.74909],[-76.62101,38.74626],[-76.62307,38.74393],[-76.62294,38.72666],[-76.6159,38.7208],[-76.53558,38.72148],[-76.52831,38.71274],[-76.5262,38.72429],[-76.52718,38.72706],[-76.52987,38.72843],[-76.53714,38.72694],[-76.54134,38.7285],[-76.54448,38.7277],[-76.55274,38.73535],[-76.55754,38.74469],[-76.55393,38.75277],[-76.55917,38.75868],[-76.55988,38.76736],[-76.54958,38.77285],[-76.53936,38.77469],[-76.52698,38.78702],[-76.52748,38.79182],[-76.52468,38.79502],[-76.51008,38.80122],[-76.50811,38.80549],[-76.50627,38.80555],[-76.50666,38.80979],[-76.50146,38.81159],[-76.50038,38.81394],[-76.49794,38.8148],[-76.49888,38.81752],[-76.49576,38.83007],[-76.49139,38.83471],[-76.48988,38.83872],[-76.49658,38.85312],[-76.49977,38.85221],[-76.5033,38.8455],[-76.50651,38.84605],[-76.50746,38.848],[-76.51494,38.85216],[-76.51994,38.85012],[-76.5254,38.85151],[-76.53764,38.84855],[-76.53645,38.85179],[-76.53847,38.86142],[-76.53443,38.8628],[-76.51944,38.86314],[-76.49068,38.88481],[-76.48938,38.88741],[-76.49088,38.89451],[-76.49278,38.89561],[-76.49388,38.89961],[-76.49318,38.90379],[-76.49522,38.90526],[-76.4945,38.90933],[-76.49973,38.90859],[-76.50734,38.91294],[-76.50912,38.91987],[-76.49724,38.92551],[-76.48951,38.92736],[-76.47834,38.91895],[-76.47822,38.91645],[-76.47576,38.91447],[-76.46948,38.91151],[-76.46938,38.90761],[-76.46026,38.90714],[-76.45878,38.91521],[-76.46362,38.92748],[-76.45966,38.93393],[-76.45028,38.94111],[-76.45778,38.94841],[-76.46308,38.94861],[-76.47128,38.95651],[-76.47488,38.96731],[-76.4742,38.97265],[-76.48024,38.97773],[-76.4762,38.98152],[-76.46919,38.98263],[-76.46313,38.98106],[-76.4585,38.98466],[-76.45445,38.98235],[-76.45572,38.98077],[-76.45458,38.97451],[-76.45048,38.97761],[-76.44898,38.98281],[-76.4497,38.99353],[-76.43449,38.99667],[-76.43128,39.00147],[-76.42391,38.99953],[-76.42415,38.99417],[-76.42724,38.98965],[-76.42687,38.98705],[-76.42266,38.98657],[-76.421,38.98919],[-76.42191,38.9946],[-76.41513,38.99556],[-76.41325,38.99697],[-76.41397,39.00144],[-76.3945,39.01268],[-76.39778,39.02261],[-76.40508,39.03321],[-76.43122,39.04696],[-76.43893,39.05279],[-76.42994,39.06285],[-76.42194,39.07699],[-76.42216,39.08385],[-76.43314,39.11123],[-76.43198,39.11956],[-76.43328,39.12177],[-76.43104,39.13212],[-76.47148,39.15471],[-76.4783,39.16707],[-76.48402,39.16441],[-76.49046,39.15609],[-76.50092,39.15544],[-76.50306,39.15747],[-76.50068,39.1594],[-76.50056,39.16208],[-76.50368,39.16597],[-76.51239,39.1725],[-76.51768,39.17322],[-76.52578,39.17791],[-76.52802,39.18436],[-76.53341,39.19041],[-76.53382,39.1932],[-76.52786,39.19552],[-76.53087,39.20098],[-76.53539,39.20381],[-76.53307,39.20765],[-76.55009,39.19721],[-76.58328,39.2074],[-76.61168,39.23439],[-76.61861,39.2374],[-76.63153,39.22386],[-76.63714,39.2235],[-76.64555,39.22857],[-76.66173,39.23114],[-76.66992,39.22843],[-76.68095,39.22],[-76.68775,39.22129],[-76.69283,39.21977],[-76.697,39.21706],[-76.69756,39.21203],[-76.70081,39.21242],[-76.70334,39.2107],[-76.70799,39.20342],[-76.71216,39.20193],[-76.71345,39.19324],[-76.71922,39.19148],[-76.7211,39.18916],[-76.7201,39.18735],[-76.72195,39.18303],[-76.72796,39.18408],[-76.7382,39.17909],[-76.74639,39.17951],[-76.75014,39.17502],[-76.76374,39.16623],[-76.78262,39.14381],[-76.78518,39.13208],[-76.7905,39.1255],[-76.7974,39.12258],[-76.81203,39.12273],[-76.82272,39.11867],[-76.82572,39.11555],[-76.82667,39.10995],[-76.82871,39.10758],[-76.83849,39.10421]]]}},{"type":"Feature","id":"MD:163:24510","properties":{"destinationId":"163","locality":"Baltimore City","definition":"Baltimore City","state":"MD","stateName":"Maryland","county":"Baltimore city","countyGeoid":"24510","countyGeoids":["24510"],"coverage":"complete-counties","sourceType":"gsa_county_defined_rate_area"},"geometry":{"type":"Polygon","coordinates":[[[-76.71152,39.36576],[-76.71105,39.27789],[-76.61168,39.23439],[-76.58328,39.2074],[-76.55009,39.19721],[-76.53307,39.20765],[-76.5324,39.20999],[-76.53428,39.21321],[-76.5418,39.21228],[-76.54905,39.21375],[-76.55024,39.21734],[-76.55535,39.21697],[-76.5645,39.22461],[-76.562,39.22756],[-76.56248,39.23041],[-76.55844,39.23373],[-76.56224,39.23529],[-76.56557,39.24118],[-76.57852,39.24882],[-76.57852,39.25122],[-76.58446,39.25379],[-76.58648,39.26134],[-76.57947,39.26152],[-76.57745,39.26456],[-76.57222,39.26474],[-76.57151,39.26069],[-76.56902,39.25922],[-76.56628,39.25959],[-76.56331,39.25692],[-76.55274,39.25747],[-76.54026,39.25039],[-76.53895,39.24551],[-76.53324,39.23925],[-76.52958,39.2403],[-76.52979,39.37206],[-76.71131,39.37193],[-76.71152,39.36576]]]}},{"type":"Feature","id":"MD:164:24019","properties":{"destinationId":"164","locality":"Cambridge / St. Michaels","definition":"Dorchester / Talbot","state":"MD","stateName":"Maryland","county":"Dorchester County","countyGeoid":"24019","countyGeoids":["24019","24041"],"coverage":"complete-counties","sourceType":"gsa_county_defined_rate_area"},"geometry":{"type":"MultiPolygon","coordinates":[[[[-76.06544,38.1298],[-76.06448,38.12548],[-76.0611,38.12688],[-76.06544,38.1298]]],[[[-76.08881,38.16313],[-76.08474,38.15663],[-76.08142,38.15915],[-76.07666,38.15822],[-76.06371,38.17092],[-76.06026,38.16878],[-76.0542,38.15037],[-76.05115,38.14753],[-76.04009,38.14881],[-76.03802,38.14717],[-76.03226,38.14826],[-76.0289,38.15418],[-76.03281,38.15806],[-76.03566,38.15868],[-76.03614,38.16261],[-76.0403,38.16569],[-76.03412,38.16962],[-76.03138,38.16794],[-76.02885,38.1684],[-76.02238,38.17377],[-76.02607,38.18206],[-76.02901,38.18382],[-76.03495,38.18531],[-76.04208,38.18419],[-76.04291,38.18821],[-76.03666,38.19231],[-76.04899,38.20378],[-76.05722,38.20249],[-76.0638,38.20505],[-76.07049,38.20291],[-76.06941,38.2011],[-76.0561,38.19717],[-76.05598,38.19372],[-76.05884,38.19101],[-76.06561,38.18811],[-76.08094,38.18849],[-76.08724,38.19194],[-76.0882,38.18999],[-76.08344,38.18606],[-76.08425,38.1811],[-76.08046,38.17354],[-76.08213,38.17242],[-76.0832,38.17363],[-76.08748,38.17046],[-76.08688,38.16476],[-76.08881,38.16313]]],[[[-76.08974,38.1468],[-76.09022,38.14477],[-76.08565,38.13858],[-76.08441,38.14536],[-76.08547,38.14682],[-76.08974,38.1468]]],[[[-76.09027,38.11967],[-76.08983,38.11512],[-76.08591,38.11668],[-76.08446,38.12273],[-76.08653,38.12436],[-76.09027,38.11967]]],[[[-76.26436,38.34199],[-76.26555,38.34093],[-76.25773,38.33157],[-76.25767,38.32486],[-76.25449,38.32493],[-76.25183,38.32753],[-76.25801,38.33517],[-76.25896,38.33928],[-76.25456,38.34067],[-76.25944,38.34123],[-76.263,38.3439],[-76.26436,38.34199]]],[[[-76.33264,38.48445],[-76.33355,38.48209],[-76.33104,38.47794],[-76.33156,38.47355],[-76.32599,38.46919],[-76.32165,38.46191],[-76.31315,38.45681],[-76.31175,38.45038],[-76.3059,38.44816],[-76.29608,38.42904],[-76.29321,38.42562],[-76.28802,38.423],[-76.28501,38.41701],[-76.28284,38.41578],[-76.27925,38.40324],[-76.2825,38.39231],[-76.28188,38.38923],[-76.27846,38.38643],[-76.27807,38.38239],[-76.27429,38.38214],[-76.27108,38.37962],[-76.2702,38.37459],[-76.26358,38.37276],[-76.25684,38.36717],[-76.24967,38.36421],[-76.24921,38.36114],[-76.24409,38.3586],[-76.23845,38.34799],[-76.23294,38.34524],[-76.23377,38.33601],[-76.2302,38.32921],[-76.2334,38.32312],[-76.23003,38.32132],[-76.22964,38.31438],[-76.22427,38.30767],[-76.21145,38.30266],[-76.20647,38.29844],[-76.20092,38.28738],[-76.19476,38.2837],[-76.19053,38.27714],[-76.18574,38.26398],[-76.17922,38.25878],[-76.17173,38.24787],[-76.16698,38.24722],[-76.16549,38.2428],[-76.16246,38.24526],[-76.15938,38.24516],[-76.14987,38.23648],[-76.14979,38.23449],[-76.14056,38.23184],[-76.12997,38.23461],[-76.12572,38.23902],[-76.12662,38.24295],[-76.1463,38.24968],[-76.16325,38.24891],[-76.16576,38.25412],[-76.17578,38.26155],[-76.17958,38.26681],[-76.181,38.27064],[-76.1747,38.27026],[-76.18029,38.2739],[-76.18207,38.28034],[-76.17355,38.28523],[-76.1778,38.28883],[-76.1778,38.29051],[-76.17221,38.29368],[-76.16615,38.29043],[-76.16047,38.29098],[-76.16639,38.29265],[-76.17209,38.29722],[-76.18017,38.29209],[-76.18718,38.29471],[-76.19455,38.29433],[-76.19693,38.29312],[-76.19621,38.29107],[-76.19883,38.28986],[-76.20608,38.3003],[-76.22034,38.31019],[-76.222,38.31364],[-76.21951,38.32026],[-76.22141,38.32399],[-76.2188,38.32706],[-76.21071,38.32921],[-76.21214,38.332],[-76.2119,38.33806],[-76.22046,38.34235],[-76.22723,38.34869],[-76.22902,38.35624],[-76.23389,38.36528],[-76.23127,38.36807],[-76.23282,38.37487],[-76.23199,38.37748],[-76.23056,38.38018],[-76.22711,38.38093],[-76.23127,38.38614],[-76.2321,38.39117],[-76.23104,38.39332],[-76.22533,38.39509],[-76.21559,38.38959],[-76.2138,38.38689],[-76.21487,38.38335],[-76.2138,38.37832],[-76.21547,38.37674],[-76.21464,38.37394],[-76.21844,38.37208],[-76.21868,38.36506],[-76.20881,38.36639],[-76.20465,38.37105],[-76.19574,38.36649],[-76.19717,38.36378],[-76.19586,38.36276],[-76.18243,38.35959],[-76.18184,38.35558],[-76.17209,38.34599],[-76.17043,38.34105],[-76.17197,38.33517],[-76.16841,38.33228],[-76.16175,38.33042],[-76.15949,38.32744],[-76.15914,38.32203],[-76.16056,38.32044],[-76.16425,38.32259],[-76.16746,38.32175],[-76.17459,38.32865],[-76.17791,38.33415],[-76.18267,38.33676],[-76.1898,38.33172],[-76.18576,38.3307],[-76.18493,38.328],[-76.18778,38.32492],[-76.19336,38.3251],[-76.19614,38.3271],[-76.19895,38.32473],[-76.19681,38.32184],[-76.19717,38.3169],[-76.19324,38.31643],[-76.19003,38.31914],[-76.18552,38.31998],[-76.18457,38.32352],[-76.1747,38.32464],[-76.16437,38.31578],[-76.15961,38.31578],[-76.14511,38.31019],[-76.14416,38.31382],[-76.1425,38.31364],[-76.13751,38.30953],[-76.13394,38.30972],[-76.13204,38.30776],[-76.13406,38.30599],[-76.1324,38.30179],[-76.13644,38.29909],[-76.13893,38.29984],[-76.13941,38.29275],[-76.14988,38.28466],[-76.14918,38.27191],[-76.14722,38.27477],[-76.14109,38.27729],[-76.13852,38.28138],[-76.13299,38.2828],[-76.12463,38.2798],[-76.12354,38.28109],[-76.13228,38.28948],[-76.13014,38.29209],[-76.12919,38.29778],[-76.13073,38.30133],[-76.12883,38.30263],[-76.12586,38.30226],[-76.12194,38.2989],[-76.11861,38.30021],[-76.11778,38.30543],[-76.11445,38.30487],[-76.11469,38.30068],[-76.1122,38.29806],[-76.10958,38.29853],[-76.10804,38.30263],[-76.10578,38.30161],[-76.10566,38.29545],[-76.11588,38.29153],[-76.11136,38.28902],[-76.1113,38.28695],[-76.10518,38.28911],[-76.10221,38.29228],[-76.09877,38.29144],[-76.09946,38.28883],[-76.09722,38.28482],[-76.09945,38.28257],[-76.09888,38.28081],[-76.09514,38.27867],[-76.08664,38.27931],[-76.08629,38.27409],[-76.08831,38.2725],[-76.07904,38.27092],[-76.07702,38.26924],[-76.07773,38.26737],[-76.08653,38.26233],[-76.09407,38.26281],[-76.09377,38.2586],[-76.09651,38.25702],[-76.10007,38.25748],[-76.10376,38.26177],[-76.10759,38.26252],[-76.09993,38.25563],[-76.09972,38.25365],[-76.09734,38.25454],[-76.0944,38.25246],[-76.09012,38.25265],[-76.08858,38.25463],[-76.08088,38.25265],[-76.07844,38.25543],[-76.07488,38.25487],[-76.06913,38.23892],[-76.05817,38.22839],[-76.04872,38.22411],[-76.04838,38.22621],[-76.04624,38.22705],[-76.04077,38.225],[-76.04114,38.22211],[-76.03204,38.21668],[-76.03287,38.22174],[-76.03653,38.22476],[-76.03635,38.23216],[-76.0424,38.23882],[-76.04414,38.24367],[-76.04778,38.24404],[-76.05848,38.2502],[-76.05551,38.25216],[-76.0504,38.2502],[-76.04671,38.25104],[-76.04423,38.24834],[-76.04356,38.2501],[-76.0406,38.25026],[-76.0328,38.26893],[-76.03276,38.27515],[-76.02696,38.28141],[-76.02962,38.28298],[-76.03053,38.28796],[-76.03542,38.2897],[-76.0448,38.30122],[-76.05022,38.3041],[-76.06276,38.30459],[-76.04958,38.30959],[-76.0456,38.31825],[-76.04162,38.32214],[-76.03395,38.32321],[-76.02497,38.33042],[-76.01724,38.33294],[-76.01225,38.35148],[-76.00678,38.35465],[-76.01273,38.35596],[-76.01187,38.36058],[-76.00512,38.36844],[-76.01082,38.37105],[-76.01296,38.37487],[-76.01142,38.37683],[-76.0075,38.37422],[-75.99763,38.37422],[-75.993,38.36956],[-75.97589,38.36751],[-75.96694,38.35165],[-75.96662,38.34766],[-75.96329,38.34897],[-75.95735,38.34757],[-75.96198,38.34338],[-75.96151,38.33098],[-75.96531,38.3225],[-75.98134,38.31515],[-76.00865,38.31226],[-76.01736,38.30911],[-76.01629,38.30721],[-76.00738,38.30432],[-76.006,38.30072],[-76.00038,38.29781],[-76.00193,38.29528],[-75.98582,38.27647],[-75.9829,38.27698],[-75.981,38.27512],[-75.9823,38.27362],[-75.98112,38.26858],[-75.98394,38.26898],[-75.98253,38.26446],[-75.96195,38.25139],[-75.96128,38.24928],[-75.96412,38.24108],[-75.97026,38.23381],[-75.94923,38.23751],[-75.9407,38.2469],[-75.9445,38.24914],[-75.9488,38.2488],[-75.95454,38.25289],[-75.9546,38.25458],[-75.95162,38.25614],[-75.95491,38.264],[-75.9515,38.26695],[-75.94711,38.26731],[-75.93858,38.27233],[-75.93881,38.28444],[-75.93599,38.28776],[-75.94095,38.29396],[-75.94083,38.29844],[-75.93685,38.30363],[-75.93833,38.30683],[-75.93572,38.3114],[-75.93215,38.31224],[-75.92728,38.32138],[-75.92336,38.3224],[-75.91968,38.32594],[-75.91356,38.32706],[-75.91456,38.33928],[-75.91219,38.34319],[-75.90316,38.34645],[-75.90007,38.34953],[-75.88438,38.35204],[-75.86358,38.3595],[-75.86441,38.36537],[-75.87107,38.37534],[-75.86905,38.37981],[-75.86536,38.38121],[-75.86473,38.37972],[-75.86085,38.38358],[-75.85529,38.38534],[-75.8462,38.3844],[-75.83828,38.38588],[-75.8424,38.39308],[-75.85126,38.40035],[-75.85095,38.40454],[-75.84557,38.42187],[-75.82887,38.42342],[-75.82496,38.42537],[-75.82129,38.43014],[-75.81983,38.43589],[-75.82134,38.43926],[-75.82664,38.44223],[-75.83313,38.44344],[-75.8361,38.44563],[-75.83674,38.44809],[-75.83316,38.45762],[-75.81669,38.46331],[-75.8149,38.46646],[-75.81577,38.46937],[-75.8229,38.47601],[-75.82476,38.4791],[-75.82371,38.48102],[-75.81519,38.48879],[-75.79466,38.49237],[-75.78206,38.5016],[-75.76499,38.50648],[-75.75706,38.51336],[-75.75334,38.52874],[-75.74695,38.53624],[-75.74489,38.53778],[-75.73217,38.53802],[-75.72721,38.53975],[-75.71189,38.55088],[-75.70608,38.56054],[-75.70156,38.56074],[-75.70736,38.6354],[-75.71453,38.64584],[-75.7377,38.66532],[-75.74902,38.67107],[-75.76272,38.68622],[-75.76897,38.68582],[-75.7732,38.6764],[-75.77491,38.67639],[-75.77535,38.67868],[-75.77633,38.67676],[-75.79841,38.67634],[-75.80047,38.69691],[-75.81612,38.69828],[-75.84035,38.70419],[-75.85812,38.70116],[-75.87047,38.69425],[-75.87835,38.69353],[-75.88899,38.69547],[-75.89709,38.70132],[-75.90486,38.68765],[-75.91088,38.68671],[-75.91303,38.68906],[-75.915,38.68709],[-75.91451,38.68388],[-75.9174,38.68389],[-75.91642,38.68101],[-75.91757,38.68011],[-75.92272,38.682],[-75.92369,38.68091],[-75.92185,38.67841],[-75.92668,38.67995],[-75.92733,38.67736],[-75.92985,38.67599],[-75.932,38.67681],[-75.93305,38.68054],[-75.93685,38.68014],[-75.93784,38.67645],[-75.94323,38.6758],[-75.949,38.6718],[-75.95558,38.66346],[-75.95532,38.65349],[-75.95792,38.64804],[-75.97931,38.63027],[-75.98351,38.62511],[-75.98093,38.61005],[-75.99056,38.59326],[-76.00582,38.5876],[-76.02344,38.57388],[-76.02847,38.57234],[-76.02651,38.56682],[-76.04315,38.56208],[-76.04719,38.56282],[-76.05373,38.56747],[-76.07096,38.57481],[-76.06965,38.57658],[-76.07262,38.57871],[-76.07488,38.57732],[-76.07785,38.57946],[-76.07785,38.58503],[-76.08653,38.58587],[-76.0889,38.59023],[-76.08831,38.59274],[-76.11433,38.58299],[-76.13299,38.59562],[-76.14131,38.60602],[-76.1526,38.5958],[-76.16128,38.59512],[-76.16864,38.60221],[-76.16437,38.61494],[-76.16472,38.6219],[-76.17017,38.62867],[-76.17661,38.62765],[-76.2026,38.61301],[-76.20306,38.61074],[-76.21243,38.60674],[-76.21539,38.60941],[-76.23119,38.61401],[-76.23104,38.61169],[-76.23626,38.61243],[-76.23816,38.6167],[-76.23604,38.61944],[-76.23781,38.62227],[-76.2348,38.62431],[-76.23544,38.62703],[-76.24625,38.62462],[-76.24928,38.62615],[-76.25454,38.62225],[-76.25088,38.61856],[-76.24993,38.61531],[-76.25136,38.61391],[-76.25409,38.61549],[-76.25944,38.61484],[-76.26088,38.61754],[-76.26416,38.61511],[-76.26514,38.61122],[-76.2699,38.61001],[-76.27429,38.61178],[-76.27183,38.61566],[-76.27322,38.61781],[-76.28456,38.62641],[-76.2861,38.62566],[-76.28083,38.61949],[-76.27886,38.61152],[-76.27513,38.60731],[-76.27489,38.60358],[-76.27148,38.60188],[-76.26978,38.60388],[-76.26407,38.60398],[-76.26229,38.60231],[-76.26384,38.60147],[-76.26312,38.59878],[-76.26669,38.59664],[-76.26863,38.59775],[-76.27212,38.59208],[-76.2718,38.59079],[-76.26692,38.58986],[-76.26621,38.58605],[-76.2756,38.58094],[-76.28095,38.57472],[-76.28986,38.57732],[-76.28848,38.58279],[-76.29185,38.58366],[-76.2997,38.57504],[-76.30329,38.57468],[-76.30501,38.57249],[-76.30169,38.57295],[-76.29923,38.56951],[-76.29004,38.56916],[-76.28374,38.56216],[-76.28422,38.561],[-76.2813,38.56112],[-76.27556,38.55247],[-76.27534,38.54714],[-76.27927,38.53558],[-76.27406,38.53121],[-76.27453,38.53513],[-76.2674,38.54256],[-76.25516,38.54154],[-76.2444,38.53697],[-76.23496,38.54126],[-76.22284,38.53978],[-76.22022,38.53187],[-76.22676,38.52546],[-76.23234,38.52676],[-76.2473,38.52382],[-76.25864,38.5098],[-76.26538,38.49747],[-76.26752,38.49812],[-76.2737,38.49486],[-76.28166,38.49607],[-76.2882,38.49868],[-76.28855,38.50128],[-76.28599,38.50316],[-76.28755,38.50354],[-76.29966,38.5013],[-76.31081,38.49637],[-76.32193,38.49776],[-76.32232,38.49892],[-76.32694,38.4984],[-76.32834,38.49802],[-76.3267,38.49505],[-76.32349,38.49319],[-76.32706,38.48873],[-76.32492,38.48752],[-76.32967,38.48612],[-76.33312,38.48705],[-76.33264,38.48445]]]]}},{"type":"Feature","id":"MD:164:24041","properties":{"destinationId":"164","locality":"Cambridge / St. Michaels","definition":"Dorchester / Talbot","state":"MD","stateName":"Maryland","county":"Talbot County","countyGeoid":"24041","countyGeoids":["24019","24041"],"coverage":"complete-counties","sourceType":"gsa_county_defined_rate_area"},"geometry":{"type":"MultiPolygon","coordinates":[[[[-76.34648,38.69205],[-76.34423,38.67878],[-76.33971,38.67064],[-76.33797,38.67231],[-76.34013,38.67601],[-76.33823,38.67759],[-76.32594,38.67802],[-76.32316,38.67967],[-76.32367,38.68378],[-76.32186,38.68951],[-76.32386,38.69175],[-76.3267,38.69146],[-76.33402,38.70313],[-76.33287,38.70803],[-76.3298,38.70816],[-76.33218,38.71048],[-76.33148,38.71327],[-76.3245,38.71846],[-76.31933,38.72915],[-76.31276,38.73071],[-76.3147,38.73759],[-76.32361,38.73833],[-76.32492,38.74009],[-76.3128,38.74584],[-76.31339,38.74908],[-76.29866,38.74973],[-76.29663,38.74593],[-76.29663,38.73694],[-76.2945,38.73573],[-76.29438,38.73342],[-76.29473,38.73101],[-76.29939,38.7269],[-76.29596,38.72416],[-76.29917,38.71929],[-76.29377,38.71735],[-76.29224,38.72275],[-76.28867,38.72201],[-76.28879,38.71979],[-76.28416,38.72071],[-76.28202,38.71812],[-76.28235,38.7162],[-76.27187,38.71024],[-76.27028,38.72438],[-76.26728,38.72823],[-76.25509,38.73648],[-76.2548,38.73953],[-76.2573,38.74259],[-76.2548,38.74917],[-76.24434,38.74954],[-76.24232,38.75344],[-76.24256,38.75983],[-76.23614,38.76344],[-76.22462,38.76039],[-76.2226,38.75761],[-76.22462,38.7513],[-76.21345,38.74278],[-76.20548,38.73916],[-76.20893,38.73323],[-76.21535,38.7285],[-76.22248,38.73629],[-76.22925,38.73916],[-76.2321,38.73712],[-76.23816,38.73694],[-76.23698,38.73323],[-76.23181,38.73155],[-76.22925,38.72795],[-76.23163,38.72377],[-76.23674,38.72404],[-76.23907,38.71944],[-76.23872,38.71284],[-76.22693,38.69809],[-76.21964,38.69721],[-76.21343,38.69237],[-76.21564,38.68722],[-76.21242,38.68405],[-76.21281,38.68189],[-76.21003,38.68116],[-76.20033,38.67077],[-76.19772,38.67108],[-76.20026,38.67295],[-76.19859,38.67675],[-76.18706,38.69354],[-76.18457,38.69503],[-76.1772,38.69298],[-76.17304,38.68742],[-76.17387,38.68185],[-76.17257,38.68176],[-76.17732,38.67601],[-76.17314,38.67097],[-76.16669,38.66774],[-76.16257,38.66208],[-76.15961,38.66237],[-76.15561,38.65808],[-76.14716,38.63684],[-76.13466,38.63889],[-76.13097,38.63787],[-76.12348,38.62896],[-76.11338,38.62134],[-76.11315,38.61531],[-76.11077,38.61271],[-76.10933,38.61428],[-76.10922,38.62013],[-76.10625,38.62301],[-76.08855,38.62589],[-76.08308,38.62348],[-76.08225,38.61874],[-76.08367,38.61661],[-76.05337,38.60379],[-76.05289,38.59413],[-76.03162,38.58131],[-76.02772,38.57243],[-76.02344,38.57388],[-76.00582,38.5876],[-75.99056,38.59326],[-75.98093,38.61005],[-75.98351,38.62511],[-75.97931,38.63027],[-75.95792,38.64804],[-75.95532,38.65349],[-75.95558,38.66346],[-75.949,38.6718],[-75.94525,38.67411],[-75.9704,38.68312],[-75.97679,38.69784],[-75.99305,38.69672],[-75.99461,38.69944],[-75.99308,38.70658],[-75.99416,38.7092],[-76.00278,38.71838],[-76.01443,38.72646],[-76.01321,38.73329],[-76.009,38.73647],[-75.99967,38.73484],[-75.99538,38.73668],[-75.99459,38.74189],[-75.99934,38.75208],[-75.99895,38.7556],[-75.99376,38.75928],[-75.97641,38.76551],[-75.96861,38.77284],[-75.96709,38.77934],[-75.95455,38.7775],[-75.94946,38.77842],[-75.93735,38.78724],[-75.93252,38.79614],[-75.92796,38.7992],[-75.91137,38.80629],[-75.90378,38.80693],[-75.89981,38.81169],[-75.89632,38.81245],[-75.89718,38.81521],[-75.90325,38.81676],[-75.90645,38.8197],[-75.90127,38.82474],[-75.91292,38.82953],[-75.91518,38.83484],[-75.92777,38.83889],[-75.9281,38.84107],[-75.91898,38.84608],[-75.92677,38.84704],[-75.93037,38.85087],[-75.9228,38.85478],[-75.92219,38.85726],[-75.92433,38.86039],[-75.93023,38.86129],[-75.93471,38.86751],[-75.93929,38.86656],[-75.94308,38.87049],[-75.9444,38.87509],[-75.94357,38.87638],[-75.93892,38.87639],[-75.93764,38.8798],[-75.94148,38.88118],[-75.94875,38.87844],[-75.95147,38.88024],[-75.94964,38.88481],[-75.9404,38.88507],[-75.94459,38.89007],[-75.94862,38.89225],[-75.94594,38.89391],[-75.94436,38.89755],[-75.94491,38.90035],[-75.94919,38.90352],[-75.94308,38.90668],[-75.94799,38.91037],[-75.94915,38.91347],[-75.94398,38.91429],[-75.94426,38.91652],[-75.9679,38.92218],[-75.97192,38.92184],[-76.06572,38.93988],[-76.07793,38.94015],[-76.08088,38.94114],[-76.08114,38.94264],[-76.08363,38.94116],[-76.0886,38.94246],[-76.09048,38.9451],[-76.09696,38.94426],[-76.10367,38.939],[-76.11097,38.92665],[-76.11074,38.9206],[-76.1155,38.91372],[-76.11146,38.91101],[-76.11336,38.90452],[-76.11023,38.90259],[-76.10268,38.89017],[-76.10351,38.88231],[-76.11432,38.88084],[-76.1214,38.88242],[-76.12516,38.87715],[-76.128,38.87599],[-76.13207,38.87947],[-76.1465,38.88255],[-76.15749,38.8802],[-76.16246,38.88099],[-76.16992,38.86565],[-76.17787,38.86516],[-76.18224,38.85861],[-76.19067,38.86408],[-76.19238,38.86381],[-76.20167,38.84811],[-76.1977,38.84371],[-76.1954,38.83549],[-76.19109,38.82966],[-76.19343,38.82179],[-76.1993,38.81208],[-76.19824,38.80828],[-76.20026,38.803],[-76.1974,38.79837],[-76.19217,38.79596],[-76.1917,38.79291],[-76.18813,38.79207],[-76.18635,38.78605],[-76.18207,38.78485],[-76.17875,38.78049],[-76.18017,38.77697],[-76.17304,38.7703],[-76.1652,38.77429],[-76.16021,38.77503],[-76.15533,38.77234],[-76.15652,38.76891],[-76.16258,38.76687],[-76.16562,38.76185],[-76.16567,38.75863],[-76.17055,38.75371],[-76.18195,38.7565],[-76.18398,38.75853],[-76.18326,38.76187],[-76.1873,38.76762],[-76.19645,38.76947],[-76.1955,38.77317],[-76.20572,38.77836],[-76.21642,38.7867],[-76.21796,38.78985],[-76.21452,38.79485],[-76.21713,38.79689],[-76.21784,38.80013],[-76.21214,38.80365],[-76.21154,38.8055],[-76.22937,38.82137],[-76.23938,38.8201],[-76.24209,38.81736],[-76.24494,38.81921],[-76.24589,38.82223],[-76.24924,38.82389],[-76.25011,38.83016],[-76.2552,38.83286],[-76.25948,38.84312],[-76.26507,38.84535],[-76.26581,38.84751],[-76.26422,38.85157],[-76.25583,38.85694],[-76.25132,38.85761],[-76.25277,38.86269],[-76.25502,38.86227],[-76.27943,38.84115],[-76.28155,38.83796],[-76.27815,38.83549],[-76.27741,38.83142],[-76.28142,38.8317],[-76.28846,38.82735],[-76.2978,38.82831],[-76.30224,38.82516],[-76.30326,38.8209],[-76.30892,38.81335],[-76.31008,38.79685],[-76.31884,38.78776],[-76.32377,38.77929],[-76.32435,38.7751],[-76.32727,38.77419],[-76.3302,38.77691],[-76.33462,38.77291],[-76.32944,38.76882],[-76.32872,38.76641],[-76.33003,38.76344],[-76.33726,38.76073],[-76.33766,38.75778],[-76.34245,38.7509],[-76.33912,38.73824],[-76.34072,38.73665],[-76.34054,38.73034],[-76.3385,38.72229],[-76.34461,38.70634],[-76.34297,38.69846],[-76.34648,38.69205]]],[[[-76.39069,38.76628],[-76.39035,38.757],[-76.38434,38.75017],[-76.38362,38.74547],[-76.37736,38.7428],[-76.36326,38.74661],[-76.36421,38.75431],[-76.37084,38.76564],[-76.37234,38.77405],[-76.36989,38.77864],[-76.37524,38.78258],[-76.37982,38.7802],[-76.39069,38.76628]]]]}},{"type":"Feature","id":"MD:165:24027","properties":{"destinationId":"165","locality":"Columbia","definition":"Howard","state":"MD","stateName":"Maryland","county":"Howard County","countyGeoid":"24027","countyGeoids":["24027"],"coverage":"complete-counties","sourceType":"gsa_county_defined_rate_area"},"geometry":{"type":"Polygon","coordinates":[[[-77.18711,39.3406],[-77.18149,39.32929],[-77.17286,39.31947],[-77.17035,39.31311],[-77.16678,39.31214],[-77.16459,39.30744],[-77.16243,39.30793],[-77.15977,39.3049],[-77.14912,39.29929],[-77.14359,39.29303],[-77.14006,39.2921],[-77.1402,39.28928],[-77.13789,39.28815],[-77.14001,39.28344],[-77.134,39.27618],[-77.13324,39.27036],[-77.13059,39.26841],[-77.11699,39.26754],[-77.115,39.26517],[-77.11081,39.26414],[-77.10524,39.2645],[-77.10362,39.266],[-77.09749,39.26481],[-77.0821,39.26003],[-77.07778,39.25651],[-77.07011,39.2541],[-77.06219,39.24732],[-77.06152,39.24127],[-77.05591,39.23833],[-77.04481,39.23767],[-77.03207,39.2244],[-77.03232,39.22032],[-77.01929,39.21292],[-77.01757,39.20975],[-77.00942,39.20673],[-77.01216,39.19518],[-77.00417,39.19234],[-77.00842,39.18157],[-76.99888,39.1778],[-77.00536,39.17629],[-77.00442,39.1743],[-76.99743,39.1741],[-77.0014,39.17088],[-77.00098,39.16954],[-76.99732,39.16647],[-76.98714,39.16629],[-76.97367,39.16221],[-76.97389,39.15865],[-76.9767,39.15416],[-76.97561,39.14975],[-76.96407,39.1482],[-76.96297,39.14584],[-76.95554,39.14487],[-76.95169,39.14621],[-76.95001,39.14435],[-76.95261,39.14299],[-76.95307,39.13897],[-76.95852,39.13402],[-76.94858,39.1296],[-76.93828,39.13278],[-76.9291,39.13839],[-76.92644,39.13531],[-76.91847,39.13172],[-76.91565,39.127],[-76.9073,39.12549],[-76.89724,39.12699],[-76.88942,39.13103],[-76.88566,39.13129],[-76.88436,39.12696],[-76.87037,39.11292],[-76.86222,39.11035],[-76.84908,39.1091],[-76.84159,39.10586],[-76.84036,39.10314],[-76.82871,39.10758],[-76.82667,39.10995],[-76.82572,39.11555],[-76.82272,39.11867],[-76.81203,39.12273],[-76.7974,39.12258],[-76.7905,39.1255],[-76.78518,39.13208],[-76.78262,39.14381],[-76.76374,39.16623],[-76.75014,39.17502],[-76.74639,39.17951],[-76.7382,39.17909],[-76.72796,39.18408],[-76.72195,39.18303],[-76.7201,39.18735],[-76.7211,39.18916],[-76.71922,39.19148],[-76.71345,39.19324],[-76.71216,39.20193],[-76.70799,39.20342],[-76.70334,39.2107],[-76.70081,39.21242],[-76.69756,39.21203],[-76.69677,39.2136],[-76.70042,39.21302],[-76.70523,39.21567],[-76.70667,39.22125],[-76.7131,39.22172],[-76.71726,39.22548],[-76.72219,39.22642],[-76.72457,39.22861],[-76.74007,39.2324],[-76.7553,39.24685],[-76.76325,39.24634],[-76.76473,39.2476],[-76.76383,39.25131],[-76.78196,39.25833],[-76.79379,39.26586],[-76.79439,39.27032],[-76.78969,39.2734],[-76.78517,39.28286],[-76.7854,39.29109],[-76.7786,39.29499],[-76.77914,39.29714],[-76.79651,39.30504],[-76.79403,39.3068],[-76.79248,39.31148],[-76.79472,39.31428],[-76.80452,39.31673],[-76.81013,39.31524],[-76.81234,39.3179],[-76.81469,39.31788],[-76.81645,39.31318],[-76.81884,39.31353],[-76.82333,39.31901],[-76.82521,39.31935],[-76.82933,39.3172],[-76.83269,39.31188],[-76.83552,39.31197],[-76.83556,39.31584],[-76.83974,39.31527],[-76.84401,39.31818],[-76.84692,39.31812],[-76.84936,39.31589],[-76.85219,39.31665],[-76.85525,39.32045],[-76.85544,39.32322],[-76.86244,39.32981],[-76.86661,39.33171],[-76.87504,39.33215],[-76.87836,39.33629],[-76.87515,39.33772],[-76.87513,39.33975],[-76.88402,39.35211],[-76.88575,39.35263],[-76.88653,39.35056],[-76.88903,39.3538],[-76.8979,39.35163],[-76.90132,39.35418],[-76.9058,39.35415],[-76.90888,39.35265],[-76.908,39.34938],[-76.91015,39.34866],[-76.91292,39.35097],[-76.91676,39.35064],[-76.92931,39.35395],[-76.93381,39.35774],[-76.93858,39.35886],[-76.94137,39.35747],[-76.94643,39.36104],[-76.95118,39.35889],[-76.95037,39.35798],[-76.95921,39.35668],[-76.969,39.36382],[-76.97442,39.36139],[-76.983,39.36286],[-76.9894,39.36134],[-76.99763,39.35499],[-77.00914,39.35483],[-77.01574,39.35256],[-77.02094,39.35352],[-77.02259,39.35076],[-77.02537,39.35059],[-77.0288,39.35246],[-77.03053,39.35129],[-77.03366,39.35369],[-77.03352,39.35526],[-77.04911,39.36227],[-77.05142,39.35907],[-77.06128,39.35918],[-77.06496,39.36194],[-77.07434,39.36265],[-77.07768,39.36615],[-77.10136,39.36932],[-77.1071,39.36676],[-77.12531,39.36462],[-77.13569,39.36018],[-77.14511,39.3512],[-77.15147,39.3487],[-77.16808,39.35396],[-77.18381,39.34546],[-77.18711,39.3406]]]}},{"type":"Feature","id":"MD:170:24047","properties":{"destinationId":"170","locality":"Ocean City","definition":"Worcester","state":"MD","stateName":"Maryland","county":"Worcester County","countyGeoid":"24047","countyGeoids":["24047"],"coverage":"complete-counties","sourceType":"gsa_county_defined_rate_area"},"geometry":{"type":"Polygon","coordinates":[[[-75.66061,38.04633],[-75.66183,38.04185],[-75.65582,38.02976],[-75.64915,38.02636],[-75.64585,38.02064],[-75.64276,38.02046],[-75.63929,38.02298],[-75.63504,38.02128],[-75.63155,38.01764],[-75.63187,38.01274],[-75.62894,38.00741],[-75.62358,38.00903],[-75.61973,38.00712],[-75.62117,37.99848],[-75.62434,37.99421],[-75.24247,38.02703],[-75.21612,38.06179],[-75.1938,38.09601],[-75.17915,38.12636],[-75.15897,38.18424],[-75.13026,38.2469],[-75.10295,38.31153],[-75.09389,38.32343],[-75.08747,38.32277],[-75.08552,38.32427],[-75.07248,38.35528],[-75.06137,38.38947],[-75.05459,38.41483],[-75.04894,38.45126],[-75.34125,38.45197],[-75.3408,38.44891],[-75.33579,38.44229],[-75.33667,38.43638],[-75.33409,38.43507],[-75.3304,38.42423],[-75.32343,38.41849],[-75.3171,38.40424],[-75.31912,38.39449],[-75.32103,38.39386],[-75.32523,38.38593],[-75.32975,38.3821],[-75.32916,38.38041],[-75.32164,38.37087],[-75.31922,38.37123],[-75.31629,38.36928],[-75.31396,38.35981],[-75.31026,38.35699],[-75.30742,38.357],[-75.30701,38.35476],[-75.30988,38.34928],[-75.31739,38.34575],[-75.31635,38.34363],[-75.3232,38.3319],[-75.32682,38.33039],[-75.33068,38.33192],[-75.33943,38.32465],[-75.34096,38.32021],[-75.34608,38.31938],[-75.35545,38.31452],[-75.36464,38.29036],[-75.61276,38.27863],[-75.61021,38.27307],[-75.61034,38.26642],[-75.60469,38.25964],[-75.60583,38.24912],[-75.59271,38.23338],[-75.59084,38.22811],[-75.58682,38.22361],[-75.57665,38.22006],[-75.57584,38.21128],[-75.56345,38.20222],[-75.55793,38.1916],[-75.55101,38.18748],[-75.5459,38.17874],[-75.54786,38.17565],[-75.54699,38.16961],[-75.55035,38.16407],[-75.54938,38.16318],[-75.5554,38.16144],[-75.56184,38.15821],[-75.56208,38.15647],[-75.5696,38.15361],[-75.57682,38.1443],[-75.57669,38.14044],[-75.5717,38.1316],[-75.56847,38.13265],[-75.5545,38.12335],[-75.55254,38.12088],[-75.55185,38.11551],[-75.54873,38.11509],[-75.54977,38.11233],[-75.54607,38.11096],[-75.54826,38.10918],[-75.54708,38.10783],[-75.54224,38.10927],[-75.54011,38.10831],[-75.54088,38.10608],[-75.54357,38.10676],[-75.5443,38.10274],[-75.54056,38.10208],[-75.5425,38.0998],[-75.54546,38.10076],[-75.54606,38.09799],[-75.5404,38.09666],[-75.54337,38.09486],[-75.54412,38.09187],[-75.54087,38.08948],[-75.55333,38.08482],[-75.55845,38.08572],[-75.56219,38.0884],[-75.56952,38.08711],[-75.57252,38.08311],[-75.57154,38.0751],[-75.57459,38.07164],[-75.58159,38.06827],[-75.59959,38.06938],[-75.6057,38.07506],[-75.61523,38.07405],[-75.61851,38.07196],[-75.61846,38.0685],[-75.6162,38.06506],[-75.62067,38.05636],[-75.63712,38.0512],[-75.63596,38.04821],[-75.63801,38.04479],[-75.64789,38.04679],[-75.6496,38.0521],[-75.65426,38.05288],[-75.66061,38.04633]]]}}]}