{"type":"FeatureCollection","features":[{"type":"Feature","id":"ME:171:23009","properties":{"destinationId":"171","locality":"Bar Harbor / Rockport","definition":"Hancock / Knox","state":"ME","stateName":"Maine","county":"Hancock County","countyGeoid":"23009","countyGeoids":["23009","23013"],"coverage":"complete-counties","sourceType":"gsa_county_defined_rate_area"},"geometry":{"type":"MultiPolygon","coordinates":[[[[-68.03522,44.33274],[-68.03436,44.32782],[-68.0315,44.3251],[-68.02913,44.33598],[-68.0321,44.33667],[-68.03522,44.33274]]],[[[-68.10376,44.36436],[-68.10471,44.36198],[-68.10328,44.35824],[-68.09472,44.35145],[-68.09377,44.35621],[-68.0971,44.36198],[-68.10043,44.36538],[-68.10376,44.36436]]],[[[-68.13228,44.41871],[-68.13822,44.41735],[-68.13228,44.41481],[-68.128,44.40666],[-68.12111,44.40649],[-68.11778,44.40954],[-68.12063,44.41447],[-68.1261,44.41854],[-68.13228,44.41871]]],[[[-68.14202,44.43585],[-68.14297,44.4289],[-68.14012,44.4255],[-68.13394,44.42737],[-68.12895,44.4384],[-68.12515,44.44213],[-68.12491,44.44536],[-68.1299,44.44926],[-68.13465,44.45011],[-68.13941,44.44417],[-68.14202,44.43585]]],[[[-68.14915,44.38696],[-68.14837,44.38411],[-68.14439,44.38304],[-68.14055,44.3768],[-68.13394,44.37931],[-68.12562,44.38713],[-68.1261,44.39868],[-68.12943,44.40479],[-68.13537,44.40309],[-68.14369,44.39358],[-68.14777,44.39244],[-68.14915,44.38696]]],[[[-68.16032,44.46707],[-68.16223,44.46521],[-68.157,44.46317],[-68.15177,44.45825],[-68.14559,44.4574],[-68.15414,44.46504],[-68.16032,44.46707]]],[[[-68.16627,44.40666],[-68.16925,44.403],[-68.16579,44.40037],[-68.15914,44.40581],[-68.15462,44.41345],[-68.15937,44.41209],[-68.16627,44.40666]]],[[[-68.18169,44.40423],[-68.17649,44.40258],[-68.17577,44.40564],[-68.17839,44.40734],[-68.18169,44.40423]]],[[[-68.18409,44.38804],[-68.18195,44.38526],[-68.17791,44.38645],[-68.17873,44.38839],[-68.18409,44.38804]]],[[[-68.19003,44.4686],[-68.1917,44.46741],[-68.16627,44.463],[-68.16603,44.46453],[-68.17387,44.46724],[-68.19003,44.4686]]],[[[-68.19669,44.4002],[-68.1917,44.39885],[-68.19086,44.40123],[-68.19479,44.40156],[-68.19669,44.4002]]],[[[-68.20358,44.24275],[-68.20321,44.23927],[-68.19898,44.2367],[-68.19307,44.23901],[-68.1936,44.24411],[-68.1977,44.24635],[-68.20263,44.24547],[-68.20358,44.24275]]],[[[-68.20406,44.49505],[-68.20644,44.49302],[-68.20121,44.49065],[-68.19978,44.49166],[-68.20097,44.49404],[-68.20406,44.49505]]],[[[-68.21285,44.47657],[-68.21309,44.47488],[-68.20976,44.47386],[-68.20382,44.47504],[-68.20453,44.47742],[-68.20834,44.47589],[-68.21285,44.47657]]],[[[-68.21404,44.39885],[-68.21095,44.39681],[-68.20218,44.39744],[-68.20263,44.40037],[-68.21404,44.39885]]],[[[-68.24096,44.2528],[-68.23908,44.25175],[-68.23138,44.2561],[-68.21724,44.25751],[-68.21368,44.25558],[-68.21136,44.25685],[-68.21587,44.26197],[-68.21851,44.26125],[-68.22204,44.26396],[-68.22831,44.26364],[-68.23056,44.26627],[-68.23526,44.2663],[-68.23972,44.26476],[-68.24089,44.26181],[-68.2383,44.25878],[-68.24096,44.2528]]],[[[-68.24895,44.17576],[-68.24548,44.17023],[-68.23923,44.1746],[-68.24202,44.17666],[-68.24895,44.17576]]],[[[-68.25301,44.15509],[-68.2498,44.14395],[-68.24643,44.14121],[-68.24361,44.14279],[-68.24667,44.15166],[-68.24232,44.15738],[-68.24613,44.1584],[-68.25301,44.15509]]],[[[-68.27013,44.27577],[-68.26966,44.27287],[-68.26324,44.27032],[-68.24874,44.27015],[-68.24565,44.27424],[-68.24827,44.27696],[-68.25516,44.27543],[-68.27013,44.27577]]],[[[-68.26942,44.28564],[-68.27061,44.28326],[-68.26609,44.28274],[-68.26562,44.28496],[-68.26942,44.28564]]],[[[-68.27472,44.25868],[-68.27686,44.24079],[-68.27443,44.2371],[-68.26667,44.23403],[-68.2604,44.23714],[-68.24891,44.23544],[-68.24314,44.24099],[-68.24491,44.24253],[-68.24353,44.24563],[-68.24631,44.24654],[-68.25064,44.25756],[-68.26213,44.26077],[-68.26681,44.25739],[-68.27144,44.25922],[-68.27472,44.25868]]],[[[-68.30412,44.28376],[-68.30293,44.27696],[-68.29556,44.27747],[-68.29105,44.27594],[-68.29342,44.27866],[-68.30412,44.28376]]],[[[-68.34239,44.19369],[-68.34334,44.19062],[-68.33644,44.19028],[-68.3276,44.19412],[-68.32118,44.19903],[-68.31762,44.19645],[-68.31434,44.1976],[-68.316,44.20067],[-68.32028,44.20101],[-68.32551,44.20749],[-68.33336,44.20868],[-68.33668,44.20664],[-68.33478,44.20016],[-68.34239,44.19369]]],[[[-68.34524,44.43636],[-68.34572,44.43416],[-68.34167,44.42856],[-68.33454,44.43263],[-68.33716,44.43568],[-68.34524,44.43636]]],[[[-68.35403,44.18022],[-68.35342,44.17469],[-68.3488,44.16744],[-68.34742,44.16946],[-68.33977,44.17033],[-68.33478,44.17681],[-68.33591,44.18175],[-68.33882,44.18465],[-68.34833,44.18636],[-68.35403,44.18022]]],[[[-68.366,44.12552],[-68.3642,44.12421],[-68.36151,44.12742],[-68.366,44.12552]]],[[[-68.37257,44.14322],[-68.37186,44.13793],[-68.36853,44.13913],[-68.36972,44.14544],[-68.37186,44.14527],[-68.37257,44.14322]]],[[[-68.37544,44.11628],[-68.37648,44.11275],[-68.37477,44.11082],[-68.36944,44.10983],[-68.36862,44.0983],[-68.36674,44.09739],[-68.36086,44.10583],[-68.35819,44.10588],[-68.35718,44.10398],[-68.34868,44.10465],[-68.34546,44.10784],[-68.34148,44.10652],[-68.34222,44.10308],[-68.33714,44.10147],[-68.33047,44.10923],[-68.33179,44.11088],[-68.34253,44.11139],[-68.34226,44.11478],[-68.33838,44.11826],[-68.34164,44.12104],[-68.34619,44.12174],[-68.34758,44.12333],[-68.34652,44.12706],[-68.35038,44.12843],[-68.35837,44.12509],[-68.36102,44.12092],[-68.36882,44.12073],[-68.37544,44.11628]]],[[[-68.37598,44.1874],[-68.37884,44.18447],[-68.37043,44.18022],[-68.36235,44.18431],[-68.34976,44.19539],[-68.35416,44.19949],[-68.36034,44.19882],[-68.36965,44.19424],[-68.37598,44.1874]]],[[[-68.38208,44.14407],[-68.38339,44.14176],[-68.38089,44.13913],[-68.37709,44.14476],[-68.38208,44.14407]]],[[[-68.3942,44.40971],[-68.39325,44.40581],[-68.39064,44.40326],[-68.38422,44.40632],[-68.38921,44.41328],[-68.3942,44.40971]]],[[[-68.40722,44.11112],[-68.40852,44.10849],[-68.40371,44.10774],[-68.40133,44.11132],[-68.40722,44.11112]]],[[[-68.43556,44.29346],[-68.43659,44.29195],[-68.43205,44.2859],[-68.43009,44.28819],[-68.43152,44.29108],[-68.43556,44.29346]]],[[[-68.45618,44.31183],[-68.45362,44.30564],[-68.45576,44.29976],[-68.44887,44.29755],[-68.44744,44.30214],[-68.44958,44.30894],[-68.44816,44.312],[-68.45029,44.3137],[-68.45496,44.31328],[-68.45618,44.31183]]],[[[-68.45688,44.34429],[-68.45212,44.33617],[-68.45006,44.33581],[-68.44435,44.33955],[-68.44221,44.33666],[-68.44572,44.32492],[-68.44055,44.32119],[-68.43698,44.32374],[-68.43176,44.32425],[-68.42819,44.32901],[-68.43057,44.34295],[-68.4289,44.34533],[-68.42676,44.34414],[-68.4251,44.34686],[-68.42724,44.34839],[-68.42724,44.3506],[-68.42486,44.35332],[-68.42058,44.35009],[-68.41464,44.35722],[-68.42249,44.36776],[-68.42082,44.37524],[-68.42272,44.37524],[-68.42581,44.37201],[-68.43167,44.37178],[-68.4354,44.36972],[-68.44136,44.36164],[-68.44672,44.36011],[-68.45009,44.35732],[-68.45124,44.35247],[-68.45688,44.34429]]],[[[-68.46123,44.26011],[-68.45838,44.25415],[-68.45338,44.25619],[-68.45505,44.25892],[-68.46123,44.26011]]],[[[-68.46978,44.21515],[-68.46978,44.21311],[-68.46503,44.20987],[-68.46527,44.21311],[-68.46788,44.21618],[-68.46978,44.21515]]],[[[-68.47014,44.20165],[-68.46815,44.19955],[-68.45918,44.19768],[-68.45422,44.19953],[-68.45384,44.20168],[-68.45838,44.20544],[-68.46479,44.20698],[-68.46574,44.20374],[-68.47014,44.20165]]],[[[-68.4778,44.10197],[-68.47764,44.10044],[-68.47301,44.0982],[-68.46978,44.10142],[-68.47273,44.10296],[-68.4778,44.10197]]],[[[-68.48262,44.22776],[-68.48357,44.22452],[-68.48202,44.22102],[-68.47953,44.21975],[-68.47335,44.21941],[-68.46764,44.22469],[-68.47002,44.22878],[-68.47596,44.23116],[-68.48262,44.22776]]],[[[-68.4907,44.20272],[-68.49027,44.19991],[-68.47834,44.19812],[-68.4724,44.20306],[-68.47121,44.20732],[-68.47668,44.21498],[-68.48143,44.21686],[-68.48612,44.21343],[-68.4907,44.20272]]],[[[-68.49331,44.28257],[-68.48657,44.2691],[-68.46883,44.26351],[-68.46741,44.2676],[-68.46931,44.27049],[-68.48214,44.27934],[-68.4907,44.28326],[-68.49331,44.28257]]],[[[-68.50377,44.14561],[-68.50395,44.14288],[-68.50095,44.14156],[-68.49783,44.14305],[-68.50377,44.14561]]],[[[-68.50116,44.15397],[-68.50401,44.15073],[-68.49715,44.14702],[-68.49236,44.14732],[-68.49024,44.14896],[-68.48727,44.14295],[-68.48403,44.14263],[-68.48404,44.14595],[-68.48083,44.14637],[-68.47668,44.15124],[-68.47596,44.15465],[-68.46479,44.15448],[-68.45956,44.16062],[-68.45576,44.16028],[-68.45838,44.15516],[-68.45362,44.15004],[-68.4579,44.14424],[-68.4579,44.13964],[-68.45554,44.13692],[-68.44751,44.13349],[-68.44865,44.12558],[-68.43852,44.11618],[-68.42391,44.12036],[-68.41883,44.13061],[-68.41426,44.13077],[-68.41061,44.13395],[-68.40311,44.13509],[-68.39806,44.1398],[-68.39394,44.14103],[-68.3925,44.14211],[-68.39463,44.15169],[-68.39288,44.15418],[-68.38327,44.15584],[-68.39408,44.1658],[-68.39468,44.16965],[-68.40204,44.17204],[-68.40388,44.17462],[-68.40821,44.1763],[-68.41322,44.18772],[-68.41878,44.18723],[-68.42444,44.19075],[-68.42581,44.18874],[-68.42296,44.18653],[-68.4251,44.18227],[-68.42082,44.17818],[-68.42177,44.17494],[-68.4358,44.16812],[-68.43722,44.17306],[-68.44126,44.17033],[-68.44816,44.17289],[-68.4453,44.17562],[-68.45148,44.19164],[-68.46191,44.19084],[-68.47026,44.1809],[-68.47532,44.18215],[-68.48022,44.1808],[-68.47573,44.17033],[-68.47786,44.16079],[-68.48381,44.16215],[-68.48428,44.16778],[-68.48704,44.17073],[-68.49426,44.16663],[-68.49608,44.16212],[-68.50101,44.15982],[-68.50116,44.15397]]],[[[-68.5187,44.11322],[-68.51772,44.10468],[-68.50829,44.10159],[-68.50361,44.09657],[-68.50044,44.10193],[-68.5014,44.10586],[-68.49152,44.10983],[-68.49046,44.112],[-68.49289,44.11692],[-68.49022,44.12122],[-68.49093,44.12344],[-68.49617,44.12207],[-68.50235,44.12702],[-68.50698,44.12724],[-68.51127,44.12508],[-68.5187,44.11322]]],[[[-68.53039,44.33358],[-68.53348,44.32996],[-68.52511,44.324],[-68.51801,44.32329],[-68.51517,44.3248],[-68.50021,44.32323],[-68.49142,44.31178],[-68.48381,44.31524],[-68.47878,44.31956],[-68.47882,44.32493],[-68.48491,44.32802],[-68.48808,44.33241],[-68.48595,44.34057],[-68.49118,44.35587],[-68.49864,44.36969],[-68.50136,44.38228],[-68.50766,44.38522],[-68.5127,44.3848],[-68.51857,44.38102],[-68.52193,44.36759],[-68.52067,44.35836],[-68.52863,44.3446],[-68.53039,44.33358]]],[[[-68.55297,44.22759],[-68.55131,44.22435],[-68.54489,44.22026],[-68.53496,44.22398],[-68.52968,44.22248],[-68.52828,44.2252],[-68.54988,44.22844],[-68.55297,44.22759]]],[[[-68.57246,44.21686],[-68.56462,44.21192],[-68.55963,44.21311],[-68.56795,44.21771],[-68.57246,44.21686]]],[[[-68.58858,44.14694],[-68.58506,44.14245],[-68.57888,44.14604],[-68.57866,44.14819],[-68.58245,44.14954],[-68.58858,44.14694]]],[[[-68.58934,44.23134],[-68.59171,44.22997],[-68.5872,44.2264],[-68.57817,44.22674],[-68.57603,44.22929],[-68.58149,44.23236],[-68.58934,44.23134]]],[[[-68.59855,44.14595],[-68.59884,44.14467],[-68.59504,44.14228],[-68.59338,44.14518],[-68.59855,44.14595]]],[[[-68.6055,44.17877],[-68.60692,44.17604],[-68.59863,44.1746],[-68.59682,44.17556],[-68.5967,44.17758],[-68.6055,44.17877]]],[[[-68.61025,44.14314],[-68.61144,44.14194],[-68.60906,44.14007],[-68.60859,44.13717],[-68.6055,44.13546],[-68.60146,44.1387],[-68.60241,44.14211],[-68.61025,44.14314]]],[[[-68.62119,44.15064],[-68.62142,44.14723],[-68.61762,44.14535],[-68.61215,44.14604],[-68.60956,44.1482],[-68.61199,44.14956],[-68.61174,44.15525],[-68.61334,44.15763],[-68.61738,44.15644],[-68.62119,44.15064]]],[[[-68.62166,44.14245],[-68.62356,44.14058],[-68.61714,44.13666],[-68.61762,44.14228],[-68.62166,44.14245]]],[[[-68.62736,44.12522],[-68.62974,44.12318],[-68.6231,44.11941],[-68.61898,44.11955],[-68.61501,44.12045],[-68.61308,44.12436],[-68.61089,44.12467],[-68.60811,44.12864],[-68.61192,44.12812],[-68.61881,44.13034],[-68.62071,44.12642],[-68.62736,44.12522]]],[[[-68.6345,44.13768],[-68.6345,44.13614],[-68.62689,44.13376],[-68.62689,44.13529],[-68.6345,44.13768]]],[[[-68.63497,44.15132],[-68.63545,44.14808],[-68.63378,44.14501],[-68.62879,44.14774],[-68.6238,44.14791],[-68.62665,44.15149],[-68.63093,44.15286],[-68.63497,44.15132]]],[[[-68.63996,44.12812],[-68.63983,44.1236],[-68.63331,44.1254],[-68.62974,44.12881],[-68.63378,44.13],[-68.63996,44.12812]]],[[[-68.64757,44.13392],[-68.64709,44.13051],[-68.64448,44.13102],[-68.64115,44.13358],[-68.64115,44.13546],[-68.64472,44.13597],[-68.64757,44.13392]]],[[[-68.64971,44.14876],[-68.644,44.14859],[-68.64068,44.15269],[-68.64781,44.152],[-68.64971,44.14876]]],[[[-68.65541,44.14586],[-68.65565,44.14416],[-68.65256,44.14109],[-68.64899,44.14297],[-68.64852,44.14552],[-68.65541,44.14586]]],[[[-68.65789,44.12889],[-68.65764,44.12706],[-68.65161,44.12642],[-68.65042,44.12812],[-68.65137,44.12966],[-68.65789,44.12889]]],[[[-68.68625,44.28862],[-68.68735,44.28752],[-68.686,44.28588],[-68.68341,44.28581],[-68.68341,44.28774],[-68.68625,44.28862]]],[[[-68.68697,44.27519],[-68.68774,44.2738],[-68.68633,44.27213],[-68.6845,44.27242],[-68.68567,44.27706],[-68.68697,44.27519]]],[[[-68.73162,44.22269],[-68.73298,44.22102],[-68.72671,44.21867],[-68.72483,44.21644],[-68.72557,44.21503],[-68.71719,44.2128],[-68.71973,44.21125],[-68.71935,44.20664],[-68.73167,44.20225],[-68.72432,44.19772],[-68.71388,44.19965],[-68.71287,44.19653],[-68.71222,44.19028],[-68.71783,44.18709],[-68.71989,44.18119],[-68.7184,44.17664],[-68.72125,44.17102],[-68.72065,44.1668],[-68.71853,44.16563],[-68.71697,44.16931],[-68.71032,44.16812],[-68.70461,44.1642],[-68.70906,44.15742],[-68.69815,44.1581],[-68.69729,44.15542],[-68.68726,44.15229],[-68.6819,44.13821],[-68.66624,44.13495],[-68.66801,44.15226],[-68.64139,44.15789],[-68.63806,44.163],[-68.63854,44.16556],[-68.64638,44.1659],[-68.64329,44.1734],[-68.62792,44.16969],[-68.61453,44.1809],[-68.61358,44.18431],[-68.61786,44.19164],[-68.62047,44.20016],[-68.60526,44.2051],[-68.60241,44.21038],[-68.59552,44.20732],[-68.5967,44.20493],[-68.5891,44.20186],[-68.58862,44.19778],[-68.591,44.19573],[-68.60074,44.19437],[-68.60098,44.19198],[-68.57945,44.18526],[-68.56795,44.18857],[-68.56414,44.19164],[-68.56343,44.1942],[-68.56486,44.20561],[-68.57674,44.20936],[-68.58363,44.21464],[-68.58244,44.21992],[-68.60265,44.22299],[-68.60922,44.2445],[-68.6181,44.2487],[-68.62475,44.25875],[-68.62927,44.25653],[-68.64282,44.26556],[-68.64899,44.26573],[-68.6547,44.263],[-68.6566,44.26964],[-68.66254,44.26998],[-68.67062,44.27985],[-68.67585,44.2807],[-68.67966,44.27781],[-68.67721,44.2761],[-68.6787,44.2647],[-68.69177,44.25466],[-68.69731,44.24708],[-68.69891,44.24172],[-68.69788,44.23685],[-68.6951,44.23559],[-68.69843,44.23304],[-68.70417,44.23447],[-68.71672,44.23051],[-68.7192,44.22754],[-68.72372,44.22711],[-68.73162,44.22269]]],[[[-68.74374,44.30057],[-68.74196,44.29859],[-68.74264,44.29686],[-68.73786,44.29688],[-68.72753,44.29124],[-68.72773,44.28536],[-68.72427,44.28157],[-68.7197,44.281],[-68.71102,44.27412],[-68.70204,44.27102],[-68.6899,44.27626],[-68.69026,44.28176],[-68.68749,44.28212],[-68.68644,44.28395],[-68.68913,44.2865],[-68.6918,44.28613],[-68.69234,44.28956],[-68.69478,44.29161],[-68.70004,44.29113],[-68.70471,44.2928],[-68.70549,44.29571],[-68.70959,44.29863],[-68.71114,44.29732],[-68.72831,44.30469],[-68.73382,44.30862],[-68.74198,44.30634],[-68.74158,44.30324],[-68.74374,44.30057]]],[[[-68.74974,44.30113],[-68.74771,44.29907],[-68.74754,44.30067],[-68.74974,44.30113]]],[[[-68.75746,44.2706],[-68.75765,44.26879],[-68.7524,44.26495],[-68.75396,44.26259],[-68.74027,44.26244],[-68.73432,44.25994],[-68.73052,44.26266],[-68.73598,44.26368],[-68.73503,44.26573],[-68.73931,44.26896],[-68.74579,44.26686],[-68.75746,44.2706]]],[[[-68.76474,44.24564],[-68.76467,44.24146],[-68.762,44.24151],[-68.7607,44.23985],[-68.74977,44.24291],[-68.75007,44.24473],[-68.75302,44.24619],[-68.75999,44.24768],[-68.76241,44.24803],[-68.76474,44.24564]]],[[[-68.78732,44.21141],[-68.78247,44.20726],[-68.78114,44.20391],[-68.78336,44.20124],[-68.77996,44.20101],[-68.77639,44.20323],[-68.77751,44.20724],[-68.7691,44.21398],[-68.76762,44.21727],[-68.77442,44.2194],[-68.7839,44.21192],[-68.78732,44.21141]]],[[[-68.79809,44.28534],[-68.79522,44.28472],[-68.79396,44.28273],[-68.79523,44.28049],[-68.78518,44.28411],[-68.79374,44.287],[-68.79809,44.28534]]],[[[-68.79945,44.23593],[-68.79982,44.23134],[-68.79642,44.22821],[-68.79706,44.22382],[-68.79366,44.22588],[-68.78553,44.22483],[-68.78119,44.22626],[-68.78411,44.22832],[-68.78389,44.23143],[-68.78796,44.23482],[-68.79212,44.23665],[-68.79945,44.23593]]],[[[-68.81085,44.29516],[-68.81347,44.29465],[-68.8004,44.2887],[-68.8044,44.29355],[-68.81085,44.29516]]],[[[-68.82559,44.29244],[-68.8244,44.29006],[-68.81917,44.2904],[-68.81751,44.29329],[-68.82559,44.29244]]],[[[-68.82941,44.26098],[-68.8239,44.25713],[-68.81632,44.25841],[-68.82438,44.26217],[-68.82749,44.26249],[-68.82941,44.26098]]],[[[-68.83036,44.21684],[-68.82226,44.21822],[-68.8225,44.22254],[-68.82488,44.22606],[-68.82602,44.22018],[-68.83036,44.21684]]],[[[-68.83144,44.23374],[-68.83106,44.23114],[-68.82813,44.2291],[-68.82131,44.22895],[-68.8187,44.2264],[-68.81996,44.23544],[-68.81561,44.23781],[-68.81842,44.2404],[-68.81822,44.24326],[-68.82342,44.24233],[-68.82762,44.24035],[-68.82749,44.23576],[-68.83144,44.23374]]],[[[-68.84753,44.6215],[-68.84476,44.61349],[-68.83005,44.60364],[-68.82362,44.59602],[-68.81504,44.57785],[-68.8116,44.57372],[-68.79827,44.5681],[-68.7983,44.5658],[-68.80609,44.55363],[-68.8033,44.54336],[-68.80355,44.52891],[-68.80234,44.52492],[-68.79731,44.52582],[-68.79422,44.52006],[-68.78566,44.51209],[-68.77782,44.4948],[-68.77782,44.48496],[-68.78368,44.47388],[-68.78685,44.46343],[-68.7859,44.45902],[-68.78281,44.45511],[-68.78328,44.44714],[-68.79124,44.45318],[-68.79745,44.451],[-68.79951,44.44892],[-68.80163,44.4348],[-68.81532,44.42808],[-68.81703,44.42542],[-68.81644,44.41979],[-68.81903,44.41707],[-68.82177,44.40894],[-68.81822,44.40199],[-68.81394,44.40216],[-68.81181,44.39927],[-68.81299,44.3957],[-68.81798,44.39587],[-68.82128,44.39367],[-68.82096,44.38382],[-68.81989,44.38144],[-68.81062,44.3811],[-68.80967,44.37396],[-68.81591,44.36637],[-68.81481,44.36219],[-68.81765,44.35309],[-68.82155,44.35204],[-68.82137,44.34552],[-68.82542,44.33455],[-68.8243,44.33132],[-68.81965,44.32671],[-68.82763,44.32109],[-68.8272,44.31216],[-68.82321,44.30971],[-68.82001,44.31088],[-68.79506,44.30786],[-68.79085,44.31012],[-68.7878,44.31821],[-68.78067,44.31957],[-68.77397,44.31883],[-68.76202,44.3296],[-68.75072,44.32943],[-68.73931,44.33317],[-68.73337,44.33079],[-68.73337,44.32697],[-68.72566,44.32159],[-68.69701,44.30877],[-68.69772,44.30486],[-68.6894,44.2967],[-68.68457,44.29633],[-68.68165,44.30275],[-68.67946,44.3031],[-68.6711,44.29533],[-68.66608,44.29329],[-68.65524,44.29248],[-68.64968,44.2896],[-68.64361,44.28973],[-68.63229,44.28642],[-68.62999,44.28812],[-68.63115,44.29577],[-68.62624,44.30197],[-68.62425,44.30211],[-68.61902,44.29359],[-68.62261,44.29196],[-68.62573,44.28654],[-68.62457,44.27918],[-68.61395,44.27522],[-68.60338,44.27471],[-68.58577,44.2596],[-68.57722,44.25415],[-68.55749,44.24598],[-68.55083,44.24615],[-68.54869,44.2436],[-68.55202,44.24019],[-68.55202,44.23644],[-68.5346,44.22933],[-68.52279,44.2281],[-68.52136,44.23219],[-68.52255,44.23696],[-68.52815,44.24126],[-68.5298,44.24959],[-68.53301,44.25432],[-68.54251,44.25841],[-68.55321,44.25892],[-68.55654,44.26777],[-68.55535,44.2739],[-68.55273,44.27492],[-68.54869,44.26981],[-68.54442,44.26964],[-68.54372,44.2659],[-68.53919,44.26232],[-68.53063,44.26249],[-68.52588,44.2596],[-68.51922,44.25909],[-68.51898,44.26522],[-68.52861,44.27612],[-68.52873,44.28155],[-68.53227,44.28634],[-68.53086,44.29164],[-68.52816,44.29405],[-68.53143,44.29656],[-68.53087,44.30044],[-68.5386,44.2999],[-68.53895,44.29584],[-68.53633,44.29125],[-68.55012,44.29193],[-68.55122,44.29764],[-68.564,44.30802],[-68.5662,44.31301],[-68.56694,44.3176],[-68.56272,44.32612],[-68.56321,44.33304],[-68.5548,44.34113],[-68.55387,44.34626],[-68.54543,44.355],[-68.55005,44.37179],[-68.55928,44.37431],[-68.55844,44.37948],[-68.56474,44.38522],[-68.56642,44.39445],[-68.56516,44.39907],[-68.56096,44.40285],[-68.55509,44.40369],[-68.53452,44.39781],[-68.52778,44.39851],[-68.51661,44.4126],[-68.50556,44.41166],[-68.49969,44.41418],[-68.49522,44.42346],[-68.49355,44.43212],[-68.48928,44.43239],[-68.48666,44.4401],[-68.4869,44.44502],[-68.47977,44.45418],[-68.4743,44.45113],[-68.47335,44.44587],[-68.47668,44.44502],[-68.47596,44.4311],[-68.48048,44.43059],[-68.47282,44.40411],[-68.47454,44.40139],[-68.47953,44.3997],[-68.48286,44.39358],[-68.48332,44.38816],[-68.47871,44.37894],[-68.47047,44.37905],[-68.46859,44.37676],[-68.46611,44.37724],[-68.46622,44.37982],[-68.46215,44.3794],[-68.46282,44.38262],[-68.45935,44.38536],[-68.4619,44.38628],[-68.46426,44.39108],[-68.46411,44.39808],[-68.45766,44.40768],[-68.45838,44.42007],[-68.46551,44.43382],[-68.47121,44.44027],[-68.46242,44.44332],[-68.45838,44.44705],[-68.45838,44.45384],[-68.46384,44.46249],[-68.46717,44.4647],[-68.46883,44.48183],[-68.47311,44.48675],[-68.46693,44.49031],[-68.45933,44.48946],[-68.45029,44.48505],[-68.43722,44.48268],[-68.43722,44.49014],[-68.42938,44.49794],[-68.42534,44.49828],[-68.42557,44.47861],[-68.42177,44.4708],[-68.42795,44.4703],[-68.42941,44.46438],[-68.43033,44.45672],[-68.427,44.44146],[-68.4314,44.4316],[-68.43389,44.41396],[-68.43046,44.41226],[-68.42946,44.40939],[-68.4339,44.40153],[-68.4308,44.39698],[-68.42178,44.39641],[-68.41322,44.39952],[-68.40918,44.40649],[-68.40378,44.40862],[-68.39256,44.41807],[-68.39093,44.42739],[-68.39278,44.43534],[-68.38303,44.43297],[-68.3791,44.43005],[-68.37566,44.42414],[-68.37291,44.42413],[-68.36853,44.42058],[-68.36212,44.40547],[-68.35594,44.40394],[-68.35427,44.40054],[-68.357,44.39456],[-68.35641,44.39222],[-68.36032,44.38967],[-68.36372,44.38894],[-68.36756,44.39071],[-68.3683,44.39358],[-68.37305,44.39307],[-68.37709,44.39086],[-68.37733,44.3822],[-68.3816,44.38084],[-68.38624,44.38494],[-68.3885,44.38424],[-68.38903,44.38048],[-68.39803,44.37619],[-68.39552,44.36956],[-68.39655,44.36394],[-68.40609,44.35668],[-68.40987,44.35626],[-68.41717,44.34462],[-68.41702,44.33972],[-68.42147,44.33775],[-68.42162,44.33611],[-68.41686,44.3334],[-68.41393,44.33904],[-68.40965,44.34057],[-68.40704,44.33717],[-68.40987,44.3294],[-68.40903,44.32562],[-68.41196,44.32226],[-68.43085,44.31261],[-68.43095,44.29862],[-68.42611,44.2951],[-68.42748,44.28938],[-68.42367,44.28394],[-68.41583,44.28598],[-68.40822,44.28155],[-68.4087,44.27917],[-68.4125,44.27849],[-68.41298,44.27441],[-68.41965,44.27461],[-68.41087,44.26526],[-68.40444,44.26096],[-68.40727,44.2567],[-68.40454,44.25387],[-68.39468,44.25006],[-68.3896,44.24517],[-68.38707,44.24462],[-68.38629,44.24624],[-68.37798,44.24756],[-68.36976,44.24331],[-68.36536,44.23787],[-68.36948,44.23202],[-68.36456,44.22637],[-68.36067,44.22753],[-68.35998,44.2344],[-68.35166,44.23712],[-68.34313,44.2295],[-68.3395,44.22289],[-68.33383,44.22129],[-68.33018,44.2246],[-68.31759,44.2251],[-68.31059,44.22816],[-68.30808,44.23162],[-68.30769,44.23593],[-68.30474,44.23738],[-68.30103,44.23644],[-68.2977,44.24257],[-68.29105,44.24615],[-68.28986,44.25092],[-68.2925,44.25299],[-68.29526,44.26172],[-68.29764,44.26304],[-68.29864,44.26665],[-68.30293,44.26947],[-68.31363,44.27032],[-68.30959,44.27781],[-68.32005,44.28802],[-68.31719,44.29431],[-68.31414,44.29361],[-68.31339,44.29602],[-68.30911,44.29721],[-68.30217,44.2937],[-68.30056,44.29431],[-68.29461,44.28666],[-68.28024,44.28645],[-68.27956,44.28793],[-68.28222,44.29432],[-68.28626,44.29642],[-68.28416,44.2985],[-68.28396,44.302],[-68.2813,44.30217],[-68.2767,44.29107],[-68.25944,44.28802],[-68.2535,44.29261],[-68.24826,44.28832],[-68.24232,44.28819],[-68.24494,44.29125],[-68.24256,44.2955],[-68.23923,44.29584],[-68.23591,44.28904],[-68.23092,44.28785],[-68.22426,44.29023],[-68.21808,44.29874],[-68.21474,44.296],[-68.20239,44.30112],[-68.20073,44.30554],[-68.1955,44.31098],[-68.19336,44.30979],[-68.19355,44.30688],[-68.18893,44.30732],[-68.18956,44.31779],[-68.18267,44.32867],[-68.18053,44.32867],[-68.1773,44.32545],[-68.17361,44.3284],[-68.17554,44.33207],[-68.1741,44.33768],[-68.17649,44.34176],[-68.1745,44.34518],[-68.17958,44.34941],[-68.18267,44.35688],[-68.18198,44.36253],[-68.18453,44.36914],[-68.18916,44.37383],[-68.19694,44.38635],[-68.20354,44.39236],[-68.21554,44.39047],[-68.21689,44.39375],[-68.22117,44.39681],[-68.24996,44.41481],[-68.24996,44.41775],[-68.24304,44.42007],[-68.2445,44.42992],[-68.24744,44.43328],[-68.26847,44.43976],[-68.28392,44.43348],[-68.29427,44.43303],[-68.29906,44.43789],[-68.30174,44.43653],[-68.30507,44.44044],[-68.31196,44.44434],[-68.31886,44.44434],[-68.33217,44.43501],[-68.3324,44.42669],[-68.33692,44.42618],[-68.33787,44.42194],[-68.34738,44.42228],[-68.34952,44.42822],[-68.35879,44.42652],[-68.36378,44.42737],[-68.36734,44.4311],[-68.36188,44.43976],[-68.35451,44.444],[-68.3538,44.45418],[-68.35594,44.45588],[-68.35498,44.45808],[-68.35071,44.45757],[-68.34405,44.45248],[-68.32931,44.44977],[-68.32908,44.45401],[-68.32575,44.45859],[-68.32575,44.46114],[-68.32313,44.46232],[-68.30959,44.4574],[-68.29818,44.44977],[-68.28057,44.45157],[-68.27655,44.45588],[-68.2699,44.45757],[-68.26799,44.46131],[-68.27061,44.4647],[-68.27346,44.46436],[-68.27154,44.46157],[-68.27227,44.4591],[-68.2813,44.46215],[-68.28154,44.45927],[-68.28392,44.45893],[-68.29414,44.47165],[-68.29248,44.47454],[-68.28487,44.47369],[-68.28154,44.4708],[-68.27465,44.47267],[-68.268,44.47147],[-68.2649,44.47386],[-68.26276,44.47979],[-68.26443,44.48725],[-68.26086,44.4881],[-68.25302,44.48386],[-68.24328,44.47267],[-68.22939,44.4635],[-68.22379,44.46555],[-68.22997,44.47912],[-68.2262,44.48218],[-68.22393,44.487],[-68.2264,44.49336],[-68.21856,44.49336],[-68.21832,44.49963],[-68.21238,44.51319],[-68.21143,44.52014],[-68.20168,44.51997],[-68.19883,44.51709],[-68.19883,44.51268],[-68.20182,44.50999],[-68.19693,44.49336],[-68.19279,44.48872],[-68.18742,44.48776],[-68.18682,44.48224],[-68.18053,44.47504],[-68.18956,44.47538],[-68.19455,44.47189],[-68.17105,44.47021],[-68.16151,44.47352],[-68.16266,44.47735],[-68.15438,44.47878],[-68.1608,44.48132],[-68.16555,44.48132],[-68.16722,44.48386],[-68.16793,44.48641],[-68.16448,44.48892],[-68.1608,44.49573],[-68.16175,44.50116],[-68.15724,44.50099],[-68.14155,44.492],[-68.13941,44.48793],[-68.1406,44.48335],[-68.14511,44.482],[-68.13939,44.47847],[-68.1318,44.47589],[-68.12135,44.47894],[-68.11523,44.4679],[-68.11612,44.46164],[-68.11943,44.45951],[-68.11984,44.44566],[-68.11612,44.42686],[-68.11267,44.41922],[-68.1097,44.41684],[-68.1135,44.40903],[-68.11229,44.40159],[-68.10566,44.39562],[-68.10138,44.39511],[-68.09995,44.39188],[-68.10423,44.38832],[-68.10382,44.38511],[-68.10138,44.37965],[-68.09298,44.37095],[-68.08807,44.37184],[-68.08783,44.37676],[-68.09425,44.3873],[-68.0933,44.39018],[-68.08427,44.38628],[-68.07761,44.38849],[-68.07476,44.37608],[-68.07787,44.37305],[-68.07607,44.34792],[-68.06705,44.33569],[-68.06036,44.33199],[-68.05764,44.33247],[-68.05717,44.33581],[-68.05361,44.33768],[-68.04933,44.33073],[-68.04481,44.33462],[-68.04304,44.34367],[-68.04576,44.34958],[-68.046,44.35536],[-68.04576,44.3579],[-68.04339,44.35977],[-68.03483,44.363],[-68.03055,44.35977],[-68.02872,44.35595],[-68.02546,44.35661],[-68.02485,44.36266],[-68.02794,44.36759],[-68.02508,44.37201],[-68.02561,44.3759],[-68.01415,44.38594],[-68.01399,44.39026],[-68.01962,44.39885],[-68.02271,44.39952],[-68.02485,44.40615],[-68.02318,44.40818],[-68.01819,44.4036],[-68.01154,44.40326],[-68.01035,44.41294],[-68.0075,44.41311],[-68.00393,44.4109],[-67.99438,44.39593],[-67.98373,44.38441],[-67.97921,44.38458],[-67.97636,44.3912],[-67.97042,44.39545],[-67.95877,44.39885],[-67.96471,44.40275],[-67.96161,44.40445],[-67.964,44.40954],[-67.96947,44.40886],[-67.97161,44.4109],[-67.96994,44.41905],[-67.97398,44.42092],[-67.98207,44.44112],[-67.98064,44.44672],[-67.98159,44.44909],[-67.98682,44.44383],[-67.99062,44.44434],[-67.99728,44.44824],[-67.99823,44.45164],[-68.0041,44.45522],[-68.00702,44.45282],[-68.01463,44.45401],[-68.01772,44.45893],[-68.02485,44.46232],[-68.02508,44.4669],[-68.02746,44.46809],[-68.02556,44.47064],[-68.02746,44.47606],[-68.02746,44.48251],[-68.02413,44.48251],[-68.02128,44.48064],[-68.02104,44.47861],[-68.0151,44.47793],[-68.01249,44.47589],[-68.01296,44.46894],[-68.0094,44.46538],[-68.00512,44.46368],[-68.00179,44.46572],[-67.99276,44.4608],[-67.98302,44.47369],[-67.97583,44.47653],[-67.97297,44.48863],[-67.97657,44.49105],[-67.97562,44.49252],[-67.9772,44.49795],[-67.9914,44.50281],[-68.01722,44.58909],[-67.99355,44.59216],[-68.01606,44.67668],[-68.03464,44.67414],[-68.10502,44.93909],[-67.98185,44.95588],[-68.03416,45.18086],[-68.05498,45.25258],[-68.30371,45.22153],[-68.2705,45.10012],[-68.3969,45.0833],[-68.37589,44.99737],[-68.5011,44.98072],[-68.44522,44.76301],[-68.61667,44.74099],[-68.64713,44.70364],[-68.69093,44.72167],[-68.71387,44.70362],[-68.72689,44.69613],[-68.74395,44.66058],[-68.7719,44.66445],[-68.76634,44.67571],[-68.78512,44.67844],[-68.78598,44.68665],[-68.79289,44.68549],[-68.79427,44.68784],[-68.79696,44.68709],[-68.7978,44.68883],[-68.81579,44.68375],[-68.81211,44.66932],[-68.82242,44.664],[-68.83163,44.65161],[-68.83433,44.64251],[-68.84546,44.62794],[-68.84753,44.6215]]],[[[-68.85128,44.2331],[-68.85233,44.22866],[-68.84817,44.22929],[-68.84688,44.23112],[-68.84927,44.23366],[-68.84919,44.23613],[-68.85164,44.23593],[-68.85128,44.2331]]],[[[-68.86304,44.259],[-68.86209,44.25521],[-68.86005,44.25585],[-68.85887,44.26062],[-68.86304,44.259]]]]}},{"type":"Feature","id":"ME:171:23013","properties":{"destinationId":"171","locality":"Bar Harbor / Rockport","definition":"Hancock / Knox","state":"ME","stateName":"Maine","county":"Knox County","countyGeoid":"23013","countyGeoids":["23009","23013"],"coverage":"complete-counties","sourceType":"gsa_county_defined_rate_area"},"geometry":{"type":"MultiPolygon","coordinates":[[[[-68.55926,44.04502],[-68.55919,44.04062],[-68.55596,44.03947],[-68.55392,44.04652],[-68.55504,44.04924],[-68.55926,44.04502]]],[[[-68.5765,44.10014],[-68.57912,44.09758],[-68.5765,44.09519],[-68.57266,44.09708],[-68.57127,44.09997],[-68.5731,44.10165],[-68.5765,44.10014]]],[[[-68.59219,44.06753],[-68.59314,44.06343],[-68.59055,44.05866],[-68.58804,44.06125],[-68.58826,44.06387],[-68.5841,44.07159],[-68.58815,44.07231],[-68.59219,44.06753]]],[[[-68.65879,44.11021],[-68.65879,44.10724],[-68.65138,44.10576],[-68.65127,44.10142],[-68.63717,44.09941],[-68.63751,44.10428],[-68.6424,44.10613],[-68.64123,44.10858],[-68.65417,44.11112],[-68.65879,44.11021]]],[[[-68.6711,44.0759],[-68.6697,44.073],[-68.66491,44.07304],[-68.65964,44.06902],[-68.6528,44.06924],[-68.65066,44.06514],[-68.65487,44.05929],[-68.65538,44.05402],[-68.66082,44.04789],[-68.65636,44.04823],[-68.65494,44.04498],[-68.64472,44.05387],[-68.64091,44.05062],[-68.64234,44.04772],[-68.65365,44.03792],[-68.65579,44.02728],[-68.66104,44.01705],[-68.65706,44.0138],[-68.65703,44.00382],[-68.6547,44.00209],[-68.64685,44.01301],[-68.64231,44.01621],[-68.63436,44.0176],[-68.62855,44.01628],[-68.6295,44.02055],[-68.62784,44.02157],[-68.62,44.01969],[-68.61881,44.01132],[-68.6159,44.00976],[-68.61284,44.0129],[-68.60649,44.01165],[-68.6017,44.01251],[-68.60355,44.0151],[-68.61031,44.01648],[-68.61215,44.01986],[-68.60998,44.02765],[-68.6011,44.04526],[-68.60186,44.0493],[-68.59884,44.06753],[-68.60051,44.07231],[-68.60132,44.08632],[-68.61073,44.08904],[-68.60859,44.09434],[-68.61496,44.09456],[-68.61786,44.09724],[-68.62221,44.09549],[-68.63002,44.08399],[-68.63521,44.08119],[-68.66291,44.07744],[-68.66709,44.07944],[-68.6711,44.0759]]],[[[-68.75116,43.88539],[-68.7506,43.88285],[-68.74804,43.88401],[-68.74184,43.88301],[-68.74073,43.88604],[-68.73314,43.88818],[-68.73134,43.89026],[-68.73173,43.89349],[-68.73438,43.89261],[-68.73375,43.89091],[-68.73555,43.88953],[-68.74369,43.88563],[-68.75116,43.88539]]],[[[-68.78994,44.13998],[-68.79222,44.13684],[-68.78281,44.14083],[-68.7804,44.14307],[-68.78114,44.14493],[-68.78637,44.14412],[-68.78994,44.13998]]],[[[-68.80349,44.14152],[-68.80254,44.13742],[-68.80135,44.14015],[-68.79445,44.14254],[-68.79136,44.14697],[-68.80087,44.14407],[-68.80349,44.14152]]],[[[-68.82654,44.1364],[-68.82131,44.13401],[-68.81901,44.13435],[-68.81752,44.137],[-68.81104,44.13843],[-68.808,44.13725],[-68.8059,44.13852],[-68.80729,44.14049],[-68.80563,44.14288],[-68.80776,44.14407],[-68.81418,44.14066],[-68.82393,44.13964],[-68.82654,44.1364]]],[[[-68.82654,43.84767],[-68.82409,43.84674],[-68.81625,43.85499],[-68.80967,43.85693],[-68.81116,43.86021],[-68.81584,43.86156],[-68.82654,43.84767]]],[[[-68.89313,44.03659],[-68.8938,44.03311],[-68.89143,44.02986],[-68.88905,44.03037],[-68.89025,44.03259],[-68.88431,44.03078],[-68.88905,44.03943],[-68.89239,44.03919],[-68.89313,44.03659]]],[[[-68.89911,43.82192],[-68.89143,43.82024],[-68.88672,43.8222],[-68.88362,43.83224],[-68.87814,43.83397],[-68.87622,43.8366],[-68.87764,43.83842],[-68.88431,43.8383],[-68.88689,43.83583],[-68.89109,43.83552],[-68.89368,43.83305],[-68.89476,43.82624],[-68.89911,43.82192]]],[[[-68.90593,43.85384],[-68.9077,43.84935],[-68.89618,43.84853],[-68.8959,43.85103],[-68.89143,43.85093],[-68.89218,43.85422],[-68.88953,43.85556],[-68.88644,43.85453],[-68.88192,43.85984],[-68.87883,43.8583],[-68.88168,43.86858],[-68.89007,43.8755],[-68.89618,43.87304],[-68.90238,43.86917],[-68.9007,43.86584],[-68.90159,43.85788],[-68.90593,43.85384]]],[[[-68.9083,44.0613],[-68.90854,44.05805],[-68.90665,44.05684],[-68.90383,44.05911],[-68.89954,44.05611],[-68.89523,44.04934],[-68.89666,44.05908],[-68.89238,44.06215],[-68.89428,44.06488],[-68.89927,44.06693],[-68.90183,44.06618],[-68.90118,44.06422],[-68.9083,44.0613]]],[[[-68.91185,44.0964],[-68.91103,44.09412],[-68.90688,44.09425],[-68.90545,44.08981],[-68.90691,44.07852],[-68.9005,44.07502],[-68.89571,44.0683],[-68.89547,44.08691],[-68.89214,44.08776],[-68.88715,44.07906],[-68.87978,44.07513],[-68.8824,44.06608],[-68.87978,44.06403],[-68.88097,44.05942],[-68.87051,44.05088],[-68.87379,44.03945],[-68.87004,44.03174],[-68.86284,44.02504],[-68.85863,44.02456],[-68.86243,44.02935],[-68.85934,44.02952],[-68.85486,44.02704],[-68.8499,44.02829],[-68.84998,44.03564],[-68.84413,44.04046],[-68.84104,44.0408],[-68.83771,44.03601],[-68.82842,44.03157],[-68.81466,44.03242],[-68.80658,44.03533],[-68.80444,44.03789],[-68.80705,44.04082],[-68.80729,44.04353],[-68.80444,44.04524],[-68.79823,44.04304],[-68.79026,44.05408],[-68.78448,44.054],[-68.77449,44.06437],[-68.77972,44.06847],[-68.77211,44.07889],[-68.7859,44.08947],[-68.78539,44.09369],[-68.79493,44.10159],[-68.80128,44.10199],[-68.80681,44.10637],[-68.80634,44.11029],[-68.80349,44.11302],[-68.8061,44.11678],[-68.81422,44.11612],[-68.81442,44.11866],[-68.82298,44.12292],[-68.82987,44.11814],[-68.83724,44.11661],[-68.84033,44.11934],[-68.83795,44.12753],[-68.83961,44.13196],[-68.84437,44.13111],[-68.84532,44.12787],[-68.85387,44.12429],[-68.85174,44.1219],[-68.84698,44.12053],[-68.84722,44.11422],[-68.85292,44.11132],[-68.85649,44.10518],[-68.866,44.10074],[-68.86909,44.10176],[-68.86386,44.10637],[-68.86124,44.11149],[-68.86362,44.11934],[-68.87241,44.12275],[-68.88739,44.12548],[-68.89903,44.12343],[-68.90902,44.11217],[-68.91092,44.10466],[-68.90878,44.09954],[-68.91185,44.0964]]],[[[-68.91615,44.04746],[-68.91805,44.04575],[-68.91211,44.04148],[-68.90633,44.04487],[-68.91044,44.0531],[-68.91353,44.05378],[-68.91389,44.04992],[-68.91615,44.04746]]],[[[-68.94427,44.1127],[-68.94253,44.10927],[-68.94015,44.11029],[-68.93587,44.10927],[-68.93207,44.11866],[-68.9266,44.12531],[-68.92233,44.12787],[-68.91781,44.12753],[-68.91329,44.13196],[-68.90759,44.13094],[-68.90022,44.13691],[-68.89309,44.1393],[-68.89309,44.14169],[-68.8881,44.14493],[-68.87645,44.1451],[-68.87526,44.14237],[-68.87693,44.14015],[-68.88596,44.13776],[-68.89238,44.1323],[-68.90355,44.12736],[-68.89618,44.12668],[-68.88406,44.1294],[-68.87503,44.12702],[-68.85815,44.12616],[-68.8572,44.12753],[-68.86195,44.1364],[-68.86219,44.13998],[-68.85839,44.14152],[-68.85387,44.13793],[-68.85055,44.13776],[-68.85007,44.13981],[-68.84294,44.14254],[-68.84556,44.14663],[-68.83415,44.14714],[-68.82963,44.15073],[-68.82607,44.1509],[-68.82464,44.14851],[-68.82844,44.14493],[-68.82678,44.14356],[-68.80468,44.148],[-68.80206,44.15056],[-68.8047,44.15388],[-68.80491,44.1526],[-68.81276,44.15004],[-68.81513,44.15482],[-68.80706,44.15782],[-68.80824,44.1613],[-68.81704,44.16039],[-68.8191,44.16302],[-68.81917,44.17119],[-68.82174,44.17096],[-68.82255,44.17432],[-68.8263,44.17647],[-68.819,44.18057],[-68.82471,44.18613],[-68.83242,44.18523],[-68.83499,44.18294],[-68.84074,44.18263],[-68.843,44.18462],[-68.84612,44.18443],[-68.86403,44.17521],[-68.86596,44.1721],[-68.87202,44.17056],[-68.88691,44.16062],[-68.9027,44.15305],[-68.90666,44.15379],[-68.91316,44.14776],[-68.91591,44.14902],[-68.92328,44.14116],[-68.92434,44.13692],[-68.93278,44.13333],[-68.93492,44.12915],[-68.93183,44.12412],[-68.94134,44.11712],[-68.94427,44.1127]]],[[[-69.01455,43.90866],[-69.01288,43.90096],[-69.01122,43.89976],[-69.0048,43.9013],[-69.0078,43.90728],[-69.01455,43.90866]]],[[[-69.0376,43.9162],[-69.0376,43.91346],[-69.03546,43.9114],[-69.02976,43.91534],[-69.03166,43.91688],[-69.0376,43.9162]]],[[[-69.04616,44.07624],[-69.04568,44.07334],[-69.03618,44.07436],[-69.03204,44.07934],[-69.03809,44.08584],[-69.04378,44.08204],[-69.04616,44.07624]]],[[[-69.05115,44.06702],[-69.05159,44.06301],[-69.04806,44.06036],[-69.04616,44.06189],[-69.04711,44.06599],[-69.04283,44.06821],[-69.04996,44.0689],[-69.05115,44.06702]]],[[[-69.05994,44.00157],[-69.06208,44.00003],[-69.05471,43.99285],[-69.04259,44.00704],[-69.04904,44.01113],[-69.05947,44.00722],[-69.05994,44.00157]]],[[[-69.07254,44.01217],[-69.07159,44.00482],[-69.05614,44.01217],[-69.05885,44.01486],[-69.06265,44.01493],[-69.07254,44.01217]]],[[[-69.07325,44.04088],[-69.07539,44.039],[-69.07228,44.03662],[-69.06684,44.04054],[-69.07135,44.04293],[-69.07325,44.04088]]],[[[-69.08313,43.98152],[-69.07848,43.97302],[-69.07254,43.97866],[-69.0728,43.98121],[-69.07753,43.98413],[-69.08313,43.98152]]],[[[-69.09607,43.98396],[-69.0963,43.97929],[-69.09312,43.97915],[-69.08442,43.9843],[-69.07801,43.98618],[-69.06964,43.98591],[-69.06541,43.99439],[-69.0666,43.99696],[-69.08086,43.98892],[-69.09607,43.98396]]],[[[-69.13247,43.87126],[-69.13038,43.86845],[-69.12758,43.87015],[-69.12222,43.86858],[-69.12055,43.87167],[-69.12554,43.87355],[-69.1253,43.87784],[-69.1215,43.88349],[-69.11894,43.89826],[-69.12477,43.89736],[-69.12792,43.89496],[-69.1281,43.88755],[-69.13076,43.87941],[-69.12958,43.87681],[-69.13247,43.87126]]],[[[-69.22584,43.91877],[-69.22751,43.9162],[-69.2202,43.91494],[-69.21294,43.9214],[-69.21776,43.92562],[-69.22252,43.92544],[-69.22584,43.91877]]],[[[-69.29655,43.87132],[-69.29822,43.86498],[-69.29536,43.86258],[-69.2825,43.86458],[-69.28348,43.87372],[-69.29142,43.87158],[-69.29274,43.87523],[-69.2956,43.87595],[-69.29655,43.87132]]],[[[-69.30033,43.93706],[-69.29934,43.93292],[-69.29299,43.93332],[-69.28895,43.93109],[-69.28586,43.93144],[-69.29204,43.93554],[-69.29299,43.94239],[-69.30033,43.93706]]],[[[-69.31467,43.91728],[-69.31552,43.91361],[-69.30986,43.90627],[-69.30724,43.90869],[-69.30621,43.91525],[-69.3074,43.91811],[-69.31176,43.91911],[-69.31467,43.91728]]],[[[-69.32294,43.90164],[-69.31913,43.89668],[-69.31414,43.89531],[-69.31367,43.8912],[-69.31034,43.89],[-69.30796,43.89102],[-69.30867,43.89514],[-69.3141,43.90227],[-69.31771,43.90387],[-69.32294,43.90164]]],[[[-69.32351,43.86057],[-69.32103,43.85671],[-69.31596,43.85692],[-69.31083,43.85949],[-69.30588,43.87742],[-69.31034,43.87835],[-69.31218,43.88162],[-69.31524,43.88284],[-69.31857,43.87971],[-69.31723,43.87561],[-69.31913,43.86687],[-69.32351,43.86057]]],[[[-69.35169,43.92716],[-69.35188,43.92254],[-69.34646,43.92253],[-69.34355,43.92552],[-69.34058,43.93385],[-69.34314,43.93486],[-69.35169,43.92716]]],[[[-69.38472,43.90918],[-69.38354,43.89565],[-69.3709,43.91274],[-69.37166,43.91449],[-69.37956,43.91387],[-69.38472,43.90918]]],[[[-69.45125,44.31395],[-69.44066,44.28443],[-69.44948,44.26227],[-69.43284,44.22674],[-69.40363,44.21914],[-69.40602,44.21067],[-69.37218,44.2054],[-69.33767,44.20937],[-69.30366,44.13268],[-69.3115,44.09549],[-69.3058,44.09426],[-69.30373,44.09638],[-69.28203,44.06452],[-69.28227,44.05258],[-69.29803,44.05899],[-69.30068,44.05392],[-69.29719,44.05291],[-69.29924,44.04995],[-69.29822,44.04735],[-69.3032,44.04664],[-69.30536,44.04478],[-69.30966,44.045],[-69.31391,44.03964],[-69.31861,44.03721],[-69.32038,44.03341],[-69.31847,44.03151],[-69.31906,44.02658],[-69.322,44.02514],[-69.32224,44.02251],[-69.32486,44.02159],[-69.32839,44.01354],[-69.32725,44.00946],[-69.32904,44.00836],[-69.32646,44.00745],[-69.32783,44.00618],[-69.33466,44.00468],[-69.3368,44.00908],[-69.33819,44.00922],[-69.338,44.01141],[-69.3427,44.01391],[-69.3458,44.01876],[-69.35433,44.0145],[-69.35723,44.01095],[-69.364,44.01287],[-69.36829,43.99514],[-69.36239,43.99388],[-69.37118,43.97746],[-69.36881,43.96634],[-69.3667,43.96476],[-69.35407,43.97233],[-69.35407,43.9749],[-69.35621,43.97729],[-69.35051,43.98345],[-69.3429,43.97968],[-69.34599,43.9725],[-69.34575,43.96908],[-69.34124,43.96925],[-69.33576,43.9744],[-69.33141,43.97431],[-69.33007,43.97182],[-69.34646,43.96309],[-69.35122,43.953],[-69.35597,43.95454],[-69.3574,43.94992],[-69.36463,43.94347],[-69.36144,43.93828],[-69.37427,43.92835],[-69.37522,43.92459],[-69.36573,43.92488],[-69.36025,43.93161],[-69.35455,43.93024],[-69.34932,43.93743],[-69.34536,43.94724],[-69.34029,43.94975],[-69.33648,43.94598],[-69.32769,43.94581],[-69.32222,43.95112],[-69.32341,43.95505],[-69.3303,43.95864],[-69.33387,43.96566],[-69.32864,43.9672],[-69.32533,43.97094],[-69.31319,43.96463],[-69.31367,43.96138],[-69.30654,43.96308],[-69.3043,43.96207],[-69.30518,43.95668],[-69.31975,43.94487],[-69.31747,43.94051],[-69.30778,43.94345],[-69.29465,43.95163],[-69.28851,43.95766],[-69.284,43.95857],[-69.2805,43.95744],[-69.27647,43.94838],[-69.26752,43.94367],[-69.27314,43.9364],[-69.27454,43.9279],[-69.2798,43.92236],[-69.27932,43.91568],[-69.27395,43.91422],[-69.25438,43.9197],[-69.24271,43.92546],[-69.24428,43.9304],[-69.22204,43.93366],[-69.21487,43.93075],[-69.21206,43.93109],[-69.21027,43.93398],[-69.21147,43.93698],[-69.20367,43.94181],[-69.19461,43.95199],[-69.19184,43.95788],[-69.18472,43.95967],[-69.18508,43.96774],[-69.18183,43.97055],[-69.18344,43.97253],[-69.18282,43.9749],[-69.17498,43.97695],[-69.17725,43.98558],[-69.17033,43.99084],[-69.16809,43.99542],[-69.16256,43.999],[-69.16069,43.98917],[-69.15644,43.98738],[-69.15359,43.99217],[-69.14907,43.99166],[-69.1491,43.98584],[-69.14408,43.97951],[-69.13154,43.97609],[-69.1235,43.97902],[-69.12697,43.98276],[-69.14194,43.98653],[-69.1417,43.99012],[-69.13529,43.99696],[-69.136,44.00055],[-69.1322,44.00328],[-69.12744,44.00243],[-69.12588,43.99599],[-69.11318,43.99456],[-69.10986,43.99832],[-69.11009,44.00038],[-69.12103,44.00345],[-69.12805,44.01731],[-69.11532,44.02482],[-69.11311,44.02888],[-69.09821,44.03507],[-69.09418,44.03898],[-69.07706,44.04225],[-69.07377,44.04614],[-69.0798,44.05526],[-69.07663,44.05915],[-69.06969,44.05848],[-69.07057,44.06481],[-69.0643,44.06991],[-69.0597,44.06924],[-69.05329,44.07726],[-69.0521,44.08529],[-69.04711,44.08614],[-69.0434,44.09216],[-69.0563,44.09516],[-69.06279,44.08922],[-69.06402,44.09169],[-69.07645,44.09063],[-69.09821,44.08307],[-69.10344,44.07795],[-69.1032,44.087],[-69.10724,44.09058],[-69.10111,44.0936],[-69.10059,44.09673],[-69.10329,44.09755],[-69.10558,44.10168],[-69.10086,44.10453],[-69.10439,44.11055],[-69.10084,44.11311],[-69.10082,44.11686],[-69.09821,44.1184],[-69.0925,44.11823],[-69.08586,44.11414],[-69.08191,44.1155],[-69.07634,44.12488],[-69.07587,44.13461],[-69.08585,44.13461],[-69.08918,44.13205],[-69.09298,44.13529],[-69.08728,44.13887],[-69.08228,44.13921],[-69.07961,44.14396],[-69.07813,44.15081],[-69.08098,44.15677],[-69.07325,44.17588],[-69.0742,44.18354],[-69.07206,44.1844],[-69.06684,44.17843],[-69.06256,44.17246],[-69.06124,44.1655],[-69.05455,44.17154],[-69.05336,44.17537],[-69.05577,44.17706],[-69.05708,44.18294],[-69.05543,44.18968],[-69.05209,44.19343],[-69.05181,44.19592],[-69.05471,44.20331],[-69.05757,44.20382],[-69.05923,44.20791],[-69.05471,44.21149],[-69.04996,44.21149],[-69.04558,44.20925],[-69.04644,44.21206],[-69.04281,44.21517],[-69.0436,44.22503],[-69.04019,44.23367],[-69.03153,44.24248],[-69.02837,44.24901],[-69.0431,44.25955],[-69.12162,44.25564],[-69.26888,44.36465],[-69.34662,44.30834],[-69.39436,44.34293],[-69.39677,44.34057],[-69.40227,44.34306],[-69.40908,44.3364],[-69.40457,44.33294],[-69.41643,44.3213],[-69.43699,44.32448],[-69.45125,44.31395]]]]}},{"type":"Feature","id":"ME:172:23031","properties":{"destinationId":"172","locality":"Kennebunk / Kittery / Sanford","definition":"York","state":"ME","stateName":"Maine","county":"York County","countyGeoid":"23031","countyGeoids":["23031"],"coverage":"complete-counties","sourceType":"gsa_county_defined_rate_area"},"geometry":{"type":"MultiPolygon","coordinates":[[[[-70.61725,42.99202],[-70.61852,42.98566],[-70.60783,42.97776],[-70.60135,42.98108],[-70.61243,42.99181],[-70.61467,42.99291],[-70.61725,42.99202]]],[[[-70.98904,43.79215],[-70.98208,43.71504],[-70.97272,43.57026],[-70.95723,43.56136],[-70.95502,43.55424],[-70.95084,43.55103],[-70.9535,43.5406],[-70.95593,43.54192],[-70.96218,43.54103],[-70.96353,43.53676],[-70.96256,43.53431],[-70.95822,43.53159],[-70.95721,43.52499],[-70.95407,43.52261],[-70.95404,43.5188],[-70.95686,43.51272],[-70.95476,43.5098],[-70.95796,43.50804],[-70.95919,43.49935],[-70.96195,43.49775],[-70.96957,43.4862],[-70.9674,43.48264],[-70.96797,43.48078],[-70.97424,43.47742],[-70.97095,43.4739],[-70.96443,43.47328],[-70.96143,43.4697],[-70.96045,43.46659],[-70.9669,43.45046],[-70.96164,43.44304],[-70.96115,43.43832],[-70.96878,43.43489],[-70.96836,43.42928],[-70.97104,43.42561],[-70.9829,43.41933],[-70.98681,43.41426],[-70.98668,43.40354],[-70.98256,43.39778],[-70.98288,43.39481],[-70.98739,43.39346],[-70.98773,43.39151],[-70.9852,43.38674],[-70.98596,43.38002],[-70.98434,43.37613],[-70.97641,43.36727],[-70.97416,43.36292],[-70.97486,43.35797],[-70.96723,43.34378],[-70.96044,43.34105],[-70.95653,43.33469],[-70.95303,43.33326],[-70.93711,43.33737],[-70.93273,43.33676],[-70.93078,43.32957],[-70.91642,43.32028],[-70.912,43.31982],[-70.91246,43.30829],[-70.9074,43.30478],[-70.90231,43.30487],[-70.90039,43.30136],[-70.9074,43.29358],[-70.906,43.29168],[-70.89633,43.29212],[-70.89922,43.28754],[-70.8963,43.28528],[-70.8865,43.28278],[-70.8828,43.27318],[-70.8743,43.27187],[-70.87029,43.26631],[-70.86323,43.26511],[-70.85821,43.25629],[-70.85508,43.25519],[-70.85201,43.25681],[-70.8433,43.25432],[-70.83921,43.25122],[-70.84127,43.24865],[-70.83868,43.24293],[-70.82507,43.24093],[-70.81786,43.23791],[-70.81545,43.22902],[-70.81185,43.22831],[-70.80964,43.22541],[-70.81312,43.21725],[-70.8169,43.2146],[-70.82076,43.19978],[-70.81934,43.19304],[-70.8272,43.18948],[-70.8283,43.18668],[-70.8235,43.17458],[-70.8283,43.16898],[-70.8291,43.15789],[-70.8338,43.14689],[-70.8268,43.12709],[-70.78388,43.10087],[-70.7791,43.09589],[-70.7664,43.09269],[-70.7564,43.07999],[-70.7419,43.07739],[-70.73808,43.07382],[-70.7065,43.07533],[-70.70382,43.05982],[-70.67311,43.07031],[-70.66596,43.07623],[-70.66535,43.08332],[-70.66379,43.08517],[-70.66005,43.08573],[-70.66297,43.08835],[-70.65622,43.09316],[-70.65438,43.10087],[-70.65129,43.10139],[-70.64206,43.11196],[-70.63836,43.11418],[-70.6376,43.11723],[-70.63897,43.11872],[-70.63445,43.12028],[-70.63446,43.1276],[-70.63207,43.13316],[-70.62251,43.13457],[-70.62233,43.14231],[-70.62601,43.1433],[-70.62595,43.14738],[-70.61897,43.16362],[-70.6111,43.16843],[-70.59619,43.16347],[-70.59039,43.16517],[-70.59533,43.17141],[-70.60118,43.17421],[-70.60688,43.17317],[-70.60878,43.1756],[-70.60166,43.18375],[-70.59381,43.18912],[-70.58781,43.19986],[-70.58953,43.20385],[-70.58692,43.20575],[-70.58804,43.20866],[-70.57669,43.21765],[-70.57579,43.22186],[-70.58787,43.23658],[-70.58858,43.24385],[-70.59215,43.24566],[-70.59391,43.2493],[-70.58518,43.27011],[-70.57687,43.2819],[-70.57004,43.28557],[-70.57097,43.29036],[-70.56772,43.29392],[-70.56848,43.29758],[-70.56278,43.31061],[-70.55385,43.32189],[-70.53524,43.33677],[-70.5177,43.34404],[-70.50304,43.34452],[-70.50049,43.34216],[-70.49259,43.34551],[-70.4864,43.34474],[-70.48376,43.3473],[-70.47432,43.34712],[-70.47249,43.34271],[-70.4658,43.34081],[-70.46262,43.3445],[-70.45963,43.34226],[-70.45698,43.34577],[-70.45119,43.3467],[-70.45001,43.35092],[-70.44568,43.35381],[-70.42853,43.35482],[-70.41631,43.36106],[-70.41846,43.37254],[-70.42442,43.37966],[-70.42514,43.38649],[-70.42767,43.38925],[-70.42128,43.39578],[-70.41144,43.39811],[-70.40756,43.40092],[-70.39996,43.40084],[-70.40056,43.39559],[-70.39786,43.39417],[-70.39095,43.40168],[-70.38931,43.40592],[-70.38095,43.41145],[-70.38063,43.4133],[-70.38703,43.41467],[-70.38322,43.41899],[-70.37704,43.42072],[-70.37664,43.42764],[-70.37051,43.43413],[-70.36202,43.43908],[-70.34968,43.44203],[-70.34381,43.44011],[-70.33878,43.4435],[-70.33739,43.44669],[-70.33284,43.44643],[-70.33478,43.45149],[-70.3273,43.45852],[-70.33726,43.45724],[-70.35755,43.45783],[-70.36097,43.45652],[-70.3635,43.45213],[-70.36736,43.45226],[-70.37223,43.45508],[-70.38023,43.46423],[-70.38293,43.46967],[-70.38562,43.48703],[-70.38488,43.49604],[-70.37912,43.5072],[-70.36121,43.52919],[-70.35339,43.53541],[-70.45346,43.58587],[-70.45179,43.58751],[-70.49201,43.60677],[-70.45774,43.64237],[-70.54996,43.7158],[-70.5774,43.68718],[-70.59534,43.6972],[-70.60564,43.6877],[-70.61207,43.6871],[-70.61104,43.69343],[-70.61449,43.69833],[-70.62215,43.6995],[-70.62796,43.70408],[-70.64257,43.70299],[-70.64974,43.69914],[-70.65737,43.70154],[-70.65928,43.70435],[-70.65962,43.7109],[-70.65645,43.71734],[-70.65342,43.73143],[-70.65097,43.73683],[-70.64604,43.74027],[-70.64551,43.74769],[-70.64301,43.75225],[-70.64522,43.75702],[-70.65108,43.75845],[-70.65273,43.76202],[-70.65635,43.76428],[-70.65588,43.76605],[-70.64984,43.76837],[-70.6557,43.78026],[-70.65299,43.78754],[-70.66281,43.79125],[-70.6674,43.7911],[-70.66993,43.79416],[-70.67151,43.79288],[-70.67167,43.78907],[-70.67375,43.7884],[-70.68178,43.79658],[-70.6896,43.79585],[-70.69354,43.7977],[-70.69265,43.80186],[-70.69515,43.8052],[-70.69895,43.80401],[-70.70148,43.79793],[-70.70893,43.80019],[-70.71264,43.79961],[-70.71723,43.79583],[-70.72891,43.79316],[-70.73323,43.78955],[-70.74532,43.78802],[-70.75521,43.78907],[-70.76607,43.79242],[-70.77513,43.80073],[-70.78033,43.80352],[-70.78135,43.81224],[-70.78298,43.81415],[-70.78779,43.81425],[-70.79759,43.80944],[-70.79692,43.8063],[-70.80201,43.80944],[-70.80408,43.80805],[-70.80886,43.81024],[-70.81012,43.80763],[-70.81399,43.81143],[-70.81936,43.80971],[-70.82133,43.80744],[-70.82813,43.80688],[-70.82968,43.80868],[-70.84121,43.80989],[-70.84333,43.80761],[-70.85259,43.80474],[-70.86128,43.80469],[-70.86144,43.8073],[-70.86956,43.80679],[-70.88066,43.81086],[-70.89924,43.80231],[-70.91268,43.80091],[-70.92361,43.79432],[-70.92707,43.7903],[-70.93526,43.78997],[-70.94261,43.79228],[-70.95755,43.78512],[-70.96422,43.7881],[-70.96718,43.78577],[-70.97175,43.78505],[-70.98278,43.79367],[-70.98904,43.79215]]]]}},{"type":"Feature","id":"ME:173:23005","properties":{"destinationId":"173","locality":"Portland","definition":"Cumberland / Sagadahoc","state":"ME","stateName":"Maine","county":"Cumberland County","countyGeoid":"23005","countyGeoids":["23005","23023"],"coverage":"complete-counties","sourceType":"gsa_county_defined_rate_area"},"geometry":{"type":"MultiPolygon","coordinates":[[[[-69.94153,43.73007],[-69.9416,43.72684],[-69.93901,43.72382],[-69.93116,43.72413],[-69.93734,43.73083],[-69.94153,43.73007]]],[[[-69.99414,43.83739],[-69.99747,43.83293],[-69.99034,43.8319],[-69.98772,43.83499],[-69.98891,43.83704],[-69.98582,43.8415],[-69.98654,43.84356],[-69.99034,43.84253],[-69.99414,43.83739]]],[[[-70.01791,43.81698],[-70.01886,43.81458],[-70.01411,43.81424],[-70.01482,43.81115],[-70.00935,43.81132],[-69.997,43.8223],[-69.99676,43.8247],[-70.00008,43.82573],[-69.99985,43.8295],[-70.01435,43.82316],[-70.01791,43.81698]]],[[[-70.03764,43.71485],[-70.03621,43.71262],[-70.03122,43.71468],[-70.021,43.72465],[-70.02884,43.72636],[-70.03764,43.71485]]],[[[-70.04881,43.79297],[-70.04656,43.782],[-70.04239,43.7825],[-70.03906,43.78508],[-70.0412,43.79057],[-70.0355,43.79503],[-70.02861,43.80378],[-70.02702,43.80913],[-70.02981,43.81112],[-70.03384,43.80926],[-70.03692,43.80138],[-70.04616,43.79636],[-70.04881,43.79297]]],[[[-70.04905,43.72276],[-70.04667,43.72018],[-70.04025,43.72671],[-70.04002,43.72877],[-70.04287,43.72825],[-70.04905,43.72276]]],[[[-70.06124,43.74628],[-70.06132,43.7421],[-70.04616,43.75726],[-70.04377,43.76364],[-70.04477,43.76482],[-70.05,43.76105],[-70.05119,43.75676],[-70.06124,43.74628]]],[[[-70.06093,43.76242],[-70.06259,43.75968],[-70.06046,43.76002],[-70.05332,43.76517],[-70.05546,43.76826],[-70.05499,43.77066],[-70.05737,43.77066],[-70.06022,43.76723],[-70.05927,43.76551],[-70.06093,43.76242]]],[[[-70.074,43.78508],[-70.07448,43.77993],[-70.07186,43.78027],[-70.06925,43.78388],[-70.06307,43.78765],[-70.06355,43.78902],[-70.07163,43.78748],[-70.074,43.78508]]],[[[-70.07876,43.79674],[-70.07828,43.79537],[-70.06996,43.79674],[-70.06664,43.79949],[-70.06664,43.80429],[-70.07091,43.80326],[-70.07876,43.79674]]],[[[-70.08161,43.71262],[-70.07928,43.70699],[-70.0713,43.71377],[-70.0721,43.71896],[-70.08161,43.71262]]],[[[-70.08969,43.71503],[-70.08826,43.71296],[-70.08422,43.71417],[-70.08161,43.71606],[-70.07971,43.72087],[-70.08375,43.72052],[-70.08969,43.71503]]],[[[-70.09611,43.72413],[-70.09587,43.72155],[-70.08945,43.72636],[-70.08541,43.73083],[-70.08636,43.73238],[-70.0904,43.73134],[-70.09135,43.72842],[-70.09611,43.72413]]],[[[-70.10123,43.67547],[-70.09604,43.67228],[-70.08846,43.68145],[-70.08726,43.69103],[-70.09285,43.68784],[-70.10123,43.67547]]],[[[-70.11465,43.78062],[-70.10562,43.78216],[-70.10663,43.77862],[-70.10202,43.77681],[-70.08965,43.78519],[-70.09604,43.78838],[-70.10229,43.78388],[-70.10547,43.78559],[-70.11465,43.78062]]],[[[-70.11817,43.68638],[-70.11829,43.68334],[-70.11591,43.68298],[-70.10443,43.69458],[-70.09959,43.69537],[-70.0937,43.6918],[-70.08762,43.69991],[-70.09193,43.69811],[-70.09718,43.70093],[-70.09214,43.70947],[-70.09311,43.71052],[-70.10068,43.70596],[-70.10348,43.70094],[-70.11817,43.68638]]],[[[-70.12368,43.70145],[-70.12225,43.70008],[-70.11203,43.70747],[-70.11179,43.71004],[-70.11869,43.70781],[-70.12368,43.70145]]],[[[-70.13144,43.79164],[-70.13083,43.79024],[-70.12492,43.79077],[-70.12221,43.79378],[-70.13144,43.79164]]],[[[-70.13814,43.72756],[-70.1372,43.72091],[-70.13298,43.71861],[-70.12677,43.72075],[-70.12376,43.71883],[-70.12623,43.71526],[-70.12382,43.71289],[-70.12815,43.71054],[-70.12815,43.70856],[-70.12068,43.71257],[-70.1192,43.7163],[-70.11536,43.71724],[-70.11678,43.72294],[-70.11171,43.72463],[-70.11053,43.72181],[-70.10733,43.72541],[-70.1111,43.73068],[-70.10087,43.74613],[-70.09749,43.74834],[-70.09685,43.75036],[-70.09834,43.75285],[-70.09613,43.75724],[-70.09783,43.7585],[-70.10341,43.75611],[-70.10792,43.74791],[-70.11503,43.74915],[-70.12131,43.74826],[-70.12352,43.74566],[-70.12582,43.74545],[-70.12935,43.73683],[-70.13814,43.72756]]],[[[-70.15318,43.71264],[-70.15276,43.71102],[-70.1467,43.70889],[-70.14446,43.71352],[-70.14519,43.71472],[-70.14898,43.71455],[-70.15318,43.71264]]],[[[-70.16028,43.74972],[-70.15746,43.74866],[-70.15363,43.75023],[-70.15183,43.74654],[-70.14697,43.74989],[-70.1415,43.74955],[-70.13818,43.75452],[-70.13509,43.75315],[-70.12843,43.75504],[-70.11536,43.76465],[-70.1339,43.76397],[-70.13081,43.77083],[-70.1251,43.77066],[-70.12035,43.77272],[-70.12236,43.77495],[-70.12724,43.77324],[-70.12441,43.77723],[-70.12653,43.77958],[-70.13179,43.77494],[-70.14554,43.77581],[-70.14697,43.76671],[-70.14554,43.76122],[-70.16028,43.74972]]],[[[-70.17357,43.68373],[-70.17335,43.68031],[-70.16908,43.67877],[-70.17028,43.67544],[-70.16823,43.67514],[-70.16337,43.6786],[-70.15172,43.68169],[-70.15386,43.68616],[-70.1455,43.69031],[-70.14027,43.69576],[-70.13913,43.69922],[-70.13366,43.70231],[-70.14055,43.70764],[-70.14611,43.70164],[-70.17134,43.68755],[-70.17357,43.68373]]],[[[-70.18761,43.73942],[-70.18856,43.73684],[-70.18452,43.73684],[-70.17977,43.73924],[-70.17668,43.74543],[-70.18429,43.74251],[-70.18761,43.73942]]],[[[-70.19665,43.7152],[-70.19712,43.71125],[-70.19284,43.71348],[-70.18595,43.72104],[-70.18666,43.72327],[-70.19047,43.72224],[-70.19665,43.7152]]],[[[-70.20116,43.65194],[-70.19974,43.64937],[-70.19023,43.6516],[-70.18405,43.65109],[-70.17959,43.65538],[-70.17666,43.65977],[-70.17718,43.66345],[-70.18215,43.6657],[-70.18191,43.67344],[-70.1831,43.67516],[-70.18714,43.67395],[-70.19783,43.66312],[-70.20069,43.66295],[-70.1995,43.65452],[-70.20116,43.65194]]],[[[-70.20973,43.64148],[-70.21008,43.64049],[-70.20572,43.63887],[-70.20701,43.63429],[-70.20593,43.63363],[-70.1974,43.63874],[-70.1907,43.64558],[-70.1926,43.64696],[-70.19746,43.64463],[-70.2002,43.64613],[-70.20225,43.6452],[-70.20343,43.64719],[-70.20973,43.64148]]],[[[-70.21395,43.66616],[-70.21313,43.66297],[-70.21082,43.6617],[-70.20021,43.67052],[-70.19308,43.67344],[-70.18238,43.69183],[-70.18215,43.69492],[-70.20189,43.68548],[-70.20495,43.68186],[-70.20615,43.67172],[-70.21395,43.66616]]],[[[-70.238,43.5473],[-70.2455,43.53964],[-70.23468,43.5373],[-70.22784,43.53826],[-70.22633,43.5422],[-70.22932,43.54391],[-70.2244,43.5472],[-70.238,43.5473]]],[[[-70.86658,44.07971],[-70.86132,44.07723],[-70.86098,44.07176],[-70.85822,44.06559],[-70.85845,44.05964],[-70.84808,44.04952],[-70.79256,44.03979],[-70.79168,44.02874],[-70.78176,44.03139],[-70.71542,43.96182],[-70.74751,43.9459],[-70.72978,43.92833],[-70.75248,43.91401],[-70.75449,43.90952],[-70.75793,43.90686],[-70.75451,43.88846],[-70.74968,43.88759],[-70.74983,43.88579],[-70.74388,43.88585],[-70.76529,43.87154],[-70.76629,43.87724],[-70.78049,43.86823],[-70.7815,43.87388],[-70.79819,43.8633],[-70.79294,43.85924],[-70.79311,43.85775],[-70.79845,43.8585],[-70.80161,43.85608],[-70.79511,43.85216],[-70.79547,43.85013],[-70.79273,43.84785],[-70.79221,43.84609],[-70.79466,43.84141],[-70.79429,43.83426],[-70.78713,43.8326],[-70.78165,43.82356],[-70.78346,43.81744],[-70.78033,43.80352],[-70.77513,43.80073],[-70.76607,43.79242],[-70.75521,43.78907],[-70.74532,43.78802],[-70.73323,43.78955],[-70.72891,43.79316],[-70.71723,43.79583],[-70.71264,43.79961],[-70.70893,43.80019],[-70.70148,43.79793],[-70.69895,43.80401],[-70.69515,43.8052],[-70.69265,43.80186],[-70.69354,43.7977],[-70.6896,43.79585],[-70.68178,43.79658],[-70.67375,43.7884],[-70.67167,43.78907],[-70.67151,43.79288],[-70.66993,43.79416],[-70.6674,43.7911],[-70.66281,43.79125],[-70.65299,43.78754],[-70.6557,43.78026],[-70.64984,43.76837],[-70.65588,43.76605],[-70.65635,43.76428],[-70.65273,43.76202],[-70.65108,43.75845],[-70.64522,43.75702],[-70.64301,43.75225],[-70.64551,43.74769],[-70.64604,43.74027],[-70.65097,43.73683],[-70.65342,43.73143],[-70.65645,43.71734],[-70.65962,43.7109],[-70.65928,43.70435],[-70.65737,43.70154],[-70.64974,43.69914],[-70.64257,43.70299],[-70.62796,43.70408],[-70.62215,43.6995],[-70.61449,43.69833],[-70.61104,43.69343],[-70.61207,43.6871],[-70.60564,43.6877],[-70.59534,43.6972],[-70.5774,43.68718],[-70.54996,43.7158],[-70.45774,43.64237],[-70.49201,43.60677],[-70.45179,43.58751],[-70.45346,43.58587],[-70.35339,43.53541],[-70.34179,43.54048],[-70.3288,43.54075],[-70.32183,43.53892],[-70.31814,43.53476],[-70.32333,43.5292],[-70.32112,43.52726],[-70.31311,43.52696],[-70.3074,43.52903],[-70.31415,43.53526],[-70.30776,43.54432],[-70.29918,43.55059],[-70.2725,43.56262],[-70.26938,43.56125],[-70.26988,43.55773],[-70.26417,43.55318],[-70.24433,43.55185],[-70.22791,43.56347],[-70.22338,43.56403],[-70.21978,43.56215],[-70.21678,43.55687],[-70.20612,43.55763],[-70.19691,43.56515],[-70.20291,43.5745],[-70.20656,43.57496],[-70.20778,43.57823],[-70.20405,43.5817],[-70.20307,43.58629],[-70.20623,43.58844],[-70.21485,43.59015],[-70.21628,43.59271],[-70.2145,43.59565],[-70.21749,43.59709],[-70.21447,43.60216],[-70.21349,43.60922],[-70.20996,43.61324],[-70.20749,43.62348],[-70.21471,43.62838],[-70.21875,43.6289],[-70.22422,43.64214],[-70.2267,43.64317],[-70.22517,43.65023],[-70.23159,43.65108],[-70.23491,43.65573],[-70.24099,43.65913],[-70.24228,43.66261],[-70.23824,43.66587],[-70.24038,43.67052],[-70.25296,43.67501],[-70.25083,43.68138],[-70.25141,43.68518],[-70.24466,43.68822],[-70.24622,43.6899],[-70.24255,43.69333],[-70.23462,43.68561],[-70.22612,43.68874],[-70.22802,43.69183],[-70.23254,43.69269],[-70.23562,43.69888],[-70.23199,43.70482],[-70.22791,43.70191],[-70.22279,43.70145],[-70.21875,43.69819],[-70.21471,43.69733],[-70.21352,43.70128],[-70.21683,43.70482],[-70.21376,43.71279],[-70.218,43.71998],[-70.19379,43.74165],[-70.1926,43.74834],[-70.19759,43.75321],[-70.19237,43.76517],[-70.19427,43.7686],[-70.18901,43.77023],[-70.1869,43.77341],[-70.17544,43.77711],[-70.17549,43.77289],[-70.18048,43.76156],[-70.17602,43.76079],[-70.15327,43.77558],[-70.15416,43.78014],[-70.14219,43.78929],[-70.14515,43.79461],[-70.14487,43.7968],[-70.14133,43.79711],[-70.13622,43.79502],[-70.11952,43.80144],[-70.11338,43.8009],[-70.10704,43.80755],[-70.0992,43.80909],[-70.09433,43.81596],[-70.08068,43.81985],[-70.0817,43.82365],[-70.08055,43.8276],[-70.0772,43.82821],[-70.07536,43.82472],[-70.07327,43.8241],[-70.06613,43.82718],[-70.06363,43.82563],[-70.06859,43.81136],[-70.0666,43.81052],[-70.05784,43.81698],[-70.05409,43.82194],[-70.05838,43.82468],[-70.05356,43.83019],[-70.04833,43.83242],[-70.04457,43.82975],[-70.04153,43.83106],[-70.04406,43.83499],[-70.03978,43.83893],[-70.04192,43.84167],[-70.0192,43.85873],[-70.01007,43.8583],[-70.00127,43.86447],[-69.99462,43.86704],[-69.98844,43.86636],[-69.98772,43.86293],[-69.99153,43.86173],[-69.99557,43.85213],[-70.00287,43.84824],[-70.00817,43.84082],[-70.02314,43.83053],[-70.02338,43.82813],[-70.02718,43.82401],[-70.02619,43.82259],[-70.01484,43.82847],[-70.00555,43.83773],[-70.0027,43.83636],[-69.99652,43.84133],[-69.997,43.84356],[-69.99272,43.84836],[-69.97874,43.85384],[-69.96658,43.85373],[-69.96014,43.85605],[-69.95926,43.85911],[-69.95387,43.86156],[-69.95205,43.86472],[-69.94721,43.86447],[-69.94504,43.85996],[-69.95181,43.85668],[-69.95412,43.84769],[-69.95904,43.84658],[-69.96433,43.83874],[-69.97703,43.82744],[-69.97608,43.81904],[-69.98131,43.81218],[-69.98392,43.8139],[-69.9882,43.81252],[-69.98939,43.80944],[-69.99224,43.80806],[-69.99367,43.80909],[-70.00048,43.79625],[-70.00059,43.79146],[-70.00508,43.78892],[-70.00425,43.78657],[-70.0139,43.78224],[-70.01663,43.77867],[-70.02034,43.76585],[-70.02457,43.76625],[-70.02885,43.76378],[-70.03526,43.75521],[-70.04334,43.748],[-70.04077,43.74505],[-70.04501,43.73667],[-70.0412,43.73753],[-70.03597,43.74319],[-70.03051,43.74354],[-70.02338,43.74886],[-70.021,43.74646],[-70.02647,43.72894],[-70.01149,43.74336],[-70.00175,43.74646],[-69.99462,43.74354],[-69.9989,43.73554],[-69.99783,43.73283],[-69.99926,43.73334],[-70.00526,43.72443],[-69.99812,43.73079],[-69.99625,43.72994],[-70.00721,43.71763],[-70.00531,43.71365],[-70.00626,43.71022],[-70.00127,43.71039],[-69.99866,43.71142],[-70.00011,43.71529],[-69.99262,43.72479],[-69.9924,43.72685],[-69.99448,43.72845],[-69.98368,43.7444],[-69.97988,43.75384],[-69.9723,43.75347],[-69.95626,43.77237],[-69.95103,43.77236],[-69.94955,43.76749],[-69.94641,43.76461],[-69.94346,43.76522],[-69.93187,43.7837],[-69.92522,43.78182],[-69.92086,43.77745],[-69.91642,43.77735],[-69.91559,43.77511],[-69.91352,43.77495],[-69.91024,43.7777],[-69.9018,43.77162],[-69.88739,43.77705],[-69.88734,43.78794],[-69.88257,43.79373],[-69.87001,43.81698],[-69.87612,43.83716],[-69.87488,43.8514],[-69.88387,43.85447],[-69.89595,43.86624],[-69.89251,43.88031],[-69.88959,43.88508],[-69.88208,43.89034],[-69.87754,43.89919],[-69.86866,43.91092],[-69.85703,43.94474],[-69.87466,43.95359],[-69.88018,43.9468],[-69.8868,43.94355],[-69.8905,43.93782],[-69.89984,43.93161],[-69.9047,43.92559],[-69.91123,43.92205],[-69.92134,43.92014],[-69.92781,43.91345],[-69.93129,43.91192],[-69.95673,43.92344],[-69.96101,43.92296],[-69.97623,43.91528],[-69.98178,43.91774],[-69.99317,43.9313],[-70.00233,43.9336],[-70.00804,43.94202],[-70.02024,43.94606],[-70.02267,43.95356],[-70.03424,43.97566],[-70.08084,43.92646],[-70.09233,43.93195],[-70.11586,43.90671],[-70.19699,43.94595],[-70.20365,43.94793],[-70.20028,43.95199],[-70.31537,44.03781],[-70.36387,43.98644],[-70.39532,44.00309],[-70.39749,43.99833],[-70.39675,43.99713],[-70.39931,43.99475],[-70.3983,43.99209],[-70.40195,43.99011],[-70.44503,44.0128],[-70.44859,44.00943],[-70.47965,44.02629],[-70.4811,44.02922],[-70.48008,44.03208],[-70.50237,44.04257],[-70.50524,44.03959],[-70.509,44.04145],[-70.54409,44.00565],[-70.56385,44.02499],[-70.57237,44.0163],[-70.57452,44.01562],[-70.58259,44.01869],[-70.58479,44.02132],[-70.58164,44.02231],[-70.58844,44.0257],[-70.58974,44.02828],[-70.59097,44.02771],[-70.59122,44.03033],[-70.59187,44.02943],[-70.59468,44.03118],[-70.59286,44.03108],[-70.5937,44.03205],[-70.59563,44.03206],[-70.59459,44.03281],[-70.59572,44.03354],[-70.59263,44.03506],[-70.59842,44.03831],[-70.59746,44.03933],[-70.60363,44.04145],[-70.60223,44.04326],[-70.60444,44.04431],[-70.60368,44.05024],[-70.60795,44.05186],[-70.60699,44.05348],[-70.60945,44.05529],[-70.61039,44.06081],[-70.61388,44.06184],[-70.61179,44.06531],[-70.61351,44.06638],[-70.60887,44.06773],[-70.60894,44.06945],[-70.6119,44.07062],[-70.60817,44.07435],[-70.60907,44.079],[-70.60557,44.0825],[-70.60301,44.08859],[-70.60552,44.08982],[-70.60468,44.09185],[-70.60667,44.09571],[-70.60425,44.09826],[-70.60576,44.09872],[-70.60617,44.10129],[-70.60264,44.10471],[-70.59894,44.11203],[-70.58733,44.12252],[-70.58723,44.1241],[-70.59205,44.12899],[-70.59073,44.12922],[-70.58997,44.13282],[-70.5955,44.13732],[-70.59433,44.13909],[-70.59584,44.14193],[-70.59447,44.14294],[-70.59506,44.14483],[-70.59783,44.14264],[-70.59907,44.14397],[-70.59652,44.14553],[-70.59866,44.14977],[-70.6,44.14938],[-70.60454,44.15412],[-70.60797,44.15411],[-70.62433,44.17104],[-70.69592,44.13422],[-70.6995,44.1392],[-70.8218,44.07709],[-70.85855,44.09527],[-70.8578,44.08804],[-70.85915,44.08592],[-70.86288,44.08631],[-70.86658,44.07971]]]]}},{"type":"Feature","id":"ME:173:23023","properties":{"destinationId":"173","locality":"Portland","definition":"Cumberland / Sagadahoc","state":"ME","stateName":"Maine","county":"Sagadahoc County","countyGeoid":"23023","countyGeoids":["23005","23023"],"coverage":"complete-counties","sourceType":"gsa_county_defined_rate_area"},"geometry":{"type":"MultiPolygon","coordinates":[[[[-69.76031,43.71044],[-69.76003,43.70558],[-69.75718,43.70334],[-69.75409,43.70712],[-69.75432,43.71004],[-69.75904,43.71305],[-69.76031,43.71044]]],[[[-70.05111,43.99234],[-70.05182,43.99098],[-70.04825,43.98937],[-70.04659,43.98564],[-70.03706,43.97939],[-70.03265,43.97369],[-70.02024,43.94606],[-70.00804,43.94202],[-70.00233,43.9336],[-69.99317,43.9313],[-69.98178,43.91774],[-69.97623,43.91528],[-69.96101,43.92296],[-69.95673,43.92344],[-69.93129,43.91192],[-69.92781,43.91345],[-69.92134,43.92014],[-69.91123,43.92205],[-69.9047,43.92559],[-69.89984,43.93161],[-69.8905,43.93782],[-69.8868,43.94355],[-69.88018,43.9468],[-69.87466,43.95359],[-69.85703,43.94474],[-69.86866,43.91092],[-69.87754,43.89919],[-69.88208,43.89034],[-69.88959,43.88508],[-69.89251,43.88031],[-69.89595,43.86624],[-69.88387,43.85447],[-69.87488,43.8514],[-69.87612,43.83716],[-69.87001,43.81698],[-69.88257,43.79373],[-69.88734,43.78794],[-69.88739,43.77705],[-69.88407,43.77804],[-69.88056,43.7766],[-69.8734,43.77838],[-69.86936,43.77735],[-69.87174,43.77392],[-69.87306,43.76643],[-69.87089,43.76449],[-69.86912,43.76654],[-69.8647,43.76457],[-69.86152,43.75933],[-69.86775,43.75556],[-69.86891,43.75318],[-69.86867,43.7427],[-69.87112,43.73164],[-69.86864,43.73133],[-69.86484,43.73512],[-69.86271,43.74302],[-69.85462,43.74457],[-69.84868,43.74216],[-69.85559,43.73266],[-69.85793,43.72392],[-69.8551,43.71863],[-69.85035,43.71778],[-69.85508,43.70475],[-69.8513,43.70358],[-69.84662,43.70635],[-69.8397,43.70506],[-69.8368,43.69974],[-69.83347,43.70128],[-69.82895,43.70678],[-69.83347,43.71778],[-69.82658,43.72258],[-69.81303,43.72739],[-69.80566,43.72636],[-69.80305,43.72911],[-69.79592,43.731],[-69.7914,43.73014],[-69.79031,43.7326],[-69.79354,43.73564],[-69.78998,43.73942],[-69.78284,43.74234],[-69.77833,43.74251],[-69.77863,43.73689],[-69.77072,43.73718],[-69.76597,43.74577],[-69.75409,43.74387],[-69.74101,43.76929],[-69.73293,43.77289],[-69.72156,43.782],[-69.71707,43.7924],[-69.7178,43.80105],[-69.71487,43.81026],[-69.70584,43.82041],[-69.70441,43.82676],[-69.70655,43.83516],[-69.7018,43.85076],[-69.70284,43.85466],[-69.71438,43.8506],[-69.71929,43.85084],[-69.7229,43.85307],[-69.72481,43.85981],[-69.73048,43.86871],[-69.72946,43.87663],[-69.74353,43.89354],[-69.73649,43.89994],[-69.73141,43.90729],[-69.71408,43.9183],[-69.70742,43.92725],[-69.72122,43.9315],[-69.72451,43.93298],[-69.72496,43.93485],[-69.72295,43.93971],[-69.72202,43.95859],[-69.71895,43.96246],[-69.72092,43.96492],[-69.71963,43.97129],[-69.71154,43.98518],[-69.70763,43.99581],[-69.7029,44.00031],[-69.70015,44.00658],[-69.81355,44.02601],[-69.8117,44.03016],[-69.79631,44.0374],[-69.79031,44.04247],[-69.78603,44.05635],[-69.78647,44.0645],[-69.78287,44.07047],[-69.78727,44.07474],[-69.78448,44.08312],[-69.78585,44.08718],[-69.77418,44.09935],[-69.76813,44.1103],[-69.76542,44.1202],[-69.76132,44.12548],[-69.75825,44.14236],[-69.76357,44.15322],[-69.85498,44.16786],[-69.86622,44.16208],[-69.87008,44.15762],[-69.8796,44.15169],[-69.8946,44.12314],[-69.89396,44.11846],[-69.8984,44.11087],[-69.89778,44.10766],[-70.00547,44.12452],[-70.02725,44.04336],[-70.02513,44.03636],[-70.0293,44.03037],[-70.03416,44.02972],[-70.03642,44.02714],[-70.03604,44.02452],[-70.0328,44.02126],[-70.0375,44.01911],[-70.03624,44.01651],[-70.03718,44.01516],[-70.0333,44.00864],[-70.03553,44.00709],[-70.03234,44.00324],[-70.0353,44.0026],[-70.03326,44.00134],[-70.03756,43.99962],[-70.03929,44.00177],[-70.04348,44.00227],[-70.04382,43.99783],[-70.05075,43.99408],[-70.05111,43.99234]]]]}}]}