{"type":"FeatureCollection","features":[{"type":"Feature","id":"MI:175:26161","properties":{"destinationId":"175","locality":"Ann Arbor","definition":"Washtenaw","state":"MI","stateName":"Michigan","county":"Washtenaw County","countyGeoid":"26161","countyGeoids":["26161"],"coverage":"complete-counties","sourceType":"gsa_county_defined_rate_area"},"geometry":{"type":"Polygon","coordinates":[[[-84.13406,42.16925],[-84.13196,42.07158],[-84.00815,42.0736],[-84.00834,42.078],[-83.5394,42.0856],[-83.54415,42.23203],[-83.5442,42.27689],[-83.55191,42.43517],[-83.74482,42.42848],[-83.76508,42.42936],[-83.94465,42.42415],[-84.13114,42.42457],[-84.13077,42.25004],[-84.13406,42.16925]]]}},{"type":"Feature","id":"MI:178:26163","properties":{"destinationId":"178","locality":"Detroit","definition":"Wayne","state":"MI","stateName":"Michigan","county":"Wayne County","countyGeoid":"26163","countyGeoids":["26163"],"coverage":"complete-counties","sourceType":"gsa_county_defined_rate_area"},"geometry":{"type":"MultiPolygon","coordinates":[[[[-83.19159,42.03537],[-83.191,42.03343],[-83.18921,42.03334],[-83.18993,42.03599],[-83.19159,42.03537]]],[[[-83.55191,42.43517],[-83.5442,42.27689],[-83.54415,42.23203],[-83.5394,42.0856],[-83.42062,42.08778],[-83.42076,42.09357],[-83.29527,42.09424],[-83.29023,42.09191],[-83.28934,42.09004],[-83.28722,42.08946],[-83.28624,42.09077],[-83.28684,42.0885],[-83.28314,42.08939],[-83.28324,42.08613],[-83.28027,42.08546],[-83.28246,42.0844],[-83.28169,42.08342],[-83.27723,42.0827],[-83.28044,42.08164],[-83.27819,42.07937],[-83.27525,42.08031],[-83.27707,42.0761],[-83.27304,42.07495],[-83.27044,42.07613],[-83.26878,42.07428],[-83.26999,42.07139],[-83.2676,42.06908],[-83.26431,42.06928],[-83.26262,42.07274],[-83.25984,42.07425],[-83.25762,42.07368],[-83.25488,42.06866],[-83.25154,42.06765],[-83.25455,42.06396],[-83.25001,42.06346],[-83.24861,42.06063],[-83.24317,42.06151],[-83.23666,42.05793],[-83.23439,42.05902],[-83.23231,42.05486],[-83.2293,42.05486],[-83.23043,42.04868],[-83.21967,42.04912],[-83.21774,42.04469],[-83.21421,42.04258],[-83.21002,42.04368],[-83.19984,42.03895],[-83.1876,42.04431],[-83.18666,42.0477],[-83.1867,42.05197],[-83.19216,42.06598],[-83.19104,42.07744],[-83.18571,42.07944],[-83.18236,42.08338],[-83.17808,42.08236],[-83.1731,42.07529],[-83.17053,42.07482],[-83.16937,42.07643],[-83.17279,42.08716],[-83.16824,42.08902],[-83.16141,42.08986],[-83.15818,42.0857],[-83.15446,42.08607],[-83.15241,42.08898],[-83.14563,42.08889],[-83.14258,42.09076],[-83.13202,42.09017],[-83.11923,42.12526],[-83.1253,42.13756],[-83.13438,42.17462],[-83.12636,42.23841],[-83.11203,42.26059],[-83.09964,42.28714],[-83.08039,42.30679],[-83.06364,42.31686],[-83.01902,42.33062],[-82.98862,42.33244],[-82.95976,42.34003],[-82.95391,42.34693],[-82.95431,42.34891],[-82.96268,42.34966],[-82.96705,42.3524],[-82.96446,42.35517],[-82.9558,42.35467],[-82.92872,42.35837],[-82.92879,42.3602],[-82.92455,42.36233],[-82.92354,42.36759],[-82.91854,42.37301],[-82.91911,42.37444],[-82.91511,42.37814],[-82.89841,42.38544],[-82.89018,42.39501],[-82.88654,42.40558],[-82.88218,42.40519],[-82.88152,42.40659],[-82.88587,42.40832],[-82.87866,42.429],[-82.87383,42.43542],[-82.8744,42.44166],[-82.87024,42.45101],[-83.1908,42.44515],[-83.55191,42.43517]]]]}},{"type":"Feature","id":"MI:183:26081","properties":{"destinationId":"183","locality":"Grand Rapids","definition":"Kent","state":"MI","stateName":"Michigan","county":"Kent County","countyGeoid":"26081","countyGeoids":["26081"],"coverage":"complete-counties","sourceType":"gsa_county_defined_rate_area"},"geometry":{"type":"Polygon","coordinates":[[[-85.79056,43.22694],[-85.7885,43.03088],[-85.78218,42.91175],[-85.7825,42.7682],[-85.30963,42.76988],[-85.31161,42.87763],[-85.31238,43.2942],[-85.79045,43.293],[-85.79056,43.22694]]]}},{"type":"Feature","id":"MI:184:26139","properties":{"destinationId":"184","locality":"Holland","definition":"Ottawa","state":"MI","stateName":"Michigan","county":"Ottawa County","countyGeoid":"26139","countyGeoids":["26139"],"coverage":"complete-counties","sourceType":"gsa_county_defined_rate_area"},"geometry":{"type":"Polygon","coordinates":[[[-86.26432,43.1183],[-86.272,43.11837],[-86.25465,43.08341],[-86.25052,43.06699],[-86.2513,43.06011],[-86.24428,43.04968],[-86.23271,43.01576],[-86.22058,42.95579],[-86.21621,42.91901],[-86.21414,42.88356],[-86.21108,42.86913],[-86.21023,42.85563],[-86.21042,42.79123],[-86.21224,42.77297],[-86.20886,42.76754],[-86.03732,42.76894],[-85.7825,42.7682],[-85.78218,42.91175],[-85.7885,43.03088],[-85.79066,43.20517],[-85.90839,43.20592],[-85.90744,43.11891],[-86.14617,43.1174],[-86.26432,43.1183]]]}},{"type":"Feature","id":"MI:187:26097","properties":{"destinationId":"187","locality":"Mackinac Island","definition":"Mackinac","state":"MI","stateName":"Michigan","county":"Mackinac County","countyGeoid":"26097","countyGeoids":["26097"],"coverage":"complete-counties","sourceType":"gsa_county_defined_rate_area"},"geometry":{"type":"MultiPolygon","coordinates":[[[[-84.20248,45.96934],[-84.20313,45.96847],[-84.19994,45.96716],[-84.19984,45.97002],[-84.20248,45.96934]]],[[[-84.21552,45.98497],[-84.21208,45.9811],[-84.19841,45.97285],[-84.19402,45.97265],[-84.1989,45.97598],[-84.20066,45.97886],[-84.19917,45.97947],[-84.19292,45.97704],[-84.18016,45.97555],[-84.17806,45.96918],[-84.17032,45.96556],[-84.16912,45.96671],[-84.17393,45.97293],[-84.18366,45.97885],[-84.18028,45.98229],[-84.17241,45.97699],[-84.16997,45.97838],[-84.16134,45.97425],[-84.14956,45.9734],[-84.14538,45.97475],[-84.14672,45.97813],[-84.14458,45.97945],[-84.1422,45.97986],[-84.13216,45.97588],[-84.13355,45.97925],[-84.13231,45.9809],[-84.1286,45.98156],[-84.12556,45.98004],[-84.12242,45.98308],[-84.117,45.98335],[-84.11416,45.98156],[-84.11419,45.98515],[-84.21552,45.98497]]],[[[-84.43359,45.926],[-84.42976,45.91884],[-84.42793,45.91893],[-84.4312,45.92602],[-84.43359,45.926]]],[[[-84.43761,45.98135],[-84.42222,45.9732],[-84.42204,45.9747],[-84.43572,45.98165],[-84.43761,45.98135]]],[[[-84.58269,45.96312],[-84.58085,45.95879],[-84.56795,45.95248],[-84.56463,45.95423],[-84.56183,45.95908],[-84.56191,45.96347],[-84.56393,45.96641],[-84.57496,45.97065],[-84.57741,45.9698],[-84.58269,45.96312]]],[[[-84.59024,45.8128],[-84.58846,45.80745],[-84.58183,45.80251],[-84.56226,45.79651],[-84.54995,45.79007],[-84.54735,45.78604],[-84.53948,45.78084],[-84.53919,45.77771],[-84.52621,45.76602],[-84.52524,45.76169],[-84.50868,45.75401],[-84.50712,45.74509],[-84.50078,45.73723],[-84.48142,45.73005],[-84.47447,45.73266],[-84.46559,45.73135],[-84.45149,45.72648],[-84.4496,45.72807],[-84.44518,45.72727],[-84.43621,45.72876],[-84.41963,45.72009],[-84.41737,45.7223],[-84.41471,45.7218],[-84.41185,45.72353],[-84.40572,45.72226],[-84.39359,45.72807],[-84.3953,45.73386],[-84.39023,45.73753],[-84.39116,45.7394],[-84.38641,45.74131],[-84.38349,45.73944],[-84.37901,45.74065],[-84.38142,45.74305],[-84.38046,45.74397],[-84.37174,45.74552],[-84.36911,45.74899],[-84.37058,45.75595],[-84.36625,45.75834],[-84.36471,45.76246],[-84.35594,45.77069],[-84.35648,45.7723],[-84.37339,45.77635],[-84.39156,45.7839],[-84.39961,45.78283],[-84.40434,45.78525],[-84.40732,45.79236],[-84.41217,45.80019],[-84.41812,45.80587],[-84.42033,45.81132],[-84.42744,45.81133],[-84.4214,45.80572],[-84.4202,45.79873],[-84.42132,45.7927],[-84.42869,45.78746],[-84.43372,45.78671],[-84.44555,45.79144],[-84.47435,45.79868],[-84.50614,45.81092],[-84.52484,45.80806],[-84.53805,45.80786],[-84.57373,45.81944],[-84.57938,45.81985],[-84.5863,45.81624],[-84.58905,45.81637],[-84.59024,45.8128]]],[[[-84.61124,45.83457],[-84.60734,45.82562],[-84.59811,45.82266],[-84.59095,45.82242],[-84.5895,45.8269],[-84.59294,45.82775],[-84.59429,45.83064],[-84.60052,45.83392],[-84.61124,45.83457]]],[[[-84.64162,45.9729],[-84.63614,45.96524],[-84.64033,45.96099],[-84.64018,45.95837],[-84.63158,45.95535],[-84.61942,45.95836],[-84.61067,45.96554],[-84.61197,45.96716],[-84.60878,45.96747],[-84.6297,45.97946],[-84.63582,45.98088],[-84.63986,45.97834],[-84.63925,45.97437],[-84.64162,45.9729]]],[[[-84.65151,45.86277],[-84.65092,45.8598],[-84.6397,45.85262],[-84.63038,45.8504],[-84.61979,45.84555],[-84.61541,45.84986],[-84.60666,45.84855],[-84.60214,45.85206],[-84.60883,45.86206],[-84.62252,45.87752],[-84.62912,45.88222],[-84.64181,45.88547],[-84.64622,45.88522],[-84.64556,45.87467],[-84.64917,45.87019],[-84.6491,45.86537],[-84.65151,45.86277]]],[[[-84.7514,45.83624],[-84.75105,45.83471],[-84.74806,45.83439],[-84.74409,45.83663],[-84.74539,45.83933],[-84.74655,45.83636],[-84.7514,45.83624]]],[[[-84.88039,45.86532],[-84.87998,45.86122],[-84.86899,45.85495],[-84.86483,45.85403],[-84.8619,45.85664],[-84.86197,45.86021],[-84.86829,45.86153],[-84.86923,45.86443],[-84.87384,45.86671],[-84.87832,45.86729],[-84.88039,45.86532]]],[[[-85.20477,46.04441],[-85.20143,46.04309],[-85.19954,46.04422],[-85.20477,46.04441]]],[[[-85.86459,46.10122],[-85.8654,45.9684],[-85.85207,45.96824],[-85.84024,45.96516],[-85.83864,45.96714],[-85.83282,45.96784],[-85.83315,45.97204],[-85.82697,45.97261],[-85.82582,45.97629],[-85.81696,45.97998],[-85.81012,45.98022],[-85.79004,45.9778],[-85.76642,45.96949],[-85.74362,45.96517],[-85.74055,45.96305],[-85.72862,45.96599],[-85.71907,45.96345],[-85.69828,45.96135],[-85.69614,45.9592],[-85.68895,45.9614],[-85.68611,45.96564],[-85.67922,45.96703],[-85.65888,45.9658],[-85.65488,45.96691],[-85.65354,45.96929],[-85.65499,45.97398],[-85.65122,45.98047],[-85.64659,45.98557],[-85.63575,45.98996],[-85.63053,45.99409],[-85.62886,45.99896],[-85.62458,46.00293],[-85.61776,46.00559],[-85.61761,46.00824],[-85.61205,46.01709],[-85.59754,46.03316],[-85.58712,46.04134],[-85.57427,46.04688],[-85.56524,46.06067],[-85.54086,46.07958],[-85.52157,46.09126],[-85.50621,46.09639],[-85.4806,46.09638],[-85.46906,46.09271],[-85.46745,46.09079],[-85.46573,46.09197],[-85.45796,46.09047],[-85.45308,46.08668],[-85.44699,46.08516],[-85.44409,46.08685],[-85.44717,46.08873],[-85.44607,46.09073],[-85.43987,46.09159],[-85.44229,46.09394],[-85.44193,46.09579],[-85.43179,46.09771],[-85.43172,46.09999],[-85.42692,46.10196],[-85.41872,46.10225],[-85.41206,46.10144],[-85.40769,46.09781],[-85.40324,46.09882],[-85.39917,46.09762],[-85.39089,46.09361],[-85.38988,46.08713],[-85.3832,46.08399],[-85.38018,46.07978],[-85.38028,46.07588],[-85.37804,46.07492],[-85.37269,46.08039],[-85.37039,46.07981],[-85.3697,46.08208],[-85.36521,46.08271],[-85.36662,46.08678],[-85.36229,46.09006],[-85.34517,46.09345],[-85.33591,46.0926],[-85.31626,46.08661],[-85.31148,46.08446],[-85.30922,46.08102],[-85.30097,46.07995],[-85.29628,46.0776],[-85.29514,46.07597],[-85.29668,46.07416],[-85.2849,46.07416],[-85.28178,46.07298],[-85.28065,46.07036],[-85.26078,46.06286],[-85.25485,46.06495],[-85.24941,46.06419],[-85.24437,46.06111],[-85.23454,46.05876],[-85.22318,46.06094],[-85.21872,46.05948],[-85.21757,46.05678],[-85.21495,46.05577],[-85.2107,46.05752],[-85.20802,46.05529],[-85.20909,46.05397],[-85.20084,46.05231],[-85.19787,46.0537],[-85.19432,46.05031],[-85.19689,46.04653],[-85.19566,46.04562],[-85.19063,46.04762],[-85.18871,46.0535],[-85.19313,46.05557],[-85.18928,46.06062],[-85.1803,46.06171],[-85.16843,46.05556],[-85.16768,46.04947],[-85.16583,46.04775],[-85.15203,46.05072],[-85.14084,46.0496],[-85.13043,46.04608],[-85.1048,46.03347],[-85.10018,46.02967],[-85.09391,46.02773],[-85.08685,46.02858],[-85.07525,46.02493],[-85.05483,46.0228],[-85.03477,46.01535],[-85.01399,46.01077],[-85.0036,46.00613],[-84.97356,45.98613],[-84.9423,45.9613],[-84.91358,45.92587],[-84.90575,45.92289],[-84.8989,45.92299],[-84.89547,45.92521],[-84.88822,45.92446],[-84.88037,45.91835],[-84.87817,45.91361],[-84.87442,45.9127],[-84.87482,45.90911],[-84.86471,45.90734],[-84.85868,45.9022],[-84.85292,45.90011],[-84.83937,45.89759],[-84.83807,45.89577],[-84.84075,45.89495],[-84.84103,45.89345],[-84.83897,45.8926],[-84.83762,45.88905],[-84.83847,45.88151],[-84.8314,45.87204],[-84.82123,45.86822],[-84.8035,45.87044],[-84.79998,45.86829],[-84.79687,45.86169],[-84.79276,45.85869],[-84.77508,45.84936],[-84.7576,45.84289],[-84.75765,45.84076],[-84.75242,45.83974],[-84.74871,45.84558],[-84.7455,45.84746],[-84.72373,45.84699],[-84.70623,45.84892],[-84.70214,45.85072],[-84.70153,45.85286],[-84.706,45.85897],[-84.71463,45.86176],[-84.72118,45.86695],[-84.72992,45.8698],[-84.72964,45.87373],[-84.7204,45.87484],[-84.72632,45.89207],[-84.73447,45.89725],[-84.73352,45.90366],[-84.73608,45.90427],[-84.73471,45.90763],[-84.73696,45.90991],[-84.73657,45.91283],[-84.73305,45.91715],[-84.72514,45.9196],[-84.72025,45.91715],[-84.7136,45.91672],[-84.71722,45.92493],[-84.7222,45.92887],[-84.73319,45.93162],[-84.73583,45.93812],[-84.7401,45.94184],[-84.73018,45.9612],[-84.72304,45.96728],[-84.71018,45.96708],[-84.71196,45.97154],[-84.70782,45.97313],[-84.69605,45.97108],[-84.68771,45.97126],[-84.68525,45.97345],[-84.68437,45.9775],[-84.69078,45.98154],[-84.69401,45.98561],[-84.69294,45.98877],[-84.6871,45.99243],[-84.68765,45.99559],[-84.68446,45.99956],[-84.68548,46.00311],[-84.68394,46.00542],[-84.68854,46.00991],[-84.69099,46.01425],[-84.6904,46.01579],[-84.6925,46.01697],[-84.68999,46.02448],[-84.69047,46.02795],[-84.68732,46.03488],[-84.67584,46.04601],[-84.66671,46.05049],[-84.65657,46.05265],[-84.64761,46.0497],[-84.63277,46.03987],[-84.62156,46.03829],[-84.61578,46.03575],[-84.61191,46.0272],[-84.60906,46.02642],[-84.60455,46.0296],[-84.60152,46.028],[-84.5883,46.02712],[-84.58204,46.02201],[-84.58176,46.03049],[-84.57933,46.03119],[-84.57501,46.02945],[-84.57412,46.03162],[-84.56389,46.03246],[-84.5444,46.02286],[-84.541,46.0195],[-84.53961,46.0144],[-84.54196,46.01134],[-84.53516,46.00888],[-84.53343,46.00572],[-84.53226,45.99725],[-84.53362,45.99452],[-84.53044,45.99138],[-84.5321,45.983],[-84.5349,45.97891],[-84.53442,45.97276],[-84.53239,45.96945],[-84.52709,45.96833],[-84.51407,45.97129],[-84.51367,45.97419],[-84.51657,45.9771],[-84.51329,45.98118],[-84.50974,45.98272],[-84.51348,45.98436],[-84.51637,45.99072],[-84.51352,45.9927],[-84.5072,45.99117],[-84.50912,45.99444],[-84.50864,45.9965],[-84.50579,45.99799],[-84.49545,45.99468],[-84.49272,45.99592],[-84.48416,45.99378],[-84.48274,45.99237],[-84.48401,45.98825],[-84.48244,45.98544],[-84.48306,45.98224],[-84.48044,45.97875],[-84.48153,45.97758],[-84.47673,45.97652],[-84.47202,45.97155],[-84.46313,45.96892],[-84.46149,45.9696],[-84.46384,45.97239],[-84.46301,45.97396],[-84.46432,45.9766],[-84.4592,45.98189],[-84.46503,45.98643],[-84.46027,45.98758],[-84.46348,45.98874],[-84.4655,45.99163],[-84.46527,45.99303],[-84.46158,45.99378],[-84.46515,45.99485],[-84.46883,45.99848],[-84.46907,46.00063],[-84.46503,46.0055],[-84.4579,46.0055],[-84.44815,46.0022],[-84.44732,46.0055],[-84.44114,46.00723],[-84.42272,46.00203],[-84.41024,45.99402],[-84.4005,45.99097],[-84.39206,45.98544],[-84.4034,45.98178],[-84.4091,45.98212],[-84.41749,45.9894],[-84.4289,45.99314],[-84.42933,45.99186],[-84.41821,45.98507],[-84.41249,45.97918],[-84.41729,45.97436],[-84.41733,45.97033],[-84.415,45.96832],[-84.4151,45.966],[-84.42031,45.95778],[-84.4236,45.95797],[-84.43389,45.96322],[-84.43594,45.96302],[-84.435,45.96109],[-84.43212,45.95859],[-84.41712,45.95378],[-84.38159,45.9336],[-84.37981,45.93468],[-84.39406,45.9461],[-84.39104,45.94926],[-84.3852,45.94956],[-84.37667,45.94154],[-84.35511,45.93975],[-84.34522,45.94535],[-84.34714,45.94942],[-84.35629,45.95736],[-84.35581,45.95859],[-84.34346,45.95562],[-84.3387,45.95752],[-84.33324,45.95511],[-84.33002,45.95625],[-84.3305,45.95868],[-84.32824,45.95876],[-84.32252,45.95566],[-84.31949,45.95634],[-84.31785,45.96045],[-84.31083,45.96004],[-84.31083,45.96318],[-84.30917,45.96318],[-84.29442,45.95382],[-84.28271,45.95516],[-84.28201,45.95742],[-84.2767,45.95935],[-84.26556,45.95533],[-84.25842,45.95723],[-84.25997,45.95946],[-84.25878,45.96714],[-84.27316,45.98622],[-84.27352,45.9882],[-84.27114,45.98944],[-84.2694,45.98854],[-84.26722,45.99076],[-84.25819,45.98267],[-84.24654,45.98218],[-84.2444,45.97978],[-84.23276,45.97672],[-84.23216,45.98028],[-84.23062,45.98036],[-84.22218,45.97697],[-84.22209,45.97321],[-84.2155,45.9699],[-84.21405,45.97091],[-84.22055,45.97469],[-84.22004,45.97648],[-84.22313,45.98085],[-84.22192,45.98495],[-84.23933,45.98491],[-84.23888,46.07146],[-84.36309,46.07157],[-84.3635,46.15798],[-85.11251,46.15826],[-85.11333,46.24572],[-85.86502,46.24463],[-85.86459,46.10122]]]]}},{"type":"Feature","id":"MI:188:26111","properties":{"destinationId":"188","locality":"Midland","definition":"Midland","state":"MI","stateName":"Michigan","county":"Midland County","countyGeoid":"26111","countyGeoids":["26111"],"coverage":"complete-counties","sourceType":"gsa_county_defined_rate_area"},"geometry":{"type":"Polygon","coordinates":[[[-84.60796,43.64073],[-84.60754,43.46601],[-84.36988,43.46604],[-84.36978,43.48157],[-84.17058,43.48197],[-84.16726,43.62669],[-84.16732,43.8259],[-84.36651,43.82843],[-84.36668,43.81356],[-84.60604,43.81536],[-84.60796,43.64073]]]}},{"type":"Feature","id":"MI:190:26121","properties":{"destinationId":"190","locality":"Muskegon","definition":"Muskegon","state":"MI","stateName":"Michigan","county":"Muskegon County","countyGeoid":"26121","countyGeoids":["26121"],"coverage":"complete-counties","sourceType":"gsa_county_defined_rate_area"},"geometry":{"type":"Polygon","coordinates":[[[-86.46154,43.47233],[-86.44874,43.43201],[-86.43512,43.3967],[-86.42883,43.38477],[-86.42704,43.37494],[-86.40843,43.34244],[-86.39575,43.31622],[-86.34693,43.24267],[-86.33727,43.2236],[-86.33254,43.21979],[-86.32556,43.21011],[-86.29759,43.166],[-86.272,43.11837],[-86.14617,43.1174],[-85.90744,43.11891],[-85.90839,43.20592],[-85.79066,43.20517],[-85.79045,43.293],[-86.03895,43.29352],[-86.03949,43.46745],[-86.46154,43.47233]]]}},{"type":"Feature","id":"MI:192:26047","properties":{"destinationId":"192","locality":"Petoskey","definition":"Emmet","state":"MI","stateName":"Michigan","county":"Emmet County","countyGeoid":"26047","countyGeoids":["26047"],"coverage":"complete-counties","sourceType":"gsa_county_defined_rate_area"},"geometry":{"type":"MultiPolygon","coordinates":[[[[-85.03905,45.76432],[-85.03899,45.763],[-85.03542,45.76275],[-85.03403,45.76098],[-85.02549,45.76284],[-85.02387,45.76074],[-85.01951,45.76298],[-85.01958,45.76422],[-85.027,45.76611],[-85.02763,45.76458],[-85.03712,45.76543],[-85.03905,45.76432]]],[[[-85.07444,45.76589],[-85.07309,45.76236],[-85.0599,45.76183],[-85.05517,45.7644],[-85.06465,45.76659],[-85.07444,45.76589]]],[[[-85.11864,45.57518],[-85.11974,45.56903],[-85.11724,45.5618],[-85.11767,45.55326],[-85.11548,45.53941],[-85.10885,45.51848],[-85.09825,45.4998],[-85.09372,45.48156],[-85.08097,45.47077],[-85.06247,45.45129],[-85.05923,45.45082],[-85.04558,45.43981],[-85.03695,45.4349],[-85.01298,45.43153],[-85.00373,45.42697],[-85.00002,45.42697],[-84.98513,45.41929],[-84.97754,45.41844],[-84.97719,45.4202],[-84.98338,45.42096],[-84.99119,45.42525],[-84.99086,45.42812],[-84.97908,45.42972],[-84.97208,45.42737],[-84.95582,45.42759],[-84.92201,45.42191],[-84.91616,45.41764],[-84.91296,45.40978],[-84.913,45.39924],[-84.91585,45.39312],[-84.92457,45.39099],[-84.92994,45.387],[-84.93711,45.38692],[-84.94269,45.38477],[-84.96059,45.37581],[-84.96267,45.37699],[-84.96922,45.37569],[-84.98729,45.36882],[-84.99386,45.36815],[-84.99843,45.37004],[-85.01297,45.37109],[-85.03777,45.36209],[-85.0431,45.36151],[-85.05566,45.36467],[-85.096,45.36652],[-85.09653,45.33574],[-85.04597,45.33466],[-85.03917,45.3288],[-85.03618,45.32121],[-85.02284,45.31009],[-85.01532,45.29701],[-85.01502,45.295],[-85.01889,45.28957],[-85.01416,45.28146],[-85.00097,45.27214],[-84.98937,45.27472],[-84.9723,45.27127],[-84.96435,45.27167],[-84.96732,45.2815],[-84.96479,45.2916],[-84.73269,45.28938],[-84.72986,45.4011],[-84.7324,45.78821],[-84.74358,45.7836],[-84.75157,45.78273],[-84.77276,45.7893],[-84.79164,45.78204],[-84.79302,45.78045],[-84.78763,45.77608],[-84.78746,45.77207],[-84.78079,45.77119],[-84.77893,45.76612],[-84.78158,45.76014],[-84.78852,45.75207],[-84.79606,45.74796],[-84.80791,45.74492],[-84.82243,45.75251],[-84.82542,45.75272],[-84.83228,45.74664],[-84.84098,45.74475],[-84.88276,45.75652],[-84.89731,45.74715],[-84.9056,45.74636],[-84.92452,45.75678],[-84.93831,45.75989],[-84.94321,45.7586],[-84.97981,45.7577],[-84.99752,45.7584],[-85.00835,45.76167],[-85.00942,45.75931],[-85.0141,45.75954],[-85.01032,45.75616],[-85.00271,45.75412],[-84.99961,45.75534],[-84.98404,45.75203],[-84.97688,45.75264],[-84.97276,45.74983],[-84.96979,45.74498],[-84.96096,45.74508],[-84.95795,45.74338],[-84.94044,45.72539],[-84.94376,45.71029],[-84.951,45.70742],[-84.95434,45.70182],[-84.95889,45.69814],[-84.96161,45.69806],[-84.96588,45.69404],[-84.96831,45.68906],[-84.97577,45.68317],[-84.98281,45.68116],[-84.98785,45.683],[-84.99296,45.67998],[-84.99491,45.67246],[-85.00115,45.66122],[-85.00703,45.65636],[-85.01534,45.65156],[-85.04342,45.6454],[-85.05077,45.64095],[-85.06149,45.6395],[-85.06891,45.63528],[-85.07491,45.62924],[-85.07569,45.62369],[-85.07953,45.61708],[-85.09143,45.60593],[-85.09352,45.60012],[-85.11191,45.58583],[-85.11864,45.57518]]]]}},{"type":"Feature","id":"MI:193:26125","properties":{"destinationId":"193","locality":"Pontiac / Auburn Hills","definition":"Oakland","state":"MI","stateName":"Michigan","county":"Oakland County","countyGeoid":"26125","countyGeoids":["26125"],"coverage":"complete-counties","sourceType":"gsa_county_defined_rate_area"},"geometry":{"type":"Polygon","coordinates":[[[-83.68938,42.87126],[-83.68278,42.69558],[-83.66481,42.43118],[-83.42392,42.43926],[-83.08339,42.44715],[-83.10289,42.88865],[-83.45336,42.88043],[-83.4533,42.87631],[-83.45489,42.87613],[-83.68938,42.87126]]]}},{"type":"Feature","id":"MI:195:26159","properties":{"destinationId":"195","locality":"South Haven","definition":"Van Buren","state":"MI","stateName":"Michigan","county":"Van Buren County","countyGeoid":"26159","countyGeoids":["26159"],"coverage":"complete-counties","sourceType":"gsa_county_defined_rate_area"},"geometry":{"type":"Polygon","coordinates":[[[-86.36427,42.24314],[-86.22356,42.24338],[-86.22294,42.07148],[-85.76294,42.06933],[-85.76607,42.24469],[-85.7647,42.42072],[-85.95715,42.41899],[-86.27376,42.41928],[-86.28497,42.40181],[-86.28445,42.39456],[-86.29717,42.35821],[-86.30875,42.33411],[-86.32828,42.29802],[-86.36427,42.24314]]]}},{"type":"Feature","id":"MI:196:26055","properties":{"destinationId":"196","locality":"Traverse City","definition":"Grand Traverse","state":"MI","stateName":"Michigan","county":"Grand Traverse County","countyGeoid":"26055","countyGeoids":["26055"],"coverage":"complete-counties","sourceType":"gsa_county_defined_rate_area"},"geometry":{"type":"MultiPolygon","coordinates":[[[[-85.58321,44.86373],[-85.58376,44.86145],[-85.58185,44.86024],[-85.57064,44.86452],[-85.57212,44.8696],[-85.56989,44.87232],[-85.58121,44.86994],[-85.58321,44.86373]]],[[[-85.81763,44.54167],[-85.8178,44.51297],[-85.334,44.5123],[-85.33284,44.81237],[-85.33975,44.81804],[-85.34409,44.82694],[-85.34854,44.82781],[-85.36364,44.8252],[-85.3693,44.82576],[-85.37456,44.82882],[-85.38198,44.85957],[-85.44311,44.85982],[-85.45141,44.85395],[-85.4529,44.84569],[-85.46165,44.83453],[-85.46336,44.83015],[-85.46292,44.82507],[-85.47148,44.8166],[-85.49938,44.80434],[-85.50737,44.79536],[-85.50721,44.79082],[-85.50951,44.78717],[-85.50524,44.78159],[-85.50628,44.77578],[-85.50394,44.77295],[-85.50478,44.76808],[-85.51536,44.75989],[-85.52719,44.7475],[-85.53828,44.74682],[-85.55433,44.74874],[-85.5713,44.75529],[-85.57657,44.76021],[-85.57247,44.76566],[-85.57023,44.77277],[-85.56494,44.77667],[-85.56189,44.78432],[-85.55964,44.78594],[-85.56146,44.79212],[-85.55957,44.79884],[-85.56038,44.80066],[-85.55809,44.80408],[-85.56023,44.81007],[-85.55589,44.81826],[-85.54748,44.82513],[-85.53992,44.83417],[-85.53496,44.83564],[-85.53258,44.8389],[-85.5287,44.84074],[-85.52215,44.84196],[-85.51899,44.84555],[-85.50862,44.84787],[-85.50706,44.85251],[-85.49974,44.85609],[-85.50078,44.86217],[-85.49801,44.86545],[-85.49755,44.86934],[-85.49991,44.87232],[-85.49338,44.88413],[-85.49303,44.89051],[-85.48862,44.90171],[-85.49249,44.90822],[-85.48888,44.91602],[-85.49129,44.92758],[-85.48461,44.95255],[-85.48746,44.95894],[-85.48211,44.96222],[-85.46665,44.95884],[-85.46494,44.96106],[-85.47494,44.99172],[-85.4926,44.98983],[-85.50008,44.98105],[-85.52003,44.974],[-85.5221,44.96673],[-85.5202,44.96035],[-85.52435,44.95075],[-85.52903,44.94692],[-85.52907,44.93558],[-85.53436,44.92752],[-85.53355,44.92576],[-85.53834,44.92204],[-85.5397,44.91678],[-85.54575,44.91317],[-85.56451,44.89525],[-85.55963,44.88775],[-85.55714,44.88756],[-85.54967,44.89518],[-85.54954,44.89888],[-85.54644,44.90155],[-85.53477,44.90162],[-85.52817,44.89922],[-85.52482,44.89452],[-85.53065,44.88976],[-85.52904,44.88459],[-85.5313,44.88182],[-85.53293,44.87319],[-85.5381,44.86868],[-85.54891,44.86321],[-85.55391,44.85701],[-85.56416,44.83126],[-85.56849,44.82536],[-85.57909,44.81772],[-85.58215,44.80174],[-85.58535,44.79758],[-85.59098,44.78391],[-85.59034,44.78212],[-85.59436,44.77481],[-85.59357,44.76878],[-85.59544,44.76711],[-85.6129,44.76492],[-85.61938,44.76551],[-85.61985,44.76679],[-85.62811,44.76723],[-85.63456,44.76962],[-85.64067,44.77537],[-85.81512,44.77453],[-85.81774,44.67341],[-85.81763,44.54167]]]]}}]}