{"type":"FeatureCollection","features":[{"type":"Feature","id":"MN:199:27137","properties":{"destinationId":"199","locality":"Duluth","definition":"St. Louis","state":"MN","stateName":"Minnesota","county":"St. Louis County","countyGeoid":"27137","countyGeoids":["27137"],"coverage":"complete-counties","sourceType":"gsa_county_defined_rate_area"},"geometry":{"type":"Polygon","coordinates":[[[-93.09802,48.24253],[-93.09654,48.0678],[-93.08911,48.06792],[-93.0873,48.00032],[-93.08805,47.97856],[-93.08093,47.97854],[-93.08082,47.87782],[-93.08372,47.8065],[-93.08204,47.72057],[-93.0615,47.72041],[-93.06443,47.62503],[-93.06368,47.54452],[-93.06517,47.50034],[-93.06873,47.45789],[-93.06964,47.40017],[-93.06667,47.3716],[-93.0646,47.37151],[-93.06625,47.10936],[-93.05601,47.10933],[-93.05611,47.02641],[-93.06133,46.76643],[-92.80817,46.76604],[-92.65917,46.76906],[-92.6178,46.76656],[-92.30168,46.76413],[-92.30132,46.6669],[-92.29286,46.66353],[-92.29129,46.66814],[-92.28739,46.66734],[-92.28619,46.66034],[-92.27439,46.65744],[-92.27059,46.65074],[-92.26599,46.65104],[-92.25659,46.65874],[-92.24249,46.64924],[-92.22849,46.65294],[-92.21639,46.64984],[-92.20709,46.65194],[-92.20159,46.65664],[-92.20549,46.66474],[-92.20409,46.66694],[-92.19249,46.67674],[-92.18139,46.68024],[-92.17609,46.68634],[-92.17649,46.69024],[-92.18309,46.69524],[-92.19849,46.69614],[-92.20519,46.69834],[-92.20469,46.70404],[-92.19739,46.70764],[-92.19329,46.71124],[-92.19149,46.71624],[-92.18909,46.71754],[-92.17429,46.71724],[-92.16729,46.71994],[-92.15519,46.71594],[-92.14629,46.71594],[-92.14129,46.72524],[-92.14339,46.72814],[-92.14329,46.73464],[-92.13789,46.73954],[-92.11659,46.74864],[-92.08949,46.74924],[-92.03399,46.70894],[-92.02029,46.70404],[-92.01529,46.70647],[-92.01744,46.70711],[-92.01943,46.71051],[-92.02723,46.7109],[-92.06449,46.74544],[-92.08826,46.77326],[-92.09156,46.77845],[-92.09429,46.78842],[-92.08534,46.79577],[-92.06194,46.80503],[-92.05953,46.81028],[-92.05465,46.81161],[-92.04553,46.81917],[-92.03848,46.82043],[-92.02876,46.82472],[-92.02589,46.82857],[-92.01728,46.83322],[-91.99853,46.83895],[-91.98509,46.84964],[-91.96541,46.8582],[-91.95207,46.86707],[-91.91454,46.88344],[-91.90492,46.89172],[-91.8825,46.90495],[-91.87599,46.90773],[-91.86156,46.91032],[-91.85526,46.91413],[-91.85093,46.91982],[-91.84614,46.923],[-91.83485,46.92714],[-91.82607,46.9272],[-91.81752,46.9238],[-91.81196,46.93062],[-91.79439,46.93958],[-91.7946,47.11197],[-91.79243,47.11181],[-91.79258,47.2851],[-91.79172,47.37258],[-91.79057,47.37258],[-91.78935,47.408],[-91.78913,47.4804],[-91.79047,47.6008],[-91.79643,47.66587],[-91.79936,47.75752],[-91.80011,47.81744],[-91.7971,47.9117],[-91.79992,48.06594],[-91.79825,48.20286],[-91.81447,48.20866],[-91.81577,48.21175],[-91.86438,48.20703],[-91.86788,48.2191],[-91.88469,48.22732],[-91.89347,48.2377],[-91.90599,48.23713],[-91.91577,48.23887],[-91.9208,48.23675],[-91.93736,48.23421],[-91.94184,48.2306],[-91.9578,48.23299],[-91.95917,48.2363],[-91.9583,48.24379],[-91.94957,48.24452],[-91.94848,48.24584],[-91.95381,48.24941],[-91.95443,48.25168],[-91.95956,48.25355],[-91.97024,48.25359],[-91.97256,48.2504],[-91.97037,48.24936],[-91.97106,48.24767],[-91.9769,48.24463],[-91.97756,48.24714],[-91.98077,48.2478],[-91.98954,48.26021],[-92.00658,48.26542],[-92.00725,48.28039],[-92.01207,48.28727],[-92.01298,48.29739],[-92.00013,48.32136],[-92.03087,48.32582],[-92.03772,48.33318],[-92.04656,48.33474],[-92.04766,48.34377],[-92.04515,48.34578],[-92.04573,48.3479],[-92.04865,48.34886],[-92.05523,48.35921],[-92.07796,48.35825],[-92.08351,48.35386],[-92.14358,48.35612],[-92.14505,48.36565],[-92.16216,48.36328],[-92.17735,48.35723],[-92.1789,48.35528],[-92.17842,48.35188],[-92.19357,48.34861],[-92.19487,48.3504],[-92.20368,48.35206],[-92.20773,48.34781],[-92.2068,48.3456],[-92.21698,48.34511],[-92.22281,48.3492],[-92.26228,48.35493],[-92.28899,48.34299],[-92.29541,48.32396],[-92.30456,48.32298],[-92.30631,48.31644],[-92.29453,48.30645],[-92.30145,48.28861],[-92.29505,48.27659],[-92.293,48.2764],[-92.29454,48.27156],[-92.29037,48.26553],[-92.27371,48.25675],[-92.26974,48.24824],[-92.28073,48.24427],[-92.31466,48.24053],[-92.33225,48.23388],[-92.33683,48.23538],[-92.34121,48.23248],[-92.35318,48.23033],[-92.3621,48.22288],[-92.36753,48.22395],[-92.36708,48.22104],[-92.36917,48.22027],[-92.3779,48.22964],[-92.37892,48.23578],[-92.38436,48.24072],[-92.38391,48.2447],[-92.38719,48.24461],[-92.38811,48.24673],[-92.38501,48.24977],[-92.38671,48.25167],[-92.39126,48.25067],[-92.3924,48.25251],[-92.3893,48.25332],[-92.39344,48.25748],[-92.39278,48.25894],[-92.41628,48.29546],[-92.42608,48.30449],[-92.42892,48.30577],[-92.432,48.30506],[-92.43782,48.30984],[-92.46995,48.35184],[-92.47675,48.37176],[-92.45639,48.40113],[-92.45632,48.4142],[-92.47558,48.41879],[-92.48115,48.42535],[-92.48208,48.42866],[-92.48919,48.43033],[-92.50728,48.44788],[-92.5372,48.4477],[-92.57564,48.44083],[-92.65603,48.43671],[-92.66327,48.44018],[-92.688,48.44389],[-92.71256,48.46301],[-92.70865,48.47035],[-92.70927,48.47309],[-92.7013,48.48459],[-92.69882,48.49489],[-92.68487,48.49761],[-92.66142,48.49656],[-92.65404,48.50164],[-92.6367,48.49943],[-92.62724,48.50338],[-92.63146,48.50679],[-92.63088,48.50919],[-92.62515,48.51305],[-92.62664,48.51437],[-92.62554,48.51755],[-92.63493,48.54287],[-92.65788,48.54626],[-92.72805,48.53929],[-92.89469,48.59492],[-92.90995,48.59631],[-92.92961,48.60687],[-92.94984,48.60827],[-92.95012,48.63042],[-92.95488,48.63149],[-92.98496,48.62373],[-93.08856,48.62759],[-93.09151,48.43606],[-93.09226,48.41442],[-93.09348,48.41444],[-93.09496,48.24253],[-93.09802,48.24253]]]}},{"type":"Feature","id":"MN:201:27053","properties":{"destinationId":"201","locality":"Minneapolis / St. Paul","definition":"Hennepin / Ramsey","state":"MN","stateName":"Minnesota","county":"Hennepin County","countyGeoid":"27053","countyGeoids":["27053","27123"],"coverage":"complete-counties","sourceType":"gsa_county_defined_rate_area"},"geometry":{"type":"Polygon","coordinates":[[[-93.76804,44.90544],[-93.76838,44.89087],[-93.52071,44.8915],[-93.52017,44.80218],[-93.51134,44.805],[-93.50334,44.80474],[-93.49911,44.81032],[-93.49611,44.80954],[-93.49187,44.80464],[-93.4837,44.80779],[-93.48123,44.80474],[-93.46366,44.80665],[-93.45673,44.80316],[-93.44958,44.80366],[-93.44395,44.80559],[-93.44126,44.81125],[-93.43816,44.81307],[-93.4205,44.80694],[-93.41359,44.80759],[-93.4058,44.80468],[-93.39632,44.79708],[-93.38755,44.79861],[-93.38481,44.79729],[-93.38099,44.78583],[-93.37824,44.78519],[-93.36424,44.78916],[-93.35606,44.78544],[-93.35216,44.79],[-93.34856,44.79135],[-93.33596,44.78648],[-93.32573,44.79267],[-93.31412,44.79247],[-93.30453,44.7945],[-93.2853,44.80207],[-93.28236,44.8059],[-93.25187,44.81148],[-93.23089,44.82748],[-93.21906,44.83224],[-93.22192,44.83696],[-93.22111,44.83848],[-93.21144,44.83974],[-93.20776,44.84363],[-93.20341,44.85236],[-93.19728,44.86011],[-93.19997,44.8655],[-93.17877,44.88016],[-93.18297,44.88535],[-93.18263,44.88712],[-93.17854,44.88834],[-93.17722,44.89393],[-93.18739,44.89512],[-93.19038,44.89799],[-93.19221,44.90438],[-93.20037,44.90962],[-93.20136,44.91976],[-93.19981,44.92693],[-93.2001,44.94151],[-93.2036,44.95098],[-93.20776,44.95321],[-93.20809,45.03574],[-93.28343,45.03536],[-93.28083,45.04356],[-93.28523,45.05846],[-93.27903,45.08016],[-93.28018,45.08897],[-93.27837,45.10304],[-93.28033,45.10576],[-93.29507,45.11533],[-93.29713,45.12696],[-93.30831,45.13795],[-93.31154,45.14378],[-93.32343,45.14746],[-93.33057,45.15303],[-93.34623,45.16016],[-93.35883,45.17496],[-93.37543,45.17866],[-93.39251,45.18975],[-93.41203,45.19816],[-93.42245,45.21142],[-93.42773,45.21556],[-93.43317,45.21796],[-93.44405,45.21663],[-93.45072,45.21948],[-93.45736,45.22014],[-93.46653,45.22548],[-93.48547,45.22568],[-93.49689,45.23426],[-93.50023,45.24056],[-93.50268,45.24222],[-93.51403,45.24614],[-93.52165,45.24662],[-93.52243,45.24437],[-93.52057,45.24244],[-93.51467,45.23992],[-93.5199,45.23826],[-93.52179,45.23248],[-93.52659,45.22866],[-93.52564,45.22496],[-93.52868,45.22243],[-93.53129,45.22284],[-93.53339,45.2256],[-93.53411,45.23061],[-93.54264,45.23259],[-93.54864,45.22646],[-93.55509,45.22676],[-93.55706,45.22497],[-93.56111,45.227],[-93.56272,45.22301],[-93.56997,45.21852],[-93.57547,45.21857],[-93.5875,45.21464],[-93.58948,45.21481],[-93.5905,45.21818],[-93.5924,45.2184],[-93.59432,45.21488],[-93.59264,45.21074],[-93.59786,45.20731],[-93.60196,45.20808],[-93.60407,45.21283],[-93.60784,45.21216],[-93.61088,45.20813],[-93.61257,45.20912],[-93.61266,45.21155],[-93.61946,45.20902],[-93.62591,45.20923],[-93.62338,45.20393],[-93.62849,45.20241],[-93.63312,45.20482],[-93.63457,45.2092],[-93.63713,45.21016],[-93.63995,45.2093],[-93.64514,45.20401],[-93.64722,45.1996],[-93.65712,45.19753],[-93.65854,45.19149],[-93.65131,45.18253],[-93.63943,45.17535],[-93.63862,45.16562],[-93.64775,45.15861],[-93.66113,45.15333],[-93.66608,45.15446],[-93.67871,45.15052],[-93.68131,45.15125],[-93.68405,45.15],[-93.68945,45.14338],[-93.69685,45.13944],[-93.70115,45.13568],[-93.70241,45.13162],[-93.70744,45.126],[-93.72062,45.11444],[-93.72681,45.09845],[-93.72959,45.09744],[-93.72892,45.09002],[-93.73386,45.08724],[-93.73924,45.08099],[-93.74971,45.07906],[-93.75637,45.08042],[-93.75795,45.08282],[-93.76187,45.08124],[-93.75862,45.07778],[-93.76113,45.07363],[-93.75933,45.07495],[-93.75848,45.07291],[-93.76451,45.07105],[-93.76117,45.06876],[-93.76554,45.06633],[-93.76502,45.06172],[-93.76562,45.05969],[-93.76671,45.06023],[-93.76804,44.90544]]]}},{"type":"Feature","id":"MN:201:27123","properties":{"destinationId":"201","locality":"Minneapolis / St. Paul","definition":"Hennepin / Ramsey","state":"MN","stateName":"Minnesota","county":"Ramsey County","countyGeoid":"27123","countyGeoids":["27053","27123"],"coverage":"complete-counties","sourceType":"gsa_county_defined_rate_area"},"geometry":{"type":"Polygon","coordinates":[[[-93.22797,45.11622],[-93.22693,45.03567],[-93.20809,45.03574],[-93.20776,44.95321],[-93.2036,44.95098],[-93.2001,44.94151],[-93.19981,44.92693],[-93.20136,44.91976],[-93.20037,44.90962],[-93.19221,44.90438],[-93.19038,44.89799],[-93.18739,44.89512],[-93.17722,44.89393],[-93.17854,44.88834],[-93.16892,44.8882],[-93.1539,44.8929],[-93.13649,44.9061],[-93.13194,44.91602],[-93.12863,44.91965],[-93.09602,44.91968],[-93.09604,44.92329],[-93.09094,44.92324],[-93.09091,44.91967],[-93.05164,44.9195],[-93.04518,44.91231],[-93.04212,44.9051],[-93.03473,44.89783],[-93.02461,44.89407],[-93.02004,44.89075],[-92.98419,44.89081],[-92.98462,45.12362],[-93.2277,45.12453],[-93.22797,45.11622]]]}},{"type":"Feature","id":"MN:202:27109","properties":{"destinationId":"202","locality":"Rochester","definition":"Olmsted","state":"MN","stateName":"Minnesota","county":"Olmsted County","countyGeoid":"27109","countyGeoids":["27109"],"coverage":"complete-counties","sourceType":"gsa_county_defined_rate_area"},"geometry":{"type":"Polygon","coordinates":[[[-92.68939,43.84857],[-92.68928,43.83385],[-92.44896,43.8341],[-92.44895,43.84828],[-92.07914,43.84713],[-92.07927,44.10674],[-92.31897,44.10773],[-92.31899,44.19406],[-92.67872,44.19552],[-92.6783,43.84859],[-92.68939,43.84857]]]}}]}