{"type":"FeatureCollection","features":[{"type":"Feature","id":"MO:204:29037","properties":{"destinationId":"204","locality":"Kansas City","definition":"Jackson / Clay / Cass / Platte","state":"MO","stateName":"Missouri","county":"Cass County","countyGeoid":"29037","countyGeoids":["29037","29047","29095","29165"],"coverage":"complete-counties","sourceType":"gsa_county_defined_rate_area"},"geometry":{"type":"Polygon","coordinates":[[[-94.6127,38.48315],[-94.61287,38.4776],[-94.31215,38.47139],[-94.31392,38.46936],[-94.31092,38.4688],[-94.31028,38.46531],[-94.30629,38.46538],[-94.30516,38.46723],[-94.30431,38.46351],[-94.29751,38.45888],[-94.29288,38.45771],[-94.2935,38.46064],[-94.2899,38.45999],[-94.29171,38.46322],[-94.29166,38.46532],[-94.28996,38.46535],[-94.28679,38.46114],[-94.28502,38.46113],[-94.28483,38.4626],[-94.28274,38.46164],[-94.28177,38.45889],[-94.27677,38.45672],[-94.2752,38.45892],[-94.26611,38.45469],[-94.2652,38.45332],[-94.26711,38.45046],[-94.26396,38.44978],[-94.26348,38.45159],[-94.25978,38.45294],[-94.25716,38.45007],[-94.25091,38.45556],[-94.24488,38.45564],[-94.23933,38.46026],[-94.23779,38.45973],[-94.23982,38.45648],[-94.2384,38.4558],[-94.2353,38.45802],[-94.22717,38.45728],[-94.22669,38.45924],[-94.22498,38.45742],[-94.22878,38.45481],[-94.22614,38.45332],[-94.22926,38.45237],[-94.22594,38.45105],[-94.22288,38.4529],[-94.22282,38.44831],[-94.21793,38.45019],[-94.21619,38.44675],[-94.21296,38.44838],[-94.21202,38.44675],[-94.20981,38.44712],[-94.21066,38.45004],[-94.20751,38.45078],[-94.20617,38.4471],[-94.20373,38.44788],[-94.20052,38.44536],[-94.18996,38.44726],[-94.18766,38.44873],[-94.18964,38.45062],[-94.18667,38.44937],[-94.1849,38.44614],[-94.1826,38.44612],[-94.18216,38.44763],[-94.17952,38.44564],[-94.1741,38.44545],[-94.17404,38.44692],[-94.17061,38.44685],[-94.17378,38.44985],[-94.16863,38.44721],[-94.16808,38.45019],[-94.16444,38.44923],[-94.15908,38.45071],[-94.1572,38.44863],[-94.15212,38.45012],[-94.15139,38.45342],[-94.14768,38.45067],[-94.13277,38.45383],[-94.11829,38.45183],[-94.10996,38.45265],[-94.10816,38.45466],[-94.10923,38.45579],[-94.09718,38.45465],[-94.09346,38.45852],[-94.09005,38.45266],[-94.08641,38.45593],[-94.08043,38.4497],[-94.07974,38.45133],[-94.07672,38.45178],[-94.07598,38.44916],[-94.07808,38.44811],[-94.07252,38.44898],[-94.07086,38.44676],[-94.06571,38.44709],[-94.06502,38.46582],[-94.06782,38.46602],[-94.06432,38.56738],[-94.11966,38.56871],[-94.11641,38.65552],[-94.12937,38.65586],[-94.1191,38.83317],[-94.28759,38.83508],[-94.50907,38.8423],[-94.60803,38.84721],[-94.6127,38.48315]]]}},{"type":"Feature","id":"MO:204:29047","properties":{"destinationId":"204","locality":"Kansas City","definition":"Jackson / Clay / Cass / Platte","state":"MO","stateName":"Missouri","county":"Clay County","countyGeoid":"29047","countyGeoids":["29037","29047","29095","29165"],"coverage":"complete-counties","sourceType":"gsa_county_defined_rate_area"},"geometry":{"type":"Polygon","coordinates":[[[-94.60829,39.11794],[-94.60735,39.11344],[-94.6039,39.11092],[-94.59572,39.11],[-94.55495,39.12743],[-94.54957,39.1309],[-94.53923,39.1427],[-94.53406,39.14591],[-94.50641,39.15091],[-94.49541,39.15039],[-94.48462,39.1455],[-94.46933,39.1307],[-94.46755,39.12478],[-94.46159,39.12037],[-94.44064,39.13078],[-94.43036,39.13803],[-94.40233,39.16477],[-94.39993,39.1748],[-94.40902,39.1921],[-94.40723,39.1953],[-94.40127,39.19696],[-94.39503,39.1963],[-94.38973,39.1935],[-94.38483,39.1872],[-94.37849,39.17036],[-94.36942,39.16368],[-94.36356,39.16366],[-94.35413,39.17045],[-94.34617,39.17388],[-94.32816,39.19123],[-94.3205,39.20176],[-94.31677,39.21573],[-94.30893,39.22735],[-94.30093,39.2334],[-94.28987,39.23711],[-94.2674,39.2354],[-94.25542,39.23622],[-94.25005,39.23484],[-94.23843,39.22822],[-94.22956,39.21536],[-94.22128,39.21013],[-94.21252,39.20709],[-94.21064,39.45468],[-94.60082,39.45616],[-94.60173,39.1596],[-94.59066,39.15477],[-94.58841,39.14987],[-94.5899,39.13898],[-94.60043,39.1285],[-94.60829,39.11794]]]}},{"type":"Feature","id":"MO:204:29095","properties":{"destinationId":"204","locality":"Kansas City","definition":"Jackson / Clay / Cass / Platte","state":"MO","stateName":"Missouri","county":"Jackson County","countyGeoid":"29095","countyGeoids":["29037","29047","29095","29165"],"coverage":"complete-counties","sourceType":"gsa_county_defined_rate_area"},"geometry":{"type":"Polygon","coordinates":[[[-94.60833,38.98181],[-94.60803,38.84721],[-94.50907,38.8423],[-94.28759,38.83508],[-94.11879,38.83321],[-94.11409,38.90624],[-94.11427,38.92854],[-94.10482,39.14351],[-94.11403,39.14971],[-94.12637,39.16578],[-94.13366,39.17124],[-94.14715,39.17518],[-94.17683,39.17812],[-94.18584,39.18103],[-94.18717,39.18384],[-94.18574,39.18803],[-94.17533,39.19719],[-94.17024,39.20449],[-94.16942,39.21061],[-94.17352,39.21383],[-94.1847,39.21429],[-94.20492,39.20653],[-94.21252,39.20709],[-94.22128,39.21013],[-94.22956,39.21536],[-94.23843,39.22822],[-94.25005,39.23484],[-94.25542,39.23622],[-94.2674,39.2354],[-94.28987,39.23711],[-94.2951,39.23552],[-94.30461,39.23141],[-94.314,39.22127],[-94.32232,39.19865],[-94.33766,39.18074],[-94.34617,39.17388],[-94.35413,39.17045],[-94.36356,39.16366],[-94.36942,39.16368],[-94.37849,39.17036],[-94.38483,39.1872],[-94.38973,39.1935],[-94.39503,39.1963],[-94.40127,39.19696],[-94.40723,39.1953],[-94.40902,39.1921],[-94.39993,39.1748],[-94.40233,39.16477],[-94.43036,39.13803],[-94.44064,39.13078],[-94.46159,39.12037],[-94.46755,39.12478],[-94.46933,39.1307],[-94.48462,39.1455],[-94.49541,39.15039],[-94.50641,39.15091],[-94.53406,39.14591],[-94.53923,39.1427],[-94.54957,39.1309],[-94.55495,39.12743],[-94.59572,39.11],[-94.6039,39.11092],[-94.60735,39.11344],[-94.60833,38.98181]]]}},{"type":"Feature","id":"MO:204:29165","properties":{"destinationId":"204","locality":"Kansas City","definition":"Jackson / Clay / Cass / Platte","state":"MO","stateName":"Missouri","county":"Platte County","countyGeoid":"29165","countyGeoids":["29037","29047","29095","29165"],"coverage":"complete-counties","sourceType":"gsa_county_defined_rate_area"},"geometry":{"type":"Polygon","coordinates":[[[-95.10141,39.53325],[-95.08271,39.51671],[-95.05946,39.50614],[-95.05218,39.5],[-95.04984,39.49441],[-95.04713,39.47497],[-95.0375,39.46369],[-95.01582,39.45281],[-94.99017,39.44619],[-94.98214,39.44055],[-94.9788,39.43624],[-94.97661,39.4267],[-94.97295,39.42171],[-94.96607,39.41729],[-94.95482,39.41384],[-94.94786,39.4086],[-94.94629,39.40565],[-94.94623,39.39565],[-94.94204,39.3895],[-94.93365,39.38555],[-94.92311,39.38449],[-94.90182,39.3928],[-94.89184,39.39331],[-94.88503,39.3898],[-94.87928,39.37978],[-94.87909,39.3757],[-94.88136,39.37038],[-94.89093,39.36403],[-94.9025,39.36038],[-94.91002,39.35254],[-94.90806,39.32366],[-94.90533,39.31195],[-94.90005,39.30019],[-94.88706,39.28648],[-94.87832,39.28114],[-94.85707,39.27382],[-94.84632,39.26848],[-94.83147,39.25627],[-94.82749,39.24989],[-94.82566,39.24173],[-94.82779,39.234],[-94.8349,39.22384],[-94.83506,39.22066],[-94.83168,39.21594],[-94.82379,39.20987],[-94.81166,39.20659],[-94.79966,39.20602],[-94.78734,39.20767],[-94.78152,39.20615],[-94.77554,39.2006],[-94.76314,39.1799],[-94.75234,39.1732],[-94.74194,39.1702],[-94.72364,39.169],[-94.71414,39.1704],[-94.68724,39.1835],[-94.68034,39.1843],[-94.66914,39.182],[-94.66384,39.1791],[-94.65916,39.17413],[-94.6614,39.16274],[-94.65921,39.15784],[-94.65579,39.15568],[-94.63978,39.15371],[-94.62393,39.1566],[-94.61583,39.16],[-94.60866,39.16104],[-94.60173,39.1596],[-94.60036,39.29675],[-94.60122,39.53017],[-95.10141,39.53325]]]}},{"type":"Feature","id":"MO:207:29183","properties":{"destinationId":"207","locality":"St. Louis","definition":"St. Louis / St. Louis City / St. Charles","state":"MO","stateName":"Missouri","county":"St. Charles County","countyGeoid":"29183","countyGeoids":["29183","29510","29189"],"coverage":"complete-counties","sourceType":"gsa_county_defined_rate_area"},"geometry":{"type":"Polygon","coordinates":[[[-90.96377,38.57814],[-90.96447,38.54724],[-90.94772,38.53894],[-90.93286,38.53502],[-90.9233,38.53413],[-90.91089,38.53592],[-90.89597,38.54059],[-90.87327,38.55389],[-90.84193,38.56596],[-90.81299,38.58555],[-90.77362,38.59462],[-90.76334,38.60195],[-90.75642,38.61067],[-90.7507,38.6251],[-90.74405,38.63089],[-90.74241,38.63456],[-90.7363,38.63674],[-90.73306,38.63929],[-90.73307,38.64095],[-90.72786,38.64324],[-90.71322,38.64522],[-90.70031,38.6591],[-90.68168,38.66429],[-90.67684,38.66885],[-90.67378,38.68007],[-90.66818,38.68487],[-90.6582,38.6882],[-90.63265,38.69108],[-90.6238,38.69028],[-90.61194,38.68439],[-90.59591,38.67992],[-90.57946,38.68149],[-90.56998,38.68407],[-90.55683,38.68152],[-90.54581,38.68413],[-90.53799,38.68904],[-90.53179,38.69898],[-90.53084,38.70901],[-90.53458,38.72542],[-90.5335,38.72856],[-90.52238,38.73656],[-90.5009,38.74597],[-90.49349,38.75084],[-90.48516,38.75954],[-90.47319,38.79098],[-90.44774,38.82156],[-90.44166,38.82632],[-90.43405,38.82874],[-90.41946,38.8284],[-90.38593,38.82183],[-90.3737,38.82229],[-90.36538,38.82558],[-90.34911,38.8417],[-90.34496,38.84937],[-90.34251,38.85855],[-90.34261,38.86655],[-90.33672,38.88272],[-90.33279,38.88737],[-90.32711,38.89028],[-90.31808,38.89174],[-90.31025,38.89108],[-90.29256,38.88615],[-90.28687,38.88269],[-90.27632,38.87208],[-90.26618,38.85784],[-90.26166,38.85415],[-90.22529,38.83757],[-90.19695,38.82115],[-90.1867,38.818],[-90.17651,38.8188],[-90.15516,38.82983],[-90.14025,38.82908],[-90.13347,38.82662],[-90.12461,38.81986],[-90.11771,38.80575],[-90.10911,38.83745],[-90.10941,38.84355],[-90.11333,38.84931],[-90.15151,38.86715],[-90.16641,38.87635],[-90.18691,38.88505],[-90.19761,38.88765],[-90.22304,38.90739],[-90.25025,38.91934],[-90.26279,38.92034],[-90.27747,38.92372],[-90.30945,38.92412],[-90.33353,38.93349],[-90.34644,38.94079],[-90.39582,38.96004],[-90.40637,38.96255],[-90.42473,38.96378],[-90.44008,38.96736],[-90.45079,38.96776],[-90.46241,38.96432],[-90.47212,38.95884],[-90.48242,38.94446],[-90.48272,38.93471],[-90.48697,38.92598],[-90.50745,38.90277],[-90.51696,38.89882],[-90.54403,38.87505],[-90.55569,38.87078],[-90.56656,38.86885],[-90.58339,38.86903],[-90.62512,38.88865],[-90.62848,38.89162],[-90.6359,38.90394],[-90.64729,38.9121],[-90.66347,38.92738],[-90.66343,38.93422],[-90.69158,38.93424],[-90.69658,38.93278],[-90.69804,38.93074],[-90.69748,38.92815],[-90.68958,38.92361],[-90.68434,38.91714],[-90.68456,38.9156],[-90.69719,38.91607],[-90.70382,38.92122],[-90.70732,38.92149],[-90.71431,38.91816],[-90.7175,38.91538],[-90.71574,38.91233],[-90.70623,38.91351],[-90.69932,38.90788],[-90.70815,38.90259],[-90.71065,38.90811],[-90.7142,38.90989],[-90.7239,38.90871],[-90.72286,38.91206],[-90.72458,38.91518],[-90.73367,38.91427],[-90.73574,38.91618],[-90.73462,38.91971],[-90.72413,38.92436],[-90.72472,38.92825],[-90.72884,38.93114],[-90.743,38.93037],[-90.74918,38.92418],[-90.75675,38.91981],[-90.77641,38.92302],[-90.78201,38.91856],[-90.79134,38.9179],[-90.80442,38.91114],[-90.79774,38.90584],[-90.79915,38.90142],[-90.80594,38.90173],[-90.80833,38.89955],[-90.80693,38.89524],[-90.81021,38.8856],[-90.80621,38.87902],[-90.80917,38.8778],[-90.81324,38.87895],[-90.81783,38.87597],[-90.82272,38.87639],[-90.82698,38.87896],[-90.8311,38.87821],[-90.83659,38.88412],[-90.83798,38.88232],[-90.83473,38.88133],[-90.83543,38.87997],[-90.83927,38.87964],[-90.83915,38.88143],[-90.84467,38.88397],[-90.8513,38.88357],[-90.85019,38.88012],[-90.85584,38.88472],[-90.86037,38.88193],[-90.86291,38.88726],[-90.87118,38.88873],[-90.9005,38.88599],[-90.90122,38.88932],[-90.91214,38.89064],[-90.91867,38.88792],[-90.92519,38.88863],[-90.92566,38.88712],[-90.92804,38.88752],[-90.93346,38.88505],[-90.93728,38.88809],[-90.94017,38.88647],[-90.95064,38.89499],[-90.95423,38.89315],[-90.95645,38.89416],[-90.95756,38.89328],[-90.9622,38.7742],[-90.96377,38.57814]]]}},{"type":"Feature","id":"MO:207:29189","properties":{"destinationId":"207","locality":"St. Louis","definition":"St. Louis / St. Louis City / St. Charles","state":"MO","stateName":"Missouri","county":"St. Louis County","countyGeoid":"29189","countyGeoids":["29183","29510","29189"],"coverage":"complete-counties","sourceType":"gsa_county_defined_rate_area"},"geometry":{"type":"Polygon","coordinates":[[[-90.73613,38.46813],[-90.73188,38.48254],[-90.72184,38.48144],[-90.71448,38.47445],[-90.71861,38.47015],[-90.71772,38.46906],[-90.71254,38.46918],[-90.70793,38.47183],[-90.69693,38.47191],[-90.69349,38.4646],[-90.6876,38.45943],[-90.69145,38.45561],[-90.69106,38.45367],[-90.68801,38.45165],[-90.68572,38.45216],[-90.68397,38.45501],[-90.68054,38.45458],[-90.68028,38.45335],[-90.68729,38.44742],[-90.68106,38.44582],[-90.67454,38.44632],[-90.66464,38.44876],[-90.65473,38.45608],[-90.6538,38.45855],[-90.65648,38.46246],[-90.6607,38.47919],[-90.65556,38.48674],[-90.64352,38.48791],[-90.6337,38.48584],[-90.62598,38.47558],[-90.61459,38.47113],[-90.60265,38.47962],[-90.59112,38.50165],[-90.40534,38.5006],[-90.40553,38.49732],[-90.40741,38.49525],[-90.40531,38.48798],[-90.40956,38.4819],[-90.41451,38.48082],[-90.41997,38.4839],[-90.42284,38.4822],[-90.41476,38.46297],[-90.41441,38.45697],[-90.41121,38.45344],[-90.40424,38.45287],[-90.39471,38.45849],[-90.3907,38.45537],[-90.39264,38.45171],[-90.39103,38.45056],[-90.35363,38.45822],[-90.33892,38.45535],[-90.33614,38.45349],[-90.33574,38.4482],[-90.34088,38.44088],[-90.34746,38.43522],[-90.34865,38.42883],[-90.3468,38.4165],[-90.34859,38.40707],[-90.34484,38.39744],[-90.34423,38.39046],[-90.34205,38.38722],[-90.31233,38.41455],[-90.29278,38.42865],[-90.28778,38.43923],[-90.26881,38.50615],[-90.26381,38.52055],[-90.25777,38.53201],[-90.26687,38.53427],[-90.27104,38.53868],[-90.27266,38.5486],[-90.28977,38.55707],[-90.30696,38.57219],[-90.31358,38.57877],[-90.32052,38.59415],[-90.31085,38.61821],[-90.30183,38.65564],[-90.25177,38.71885],[-90.22178,38.73013],[-90.20572,38.74185],[-90.1864,38.76155],[-90.18418,38.77429],[-90.16671,38.77227],[-90.12311,38.79805],[-90.11771,38.80575],[-90.12207,38.81642],[-90.13347,38.82662],[-90.1418,38.82932],[-90.15516,38.82983],[-90.17358,38.82005],[-90.18138,38.81768],[-90.19695,38.82115],[-90.22529,38.83757],[-90.26166,38.85415],[-90.26618,38.85784],[-90.27632,38.87208],[-90.28958,38.88458],[-90.30464,38.88998],[-90.31808,38.89174],[-90.32711,38.89028],[-90.33468,38.88575],[-90.34077,38.87348],[-90.34496,38.84937],[-90.35034,38.84025],[-90.36538,38.82558],[-90.3737,38.82229],[-90.38593,38.82183],[-90.42313,38.82877],[-90.43405,38.82874],[-90.44166,38.82632],[-90.44972,38.81965],[-90.47319,38.79098],[-90.48266,38.76347],[-90.49233,38.75189],[-90.50301,38.74486],[-90.52694,38.73406],[-90.5335,38.72856],[-90.53458,38.72542],[-90.53084,38.70901],[-90.53179,38.69898],[-90.53305,38.69527],[-90.54173,38.68621],[-90.55472,38.68155],[-90.56998,38.68407],[-90.57946,38.68149],[-90.59591,38.67992],[-90.61194,38.68439],[-90.6238,38.69028],[-90.63265,38.69108],[-90.6582,38.6882],[-90.67169,38.68258],[-90.67582,38.6759],[-90.67684,38.66885],[-90.68168,38.66429],[-90.70223,38.65798],[-90.7068,38.65114],[-90.71322,38.64522],[-90.72786,38.64324],[-90.73307,38.64095],[-90.73613,38.46813]]]}},{"type":"Feature","id":"MO:207:29510","properties":{"destinationId":"207","locality":"St. Louis","definition":"St. Louis / St. Louis City / St. Charles","state":"MO","stateName":"Missouri","county":"St. Louis city","countyGeoid":"29510","countyGeoids":["29183","29510","29189"],"coverage":"complete-counties","sourceType":"gsa_county_defined_rate_area"},"geometry":{"type":"Polygon","coordinates":[[[-90.32052,38.59415],[-90.31358,38.57877],[-90.30696,38.57219],[-90.28977,38.55707],[-90.27266,38.5486],[-90.27104,38.53868],[-90.26687,38.53427],[-90.25777,38.53201],[-90.22421,38.57505],[-90.20251,38.58865],[-90.19181,38.59895],[-90.18451,38.61155],[-90.17881,38.62915],[-90.17771,38.64275],[-90.18261,38.66535],[-90.18641,38.67475],[-90.19521,38.68755],[-90.20221,38.69345],[-90.20921,38.70275],[-90.21201,38.71175],[-90.21191,38.71795],[-90.20991,38.72605],[-90.20521,38.73215],[-90.19131,38.74295],[-90.18341,38.74685],[-90.17631,38.75445],[-90.17511,38.76025],[-90.16671,38.77227],[-90.18418,38.77429],[-90.1864,38.76155],[-90.20572,38.74185],[-90.22178,38.73013],[-90.25177,38.71885],[-90.30183,38.65564],[-90.31085,38.61821],[-90.32052,38.59415]]]}}]}