{"type":"FeatureCollection","features":[{"type":"Feature","id":"MS:211:28105","properties":{"destinationId":"211","locality":"Starkville","definition":"Oktibbeha","state":"MS","stateName":"Mississippi","county":"Oktibbeha County","countyGeoid":"28105","countyGeoids":["28105"],"coverage":"complete-counties","sourceType":"gsa_county_defined_rate_area"},"geometry":{"type":"Polygon","coordinates":[[[-89.08865,33.44582],[-89.08826,33.286],[-88.67055,33.28686],[-88.67153,33.56514],[-88.69473,33.56516],[-88.69966,33.56116],[-88.70666,33.55926],[-88.70714,33.56075],[-88.71011,33.55902],[-88.72537,33.56193],[-88.72464,33.56376],[-88.73023,33.56228],[-88.72825,33.56424],[-88.73276,33.56519],[-88.98418,33.56425],[-89.0014,33.56207],[-89.08826,33.56204],[-89.08865,33.44582]]]}},{"type":"Feature","id":"MS:447:28033","properties":{"destinationId":"447","locality":"Southaven","definition":"Desoto","state":"MS","stateName":"Mississippi","county":"DeSoto County","countyGeoid":"28033","countyGeoids":["28033"],"coverage":"complete-counties","sourceType":"gsa_county_defined_rate_area"},"geometry":{"type":"Polygon","coordinates":[[[-90.31774,34.87106],[-90.31489,34.86395],[-90.30478,34.86041],[-90.20213,34.86037],[-90.20246,34.77297],[-90.20116,34.72701],[-90.19962,34.72241],[-90.1962,34.72067],[-90.19856,34.72532],[-90.19541,34.72748],[-90.19558,34.72541],[-90.19246,34.72489],[-90.19283,34.7287],[-90.19164,34.72747],[-90.18863,34.72836],[-90.19006,34.73068],[-90.18724,34.73133],[-90.18719,34.73316],[-90.18382,34.73351],[-90.18711,34.73478],[-90.18887,34.73791],[-90.18794,34.73881],[-90.18607,34.73668],[-90.18127,34.74368],[-90.17839,34.74315],[-90.17663,34.74551],[-90.17442,34.74396],[-90.17283,34.74779],[-90.17623,34.74808],[-90.17448,34.74819],[-90.17373,34.75098],[-90.17522,34.75133],[-90.17498,34.75349],[-90.17144,34.75475],[-90.17251,34.75806],[-90.17148,34.75901],[-90.16999,34.75874],[-90.17031,34.75579],[-90.16824,34.75648],[-90.16813,34.75841],[-90.16392,34.75822],[-90.16085,34.7602],[-90.1618,34.75825],[-90.15861,34.75704],[-90.15749,34.75472],[-90.15319,34.75675],[-90.15417,34.75928],[-90.15101,34.75917],[-90.14991,34.75711],[-90.14933,34.75902],[-90.14546,34.7586],[-90.14467,34.75668],[-90.14278,34.75659],[-90.14344,34.75797],[-90.14026,34.75813],[-90.13898,34.76202],[-90.13512,34.75883],[-90.13582,34.76046],[-90.12891,34.76054],[-90.12714,34.75741],[-90.12544,34.75868],[-90.12367,34.75606],[-90.12142,34.75643],[-90.1211,34.75264],[-90.11724,34.75396],[-90.11483,34.74656],[-90.10992,34.74377],[-90.1115,34.74231],[-90.10711,34.7406],[-90.1104,34.73792],[-90.10625,34.73667],[-90.10698,34.73327],[-90.10521,34.73311],[-90.1052,34.73537],[-90.0999,34.73079],[-90.10031,34.73252],[-90.09399,34.73137],[-90.09343,34.73273],[-90.09102,34.73203],[-90.09062,34.73585],[-90.08387,34.73279],[-90.08402,34.73142],[-90.08088,34.73145],[-90.08298,34.72971],[-90.08119,34.72963],[-90.0811,34.72689],[-90.07466,34.72531],[-90.07439,34.72129],[-90.06931,34.72344],[-90.07082,34.72501],[-90.06979,34.72651],[-90.06057,34.72818],[-90.06123,34.72612],[-90.05705,34.72436],[-90.05993,34.72443],[-90.06031,34.72281],[-90.05802,34.72268],[-90.05964,34.72019],[-90.05281,34.71514],[-90.05405,34.7149],[-90.05401,34.71223],[-90.05267,34.71453],[-90.05159,34.7125],[-90.04936,34.71244],[-90.05009,34.71388],[-90.04818,34.7151],[-90.04766,34.7115],[-90.04508,34.71464],[-90.0448,34.71266],[-90.04319,34.71407],[-90.03732,34.71299],[-90.03748,34.71132],[-90.03936,34.71175],[-90.03826,34.70926],[-90.03299,34.71007],[-90.03288,34.70862],[-90.03005,34.70795],[-90.02736,34.71021],[-90.0239,34.71013],[-90.02387,34.71299],[-90.02179,34.71372],[-90.01958,34.71205],[-90.01933,34.71395],[-90.01797,34.71291],[-90.0114,34.71395],[-90.00739,34.7171],[-90.00094,34.71602],[-90.0003,34.72021],[-89.99733,34.71744],[-89.99525,34.7193],[-89.99536,34.71682],[-89.99327,34.71695],[-89.99444,34.71816],[-89.99263,34.71952],[-89.99115,34.71875],[-89.99094,34.72045],[-89.98885,34.72118],[-89.98664,34.71897],[-89.98566,34.72128],[-89.98268,34.72031],[-89.98235,34.72221],[-89.9843,34.72324],[-89.98185,34.72624],[-89.98048,34.72422],[-89.97981,34.7256],[-89.97412,34.72388],[-89.96885,34.72584],[-89.96406,34.72373],[-89.95412,34.72692],[-89.95571,34.73745],[-89.95176,34.73908],[-89.95123,34.7407],[-89.94858,34.73895],[-89.94637,34.74405],[-89.94392,34.74329],[-89.94413,34.74502],[-89.94057,34.74582],[-89.93959,34.7475],[-89.93838,34.74743],[-89.93896,34.74614],[-89.93482,34.74622],[-89.92989,34.75176],[-89.92552,34.75158],[-89.91891,34.7601],[-89.91548,34.75817],[-89.9145,34.7618],[-89.91607,34.76359],[-89.91301,34.76414],[-89.91286,34.76541],[-89.91621,34.76673],[-89.91067,34.77135],[-89.9122,34.77251],[-89.72344,34.77231],[-89.72432,34.99521],[-89.84849,34.99419],[-90.30836,34.99569],[-90.30132,34.98196],[-90.29606,34.97647],[-90.27071,34.95876],[-90.24594,34.94872],[-90.24376,34.94527],[-90.24133,34.91903],[-90.24321,34.9091],[-90.24907,34.90014],[-90.25786,34.89338],[-90.27687,34.88523],[-90.28971,34.88332],[-90.31774,34.87106]]]}},{"type":"Feature","id":"MS:477:28071","properties":{"destinationId":"477","locality":"Oxford","definition":"Lafayette","state":"MS","stateName":"Mississippi","county":"Lafayette County","countyGeoid":"28071","countyGeoids":["28071"],"coverage":"complete-counties","sourceType":"gsa_county_defined_rate_area"},"geometry":{"type":"Polygon","coordinates":[[[-89.72202,34.4205],[-89.72117,34.33812],[-89.71938,34.33804],[-89.72105,34.19255],[-89.50944,34.19096],[-89.50975,34.16208],[-89.24548,34.16119],[-89.24613,34.49563],[-89.24882,34.49493],[-89.24959,34.49692],[-89.24667,34.49752],[-89.24892,34.49961],[-89.25041,34.49964],[-89.25125,34.49649],[-89.25628,34.49779],[-89.25802,34.49686],[-89.25799,34.50042],[-89.26322,34.50073],[-89.26199,34.50378],[-89.26431,34.50543],[-89.2697,34.50518],[-89.26944,34.5069],[-89.27262,34.50646],[-89.27367,34.50793],[-89.27475,34.50774],[-89.2742,34.50557],[-89.2761,34.50517],[-89.27734,34.5075],[-89.28003,34.50635],[-89.28248,34.50898],[-89.28329,34.50725],[-89.28657,34.5084],[-89.28726,34.50614],[-89.2891,34.5064],[-89.28832,34.50976],[-89.29011,34.51109],[-89.28939,34.513],[-89.29276,34.51579],[-89.29152,34.51681],[-89.2929,34.51715],[-89.29466,34.51474],[-89.29631,34.51625],[-89.29509,34.51838],[-89.2976,34.51932],[-89.29719,34.51725],[-89.3005,34.5135],[-89.30335,34.51664],[-89.30278,34.51816],[-89.31048,34.51757],[-89.31112,34.51999],[-89.31375,34.51808],[-89.31286,34.51952],[-89.31522,34.52146],[-89.31334,34.52314],[-89.31509,34.52436],[-89.3187,34.52024],[-89.32644,34.52313],[-89.32582,34.52597],[-89.33077,34.52315],[-89.33006,34.52624],[-89.33128,34.52723],[-89.3327,34.52455],[-89.33542,34.52351],[-89.33461,34.52259],[-89.33642,34.52215],[-89.33734,34.52481],[-89.33931,34.52336],[-89.34261,34.52442],[-89.34321,34.52115],[-89.34494,34.52594],[-89.34732,34.522],[-89.34964,34.52284],[-89.34989,34.52179],[-89.35368,34.52225],[-89.35357,34.52722],[-89.36278,34.5224],[-89.3622,34.52515],[-89.36441,34.52391],[-89.36585,34.5263],[-89.3667,34.5238],[-89.36424,34.52174],[-89.3642,34.51919],[-89.369,34.52056],[-89.36983,34.51862],[-89.37366,34.51816],[-89.37408,34.52058],[-89.37945,34.51687],[-89.37885,34.51897],[-89.38155,34.52066],[-89.38598,34.51902],[-89.3866,34.52109],[-89.38916,34.52223],[-89.38903,34.52424],[-89.40147,34.52561],[-89.40198,34.52807],[-89.40646,34.52601],[-89.40561,34.52444],[-89.40718,34.52242],[-89.41042,34.52279],[-89.41188,34.52601],[-89.41488,34.52219],[-89.42446,34.51913],[-89.434,34.51991],[-89.4402,34.52345],[-89.44197,34.53053],[-89.45566,34.53251],[-89.46052,34.53857],[-89.46502,34.54072],[-89.46836,34.54627],[-89.47356,34.5467],[-89.47666,34.54899],[-89.475,34.55157],[-89.47665,34.55402],[-89.72134,34.55427],[-89.72202,34.4205]]]}}]}