{"type":"FeatureCollection","features":[{"type":"Feature","id":"MT:213:30063","properties":{"destinationId":"213","locality":"Missoula","definition":"Missoula","state":"MT","stateName":"Montana","county":"Missoula County","countyGeoid":"30063","countyGeoids":["30063"],"coverage":"complete-counties","sourceType":"gsa_county_defined_rate_area"},"geometry":{"type":"Polygon","coordinates":[[[-114.7972,47.26892],[-114.79714,47.24003],[-114.77585,47.24005],[-114.77583,47.22557],[-114.71227,47.22559],[-114.71228,47.18219],[-114.69136,47.18227],[-114.6914,47.1672],[-114.65023,47.16716],[-114.65047,47.13824],[-114.62915,47.13826],[-114.62921,47.12372],[-114.58674,47.12376],[-114.58667,47.09485],[-114.56565,47.09485],[-114.56609,47.06738],[-114.48369,47.06751],[-114.48323,47.02336],[-114.41953,47.02325],[-114.41937,47.0089],[-114.45136,47.0089],[-114.45126,46.9932],[-114.47502,46.99985],[-114.48613,46.9992],[-114.50265,47.00914],[-114.52536,47.00925],[-114.52533,46.99233],[-114.54717,46.99244],[-114.54644,46.96337],[-114.56613,46.9634],[-114.56626,46.83356],[-114.549,46.83363],[-114.54913,46.74737],[-114.67492,46.74741],[-114.67494,46.73683],[-114.66457,46.73908],[-114.65854,46.73451],[-114.65075,46.73346],[-114.64682,46.73088],[-114.64463,46.72283],[-114.63892,46.72139],[-114.63334,46.71557],[-114.62464,46.71179],[-114.62153,46.70788],[-114.62418,46.69547],[-114.62317,46.69164],[-114.63184,46.68395],[-114.64166,46.67919],[-114.64023,46.6754],[-114.64225,46.67362],[-114.64182,46.67253],[-114.63347,46.67235],[-114.63306,46.66998],[-114.63979,46.66598],[-114.63578,46.65948],[-114.62102,46.65798],[-114.61446,46.65468],[-114.6153,46.65274],[-114.61198,46.65044],[-114.61166,46.64745],[-114.61635,46.64365],[-114.61415,46.63906],[-114.60527,46.63582],[-114.59987,46.63613],[-114.59234,46.63284],[-114.58896,46.63517],[-114.58338,46.63323],[-114.57075,46.64317],[-114.56334,46.64084],[-114.55561,46.64459],[-114.54703,46.64468],[-114.5413,46.64966],[-114.53285,46.64602],[-114.52851,46.64231],[-114.52138,46.64018],[-114.50857,46.63939],[-114.50122,46.64135],[-114.49801,46.63766],[-114.48738,46.63313],[-114.4671,46.63176],[-114.45261,46.64187],[-114.45448,46.6442],[-114.45348,46.64921],[-114.44938,46.64942],[-114.42442,46.66065],[-114.4131,46.65677],[-114.41102,46.65741],[-114.4099,46.6612],[-114.40426,46.65951],[-114.39451,46.66485],[-114.38281,46.66279],[-114.37806,46.66713],[-114.36099,46.66891],[-114.35853,46.6707],[-114.3529,46.66353],[-114.33776,46.66244],[-114.33266,46.66058],[-113.83241,46.66102],[-113.79358,46.66086],[-113.79356,46.65817],[-113.668,46.65837],[-113.66817,46.71623],[-113.55153,46.71651],[-113.55152,46.73099],[-113.54511,46.73099],[-113.54508,46.74462],[-113.47986,46.74471],[-113.47983,46.80277],[-113.41708,46.8025],[-113.4166,46.83211],[-113.3029,46.83216],[-113.30294,47.17964],[-113.46645,47.17919],[-113.46648,47.60006],[-113.94874,47.59999],[-113.94589,47.59694],[-113.94191,47.59651],[-113.93714,47.59772],[-113.93488,47.59996],[-113.93029,47.5985],[-113.92801,47.59375],[-113.93037,47.59002],[-113.92856,47.58641],[-113.92909,47.58269],[-113.93226,47.57716],[-113.92411,47.5655],[-113.92498,47.56284],[-113.92093,47.55785],[-113.9195,47.54941],[-113.9226,47.54828],[-113.92219,47.54497],[-113.92806,47.54292],[-113.92969,47.53992],[-113.92334,47.53634],[-113.92368,47.53066],[-113.92187,47.52832],[-113.92531,47.52549],[-113.92767,47.52057],[-113.90858,47.51444],[-113.91153,47.51139],[-113.91539,47.50028],[-113.92656,47.49812],[-113.93042,47.50026],[-113.94247,47.4928],[-113.93856,47.48504],[-113.94084,47.48416],[-113.94289,47.47968],[-113.9486,47.47835],[-113.95117,47.47602],[-113.94838,47.47352],[-113.93929,47.47145],[-113.92878,47.4659],[-113.93137,47.46392],[-113.931,47.45991],[-113.93241,47.4576],[-113.91969,47.45376],[-113.91359,47.44956],[-113.90268,47.44671],[-113.90071,47.44175],[-113.89591,47.43858],[-113.8949,47.43368],[-113.89083,47.43169],[-113.88924,47.42364],[-113.89134,47.41678],[-113.88677,47.41098],[-113.88595,47.40709],[-113.87879,47.40088],[-113.87445,47.39354],[-113.87111,47.39197],[-113.87075,47.38472],[-113.87518,47.37638],[-113.87588,47.37103],[-113.88621,47.36926],[-113.88723,47.35991],[-113.89315,47.35934],[-113.88904,47.35501],[-113.88501,47.34146],[-113.88184,47.33852],[-113.88698,47.32918],[-113.88661,47.31827],[-113.90063,47.31314],[-113.90068,47.31132],[-113.89514,47.30856],[-113.88274,47.30807],[-113.87765,47.3045],[-113.87336,47.29887],[-113.87437,47.2943],[-113.87264,47.28936],[-113.87077,47.28816],[-113.86496,47.28891],[-113.86132,47.28627],[-113.85538,47.285],[-113.85217,47.28157],[-113.8526,47.27917],[-113.84602,47.2772],[-113.84516,47.27359],[-113.84273,47.27188],[-113.83531,47.27155],[-113.83044,47.27419],[-113.82435,47.27441],[-113.82434,47.26868],[-113.82117,47.2687],[-113.82145,47.18171],[-113.93357,47.18172],[-113.9335,47.13829],[-114.18955,47.13781],[-114.19161,47.13888],[-114.20016,47.13719],[-114.2062,47.13083],[-114.2121,47.12771],[-114.22381,47.13237],[-114.23609,47.1343],[-114.25358,47.12101],[-114.26415,47.12107],[-114.2869,47.12605],[-114.2926,47.12569],[-114.29356,47.12921],[-114.3026,47.13627],[-114.31332,47.13716],[-114.3231,47.14531],[-114.32857,47.1466],[-114.33308,47.14524],[-114.33589,47.14944],[-114.34441,47.15515],[-114.35592,47.1579],[-114.35214,47.16904],[-114.34297,47.17033],[-114.33887,47.17246],[-114.34611,47.17624],[-114.34754,47.18286],[-114.35197,47.18636],[-114.35384,47.191],[-114.35423,47.1892],[-114.36064,47.18712],[-114.37478,47.18811],[-114.37698,47.18987],[-114.38127,47.18805],[-114.39056,47.19452],[-114.40336,47.19684],[-114.42386,47.21009],[-114.43348,47.20956],[-114.43664,47.21125],[-114.45476,47.2082],[-114.45526,47.21175],[-114.46614,47.2187],[-114.47563,47.21832],[-114.48509,47.22036],[-114.49336,47.2194],[-114.50152,47.22724],[-114.5087,47.22732],[-114.51712,47.23011],[-114.53233,47.24039],[-114.54348,47.24014],[-114.55036,47.24965],[-114.55036,47.25172],[-114.55955,47.25185],[-114.56813,47.25549],[-114.59346,47.25709],[-114.60191,47.26045],[-114.6166,47.26244],[-114.63142,47.26846],[-114.63664,47.26593],[-114.65322,47.27053],[-114.66008,47.26888],[-114.68721,47.27434],[-114.69521,47.2687],[-114.69855,47.26376],[-114.7044,47.26027],[-114.70885,47.25469],[-114.71545,47.25419],[-114.72414,47.25944],[-114.73716,47.26276],[-114.75165,47.26381],[-114.76119,47.25993],[-114.76683,47.26038],[-114.78314,47.26385],[-114.78751,47.26838],[-114.7972,47.26892]]]}},{"type":"Feature","id":"MT:215:30031","properties":{"destinationId":"215","locality":"Big Sky / West Yellowstone/Gardiner","definition":"Gallatin/Park","state":"MT","stateName":"Montana","county":"Gallatin County","countyGeoid":"30031","countyGeoids":["30031","30067"],"coverage":"complete-counties","sourceType":"gsa_county_defined_rate_area"},"geometry":{"type":"Polygon","coordinates":[[[-111.80526,45.79831],[-111.80538,45.78675],[-111.76332,45.78683],[-111.76327,45.77255],[-111.72185,45.77237],[-111.72168,45.74328],[-111.65974,45.74334],[-111.65974,45.72883],[-111.63974,45.72882],[-111.63972,45.7143],[-111.61904,45.71436],[-111.61904,45.69986],[-111.59832,45.69996],[-111.59824,45.68512],[-111.57769,45.68525],[-111.5777,45.67077],[-111.55701,45.671],[-111.55697,45.65643],[-111.53632,45.65683],[-111.53624,45.64226],[-111.35138,45.64194],[-111.35003,45.35055],[-111.37303,45.35052],[-111.37222,44.9118],[-111.37748,44.91179],[-111.37715,44.75116],[-111.36627,44.74223],[-111.3667,44.73852],[-111.35515,44.7272],[-111.34807,44.72531],[-111.33736,44.73317],[-111.32885,44.73151],[-111.32305,44.72856],[-111.32248,44.71878],[-111.31788,44.71448],[-111.29604,44.70205],[-111.29484,44.70006],[-111.29724,44.6936],[-111.29634,44.69106],[-111.29047,44.68602],[-111.2803,44.68297],[-111.27618,44.67831],[-111.27684,44.67588],[-111.2668,44.66751],[-111.26721,44.66464],[-111.27178,44.66254],[-111.27561,44.65667],[-111.28047,44.65478],[-111.27848,44.65126],[-111.26882,44.64718],[-111.25318,44.65117],[-111.24924,44.6441],[-111.24237,44.64303],[-111.22405,44.62489],[-111.22014,44.623],[-111.22723,44.61834],[-111.24033,44.61369],[-111.23509,44.60542],[-111.2356,44.60104],[-111.23227,44.59755],[-111.23257,44.58936],[-111.23081,44.58771],[-111.23206,44.58504],[-111.2275,44.57717],[-111.22044,44.57687],[-111.21903,44.57542],[-111.20149,44.5759],[-111.18103,44.56923],[-111.18075,44.55488],[-111.17376,44.54933],[-111.15889,44.54626],[-111.15057,44.53497],[-111.14081,44.53584],[-111.13138,44.53243],[-111.13862,44.51685],[-111.13066,44.50013],[-111.12838,44.49973],[-111.12738,44.49762],[-111.11506,44.49385],[-111.11284,44.49047],[-111.10721,44.48693],[-111.10092,44.48778],[-111.07479,44.48345],[-111.06467,44.47864],[-111.05578,44.4768],[-111.05243,44.47841],[-111.05456,45.00096],[-111.04507,45.00093],[-111.04661,45.17633],[-111.03861,45.17638],[-111.03817,45.35139],[-110.9179,45.35127],[-110.9175,45.43864],[-110.91905,45.43864],[-110.91922,45.52486],[-110.85825,45.52488],[-110.85738,45.59065],[-110.79477,45.59068],[-110.79526,45.78632],[-110.7894,45.78631],[-110.78913,45.80078],[-110.78848,45.90492],[-110.79256,46.01849],[-110.79054,46.04695],[-110.79077,46.14185],[-110.78403,46.14183],[-110.78383,46.1927],[-111.15954,46.19283],[-111.15954,46.18777],[-111.34665,46.18778],[-111.34666,46.1372],[-111.34942,46.1372],[-111.34937,46.12261],[-111.3716,46.11369],[-111.3734,46.11473],[-111.37863,46.1133],[-111.38103,46.11058],[-111.38144,46.10665],[-111.38408,46.10422],[-111.39404,46.10899],[-111.39852,46.10585],[-111.39124,46.09209],[-111.39375,46.08945],[-111.4058,46.0851],[-111.41898,46.06654],[-111.42383,46.06195],[-111.42341,46.047],[-111.42477,46.0415],[-111.4222,46.02901],[-111.4296,46.01898],[-111.42158,46.01571],[-111.41586,46.00168],[-111.41962,45.99632],[-111.42385,45.99395],[-111.44343,45.99081],[-111.45164,45.9976],[-111.45709,45.99884],[-111.46064,45.99704],[-111.46461,45.98453],[-111.46414,45.96364],[-111.46697,45.95624],[-111.47128,45.95148],[-111.4931,45.93909],[-111.49543,45.93443],[-111.49906,45.93238],[-111.50577,45.9323],[-111.50761,45.93076],[-111.50584,45.92682],[-111.50726,45.92586],[-111.51338,45.92855],[-111.51647,45.92639],[-111.53474,45.92414],[-111.5329,45.91854],[-111.53686,45.91615],[-111.53985,45.91966],[-111.54288,45.91943],[-111.54281,45.91319],[-111.54497,45.91078],[-111.54872,45.90984],[-111.56071,45.9147],[-111.56681,45.90962],[-111.57385,45.9102],[-111.57637,45.90774],[-111.58736,45.9068],[-111.59636,45.89695],[-111.60852,45.88866],[-111.61291,45.87452],[-111.62284,45.86884],[-111.62574,45.86177],[-111.63237,45.86326],[-111.63712,45.861],[-111.6374,45.85719],[-111.64015,45.8526],[-111.63736,45.84872],[-111.63981,45.84747],[-111.64595,45.85113],[-111.65047,45.85093],[-111.65223,45.84603],[-111.65598,45.84294],[-111.65487,45.84012],[-111.65672,45.83432],[-111.66496,45.83308],[-111.66125,45.82826],[-111.67588,45.82205],[-111.68083,45.82158],[-111.68454,45.81572],[-111.69022,45.81422],[-111.69156,45.80842],[-111.69497,45.8059],[-111.69774,45.80054],[-111.70302,45.79662],[-111.72699,45.79347],[-111.73214,45.79782],[-111.73827,45.79777],[-111.74546,45.80159],[-111.75586,45.80423],[-111.76381,45.79992],[-111.77363,45.79865],[-111.78821,45.79251],[-111.79355,45.79511],[-111.80174,45.79536],[-111.80526,45.79831]]]}},{"type":"Feature","id":"MT:215:30067","properties":{"destinationId":"215","locality":"Big Sky / West Yellowstone/Gardiner","definition":"Gallatin/Park","state":"MT","stateName":"Montana","county":"Park County","countyGeoid":"30067","countyGeoids":["30031","30067"],"coverage":"complete-counties","sourceType":"gsa_county_defined_rate_area"},"geometry":{"type":"Polygon","coordinates":[[[-111.04661,45.17633],[-111.04507,45.00093],[-110.79012,45.00088],[-110.70448,44.99217],[-110.44574,44.99368],[-110.40712,44.9995],[-110.3252,44.99968],[-110.28477,44.99736],[-110.18322,44.99695],[-110.10578,45.00353],[-109.79849,45.00225],[-109.79867,45.17213],[-110.22805,45.17213],[-110.22824,45.34876],[-110.21941,45.3488],[-110.21828,45.66959],[-110.22086,45.71144],[-110.22091,45.78497],[-110.29266,45.78506],[-110.29275,46.13385],[-110.2819,46.13384],[-110.28192,46.1844],[-110.40928,46.18437],[-110.40927,46.19206],[-110.78383,46.1927],[-110.78403,46.14183],[-110.79077,46.14185],[-110.79054,46.04695],[-110.79256,46.01849],[-110.78848,45.90492],[-110.78913,45.80078],[-110.7894,45.78631],[-110.79526,45.78632],[-110.79477,45.59068],[-110.85738,45.59065],[-110.85825,45.52488],[-110.91922,45.52486],[-110.91905,45.43864],[-110.9175,45.43864],[-110.9179,45.35127],[-111.03817,45.35139],[-111.03861,45.17638],[-111.04661,45.17633]]]}},{"type":"Feature","id":"MT:496:30029","properties":{"destinationId":"496","locality":"Kalispell/Whitefish","definition":"Flathead","state":"MT","stateName":"Montana","county":"Flathead County","countyGeoid":"30029","countyGeoids":["30029"],"coverage":"complete-counties","sourceType":"gsa_county_defined_rate_area"},"geometry":{"type":"Polygon","coordinates":[[[-115.02008,48.22595],[-115.0197,48.13914],[-115.01009,48.13912],[-115.01068,48.00314],[-114.98943,48.00314],[-114.98934,47.87281],[-114.86112,47.8728],[-114.86112,47.87578],[-114.60458,47.8756],[-114.60446,47.78987],[-114.47729,47.78994],[-114.47745,47.8754],[-114.49215,47.87541],[-114.49219,47.96199],[-114.03854,47.96255],[-114.04274,47.97151],[-114.03898,47.98237],[-114.03899,47.98754],[-114.04414,47.9966],[-114.05036,48.00059],[-114.0576,48.0002],[-114.05732,47.99765],[-114.06242,47.99021],[-114.06391,47.99809],[-114.07828,48.02315],[-114.05024,48.02299],[-114.0499,48.03734],[-114.02833,48.03734],[-114.02904,48.05165],[-113.88454,48.0519],[-113.88643,48.05092],[-113.88614,48.0477],[-113.88296,48.04483],[-113.87712,48.04164],[-113.868,48.04319],[-113.86649,48.04145],[-113.87023,48.03717],[-113.86984,48.03446],[-113.86561,48.03228],[-113.85923,48.02552],[-113.85835,48.02247],[-113.85932,48.01922],[-113.86429,48.01846],[-113.86537,48.01414],[-113.86264,48.0073],[-113.85713,48.00141],[-113.85541,47.99611],[-113.84461,47.98629],[-113.84506,47.98155],[-113.8422,47.97824],[-113.83295,47.97641],[-113.82977,47.98108],[-113.82168,47.9787],[-113.82033,47.98139],[-113.81826,47.97995],[-113.81385,47.98318],[-113.80832,47.97974],[-113.80368,47.98021],[-113.80285,47.97565],[-113.79611,47.97212],[-113.79567,47.96822],[-113.78926,47.9688],[-113.78205,47.96457],[-113.77815,47.95906],[-113.77234,47.95797],[-113.7724,47.95337],[-113.77421,47.95045],[-113.77036,47.94766],[-113.76239,47.95179],[-113.75277,47.95118],[-113.74718,47.95295],[-113.72829,47.9342],[-113.72812,47.92617],[-113.72456,47.92107],[-113.7185,47.91673],[-113.70881,47.9172],[-113.70156,47.91553],[-113.69873,47.91675],[-113.69476,47.90868],[-113.68477,47.90169],[-113.67201,47.89635],[-113.66724,47.88954],[-113.66529,47.8829],[-113.66726,47.8817],[-113.66583,47.87245],[-113.6749,47.86581],[-113.6757,47.86028],[-113.67188,47.85485],[-113.67097,47.84874],[-113.66881,47.84732],[-113.66936,47.84279],[-113.6662,47.84065],[-113.67337,47.83091],[-113.67346,47.82657],[-113.67092,47.82073],[-113.66747,47.81893],[-113.66703,47.81486],[-113.66959,47.81232],[-113.67736,47.81179],[-113.68083,47.80891],[-113.68186,47.80202],[-113.68056,47.79956],[-113.68219,47.79829],[-113.6819,47.79619],[-113.68101,47.7946],[-113.67535,47.7934],[-113.67064,47.78315],[-113.65836,47.77718],[-113.65293,47.77672],[-113.65268,47.77381],[-113.64666,47.76483],[-113.64703,47.76035],[-113.64974,47.75585],[-113.65572,47.75066],[-113.66257,47.74854],[-113.66383,47.74488],[-113.65949,47.73531],[-113.65107,47.73182],[-113.6442,47.72591],[-113.64059,47.72],[-113.6267,47.72033],[-113.61706,47.72367],[-113.60392,47.72144],[-113.60454,47.71556],[-113.60184,47.70522],[-113.60285,47.70205],[-113.59865,47.69746],[-113.59969,47.68808],[-113.59811,47.68315],[-113.60368,47.67208],[-113.60595,47.66318],[-113.61751,47.66186],[-113.61891,47.65929],[-113.62266,47.65866],[-113.62606,47.64766],[-113.6237,47.63615],[-113.62907,47.62695],[-113.62509,47.62202],[-113.62823,47.61778],[-113.62911,47.61018],[-113.63408,47.60003],[-113.32584,47.60016],[-113.32584,47.59551],[-113.14437,47.59551],[-113.1472,47.60246],[-113.14629,47.60751],[-113.13912,47.61784],[-113.13576,47.62032],[-113.13862,47.62392],[-113.14436,47.62669],[-113.14448,47.63722],[-113.1389,47.63926],[-113.13262,47.63919],[-113.13029,47.64158],[-113.13018,47.64463],[-113.12811,47.64661],[-113.12847,47.66105],[-113.13537,47.66339],[-113.1409,47.6686],[-113.14069,47.6713],[-113.14641,47.67647],[-113.1491,47.68692],[-113.15781,47.69579],[-113.16022,47.70875],[-113.16359,47.71289],[-113.16581,47.71976],[-113.16556,47.72796],[-113.16412,47.73002],[-113.15455,47.73246],[-113.14916,47.73595],[-113.14243,47.74407],[-113.13799,47.74579],[-113.12186,47.74159],[-113.09789,47.74445],[-113.09407,47.74358],[-113.081,47.74992],[-113.07986,47.75783],[-113.08322,47.76036],[-113.08104,47.76376],[-113.08446,47.76837],[-113.08259,47.77306],[-113.07263,47.77347],[-113.06645,47.77621],[-113.06749,47.78008],[-113.0615,47.78816],[-113.06683,47.79924],[-113.06478,47.80406],[-113.05997,47.80806],[-113.06406,47.81349],[-113.06238,47.82201],[-113.06934,47.82925],[-113.06585,47.8345],[-113.06643,47.83812],[-113.05819,47.8425],[-113.0578,47.85402],[-113.06078,47.85773],[-113.05813,47.87082],[-113.06528,47.87736],[-113.06328,47.88564],[-113.0687,47.88678],[-113.07731,47.89187],[-113.08268,47.89314],[-113.08901,47.89211],[-113.09252,47.89613],[-113.09096,47.90096],[-113.09334,47.90797],[-113.08655,47.91062],[-113.08663,47.91818],[-113.069,47.92338],[-113.06553,47.92659],[-113.0596,47.92504],[-113.04573,47.92712],[-113.04283,47.9256],[-113.02212,47.9271],[-113.021,47.9276],[-113.0216,47.93012],[-113.01543,47.93714],[-113.01379,47.94148],[-113.00902,47.94334],[-112.99838,47.94408],[-112.98176,47.95529],[-112.9581,47.95147],[-112.95163,47.94481],[-112.9471,47.94698],[-112.93312,47.94439],[-112.91259,47.94641],[-112.9078,47.95098],[-112.90903,47.95229],[-112.90621,47.95741],[-112.90593,47.96232],[-112.90283,47.96259],[-112.90041,47.96477],[-112.8979,47.97245],[-112.89231,47.97636],[-112.88754,47.97495],[-112.87893,47.97571],[-112.8787,47.97716],[-112.888,47.99239],[-112.89529,48.01033],[-112.89666,48.01902],[-112.90392,48.0242],[-112.90767,48.02959],[-112.91592,48.02854],[-112.92146,48.03219],[-112.927,48.03167],[-112.93569,48.03515],[-112.94707,48.03098],[-112.95003,48.03353],[-112.94967,48.03736],[-112.95194,48.04076],[-112.95072,48.04998],[-112.94565,48.05314],[-112.93713,48.05552],[-112.93777,48.06093],[-112.94252,48.06361],[-112.95289,48.06561],[-112.95976,48.06975],[-112.96371,48.07491],[-112.96839,48.0746],[-112.97087,48.07276],[-112.98177,48.07376],[-112.98148,48.07772],[-112.97818,48.0802],[-112.98286,48.08644],[-112.97899,48.08885],[-112.99424,48.09851],[-112.99609,48.10609],[-112.99071,48.1078],[-112.99324,48.11486],[-112.98337,48.11776],[-112.98493,48.12046],[-112.99542,48.12548],[-113.00062,48.13073],[-113.00994,48.12823],[-113.01678,48.13245],[-113.02116,48.12948],[-113.02623,48.12963],[-113.03062,48.13331],[-113.03937,48.12959],[-113.03994,48.12545],[-113.05118,48.12131],[-113.05564,48.12486],[-113.0538,48.12804],[-113.05606,48.13352],[-113.0528,48.14034],[-113.06284,48.14928],[-113.06982,48.15275],[-113.06829,48.14841],[-113.09044,48.13658],[-113.09685,48.13917],[-113.10569,48.13718],[-113.11232,48.13885],[-113.11647,48.13726],[-113.12391,48.13812],[-113.12901,48.13532],[-113.13477,48.13836],[-113.13085,48.14014],[-113.13079,48.14546],[-113.13658,48.15044],[-113.1385,48.15032],[-113.14192,48.15335],[-113.15228,48.15124],[-113.16155,48.158],[-113.1662,48.16546],[-113.17505,48.16928],[-113.18175,48.17474],[-113.18355,48.17461],[-113.18497,48.17147],[-113.18874,48.17266],[-113.19125,48.17566],[-113.19213,48.17123],[-113.19653,48.16828],[-113.20269,48.16904],[-113.20893,48.16422],[-113.22057,48.16998],[-113.22419,48.16995],[-113.22687,48.17183],[-113.23165,48.17108],[-113.23564,48.17742],[-113.23454,48.18013],[-113.23072,48.182],[-113.23099,48.18547],[-113.23459,48.19009],[-113.23292,48.19463],[-113.23554,48.20083],[-113.23458,48.204],[-113.23762,48.21063],[-113.23566,48.21221],[-113.23685,48.218],[-113.22586,48.22493],[-113.22892,48.22941],[-113.22588,48.23165],[-113.22768,48.23575],[-113.23426,48.23857],[-113.23678,48.24721],[-113.24157,48.24797],[-113.24979,48.25521],[-113.25825,48.25514],[-113.26761,48.25997],[-113.27496,48.25937],[-113.28112,48.26337],[-113.28958,48.26534],[-113.28848,48.26974],[-113.29363,48.27532],[-113.29797,48.28434],[-113.32741,48.2894],[-113.3298,48.29118],[-113.32965,48.29521],[-113.33376,48.29817],[-113.34225,48.2992],[-113.34296,48.30212],[-113.348,48.30311],[-113.34752,48.30503],[-113.34927,48.30551],[-113.34833,48.30728],[-113.34998,48.30821],[-113.34791,48.31107],[-113.3548,48.3165],[-113.36538,48.31956],[-113.36706,48.32239],[-113.37427,48.32393],[-113.37391,48.3313],[-113.38714,48.34215],[-113.37884,48.34579],[-113.3703,48.35379],[-113.36351,48.3556],[-113.35153,48.36185],[-113.33916,48.37134],[-113.33401,48.38194],[-113.33342,48.38796],[-113.34689,48.39444],[-113.35111,48.40594],[-113.34839,48.41276],[-113.35586,48.42158],[-113.35638,48.42409],[-113.37221,48.42207],[-113.38161,48.41707],[-113.38779,48.41632],[-113.41102,48.41954],[-113.42469,48.43064],[-113.43898,48.43481],[-113.44577,48.44206],[-113.45103,48.44326],[-113.45236,48.44578],[-113.46457,48.44542],[-113.47296,48.4521],[-113.47916,48.45312],[-113.48084,48.45966],[-113.47701,48.4629],[-113.47367,48.46985],[-113.46658,48.47453],[-113.47182,48.48758],[-113.46605,48.49817],[-113.47289,48.50237],[-113.47365,48.50479],[-113.47282,48.51387],[-113.47135,48.5156],[-113.47269,48.52501],[-113.46864,48.53025],[-113.46986,48.5359],[-113.46737,48.54756],[-113.47338,48.55248],[-113.48422,48.55395],[-113.49229,48.55233],[-113.50206,48.55809],[-113.51032,48.55982],[-113.5169,48.57292],[-113.53652,48.57804],[-113.54385,48.58702],[-113.5471,48.58477],[-113.55849,48.5838],[-113.57206,48.57897],[-113.57835,48.58424],[-113.58648,48.58353],[-113.58972,48.58178],[-113.59295,48.57698],[-113.60419,48.57539],[-113.61219,48.57855],[-113.61774,48.5886],[-113.63226,48.59882],[-113.64127,48.60055],[-113.65236,48.59085],[-113.66356,48.58564],[-113.67976,48.59339],[-113.68519,48.59419],[-113.69353,48.59268],[-113.70792,48.59471],[-113.71985,48.6006],[-113.72448,48.60006],[-113.73455,48.60892],[-113.75045,48.61434],[-113.75404,48.61854],[-113.74749,48.624],[-113.7467,48.63138],[-113.74217,48.63555],[-113.74668,48.63948],[-113.74557,48.65277],[-113.74144,48.65562],[-113.73907,48.66315],[-113.72589,48.67146],[-113.73145,48.67515],[-113.73204,48.67791],[-113.73789,48.68454],[-113.73675,48.68619],[-113.73984,48.68882],[-113.74055,48.69291],[-113.71982,48.69489],[-113.71315,48.69942],[-113.70996,48.70418],[-113.70711,48.7141],[-113.70278,48.71638],[-113.70266,48.71794],[-113.70294,48.71986],[-113.70965,48.72411],[-113.70711,48.73082],[-113.71489,48.74259],[-113.72746,48.74522],[-113.7355,48.7494],[-113.74135,48.75725],[-113.74361,48.76226],[-113.74271,48.76522],[-113.76165,48.7733],[-113.76653,48.78513],[-113.77166,48.78776],[-113.77079,48.78933],[-113.77374,48.79722],[-113.77281,48.80084],[-113.76396,48.8037],[-113.76019,48.81042],[-113.76124,48.81283],[-113.76021,48.81572],[-113.75694,48.81832],[-113.77118,48.82347],[-113.78553,48.83294],[-113.78656,48.84006],[-113.79054,48.84553],[-113.79727,48.84389],[-113.80563,48.83887],[-113.81075,48.83858],[-113.81491,48.8397],[-113.81806,48.84271],[-113.81872,48.84815],[-113.83708,48.85075],[-113.84159,48.85584],[-113.86548,48.84726],[-113.87331,48.84194],[-113.87571,48.83727],[-113.89026,48.84157],[-113.89422,48.84549],[-113.90635,48.84659],[-113.91162,48.85],[-113.91474,48.84333],[-113.91466,48.83976],[-113.91868,48.83504],[-113.93583,48.82587],[-113.94341,48.82581],[-113.94322,48.82361],[-113.9477,48.82065],[-113.95686,48.81747],[-113.96639,48.82376],[-113.9708,48.82326],[-113.97231,48.82169],[-113.97162,48.81872],[-113.9739,48.81888],[-113.9809,48.82577],[-114.00224,48.83187],[-114.00414,48.83322],[-113.99999,48.83639],[-113.99914,48.83902],[-113.99286,48.83901],[-113.98953,48.84098],[-113.98926,48.84575],[-113.99303,48.85412],[-114.00665,48.86496],[-114.01723,48.86475],[-114.02468,48.87074],[-114.0311,48.87993],[-114.05806,48.88906],[-114.05446,48.89505],[-114.04632,48.89406],[-114.03806,48.89536],[-114.01887,48.90303],[-114.0136,48.91008],[-114.01658,48.91546],[-114.01514,48.92521],[-114.01974,48.92678],[-114.02505,48.93346],[-114.03623,48.93142],[-114.04219,48.93206],[-114.04561,48.93364],[-114.04762,48.93671],[-114.04192,48.94063],[-114.04247,48.94589],[-114.02121,48.96134],[-114.02796,48.96473],[-114.05036,48.96337],[-114.05215,48.97077],[-114.05775,48.97668],[-114.05839,48.9799],[-114.05562,48.98234],[-114.05645,48.9861],[-114.06531,48.99222],[-114.06578,48.99603],[-114.06818,48.99892],[-114.37598,49.00139],[-114.72705,49.00059],[-114.73332,48.99768],[-114.7394,48.99083],[-114.73551,48.98668],[-114.73507,48.98279],[-114.72457,48.97983],[-114.69686,48.97994],[-114.68497,48.97336],[-114.68489,48.97153],[-114.68682,48.96588],[-114.69133,48.96445],[-114.69297,48.95918],[-114.69792,48.95566],[-114.69699,48.9539],[-114.70564,48.95148],[-114.70991,48.94556],[-114.71881,48.93868],[-114.71697,48.93506],[-114.71813,48.93177],[-114.70932,48.92998],[-114.70798,48.92741],[-114.70712,48.91848],[-114.70391,48.91027],[-114.70333,48.90353],[-114.70565,48.89698],[-114.71057,48.89095],[-114.70982,48.88828],[-114.69365,48.8742],[-114.69208,48.86672],[-114.68942,48.86389],[-114.68933,48.85505],[-114.69083,48.85157],[-114.69354,48.85005],[-114.69176,48.84243],[-114.70526,48.83855],[-114.70557,48.83519],[-114.70801,48.83247],[-114.72268,48.83161],[-114.72671,48.82832],[-114.7256,48.82634],[-114.72739,48.8188],[-114.73168,48.81509],[-114.73248,48.8093],[-114.72991,48.80756],[-114.72268,48.80675],[-114.71454,48.8016],[-114.70392,48.80281],[-114.69741,48.8007],[-114.69008,48.80111],[-114.68153,48.79714],[-114.67216,48.79929],[-114.67338,48.7894],[-114.6648,48.78556],[-114.66182,48.78106],[-114.6561,48.78206],[-114.64857,48.77936],[-114.6405,48.77021],[-114.6404,48.76715],[-114.63621,48.76282],[-114.63551,48.75936],[-114.61814,48.75956],[-114.61266,48.7547],[-114.61206,48.75186],[-114.61906,48.74869],[-114.6192,48.7426],[-114.62582,48.73831],[-114.63184,48.73728],[-114.63343,48.73436],[-114.63916,48.73193],[-114.6433,48.73276],[-114.67102,48.72785],[-114.67911,48.72431],[-114.68083,48.72062],[-114.68379,48.71899],[-114.68304,48.71563],[-114.69126,48.7089],[-114.68999,48.70362],[-114.68264,48.7007],[-114.68077,48.6982],[-114.68091,48.69463],[-114.68421,48.69434],[-114.68623,48.69247],[-114.68679,48.6879],[-114.69213,48.68458],[-114.69245,48.68014],[-114.69023,48.67755],[-114.68176,48.67534],[-114.67654,48.67657],[-114.66418,48.67141],[-114.65592,48.67057],[-114.64187,48.66423],[-114.63901,48.65888],[-114.88859,48.65853],[-114.88868,48.57355],[-114.8498,48.5735],[-114.8481,48.22612],[-115.02008,48.22595]]]}}]}