{"type":"FeatureCollection","features":[{"type":"Feature","id":"NC:216:37021","properties":{"destinationId":"216","locality":"Asheville","definition":"Buncombe","state":"NC","stateName":"North Carolina","county":"Buncombe County","countyGeoid":"37021","countyGeoids":["37021"],"coverage":"complete-counties","sourceType":"gsa_county_defined_rate_area"},"geometry":{"type":"Polygon","coordinates":[[[-82.88811,35.67301],[-82.87816,35.66776],[-82.87643,35.66486],[-82.87804,35.66253],[-82.87219,35.65756],[-82.87464,35.65183],[-82.86848,35.6446],[-82.86721,35.63793],[-82.86493,35.63467],[-82.85528,35.6368],[-82.85169,35.63529],[-82.85053,35.62667],[-82.85167,35.61727],[-82.8464,35.61442],[-82.83651,35.62119],[-82.82899,35.6202],[-82.82624,35.62293],[-82.82118,35.62316],[-82.81315,35.62793],[-82.81127,35.62708],[-82.80975,35.625],[-82.80967,35.61816],[-82.80372,35.61106],[-82.8019,35.60252],[-82.79935,35.59808],[-82.78098,35.58879],[-82.78003,35.58473],[-82.77718,35.58241],[-82.77823,35.57765],[-82.77055,35.57593],[-82.76592,35.56758],[-82.77289,35.56227],[-82.77752,35.55562],[-82.77145,35.55059],[-82.76595,35.539],[-82.76883,35.53432],[-82.77414,35.53188],[-82.78021,35.52571],[-82.77806,35.51965],[-82.78459,35.5086],[-82.78472,35.50644],[-82.78245,35.50429],[-82.78656,35.49766],[-82.78579,35.49505],[-82.79337,35.48407],[-82.79746,35.47135],[-82.79949,35.47123],[-82.79441,35.46927],[-82.7949,35.4661],[-82.78648,35.45742],[-82.78432,35.44525],[-82.78169,35.43954],[-82.76857,35.43244],[-82.76599,35.43248],[-82.75558,35.42505],[-82.74854,35.42553],[-82.74514,35.42297],[-82.74289,35.42415],[-82.73925,35.42997],[-82.73089,35.43232],[-82.73036,35.43557],[-82.72511,35.43788],[-82.71577,35.44781],[-82.71197,35.44843],[-82.70565,35.45264],[-82.70074,35.45432],[-82.69934,35.45304],[-82.69529,35.45453],[-82.68021,35.45402],[-82.67323,35.45949],[-82.6647,35.45678],[-82.66061,35.45278],[-82.65304,35.45503],[-82.65062,35.45193],[-82.64454,35.44936],[-82.64196,35.44429],[-82.63669,35.4434],[-82.6214,35.43588],[-82.61808,35.44023],[-82.61452,35.43981],[-82.60874,35.44328],[-82.59501,35.4357],[-82.58703,35.43813],[-82.58289,35.43625],[-82.58265,35.43435],[-82.5708,35.43106],[-82.56798,35.435],[-82.56794,35.43792],[-82.56184,35.4377],[-82.56119,35.44318],[-82.54882,35.4443],[-82.54936,35.4406],[-82.54642,35.44056],[-82.54228,35.43128],[-82.54695,35.42516],[-82.538,35.42153],[-82.53594,35.42224],[-82.53323,35.41645],[-82.53546,35.42238],[-82.52983,35.42293],[-82.52905,35.43611],[-82.53545,35.43633],[-82.53394,35.44443],[-82.47056,35.44517],[-82.46157,35.45077],[-82.45613,35.44965],[-82.45402,35.45522],[-82.44692,35.45823],[-82.44588,35.46068],[-82.43498,35.46287],[-82.43,35.46596],[-82.42719,35.47036],[-82.42275,35.47074],[-82.41775,35.47441],[-82.41149,35.47216],[-82.40747,35.47362],[-82.40188,35.46983],[-82.40032,35.47131],[-82.38824,35.46998],[-82.3831,35.46655],[-82.38221,35.46406],[-82.37326,35.4614],[-82.36313,35.46096],[-82.36724,35.46402],[-82.36828,35.46921],[-82.37068,35.47202],[-82.36973,35.47549],[-82.37185,35.48001],[-82.36928,35.48261],[-82.36932,35.48552],[-82.36415,35.48625],[-82.3615,35.4851],[-82.3568,35.49058],[-82.34539,35.48783],[-82.341,35.48889],[-82.33876,35.49062],[-82.33959,35.49464],[-82.33788,35.49849],[-82.33282,35.50022],[-82.25144,35.46068],[-82.2425,35.46784],[-82.22434,35.49827],[-82.22408,35.50018],[-82.22719,35.5047],[-82.23334,35.50963],[-82.2332,35.5194],[-82.22052,35.52002],[-82.16905,35.52781],[-82.20682,35.54779],[-82.21998,35.55314],[-82.25125,35.55994],[-82.29103,35.59132],[-82.29193,35.59496],[-82.28751,35.60104],[-82.28234,35.60302],[-82.28043,35.60876],[-82.26537,35.6135],[-82.26452,35.61748],[-82.27274,35.62197],[-82.27156,35.62446],[-82.27413,35.6286],[-82.2708,35.63165],[-82.27612,35.63769],[-82.28178,35.63928],[-82.28301,35.64687],[-82.28543,35.6479],[-82.28654,35.65813],[-82.28055,35.66724],[-82.28112,35.67021],[-82.28403,35.67644],[-82.29491,35.68386],[-82.28873,35.69629],[-82.28365,35.6987],[-82.28122,35.70217],[-82.2754,35.70444],[-82.27594,35.71441],[-82.28473,35.72553],[-82.2913,35.72993],[-82.31306,35.7336],[-82.32174,35.74015],[-82.32645,35.74713],[-82.33468,35.7488],[-82.33836,35.76565],[-82.33773,35.76816],[-82.34375,35.7757],[-82.34331,35.78064],[-82.34634,35.78724],[-82.3383,35.79615],[-82.3383,35.80172],[-82.34493,35.80424],[-82.34886,35.81168],[-82.35828,35.81688],[-82.36207,35.82126],[-82.36541,35.82178],[-82.3737,35.81789],[-82.38157,35.82408],[-82.39605,35.8185],[-82.40261,35.81753],[-82.40359,35.81949],[-82.4086,35.81818],[-82.41208,35.81489],[-82.41788,35.81336],[-82.42736,35.81377],[-82.43581,35.80857],[-82.44361,35.8088],[-82.44696,35.81043],[-82.4543,35.80735],[-82.46127,35.80983],[-82.46411,35.80929],[-82.46516,35.8018],[-82.4758,35.79833],[-82.48811,35.80143],[-82.49516,35.79946],[-82.49948,35.80153],[-82.50334,35.80093],[-82.50639,35.8027],[-82.51465,35.80324],[-82.5194,35.79953],[-82.52835,35.79762],[-82.53383,35.79435],[-82.53569,35.79107],[-82.53988,35.79169],[-82.6677,35.73778],[-82.66869,35.73469],[-82.67703,35.73485],[-82.67739,35.73384],[-82.66925,35.72977],[-82.66977,35.72577],[-82.68526,35.72696],[-82.6902,35.72975],[-82.69472,35.73503],[-82.70086,35.73475],[-82.70714,35.7322],[-82.71186,35.73304],[-82.71035,35.72834],[-82.71297,35.72824],[-82.71349,35.72689],[-82.70952,35.72687],[-82.7089,35.72553],[-82.71084,35.72522],[-82.71376,35.71782],[-82.72051,35.71555],[-82.72752,35.71812],[-82.73115,35.72225],[-82.73251,35.71836],[-82.73653,35.71655],[-82.73341,35.71386],[-82.73591,35.71393],[-82.737,35.71188],[-82.74466,35.71476],[-82.74587,35.71285],[-82.74916,35.71254],[-82.75176,35.71049],[-82.74998,35.70646],[-82.75161,35.707],[-82.75404,35.70352],[-82.76893,35.69844],[-82.7755,35.69998],[-82.78559,35.69803],[-82.78796,35.69612],[-82.79276,35.69665],[-82.79715,35.69229],[-82.79775,35.6892],[-82.80468,35.68618],[-82.81582,35.68912],[-82.82398,35.6884],[-82.82645,35.69058],[-82.83915,35.69372],[-82.84238,35.69927],[-82.84922,35.7015],[-82.85408,35.69945],[-82.85385,35.69683],[-82.85692,35.69354],[-82.86716,35.68894],[-82.8711,35.68892],[-82.87478,35.68351],[-82.88186,35.68038],[-82.88811,35.67301]]]}},{"type":"Feature","id":"NC:217:37031","properties":{"destinationId":"217","locality":"Atlantic Beach / Morehead City","definition":"Carteret","state":"NC","stateName":"North Carolina","county":"Carteret County","countyGeoid":"37031","countyGeoids":["37031"],"coverage":"complete-counties","sourceType":"gsa_county_defined_rate_area"},"geometry":{"type":"MultiPolygon","coordinates":[[[[-76.33014,34.84794],[-76.33033,34.84521],[-76.32881,34.84466],[-76.32263,34.8481],[-76.24258,34.90776],[-76.18563,34.95593],[-76.09645,35.02377],[-76.07411,35.03903],[-76.04188,35.05398],[-76.03751,35.05701],[-76.03779,35.06191],[-76.05395,35.07141],[-76.06479,35.07312],[-76.07592,35.06993],[-76.07573,35.06635],[-76.08343,35.05904],[-76.08704,35.05281],[-76.08514,35.0511],[-76.08609,35.04806],[-76.09721,35.03989],[-76.09873,35.03693],[-76.10368,35.03693],[-76.10814,35.0346],[-76.11062,35.03187],[-76.111,35.02736],[-76.11375,35.02268],[-76.11794,35.02198],[-76.1207,35.01817],[-76.13248,35.01241],[-76.14132,35.00571],[-76.14389,35.00322],[-76.14399,35.00088],[-76.15178,34.99457],[-76.15178,34.98678],[-76.15482,34.98452],[-76.16329,34.98468],[-76.16576,34.98351],[-76.16642,34.98055],[-76.17156,34.98047],[-76.1765,34.97432],[-76.17574,34.97222],[-76.18002,34.97113],[-76.1959,34.95897],[-76.20084,34.95235],[-76.20084,34.95009],[-76.21805,34.93622],[-76.22698,34.92569],[-76.24676,34.91018],[-76.25408,34.90667],[-76.25475,34.90332],[-76.26254,34.89989],[-76.27623,34.88585],[-76.28336,34.88266],[-76.2864,34.88507],[-76.28564,34.8878],[-76.28707,34.88928],[-76.28916,34.88866],[-76.29182,34.8857],[-76.29743,34.8722],[-76.31588,34.85855],[-76.31787,34.85442],[-76.32092,34.8534],[-76.3212,34.85052],[-76.32358,34.8488],[-76.32862,34.84982],[-76.33014,34.84794]]],[[[-76.54757,34.71062],[-76.54685,34.70398],[-76.544,34.70125],[-76.52285,34.6991],[-76.51952,34.70711],[-76.5219,34.70965],[-76.5383,34.71199],[-76.54543,34.71238],[-76.54757,34.71062]]],[[[-76.55363,34.62316],[-76.55477,34.61949],[-76.55296,34.61464],[-76.53547,34.59155],[-76.52454,34.61573],[-76.50296,34.65078],[-76.48812,34.67103],[-76.4345,34.73411],[-76.39229,34.78074],[-76.34,34.83366],[-76.33734,34.83671],[-76.33753,34.83881],[-76.3478,34.82906],[-76.35265,34.82851],[-76.36368,34.82336],[-76.36396,34.81712],[-76.37242,34.81056],[-76.37347,34.80721],[-76.38326,34.79495],[-76.38934,34.79159],[-76.39952,34.79307],[-76.40256,34.79136],[-76.40284,34.78386],[-76.40807,34.78386],[-76.41397,34.77918],[-76.41245,34.7748],[-76.41425,34.77238],[-76.41254,34.76777],[-76.41359,34.76512],[-76.41644,34.76457],[-76.41853,34.76207],[-76.43232,34.76512],[-76.43336,34.76262],[-76.43812,34.76129],[-76.43973,34.75848],[-76.43774,34.75395],[-76.44078,34.74715],[-76.43783,34.74247],[-76.44173,34.7395],[-76.44154,34.73379],[-76.45143,34.72504],[-76.4616,34.72239],[-76.46616,34.71582],[-76.47396,34.71137],[-76.47443,34.70902],[-76.47196,34.70605],[-76.47643,34.70082],[-76.48337,34.69644],[-76.48575,34.69136],[-76.48907,34.68948],[-76.49383,34.67885],[-76.502,34.67471],[-76.50305,34.67252],[-76.49773,34.66681],[-76.506,34.65602],[-76.50837,34.64874],[-76.52216,34.627],[-76.52824,34.62129],[-76.52815,34.61738],[-76.53224,34.61049],[-76.5368,34.60971],[-76.53823,34.61112],[-76.53709,34.61284],[-76.54745,34.6137],[-76.55059,34.61604],[-76.55182,34.62019],[-76.55041,34.63092],[-76.55389,34.62795],[-76.55363,34.62316]]],[[[-76.58631,34.71395],[-76.58726,34.7118],[-76.58464,34.70183],[-76.58156,34.6991],[-76.53283,34.68678],[-76.52808,34.68385],[-76.5257,34.68522],[-76.52594,34.69187],[-76.53806,34.69597],[-76.55541,34.69675],[-76.55541,34.69949],[-76.5642,34.70222],[-76.56492,34.70457],[-76.56159,34.70672],[-76.56064,34.71004],[-76.56872,34.71297],[-76.58631,34.71395]]],[[[-76.66549,34.68974],[-76.65041,34.67994],[-76.59917,34.66806],[-76.57055,34.65828],[-76.54735,34.64554],[-76.53557,34.63169],[-76.53015,34.63013],[-76.52881,34.63154],[-76.53091,34.63889],[-76.53024,34.64358],[-76.54022,34.64812],[-76.54146,34.65046],[-76.5522,34.65234],[-76.57492,34.66392],[-76.58025,34.66501],[-76.58928,34.67197],[-76.59204,34.66994],[-76.59594,34.67041],[-76.62931,34.68362],[-76.64708,34.68636],[-76.65469,34.68972],[-76.66549,34.68974]]],[[[-77.09851,34.64689],[-77.09744,34.64429],[-77.09298,34.64459],[-77.03363,34.6605],[-76.96932,34.6732],[-76.84739,34.69081],[-76.76297,34.69745],[-76.72505,34.69701],[-76.69357,34.69378],[-76.6777,34.69362],[-76.6757,34.69566],[-76.67779,34.69917],[-76.68112,34.69988],[-76.68264,34.69816],[-76.68568,34.69941],[-76.6989,34.7123],[-76.70194,34.71106],[-76.70365,34.70793],[-76.70128,34.7016],[-76.70261,34.6998],[-76.70784,34.70293],[-76.71601,34.70426],[-76.72466,34.70332],[-76.73056,34.70082],[-76.73674,34.71098],[-76.74206,34.71238],[-76.74558,34.71215],[-76.74577,34.70308],[-76.74758,34.70199],[-76.75746,34.70246],[-76.76668,34.69996],[-76.76963,34.70293],[-76.78152,34.70418],[-76.80947,34.70324],[-76.82221,34.70472],[-76.84426,34.69527],[-76.8589,34.69339],[-76.86889,34.69417],[-76.88362,34.68948],[-76.89208,34.69136],[-76.89807,34.69026],[-76.90806,34.68503],[-76.93144,34.68237],[-76.9478,34.67869],[-76.97499,34.6769],[-77.00237,34.67197],[-77.01026,34.67189],[-77.01463,34.67604],[-77.06787,34.66384],[-77.08831,34.65602],[-77.09154,34.65305],[-77.09468,34.65398],[-77.09544,34.6489],[-77.09851,34.64689]]],[[[-77.16642,34.79144],[-77.16777,34.791],[-77.16571,34.78815],[-77.1621,34.7867],[-77.16599,34.78503],[-77.16573,34.77933],[-77.16323,34.77922],[-77.15932,34.782],[-77.15725,34.7794],[-77.1595,34.77779],[-77.16028,34.77463],[-77.15758,34.77357],[-77.15505,34.77671],[-77.15332,34.77623],[-77.15296,34.77288],[-77.15076,34.7714],[-77.15873,34.76906],[-77.15777,34.76595],[-77.14881,34.76842],[-77.14308,34.7651],[-77.14243,34.76009],[-77.13995,34.75974],[-77.13575,34.76461],[-77.13127,34.75892],[-77.12565,34.75671],[-77.12542,34.74628],[-77.1218,34.73153],[-77.10915,34.71787],[-77.10599,34.71011],[-77.10515,34.69471],[-77.10856,34.68735],[-77.1133,34.68303],[-77.113,34.68143],[-77.105,34.67552],[-77.09272,34.67295],[-77.08333,34.67323],[-77.08356,34.676],[-77.05482,34.68095],[-77.05621,34.68734],[-77.05355,34.68762],[-77.04824,34.68395],[-77.04335,34.68677],[-77.04219,34.68972],[-77.04034,34.68953],[-77.0366,34.68235],[-77.0305,34.68181],[-77.02411,34.68896],[-77.01693,34.68782],[-77.01716,34.69458],[-77.00881,34.69668],[-77.00847,34.69344],[-77.00522,34.69247],[-76.98633,34.70106],[-76.97764,34.70325],[-76.97173,34.70925],[-76.96756,34.70678],[-76.96188,34.70725],[-76.95075,34.71125],[-76.94531,34.71116],[-76.93638,34.71726],[-76.93244,34.71621],[-76.91111,34.72121],[-76.89976,34.72688],[-76.89199,34.72545],[-76.88562,34.72697],[-76.8519,34.72735],[-76.84193,34.72935],[-76.80705,34.72507],[-76.76846,34.7244],[-76.76011,34.72154],[-76.75582,34.72249],[-76.73438,34.72116],[-76.72092,34.71797],[-76.71665,34.71868],[-76.71402,34.71576],[-76.70657,34.71735],[-76.70344,34.71526],[-76.69046,34.71602],[-76.68721,34.70992],[-76.68072,34.7062],[-76.67933,34.70678],[-76.68072,34.71259],[-76.67829,34.71478],[-76.67273,34.71468],[-76.66979,34.71115],[-76.64935,34.70939],[-76.61936,34.70419],[-76.6156,34.71017],[-76.62701,34.71936],[-76.62725,34.72463],[-76.62226,34.72834],[-76.62487,34.73381],[-76.62245,34.73756],[-76.62416,34.74651],[-76.61774,34.75315],[-76.61869,34.76037],[-76.61489,34.77677],[-76.61719,34.78263],[-76.61727,34.7879],[-76.60443,34.78985],[-76.59944,34.7838],[-76.59762,34.77724],[-76.59374,34.7717],[-76.58566,34.76994],[-76.58423,34.77191],[-76.57876,34.77287],[-76.57567,34.76838],[-76.57781,34.76662],[-76.57757,34.76037],[-76.58417,34.76033],[-76.58589,34.75666],[-76.5752,34.73967],[-76.57805,34.73479],[-76.58138,34.73459],[-76.58209,34.73127],[-76.57567,34.7217],[-76.56165,34.72287],[-76.55309,34.7258],[-76.54029,34.71905],[-76.53408,34.72346],[-76.52172,34.72111],[-76.51982,34.71877],[-76.51578,34.71955],[-76.51269,34.72033],[-76.50674,34.72619],[-76.5058,34.72932],[-76.49985,34.72934],[-76.49843,34.73205],[-76.50152,34.73733],[-76.5008,34.74084],[-76.50318,34.74475],[-76.51007,34.74768],[-76.51411,34.75432],[-76.49962,34.7594],[-76.49795,34.76389],[-76.49058,34.76252],[-76.48797,34.75822],[-76.48797,34.7551],[-76.48535,34.7549],[-76.48464,34.76096],[-76.47965,34.7633],[-76.47305,34.76938],[-76.47181,34.77677],[-76.46599,34.78043],[-76.46302,34.78508],[-76.45137,34.808],[-76.44946,34.81483],[-76.43687,34.81874],[-76.4314,34.82888],[-76.4276,34.83142],[-76.42403,34.83259],[-76.41857,34.82674],[-76.41524,34.82771],[-76.41215,34.8322],[-76.415,34.83825],[-76.41161,34.84127],[-76.40882,34.85463],[-76.41001,34.86146],[-76.40526,34.87686],[-76.40573,34.8831],[-76.4024,34.88661],[-76.3967,34.88388],[-76.39171,34.87862],[-76.39195,34.87394],[-76.39622,34.87043],[-76.39884,34.86575],[-76.39575,34.86087],[-76.39314,34.85756],[-76.38648,34.85541],[-76.3822,34.85697],[-76.38301,34.86105],[-76.37964,34.86258],[-76.37716,34.86755],[-76.36828,34.87288],[-76.34679,34.87335],[-76.34489,34.87803],[-76.33137,34.88488],[-76.31409,34.90632],[-76.3368,34.90981],[-76.33989,34.91838],[-76.33419,34.9215],[-76.34132,34.92482],[-76.34084,34.93339],[-76.33205,34.93592],[-76.32658,34.93436],[-76.31351,34.92676],[-76.2976,34.92366],[-76.29592,34.92988],[-76.29782,34.93456],[-76.29236,34.93787],[-76.28594,34.93807],[-76.27952,34.94138],[-76.28119,34.94664],[-76.27667,34.95404],[-76.27786,34.96066],[-76.28927,34.96807],[-76.29545,34.97508],[-76.29967,34.98413],[-76.30567,34.99144],[-76.28808,34.9963],[-76.27429,34.98715],[-76.26241,34.97527],[-76.25671,34.97702],[-76.25076,34.98131],[-76.24696,34.98735],[-76.24387,34.99689],[-76.24931,35.00067],[-76.29368,35.00963],[-76.31855,35.02064],[-76.3292,35.02317],[-76.33539,35.02685],[-76.36414,35.0366],[-76.36865,35.03465],[-76.36746,35.03115],[-76.35083,35.01558],[-76.34037,34.99728],[-76.33395,34.99241],[-76.32956,34.9869],[-76.32789,34.98133],[-76.32064,34.97547],[-76.31945,34.96592],[-76.32444,34.96047],[-76.32967,34.96456],[-76.33204,34.97092],[-76.3349,34.9706],[-76.3349,34.96729],[-76.34037,34.96631],[-76.34675,34.9719],[-76.35511,34.97138],[-76.36176,34.97644],[-76.36343,34.96923],[-76.37601,34.97386],[-76.37815,34.97861],[-76.38149,34.97917],[-76.38268,34.97819],[-76.3803,34.97021],[-76.38743,34.95112],[-76.39836,34.94547],[-76.40026,34.95755],[-76.40312,34.96339],[-76.40882,34.96203],[-76.41524,34.95307],[-76.42284,34.95073],[-76.42998,34.96865],[-76.42237,34.97722],[-76.42546,35.00146],[-76.43164,34.99903],[-76.43592,35.00098],[-76.44043,35.0146],[-76.43592,35.02064],[-76.43758,35.02453],[-76.43045,35.02823],[-76.42261,35.02667],[-76.42403,35.02901],[-76.43306,35.03348],[-76.43497,35.04263],[-76.43257,35.04906],[-76.43576,35.05794],[-76.4402,35.05975],[-76.44614,35.05839],[-76.45065,35.06286],[-76.45089,35.06695],[-76.46347,35.07641],[-76.47038,35.0757],[-76.47751,35.05839],[-76.47062,35.05839],[-76.46468,35.04672],[-76.47133,35.0438],[-76.47704,35.03815],[-76.47941,35.04438],[-76.48226,35.04438],[-76.48581,35.0406],[-76.49391,35.02317],[-76.49272,35.02064],[-76.48654,35.02044],[-76.48868,35.01519],[-76.49588,35.01166],[-76.49748,35.00818],[-76.49201,35.00039],[-76.48961,34.99374],[-76.48322,34.99163],[-76.48417,34.98812],[-76.4913,34.9854],[-76.49795,34.98501],[-76.51007,34.99669],[-76.51157,35.00508],[-76.54359,35.00195],[-76.5647,34.99834],[-76.5664,34.99533],[-76.57971,34.99007],[-76.58019,34.98774],[-76.57464,34.98345],[-76.57852,34.97625],[-76.5897,34.97761],[-76.6061,34.98481],[-76.61869,34.98793],[-76.63105,34.98871],[-76.64555,34.98403],[-76.65743,34.98248],[-76.66195,34.98014],[-76.66617,34.97402],[-76.6769,34.96881],[-76.6774,34.96651],[-76.67574,34.96437],[-76.67724,34.95771],[-76.65257,34.9376],[-76.66246,34.91226],[-76.66957,34.90514],[-76.68297,34.89927],[-76.68626,34.89537],[-76.68707,34.888],[-76.69104,34.88239],[-76.69302,34.86918],[-76.75801,34.84628],[-76.76643,34.8488],[-76.77177,34.84668],[-76.88305,34.8449],[-76.88231,34.83669],[-76.95477,34.82451],[-76.95444,34.80907],[-77.07826,34.81132],[-77.07983,34.81004],[-77.08495,34.81115],[-77.09008,34.80867],[-77.08992,34.80076],[-77.09241,34.79898],[-77.10738,34.80311],[-77.1127,34.79647],[-77.11565,34.79711],[-77.11616,34.79396],[-77.12511,34.79314],[-77.1257,34.79621],[-77.13571,34.79799],[-77.14223,34.797],[-77.14346,34.79386],[-77.1533,34.79257],[-77.16173,34.79484],[-77.1647,34.79032],[-77.16642,34.79144]]]]}},{"type":"Feature","id":"NC:218:37135","properties":{"destinationId":"218","locality":"Chapel Hill","definition":"Orange","state":"NC","stateName":"North Carolina","county":"Orange County","countyGeoid":"37135","countyGeoids":["37135"],"coverage":"complete-counties","sourceType":"gsa_county_defined_rate_area"},"geometry":{"type":"Polygon","coordinates":[[[-79.26843,35.91093],[-79.26824,35.90918],[-79.25938,35.90484],[-79.25692,35.90205],[-79.25795,35.89149],[-79.24954,35.87681],[-79.22192,35.87405],[-79.21882,35.87526],[-79.21882,35.87372],[-79.08194,35.86078],[-79.02662,35.86276],[-79.02657,35.86132],[-79.02524,35.86282],[-79.0163,35.86321],[-78.9506,36.23932],[-79.25795,36.24344],[-79.2601,36.10786],[-79.2587,36.10376],[-79.26009,36.10301],[-79.26052,36.06627],[-79.26214,36.06168],[-79.26086,36.04009],[-79.26338,35.97372],[-79.26454,35.97374],[-79.26346,35.96663],[-79.26403,35.91411],[-79.26715,35.91369],[-79.26843,35.91093]]]}},{"type":"Feature","id":"NC:219:37119","properties":{"destinationId":"219","locality":"Charlotte","definition":"Mecklenburg","state":"NC","stateName":"North Carolina","county":"Mecklenburg County","countyGeoid":"37119","countyGeoids":["37119"],"coverage":"complete-counties","sourceType":"gsa_county_defined_rate_area"},"geometry":{"type":"Polygon","coordinates":[[[-81.05803,35.07319],[-81.05765,35.06243],[-81.04149,35.0447],[-80.95787,35.09264],[-80.93495,35.10741],[-80.88489,35.05351],[-80.84037,35.00162],[-80.83802,35.00503],[-80.82506,35.01197],[-80.82101,35.01733],[-80.81117,35.02145],[-80.80451,35.02775],[-80.78096,35.03328],[-80.77316,35.03295],[-80.76756,35.03629],[-80.69858,35.08957],[-80.55035,35.20841],[-80.66709,35.26879],[-80.69306,35.34638],[-80.70888,35.35535],[-80.74441,35.38067],[-80.75531,35.39482],[-80.76641,35.40148],[-80.76355,35.4121],[-80.75217,35.41405],[-80.77275,35.45732],[-80.77327,35.46267],[-80.77933,35.47201],[-80.78211,35.48434],[-80.78679,35.49298],[-80.78417,35.50602],[-80.90672,35.51479],[-80.94734,35.48847],[-80.94532,35.48362],[-80.94786,35.4807],[-80.95152,35.46714],[-80.94249,35.45773],[-80.94309,35.45292],[-80.95038,35.4473],[-80.95869,35.43263],[-80.95514,35.42116],[-80.95872,35.4115],[-80.95486,35.40008],[-80.95525,35.39318],[-80.97663,35.38245],[-80.98559,35.3811],[-80.98684,35.37901],[-80.9837,35.36835],[-80.97645,35.36416],[-80.97327,35.36419],[-80.96809,35.36767],[-80.96477,35.37352],[-80.96127,35.37546],[-80.95828,35.37498],[-80.95161,35.36729],[-80.93588,35.36211],[-80.92942,35.36299],[-80.92475,35.36183],[-80.92304,35.35992],[-80.93495,35.35656],[-80.94251,35.3509],[-80.9564,35.35026],[-80.96214,35.34705],[-80.96937,35.35145],[-80.97267,35.35026],[-80.97443,35.34539],[-80.98489,35.34006],[-80.9853,35.33722],[-80.9808,35.32979],[-80.98169,35.32722],[-80.98918,35.32071],[-80.99539,35.30947],[-81.00087,35.30538],[-81.00933,35.28037],[-81.01505,35.26866],[-81.01411,35.25851],[-81.00827,35.24806],[-81.01413,35.22196],[-81.00527,35.20769],[-81.00614,35.19508],[-81.00239,35.18082],[-81.00341,35.17195],[-81.00731,35.16518],[-81.00581,35.15702],[-81.00951,35.15313],[-81.01711,35.15432],[-81.02472,35.14888],[-81.04287,35.14925],[-81.04709,35.14516],[-81.05104,35.13165],[-81.03897,35.1263],[-81.03247,35.11003],[-81.03496,35.1041],[-81.04652,35.10062],[-81.05208,35.09628],[-81.05724,35.08613],[-81.05803,35.07319]]]}},{"type":"Feature","id":"NC:221:37063","properties":{"destinationId":"221","locality":"Durham","definition":"Durham","state":"NC","stateName":"North Carolina","county":"Durham County","countyGeoid":"37063","countyGeoids":["37063"],"coverage":"complete-counties","sourceType":"gsa_county_defined_rate_area"},"geometry":{"type":"Polygon","coordinates":[[[-79.01207,35.88753],[-79.0163,35.86321],[-78.90607,35.8681],[-78.82996,35.86698],[-78.80484,35.92755],[-78.75914,35.9184],[-78.7499,35.93292],[-78.74171,35.93391],[-78.71701,35.96126],[-78.69985,36.01143],[-78.70744,36.01111],[-78.71995,36.02959],[-78.74019,36.02356],[-78.75361,36.03138],[-78.75428,36.05634],[-78.75127,36.07083],[-78.77996,36.07231],[-78.78366,36.06998],[-78.78722,36.07165],[-78.78809,36.0737],[-78.78471,36.07637],[-78.78972,36.07885],[-78.79279,36.07744],[-78.7908,36.08171],[-78.79209,36.08532],[-78.794,36.08641],[-78.79781,36.08461],[-78.80748,36.08729],[-78.80306,36.08956],[-78.80532,36.09392],[-78.80234,36.23579],[-78.9506,36.23932],[-79.01207,35.88753]]]}},{"type":"Feature","id":"NC:222:37081","properties":{"destinationId":"222","locality":"Greensboro","definition":"Guilford","state":"NC","stateName":"North Carolina","county":"Guilford County","countyGeoid":"37081","countyGeoids":["37081"],"coverage":"complete-counties","sourceType":"gsa_county_defined_rate_area"},"geometry":{"type":"Polygon","coordinates":[[[-80.04667,35.92771],[-80.04687,35.92069],[-79.54173,35.89985],[-79.53915,36.08257],[-79.53241,36.24146],[-80.03512,36.25718],[-80.03742,36.16221],[-80.04667,35.92771]]]}},{"type":"Feature","id":"NC:224:37055","properties":{"destinationId":"224","locality":"Kill Devil Hills","definition":"Dare","state":"NC","stateName":"North Carolina","county":"Dare County","countyGeoid":"37055","countyGeoids":["37055"],"coverage":"complete-counties","sourceType":"gsa_county_defined_rate_area"},"geometry":{"type":"MultiPolygon","coordinates":[[[[-75.72681,35.93584],[-75.72725,35.93362],[-75.72378,35.92557],[-75.70216,35.91543],[-75.69687,35.90956],[-75.69767,35.90164],[-75.68142,35.88398],[-75.67283,35.88242],[-75.66336,35.86984],[-75.6606,35.86254],[-75.66009,35.83861],[-75.67505,35.8302],[-75.66789,35.82354],[-75.63898,35.81864],[-75.62424,35.80939],[-75.62045,35.80925],[-75.61436,35.81566],[-75.61977,35.84761],[-75.61683,35.85633],[-75.62767,35.88315],[-75.64512,35.90579],[-75.64852,35.90698],[-75.65348,35.90469],[-75.66202,35.90652],[-75.66294,35.91617],[-75.65954,35.91956],[-75.67524,35.92902],[-75.68636,35.93297],[-75.69115,35.93693],[-75.70532,35.9394],[-75.71827,35.93971],[-75.72681,35.93584]]],[[[-75.73248,35.20035],[-75.73438,35.198],[-75.73165,35.19647],[-75.72043,35.19858],[-75.64918,35.22247],[-75.60224,35.23264],[-75.57765,35.2353],[-75.55814,35.23425],[-75.5313,35.22658],[-75.52782,35.22766],[-75.52511,35.24383],[-75.51881,35.25753],[-75.50602,35.3252],[-75.4858,35.40074],[-75.47924,35.4834],[-75.46193,35.55748],[-75.46062,35.57697],[-75.46189,35.59267],[-75.4752,35.66164],[-75.48589,35.69852],[-75.50467,35.74425],[-75.51901,35.76909],[-75.52345,35.77357],[-75.52677,35.77357],[-75.52891,35.77145],[-75.52142,35.754],[-75.51692,35.75237],[-75.51674,35.7491],[-75.51956,35.74432],[-75.5175,35.73596],[-75.51059,35.73258],[-75.51353,35.72983],[-75.51036,35.7272],[-75.51311,35.72323],[-75.5122,35.71929],[-75.5079,35.71861],[-75.50753,35.71696],[-75.51047,35.71364],[-75.50752,35.70682],[-75.4992,35.69794],[-75.49588,35.67304],[-75.49207,35.66686],[-75.49112,35.6613],[-75.48538,35.65546],[-75.48431,35.64514],[-75.47139,35.62166],[-75.47258,35.61567],[-75.47092,35.60987],[-75.47167,35.59426],[-75.46885,35.58768],[-75.46871,35.57399],[-75.47377,35.55536],[-75.47282,35.55227],[-75.47615,35.53428],[-75.48304,35.52964],[-75.48613,35.52268],[-75.48803,35.51126],[-75.48375,35.49404],[-75.48328,35.48495],[-75.48565,35.47759],[-75.48779,35.44546],[-75.4916,35.43364],[-75.49231,35.41428],[-75.49706,35.39858],[-75.49516,35.38909],[-75.50087,35.37204],[-75.5137,35.35692],[-75.5137,35.34626],[-75.51703,35.33656],[-75.51655,35.32648],[-75.51394,35.32202],[-75.51679,35.31058],[-75.51513,35.30088],[-75.52297,35.27663],[-75.52178,35.27178],[-75.52392,35.26964],[-75.53105,35.27236],[-75.53794,35.27294],[-75.54222,35.27042],[-75.56694,35.26596],[-75.57122,35.26343],[-75.57978,35.26304],[-75.59546,35.26926],[-75.59546,35.2611],[-75.5976,35.25703],[-75.61875,35.24694],[-75.62137,35.24286],[-75.64134,35.22869],[-75.64609,35.22849],[-75.66819,35.21898],[-75.67057,35.22053],[-75.67722,35.21937],[-75.68055,35.22616],[-75.68103,35.23335],[-75.68626,35.23102],[-75.69362,35.22189],[-75.69885,35.2182],[-75.70064,35.21145],[-75.7159,35.20355],[-75.73248,35.20035]]],[[[-75.79544,36.22711],[-75.78557,36.21696],[-75.78212,36.2208],[-75.77238,36.21754],[-75.75776,36.17803],[-75.75735,36.16688],[-75.74587,36.14406],[-75.74528,36.13149],[-75.75134,36.12698],[-75.75193,36.12237],[-75.74266,36.09242],[-75.73972,36.07527],[-75.73946,36.06685],[-75.74141,36.05637],[-75.73827,36.05034],[-75.73709,36.04078],[-75.73221,36.04066],[-75.72674,36.04563],[-75.71925,36.04621],[-75.71521,36.04832],[-75.70642,36.0392],[-75.71105,36.0317],[-75.71058,36.02564],[-75.72294,36.02459],[-75.72733,36.02199],[-75.72708,36.01051],[-75.72983,36.00729],[-75.72757,36.00344],[-75.71141,36.00325],[-75.69691,35.99421],[-75.68731,35.99673],[-75.68229,35.99585],[-75.67349,35.98819],[-75.66797,35.98],[-75.66869,35.97315],[-75.66707,35.97138],[-75.64454,35.96442],[-75.6154,35.92643],[-75.61478,35.91177],[-75.61221,35.90526],[-75.62129,35.90078],[-75.62291,35.89232],[-75.61759,35.88909],[-75.60894,35.87818],[-75.60218,35.87441],[-75.59448,35.85334],[-75.58888,35.84493],[-75.57138,35.8311],[-75.57048,35.82833],[-75.57599,35.82309],[-75.57309,35.81781],[-75.56934,35.81484],[-75.57048,35.80883],[-75.56309,35.80628],[-75.56306,35.79926],[-75.55745,35.79603],[-75.54581,35.7937],[-75.54206,35.78822],[-75.53686,35.78888],[-75.53633,35.79261],[-75.54546,35.80505],[-75.5698,35.8633],[-75.65854,36.02043],[-75.69674,36.0775],[-75.71831,36.11367],[-75.73843,36.15428],[-75.75964,36.2047],[-75.77333,36.23153],[-75.79544,36.22711]]],[[[-76.01302,35.67006],[-76.013,35.66887],[-75.90134,35.66895],[-75.89801,35.66042],[-75.8905,35.65226],[-75.8903,35.64652],[-75.89195,35.64333],[-75.88179,35.63435],[-75.87682,35.63528],[-75.87159,35.63333],[-75.8688,35.62992],[-75.87184,35.61063],[-75.86861,35.60762],[-75.86311,35.60942],[-75.86535,35.60447],[-75.85522,35.59362],[-75.85687,35.58772],[-75.85281,35.58468],[-75.83757,35.58749],[-75.83049,35.59294],[-75.82534,35.59328],[-75.82204,35.59055],[-75.81904,35.59088],[-75.8172,35.59522],[-75.81352,35.59172],[-75.81099,35.58582],[-75.812,35.5833],[-75.82285,35.5791],[-75.82489,35.57499],[-75.83351,35.57347],[-75.8334,35.57153],[-75.82692,35.57102],[-75.79756,35.57519],[-75.77797,35.57976],[-75.77712,35.58149],[-75.78439,35.58881],[-75.7851,35.59555],[-75.78183,35.59874],[-75.77679,35.60058],[-75.77101,35.59999],[-75.76701,35.60132],[-75.76175,35.60582],[-75.75217,35.60799],[-75.75197,35.6128],[-75.74873,35.61849],[-75.74416,35.62255],[-75.73607,35.6255],[-75.73491,35.63017],[-75.73992,35.64462],[-75.74348,35.64925],[-75.74826,35.64719],[-75.75422,35.64836],[-75.76491,35.65636],[-75.76981,35.66547],[-75.76645,35.67706],[-75.78042,35.68411],[-75.78083,35.68842],[-75.77814,35.69352],[-75.77227,35.69858],[-75.76732,35.70562],[-75.75782,35.706],[-75.7426,35.69963],[-75.73809,35.69462],[-75.73714,35.6894],[-75.73962,35.68406],[-75.73814,35.68202],[-75.73286,35.68149],[-75.72597,35.68535],[-75.71717,35.69365],[-75.71812,35.7089],[-75.72573,35.7145],[-75.72953,35.73032],[-75.7262,35.73919],[-75.73856,35.74942],[-75.73856,35.75308],[-75.73476,35.75848],[-75.73547,35.76388],[-75.74118,35.76986],[-75.74237,35.77488],[-75.73524,35.78047],[-75.73405,35.78606],[-75.7369,35.79281],[-75.73642,35.79917],[-75.73025,35.80592],[-75.73001,35.81247],[-75.7331,35.81594],[-75.73357,35.82114],[-75.72802,35.82451],[-75.73476,35.83733],[-75.75188,35.85101],[-75.74855,35.86257],[-75.75302,35.87138],[-75.75196,35.87823],[-75.74902,35.88125],[-75.7495,35.88414],[-75.7552,35.8878],[-75.76121,35.88892],[-75.76423,35.89242],[-75.76447,35.89704],[-75.76881,35.90139],[-75.77018,35.90512],[-75.76804,35.91186],[-75.77801,35.91379],[-75.7823,35.91956],[-75.78108,35.92438],[-75.7825,35.93342],[-75.79228,35.93727],[-75.79531,35.94144],[-75.80559,35.94612],[-75.80514,35.95404],[-75.80935,35.95931],[-75.83628,35.9705],[-75.87095,35.97856],[-75.88188,35.97536],[-75.89757,35.97613],[-75.91039,35.97359],[-75.93655,35.96498],[-75.94729,35.95984],[-75.94699,35.95743],[-75.94226,35.95555],[-75.93782,35.95088],[-75.93346,35.94958],[-75.92158,35.93592],[-75.93132,35.92688],[-75.93728,35.92643],[-75.94782,35.92035],[-75.96256,35.90139],[-75.96625,35.89929],[-75.97783,35.89718],[-75.98605,35.88899],[-75.98147,35.87894],[-75.98052,35.87027],[-75.98314,35.86603],[-75.98797,35.86526],[-75.98813,35.8618],[-75.97601,35.83848],[-75.98694,35.82558],[-75.98718,35.82191],[-75.99412,35.81253],[-75.99003,35.79628],[-75.98645,35.79377],[-75.98385,35.78741],[-75.98574,35.78268],[-75.9829,35.77256],[-75.98595,35.76781],[-75.98904,35.75712],[-75.9905,35.74209],[-75.99455,35.73804],[-75.99621,35.7307],[-76.0012,35.7253],[-76.00237,35.71836],[-75.99954,35.71507],[-75.99882,35.71044],[-76.00191,35.7062],[-75.99978,35.69404],[-76.00453,35.69018],[-76.00595,35.67782],[-76.00928,35.67589],[-76.01302,35.67006]]]]}},{"type":"Feature","id":"NC:227:37183","properties":{"destinationId":"227","locality":"Raleigh","definition":"Wake","state":"NC","stateName":"North Carolina","county":"Wake County","countyGeoid":"37183","countyGeoids":["37183"],"coverage":"complete-counties","sourceType":"gsa_county_defined_rate_area"},"geometry":{"type":"Polygon","coordinates":[[[-78.98306,35.64445],[-78.99505,35.61017],[-78.7089,35.51946],[-78.48287,35.69424],[-78.47158,35.7049],[-78.46562,35.70816],[-78.46004,35.70569],[-78.27892,35.80439],[-78.25597,35.81812],[-78.2552,35.82216],[-78.25666,35.82394],[-78.25471,35.82436],[-78.25377,35.82736],[-78.26942,35.84444],[-78.27017,35.85044],[-78.27801,35.86733],[-78.2811,35.86854],[-78.28432,35.87458],[-78.28994,35.8766],[-78.2913,35.88068],[-78.29505,35.88112],[-78.29699,35.88659],[-78.30133,35.88777],[-78.305,35.89131],[-78.3076,35.89487],[-78.30721,35.89659],[-78.31299,35.89732],[-78.31921,35.89439],[-78.32127,35.89608],[-78.3285,35.89673],[-78.33152,35.89793],[-78.33551,35.90582],[-78.3439,35.9068],[-78.35097,35.91012],[-78.35328,35.93106],[-78.39433,35.93688],[-78.42686,35.97501],[-78.49354,36.00267],[-78.60361,36.04239],[-78.68322,36.07448],[-78.7056,36.07644],[-78.71879,36.07592],[-78.75127,36.07083],[-78.75428,36.05634],[-78.75361,36.03138],[-78.74019,36.02356],[-78.71995,36.02959],[-78.70744,36.01111],[-78.69985,36.01143],[-78.71701,35.96126],[-78.74171,35.93391],[-78.7499,35.93292],[-78.75914,35.9184],[-78.80484,35.92755],[-78.82996,35.86698],[-78.90607,35.8681],[-78.90942,35.843],[-78.92644,35.80191],[-78.93089,35.79438],[-78.93627,35.7719],[-78.98306,35.64445]]]}},{"type":"Feature","id":"NC:229:37129","properties":{"destinationId":"229","locality":"Wilmington","definition":"New Hanover","state":"NC","stateName":"North Carolina","county":"New Hanover County","countyGeoid":"37129","countyGeoids":["37129"],"coverage":"complete-counties","sourceType":"gsa_county_defined_rate_area"},"geometry":{"type":"Polygon","coordinates":[[[-78.02992,34.33177],[-78.02559,34.32719],[-78.02746,34.31966],[-78.02603,34.31799],[-78.02291,34.31801],[-78.01426,34.32303],[-78.00866,34.32255],[-78.00624,34.31951],[-78.00726,34.31562],[-78.01299,34.31257],[-78.01481,34.30747],[-78.01421,34.30257],[-78.01711,34.29277],[-78.01591,34.29027],[-78.00781,34.29017],[-78.00591,34.28887],[-78.00461,34.28677],[-78.00591,34.28177],[-78.00481,34.28047],[-77.99651,34.28437],[-77.99021,34.28167],[-77.9903,34.27924],[-77.9991,34.27648],[-78.00201,34.27307],[-78.00058,34.27139],[-77.99101,34.27067],[-77.98751,34.26827],[-77.98888,34.26264],[-77.98771,34.26007],[-77.97881,34.26006],[-77.9752,34.24934],[-77.9731,34.24724],[-77.97,34.25163],[-77.9678,34.25213],[-77.965,34.24922],[-77.96949,34.24401],[-77.96849,34.24231],[-77.9638,34.24168],[-77.9566,34.23449],[-77.9613,34.20487],[-77.95728,34.19729],[-77.95661,34.19249],[-77.95861,34.17377],[-77.95221,34.15035],[-77.93692,34.12284],[-77.9311,34.05888],[-77.9316,34.03638],[-77.93576,34.00497],[-77.94178,33.98104],[-77.94848,33.97127],[-77.93724,33.92924],[-77.92832,33.94549],[-77.91972,33.96756],[-77.91554,33.97172],[-77.88036,34.06069],[-77.87521,34.07473],[-77.87948,34.08058],[-77.87711,34.0831],[-77.87097,34.08378],[-77.83898,34.14789],[-77.82937,34.16325],[-77.77533,34.23332],[-77.74014,34.27255],[-77.71049,34.29796],[-77.71439,34.29936],[-77.72482,34.29285],[-77.7322,34.29435],[-77.7392,34.29275],[-77.74156,34.2958],[-77.74034,34.30019],[-77.74141,34.30155],[-77.74443,34.30097],[-77.74828,34.30359],[-77.75197,34.30333],[-77.81266,34.35901],[-77.81428,34.36285],[-77.81217,34.36528],[-77.81514,34.36701],[-77.80986,34.36879],[-77.80928,34.37152],[-77.80511,34.37412],[-77.80471,34.37629],[-77.81045,34.38193],[-77.81457,34.38159],[-77.8169,34.38248],[-77.81785,34.38523],[-77.82064,34.38488],[-77.823,34.38936],[-77.8438,34.38086],[-77.85864,34.3797],[-77.87077,34.3737],[-77.8799,34.36628],[-77.88843,34.36406],[-77.89786,34.36468],[-77.89978,34.36711],[-77.89935,34.37517],[-77.9006,34.37796],[-77.90722,34.37525],[-77.91775,34.37551],[-77.92136,34.36892],[-77.92878,34.36154],[-77.93107,34.36115],[-77.93177,34.36246],[-77.93069,34.3674],[-77.93446,34.3666],[-77.93323,34.35927],[-77.93545,34.35804],[-77.94089,34.36268],[-77.93923,34.36855],[-77.94045,34.37002],[-77.94973,34.37113],[-77.95025,34.36484],[-77.95177,34.36471],[-77.95781,34.36863],[-77.96166,34.37343],[-77.95902,34.37812],[-77.95923,34.38154],[-77.96278,34.3826],[-77.97555,34.37234],[-77.98699,34.37206],[-77.9881,34.36388],[-77.97977,34.3606],[-77.978,34.35742],[-77.98819,34.35112],[-77.99413,34.34264],[-77.9932,34.33683],[-78.02992,34.33177]]]}},{"type":"Feature","id":"NC:464:37051","properties":{"destinationId":"464","locality":"Fayetteville","definition":"Cumberland","state":"NC","stateName":"North Carolina","county":"Cumberland County","countyGeoid":"37051","countyGeoids":["37051"],"coverage":"complete-counties","sourceType":"gsa_county_defined_rate_area"},"geometry":{"type":"Polygon","coordinates":[[[-79.11285,35.12591],[-79.11276,35.12467],[-79.109,35.12458],[-79.10546,35.12145],[-79.10116,35.11433],[-79.09846,35.09452],[-79.09316,35.09017],[-79.09176,35.08324],[-79.09343,35.0796],[-79.09032,35.07753],[-79.08941,35.07337],[-79.09197,35.06425],[-79.09039,35.05946],[-79.0931,35.05596],[-79.08827,35.05182],[-79.08814,35.04972],[-79.09163,35.0473],[-79.09002,35.04551],[-79.09029,35.04203],[-79.07226,35.01801],[-79.07139,35.01451],[-79.06189,35.00893],[-79.05677,34.99828],[-79.0497,34.99195],[-79.04658,34.97759],[-79.04412,34.97586],[-79.0411,34.96788],[-79.03741,34.96714],[-79.03477,34.96296],[-79.03754,34.95743],[-79.03556,34.9552],[-79.03875,34.95272],[-78.95486,34.91327],[-78.95323,34.9094],[-78.94084,34.90337],[-78.93866,34.89771],[-78.92661,34.8867],[-78.92232,34.87548],[-78.92174,34.87017],[-78.92702,34.86396],[-78.90422,34.83486],[-78.8274,34.85069],[-78.53363,34.85113],[-78.51612,34.84592],[-78.50629,34.85257],[-78.4947,34.85618],[-78.49522,34.85914],[-78.49963,34.85933],[-78.50252,34.86206],[-78.50256,34.86461],[-78.51311,34.86909],[-78.51322,34.87331],[-78.51509,34.8751],[-78.5127,34.8806],[-78.51463,34.88091],[-78.51388,34.88172],[-78.51765,34.88381],[-78.52146,34.88274],[-78.52562,34.8848],[-78.52651,34.89097],[-78.53497,34.89366],[-78.53495,34.89518],[-78.54686,34.90062],[-78.54752,34.90235],[-78.54579,34.90256],[-78.54587,34.90492],[-78.54192,34.90829],[-78.54347,34.91381],[-78.54656,34.91643],[-78.55352,34.91488],[-78.56229,34.91803],[-78.56351,34.92381],[-78.57045,34.92691],[-78.5724,34.92959],[-78.57268,34.93736],[-78.58392,34.93865],[-78.58449,34.94177],[-78.59118,34.94459],[-78.59092,34.94631],[-78.59716,34.95129],[-78.60173,34.9513],[-78.60509,34.95427],[-78.60754,34.95361],[-78.61083,34.96036],[-78.61889,34.96476],[-78.62047,34.96819],[-78.62367,34.9686],[-78.627,34.97148],[-78.62755,34.97435],[-78.6325,34.97815],[-78.63383,34.97755],[-78.63749,34.98181],[-78.63459,34.98566],[-78.6366,34.98798],[-78.64703,34.99225],[-78.64602,35.00368],[-78.64756,35.00545],[-78.64503,35.01012],[-78.65021,35.0151],[-78.6494,35.01727],[-78.65292,35.02108],[-78.65014,35.02369],[-78.64965,35.02648],[-78.65562,35.03437],[-78.65347,35.03454],[-78.65421,35.03631],[-78.65933,35.04283],[-78.65453,35.05081],[-78.66159,35.05986],[-78.66066,35.06302],[-78.66408,35.06727],[-78.66251,35.06935],[-78.66296,35.07796],[-78.6691,35.08041],[-78.67229,35.08528],[-78.67054,35.08766],[-78.67072,35.09247],[-78.66789,35.09369],[-78.66374,35.09217],[-78.65824,35.09447],[-78.65945,35.09874],[-78.65773,35.1014],[-78.65447,35.1007],[-78.65199,35.10354],[-78.65381,35.11142],[-78.6503,35.11312],[-78.64322,35.11311],[-78.63933,35.11589],[-78.64137,35.1211],[-78.65052,35.118],[-78.65193,35.12178],[-78.64271,35.12832],[-78.64161,35.13187],[-78.63797,35.13326],[-78.63472,35.13936],[-78.63762,35.14441],[-78.63788,35.14883],[-78.63602,35.15077],[-78.6399,35.15486],[-78.63898,35.15679],[-78.63273,35.15829],[-78.63282,35.16418],[-78.63784,35.16515],[-78.63892,35.16702],[-78.63562,35.17094],[-78.63213,35.16989],[-78.62985,35.17235],[-78.63884,35.18205],[-78.64004,35.18593],[-78.63572,35.19168],[-78.64013,35.19244],[-78.64676,35.19743],[-78.64271,35.20091],[-78.63731,35.19787],[-78.63444,35.19868],[-78.63213,35.20112],[-78.62896,35.20066],[-78.62438,35.20398],[-78.63367,35.21253],[-78.63053,35.21736],[-78.62396,35.22083],[-78.6195,35.22693],[-78.6183,35.22946],[-78.61901,35.23406],[-78.61559,35.2378],[-78.61728,35.24077],[-78.61711,35.24572],[-78.70515,35.25699],[-78.70711,35.259],[-78.71217,35.25764],[-78.71298,35.25949],[-78.71818,35.25972],[-78.72007,35.26443],[-78.72595,35.2669],[-78.72986,35.26339],[-78.73649,35.26166],[-78.7411,35.26382],[-78.74982,35.26346],[-78.7502,35.26156],[-78.75371,35.25978],[-78.75464,35.26352],[-78.75753,35.2635],[-78.75832,35.2617],[-78.76062,35.26237],[-78.75967,35.26377],[-78.763,35.26316],[-78.76099,35.26162],[-78.76388,35.26128],[-78.76469,35.25835],[-78.76985,35.25956],[-78.77119,35.26213],[-78.77774,35.26354],[-78.78217,35.261],[-78.78374,35.26253],[-78.78262,35.2638],[-78.78697,35.26362],[-78.79345,35.26598],[-78.79799,35.26446],[-78.79936,35.26196],[-78.80109,35.26299],[-78.80474,35.2572],[-78.81216,35.25777],[-78.81578,35.2602],[-78.82494,35.25961],[-78.82772,35.25567],[-78.83323,35.25487],[-78.835,35.25235],[-78.8381,35.25388],[-78.84748,35.25281],[-78.84836,35.25007],[-78.8545,35.24838],[-78.85924,35.24286],[-78.86751,35.24502],[-78.87606,35.24154],[-78.87398,35.23678],[-78.87555,35.23369],[-78.88041,35.23044],[-78.88774,35.23083],[-78.89308,35.22864],[-78.89833,35.23099],[-78.90544,35.22697],[-78.91663,35.22373],[-78.92068,35.22025],[-78.92168,35.22245],[-78.92518,35.22384],[-78.92549,35.2219],[-78.92965,35.22232],[-78.93553,35.21873],[-78.94182,35.21928],[-78.99769,35.21409],[-79.09581,35.19207],[-79.09814,35.1886],[-79.09872,35.1841],[-79.09626,35.17786],[-79.11285,35.12591]]]}}]}