{"type":"FeatureCollection","features":[{"type":"Feature","id":"NE:231:31055","properties":{"destinationId":"231","locality":"Omaha","definition":"Douglas","state":"NE","stateName":"Nebraska","county":"Douglas County","countyGeoid":"31055","countyGeoids":["31055"],"coverage":"complete-counties","sourceType":"gsa_county_defined_rate_area"},"geometry":{"type":"Polygon","coordinates":[[[-96.47072,41.39324],[-96.45951,41.38032],[-96.43962,41.37013],[-96.4244,41.36612],[-96.42034,41.36302],[-96.41382,41.3537],[-96.40744,41.33662],[-96.40686,41.32874],[-96.40796,41.32173],[-96.40968,41.32014],[-96.40761,41.31461],[-96.39053,41.3032],[-96.38194,41.30053],[-96.37559,41.2966],[-96.36057,41.28041],[-96.34966,41.26216],[-96.35081,41.25625],[-96.36547,41.23554],[-96.36138,41.21922],[-96.35431,41.20747],[-96.35068,41.20419],[-96.33255,41.19556],[-96.3274,41.19],[-95.92331,41.1912],[-95.92749,41.2022],[-95.92489,41.2112],[-95.91259,41.227],[-95.91089,41.234],[-95.91139,41.238],[-95.92129,41.2585],[-95.92189,41.2646],[-95.92039,41.2684],[-95.91399,41.2714],[-95.92869,41.2814],[-95.92959,41.2923],[-95.92749,41.2984],[-95.92029,41.3011],[-95.90589,41.3009],[-95.90429,41.2996],[-95.90429,41.2935],[-95.91249,41.2795],[-95.90249,41.2734],[-95.88239,41.2814],[-95.87689,41.2851],[-95.87289,41.2895],[-95.87149,41.2958],[-95.87469,41.3071],[-95.88309,41.3167],[-95.89929,41.3212],[-95.91379,41.3202],[-95.92569,41.3222],[-95.93929,41.3289],[-95.95309,41.3399],[-95.95669,41.3455],[-95.95679,41.3492],[-95.95489,41.3518],[-95.93549,41.3606],[-95.93099,41.3647],[-95.92879,41.3701],[-95.92929,41.3749],[-95.93519,41.3844],[-95.93749,41.3931],[-96.47072,41.39324]]]}}]}