{"type":"FeatureCollection","features":[{"type":"Feature","id":"NH:232:33013","properties":{"destinationId":"232","locality":"Concord","definition":"Merrimack","state":"NH","stateName":"New Hampshire","county":"Merrimack County","countyGeoid":"33013","countyGeoids":["33013"],"coverage":"complete-counties","sourceType":"gsa_county_defined_rate_area"},"geometry":{"type":"Polygon","coordinates":[[[-72.07862,43.33859],[-72.09015,43.32255],[-72.06544,43.25508],[-72.04528,43.25477],[-72.04154,43.22272],[-72.00907,43.18788],[-71.91321,43.2071],[-71.8561,43.11514],[-71.66777,43.15253],[-71.64129,43.05417],[-71.51747,43.06891],[-71.51277,43.04962],[-71.48911,43.05178],[-71.48358,43.04171],[-71.47398,43.03527],[-71.45478,43.044],[-71.44996,43.02007],[-71.39239,43.00931],[-71.39631,43.01689],[-71.40296,43.04105],[-71.39224,43.03928],[-71.35612,43.10204],[-71.32927,43.14095],[-71.31771,43.1624],[-71.31551,43.16206],[-71.2628,43.25006],[-71.25208,43.26398],[-71.24697,43.27619],[-71.23601,43.28499],[-71.34905,43.34658],[-71.55544,43.45497],[-71.56115,43.4548],[-71.56112,43.4506],[-71.57001,43.45204],[-71.5753,43.44654],[-71.57998,43.44433],[-71.58467,43.44458],[-71.58855,43.44165],[-71.59312,43.44311],[-71.59559,43.44056],[-71.59504,43.43807],[-71.60108,43.43501],[-71.60446,43.44064],[-71.60773,43.44064],[-71.61189,43.43782],[-71.615,43.44271],[-71.61998,43.44387],[-71.62815,43.45856],[-71.62503,43.4595],[-71.62841,43.46864],[-71.62411,43.46985],[-71.62761,43.47807],[-71.63002,43.47736],[-71.63805,43.49176],[-71.65347,43.48762],[-71.65486,43.492],[-71.67729,43.50049],[-71.68031,43.50589],[-71.69145,43.51614],[-71.6875,43.52785],[-71.70885,43.53968],[-71.71382,43.54988],[-71.7222,43.55296],[-71.72801,43.55894],[-71.72907,43.56085],[-71.72757,43.56341],[-71.73052,43.56474],[-71.72847,43.56551],[-71.73055,43.56773],[-71.7338,43.56761],[-71.736,43.56932],[-71.74162,43.56857],[-71.74484,43.56522],[-71.74954,43.56761],[-71.75548,43.56545],[-71.76102,43.56773],[-71.7775,43.5525],[-71.78255,43.56058],[-71.78557,43.56156],[-71.79338,43.55836],[-71.79749,43.55941],[-71.80428,43.55274],[-71.8084,43.55274],[-71.81098,43.55052],[-71.81514,43.55092],[-71.8181,43.54814],[-71.81624,43.54664],[-71.81792,43.54421],[-71.8492,43.6112],[-71.89211,43.57462],[-71.92837,43.53678],[-71.99031,43.46492],[-72.01136,43.43687],[-72.05375,43.4411],[-72.05804,43.42324],[-72.04681,43.41086],[-72.04974,43.38026],[-72.07862,43.33859]]]}},{"type":"Feature","id":"NH:234:33017","properties":{"destinationId":"234","locality":"Durham","definition":"Strafford","state":"NH","stateName":"New Hampshire","county":"Strafford County","countyGeoid":"33017","countyGeoids":["33017"],"coverage":"complete-counties","sourceType":"gsa_county_defined_rate_area"},"geometry":{"type":"Polygon","coordinates":[[[-71.24697,43.27619],[-71.24734,43.27523],[-71.14115,43.20832],[-71.02669,43.13795],[-71.07294,43.08168],[-70.9808,43.08237],[-70.93406,43.09011],[-70.87544,43.08042],[-70.86454,43.08673],[-70.86094,43.09462],[-70.86196,43.11144],[-70.85978,43.11559],[-70.86408,43.12015],[-70.86245,43.12436],[-70.85331,43.1271],[-70.8469,43.12609],[-70.83783,43.11948],[-70.82981,43.11764],[-70.82578,43.11803],[-70.82,43.12259],[-70.8281,43.12909],[-70.83,43.13839],[-70.8338,43.14689],[-70.8291,43.15789],[-70.8283,43.16898],[-70.8235,43.17458],[-70.8279,43.18868],[-70.81934,43.19304],[-70.82076,43.19978],[-70.8169,43.2146],[-70.81312,43.21725],[-70.80964,43.22541],[-70.81185,43.22831],[-70.81545,43.22902],[-70.81786,43.23791],[-70.82507,43.24093],[-70.83868,43.24293],[-70.84127,43.24865],[-70.83921,43.25122],[-70.8433,43.25432],[-70.85201,43.25681],[-70.85508,43.25519],[-70.85821,43.25629],[-70.86323,43.26511],[-70.87029,43.26631],[-70.8743,43.27187],[-70.8828,43.27318],[-70.8865,43.28278],[-70.8963,43.28528],[-70.89922,43.28754],[-70.89633,43.29212],[-70.906,43.29168],[-70.9074,43.29358],[-70.90039,43.30136],[-70.90231,43.30487],[-70.9074,43.30478],[-70.91246,43.30829],[-70.912,43.31982],[-70.91642,43.32028],[-70.93078,43.32957],[-70.93273,43.33676],[-70.93711,43.33737],[-70.95303,43.33326],[-70.95653,43.33469],[-70.96044,43.34105],[-70.96723,43.34378],[-70.97486,43.35797],[-70.97416,43.36292],[-70.98596,43.38002],[-70.9852,43.38674],[-70.98765,43.38952],[-70.98739,43.39346],[-70.98288,43.39481],[-70.98256,43.39778],[-70.98668,43.40354],[-70.98681,43.41426],[-70.9829,43.41933],[-70.97104,43.42561],[-70.96836,43.42928],[-70.96878,43.43489],[-70.96115,43.43832],[-70.96164,43.44304],[-70.9669,43.45046],[-70.96045,43.46659],[-70.96143,43.4697],[-70.96443,43.47328],[-70.97095,43.4739],[-70.97424,43.47742],[-70.96797,43.48078],[-70.9674,43.48264],[-70.96957,43.4862],[-70.96195,43.49775],[-70.95919,43.49935],[-70.95796,43.50804],[-70.95476,43.5098],[-70.95686,43.51272],[-70.95404,43.5188],[-70.95407,43.52261],[-70.95721,43.52499],[-70.95822,43.53159],[-70.96334,43.53525],[-70.96254,43.5413],[-71.02424,43.48291],[-71.03793,43.52983],[-71.04452,43.5248],[-71.04643,43.52969],[-71.05252,43.52469],[-71.05643,43.52811],[-71.06309,43.52418],[-71.06756,43.52724],[-71.08484,43.50669],[-71.08948,43.51269],[-71.09328,43.50734],[-71.09694,43.51168],[-71.10208,43.50688],[-71.10654,43.51225],[-71.1115,43.50671],[-71.12781,43.57279],[-71.15268,43.54762],[-71.1908,43.51503],[-71.17412,43.42317],[-71.15936,43.35512],[-71.19322,43.32416],[-71.20757,43.308],[-71.24697,43.27619]]]}},{"type":"Feature","id":"NH:235:33001","properties":{"destinationId":"235","locality":"Laconia","definition":"Belknap","state":"NH","stateName":"New Hampshire","county":"Belknap County","countyGeoid":"33001","countyGeoids":["33001"],"coverage":"complete-counties","sourceType":"gsa_county_defined_rate_area"},"geometry":{"type":"Polygon","coordinates":[[[-71.73153,43.59072],[-71.72949,43.58681],[-71.72461,43.58566],[-71.71572,43.5779],[-71.71854,43.57365],[-71.72481,43.57059],[-71.72421,43.56637],[-71.72884,43.56238],[-71.72801,43.55894],[-71.7222,43.55296],[-71.71382,43.54988],[-71.70885,43.53968],[-71.70635,43.53762],[-71.68866,43.52927],[-71.68749,43.52483],[-71.69145,43.51614],[-71.68031,43.50589],[-71.67729,43.50049],[-71.65486,43.492],[-71.65347,43.48762],[-71.63805,43.49176],[-71.63002,43.47736],[-71.62761,43.47807],[-71.62411,43.46985],[-71.62841,43.46864],[-71.62503,43.4595],[-71.62815,43.45856],[-71.61998,43.44387],[-71.615,43.44271],[-71.61189,43.43782],[-71.60773,43.44064],[-71.60446,43.44064],[-71.60108,43.43501],[-71.59504,43.43807],[-71.59559,43.44056],[-71.59312,43.44311],[-71.58855,43.44165],[-71.58467,43.44458],[-71.57998,43.44433],[-71.5753,43.44654],[-71.57001,43.45204],[-71.56112,43.4506],[-71.56115,43.4548],[-71.55544,43.45497],[-71.34905,43.34658],[-71.23601,43.28499],[-71.20757,43.308],[-71.19322,43.32416],[-71.15936,43.35512],[-71.17412,43.42317],[-71.1908,43.51503],[-71.16267,43.53896],[-71.19946,43.55913],[-71.20392,43.55242],[-71.20894,43.55052],[-71.22768,43.56458],[-71.25795,43.57129],[-71.33039,43.62015],[-71.33469,43.62077],[-71.33861,43.62526],[-71.53166,43.76098],[-71.52147,43.69799],[-71.64835,43.68451],[-71.65121,43.68022],[-71.64876,43.67174],[-71.65056,43.66671],[-71.65512,43.66126],[-71.65417,43.65359],[-71.65074,43.64505],[-71.65367,43.6412],[-71.65222,43.63667],[-71.65694,43.63031],[-71.65115,43.62112],[-71.66505,43.61357],[-71.66283,43.606],[-71.66458,43.60445],[-71.67041,43.60457],[-71.6881,43.59495],[-71.70334,43.59461],[-71.7077,43.60102],[-71.71329,43.60054],[-71.72014,43.59522],[-71.72698,43.59554],[-71.73153,43.59072]]]}},{"type":"Feature","id":"NH:236:33009","properties":{"destinationId":"236","locality":"Lebanon / Lincoln / West Lebanon","definition":"Grafton","state":"NH","stateName":"New Hampshire","county":"Grafton County","countyGeoid":"33009","countyGeoids":["33009"],"coverage":"complete-counties","sourceType":"gsa_county_defined_rate_area"},"geometry":{"type":"Polygon","coordinates":[[[-72.3344,43.61925],[-72.33474,43.61452],[-72.3327,43.61031],[-72.32823,43.60684],[-72.32766,43.60268],[-72.32968,43.60018],[-72.20831,43.58521],[-72.10641,43.55348],[-72.12018,43.5383],[-72.09089,43.52886],[-72.06952,43.55317],[-72.06716,43.54397],[-71.93531,43.52888],[-71.89211,43.57462],[-71.8492,43.6112],[-71.81792,43.54421],[-71.81624,43.54664],[-71.8181,43.54814],[-71.81514,43.55092],[-71.81098,43.55052],[-71.8084,43.55274],[-71.80428,43.55274],[-71.79749,43.55941],[-71.79338,43.55836],[-71.78557,43.56156],[-71.78255,43.56058],[-71.7775,43.5525],[-71.76102,43.56773],[-71.75548,43.56545],[-71.74954,43.56761],[-71.74484,43.56522],[-71.74162,43.56857],[-71.736,43.56932],[-71.7338,43.56761],[-71.73055,43.56773],[-71.72847,43.56551],[-71.73052,43.56474],[-71.72757,43.56341],[-71.72576,43.56443],[-71.72421,43.56637],[-71.72481,43.57059],[-71.71854,43.57365],[-71.71572,43.5779],[-71.72029,43.5828],[-71.73149,43.5885],[-71.73062,43.59262],[-71.72812,43.5949],[-71.72014,43.59522],[-71.71657,43.59878],[-71.71022,43.60108],[-71.7077,43.60102],[-71.70334,43.59461],[-71.68619,43.59555],[-71.67041,43.60457],[-71.66458,43.60445],[-71.66283,43.606],[-71.66505,43.61357],[-71.65115,43.62112],[-71.65694,43.63031],[-71.65222,43.63667],[-71.65367,43.6412],[-71.65074,43.64505],[-71.65417,43.65359],[-71.65512,43.66126],[-71.65056,43.66671],[-71.64876,43.67174],[-71.65121,43.68022],[-71.64835,43.68451],[-71.52147,43.69799],[-71.53802,43.79648],[-71.54381,43.79604],[-71.5646,43.89317],[-71.36196,43.91594],[-71.38361,44.02261],[-71.37641,44.02971],[-71.34666,44.06882],[-71.36636,44.06852],[-71.38163,44.09787],[-71.37649,44.10407],[-71.37652,44.11887],[-71.38714,44.1552],[-71.41317,44.16746],[-71.42651,44.2109],[-71.4159,44.21217],[-71.44334,44.24917],[-71.46971,44.25994],[-71.50584,44.25556],[-71.50741,44.2629],[-71.57582,44.2546],[-71.587,44.30476],[-71.68692,44.33658],[-71.69688,44.33212],[-71.76569,44.40631],[-71.77861,44.3998],[-71.79392,44.39927],[-71.80349,44.39189],[-71.7999,44.38595],[-71.80032,44.38428],[-71.81439,44.38193],[-71.81577,44.37546],[-71.81224,44.37149],[-71.81629,44.3674],[-71.8129,44.35555],[-71.83326,44.35014],[-71.85263,44.34087],[-71.86194,44.34011],[-71.87247,44.33663],[-71.90233,44.3475],[-71.90942,44.3484],[-71.91743,44.34654],[-71.92509,44.34202],[-71.92911,44.33758],[-71.9354,44.33577],[-71.94516,44.33774],[-71.96313,44.33656],[-71.98112,44.3375],[-71.98462,44.33624],[-71.98831,44.32977],[-72.00388,44.32409],[-72.0189,44.32022],[-72.02906,44.3224],[-72.03282,44.32045],[-72.03381,44.31735],[-72.0319,44.31565],[-72.03272,44.30247],[-72.03951,44.29594],[-72.04451,44.29496],[-72.0463,44.29198],[-72.05336,44.2905],[-72.05888,44.28624],[-72.06843,44.2713],[-72.06713,44.26824],[-72.05856,44.26908],[-72.06117,44.26338],[-72.05978,44.25688],[-72.05399,44.24693],[-72.05011,44.24405],[-72.04789,44.23849],[-72.05358,44.22604],[-72.0525,44.21888],[-72.05537,44.21283],[-72.05954,44.21032],[-72.05807,44.20607],[-72.05899,44.20211],[-72.06458,44.19695],[-72.06617,44.18977],[-72.0575,44.17944],[-72.05302,44.1679],[-72.04897,44.16504],[-72.04759,44.1618],[-72.04236,44.1617],[-72.0435,44.15692],[-72.03892,44.15642],[-72.04283,44.15097],[-72.04188,44.13762],[-72.03341,44.1311],[-72.03692,44.12527],[-72.04643,44.12391],[-72.05234,44.11989],[-72.05514,44.11042],[-72.05239,44.10109],[-72.04833,44.0969],[-72.04313,44.09724],[-72.04226,44.10135],[-72.04005,44.10335],[-72.03305,44.10178],[-72.0309,44.09972],[-72.03369,44.09014],[-72.04515,44.08785],[-72.04438,44.086],[-72.03324,44.08151],[-72.03184,44.07854],[-72.03804,44.07654],[-72.04306,44.07927],[-72.05249,44.07672],[-72.0529,44.07534],[-72.04912,44.07236],[-72.04893,44.06901],[-72.05729,44.05834],[-72.06761,44.05803],[-72.06915,44.05482],[-72.06257,44.05177],[-72.0625,44.04934],[-72.07832,44.04338],[-72.07943,44.04058],[-72.07484,44.03299],[-72.08041,44.02921],[-72.08291,44.02158],[-72.08548,44.02126],[-72.09028,44.02403],[-72.09326,44.02402],[-72.09526,44.02189],[-72.09519,44.01667],[-72.0905,44.01274],[-72.09006,44.0099],[-72.09326,44.00938],[-72.09759,44.01523],[-72.10528,44.01306],[-72.10437,44.00216],[-72.11698,43.99448],[-72.11671,43.99195],[-72.11218,43.98684],[-72.11473,43.96833],[-72.11015,43.96725],[-72.10515,43.96988],[-72.0911,43.96644],[-72.09141,43.96545],[-72.10049,43.96319],[-72.10122,43.96138],[-72.09909,43.95738],[-72.10629,43.94947],[-72.11862,43.94604],[-72.11693,43.93439],[-72.11815,43.92361],[-72.12042,43.91959],[-72.13285,43.91301],[-72.13548,43.90957],[-72.15132,43.9017],[-72.15858,43.89276],[-72.15922,43.88831],[-72.16164,43.88676],[-72.17056,43.88618],[-72.17271,43.88425],[-72.17358,43.87967],[-72.16791,43.86911],[-72.18285,43.86552],[-72.18792,43.85613],[-72.18286,43.84511],[-72.1822,43.83403],[-72.18895,43.82132],[-72.18418,43.81252],[-72.18333,43.80818],[-72.18485,43.8047],[-72.19075,43.80081],[-72.19771,43.7896],[-72.20554,43.78458],[-72.20514,43.77114],[-72.2181,43.76573],[-72.23418,43.74596],[-72.24507,43.74309],[-72.26447,43.7339],[-72.27178,43.73341],[-72.27527,43.72753],[-72.28481,43.72036],[-72.29222,43.71133],[-72.29956,43.70628],[-72.30513,43.69532],[-72.30602,43.68306],[-72.30309,43.67808],[-72.30432,43.66951],[-72.31402,43.65616],[-72.31506,43.64942],[-72.31408,43.64281],[-72.32913,43.63556],[-72.32947,43.63284],[-72.32724,43.63053],[-72.32897,43.62699],[-72.33236,43.62507],[-72.3344,43.61925]]]}},{"type":"Feature","id":"NH:237:33011","properties":{"destinationId":"237","locality":"Manchester","definition":"Hillsborough","state":"NH","stateName":"New Hampshire","county":"Hillsborough County","countyGeoid":"33011","countyGeoids":["33011"],"coverage":"complete-counties","sourceType":"gsa_county_defined_rate_area"},"geometry":{"type":"Polygon","coordinates":[[[-72.06125,42.96581],[-72.06222,42.9448],[-72.00619,42.94379],[-71.97471,42.7894],[-71.94428,42.78841],[-71.92902,42.71224],[-71.29421,42.69699],[-71.27893,42.71126],[-71.2679,42.72589],[-71.2556,42.73639],[-71.24554,42.74257],[-71.26009,42.75573],[-71.35104,42.77218],[-71.34986,42.77406],[-71.35287,42.77787],[-71.35154,42.78061],[-71.35308,42.78326],[-71.35805,42.78514],[-71.36243,42.78296],[-71.36442,42.78524],[-71.3642,42.78893],[-71.3662,42.79169],[-71.36068,42.79896],[-71.3872,42.82356],[-71.42707,42.82484],[-71.45123,42.93044],[-71.37544,42.93932],[-71.39239,43.00931],[-71.44996,43.02007],[-71.45478,43.044],[-71.47398,43.03527],[-71.48358,43.04171],[-71.48911,43.05178],[-71.51277,43.04962],[-71.51747,43.06891],[-71.64129,43.05417],[-71.66777,43.15253],[-71.8561,43.11514],[-71.91321,43.2071],[-72.03684,43.18247],[-72.02348,43.16012],[-72.03815,43.12881],[-72.03408,43.12875],[-72.0435,43.08199],[-72.04197,43.08224],[-72.05795,43.01892],[-72.06125,42.96581]]]}},{"type":"Feature","id":"NH:238:33015","properties":{"destinationId":"238","locality":"Portsmouth","definition":"Rockingham","state":"NH","stateName":"New Hampshire","county":"Rockingham County","countyGeoid":"33015","countyGeoids":["33015"],"coverage":"complete-counties","sourceType":"gsa_county_defined_rate_area"},"geometry":{"type":"MultiPolygon","coordinates":[[[[-70.61702,42.97718],[-70.61542,42.9772],[-70.61399,42.97335],[-70.61062,42.97641],[-70.61457,42.9786],[-70.61702,42.97718]]],[[[-70.62678,42.96949],[-70.62613,42.9677],[-70.62246,42.96748],[-70.62678,42.96949]]],[[[-70.62787,42.97629],[-70.62428,42.97666],[-70.62685,42.97816],[-70.62787,42.97629]]],[[[-71.44979,42.93109],[-71.45123,42.93044],[-71.42707,42.82484],[-71.3872,42.82356],[-71.36068,42.79896],[-71.3662,42.79169],[-71.3642,42.78893],[-71.36442,42.78524],[-71.36243,42.78296],[-71.35805,42.78514],[-71.35308,42.78326],[-71.35154,42.78061],[-71.35287,42.77787],[-71.34986,42.77406],[-71.35104,42.77218],[-71.26009,42.75573],[-71.24554,42.74257],[-71.2239,42.74669],[-71.1818,42.73759],[-71.1861,42.79069],[-71.1677,42.80739],[-71.1497,42.81549],[-71.1325,42.82139],[-71.0642,42.80629],[-71.0536,42.83309],[-71.0475,42.84409],[-71.0444,42.84879],[-71.0312,42.85909],[-70.9665,42.86899],[-70.92763,42.88533],[-70.90277,42.88653],[-70.88614,42.88261],[-70.84862,42.86094],[-70.83079,42.86892],[-70.8173,42.87229],[-70.81574,42.88453],[-70.811,42.89238],[-70.81068,42.90689],[-70.80871,42.91279],[-70.80597,42.91655],[-70.79475,42.91812],[-70.79815,42.92093],[-70.79864,42.92429],[-70.794,42.93989],[-70.78616,42.94404],[-70.78513,42.95079],[-70.78038,42.9558],[-70.7756,42.95721],[-70.77173,42.96132],[-70.76967,42.96442],[-70.7718,42.96806],[-70.76432,42.97375],[-70.76457,42.9802],[-70.76147,42.98668],[-70.7567,42.99134],[-70.74997,42.99169],[-70.74902,42.99547],[-70.74302,43.00167],[-70.74546,43.00402],[-70.74379,43.00803],[-70.74036,43.01117],[-70.73436,43.01331],[-70.73043,43.02539],[-70.71894,43.03235],[-70.71208,43.04372],[-70.71154,43.05798],[-70.7038,43.05957],[-70.7065,43.07533],[-70.73808,43.07382],[-70.7419,43.07739],[-70.7564,43.07999],[-70.7664,43.09269],[-70.7791,43.09589],[-70.78388,43.10087],[-70.80871,43.11706],[-70.82,43.12259],[-70.82578,43.11803],[-70.83392,43.11801],[-70.8469,43.12609],[-70.85331,43.1271],[-70.86245,43.12436],[-70.86437,43.1217],[-70.85978,43.11559],[-70.86196,43.11144],[-70.86066,43.09828],[-70.86278,43.08857],[-70.87544,43.08042],[-70.93406,43.09011],[-70.9808,43.08237],[-71.07294,43.08168],[-71.02669,43.13795],[-71.24734,43.27523],[-71.25208,43.26398],[-71.2628,43.25006],[-71.31551,43.16206],[-71.31771,43.1624],[-71.32927,43.14095],[-71.35612,43.10204],[-71.39224,43.03928],[-71.40296,43.04105],[-71.39631,43.01689],[-71.39228,43.00901],[-71.37544,42.93932],[-71.44979,42.93109]]]]}}]}