{"type":"FeatureCollection","features":[{"type":"Feature","id":"NM:252:35001","properties":{"destinationId":"252","locality":"Albuquerque","definition":"Bernalillo","state":"NM","stateName":"New Mexico","county":"Bernalillo County","countyGeoid":"35001","countyGeoids":["35001"],"coverage":"complete-counties","sourceType":"gsa_county_defined_rate_area"},"geometry":{"type":"Polygon","coordinates":[[[-107.19676,35.21946],[-107.02448,34.86995],[-106.72083,34.87005],[-106.71445,34.87956],[-106.70287,34.88533],[-106.69644,34.89703],[-106.68619,34.90625],[-106.42949,34.9034],[-106.424,34.90187],[-106.41811,34.89228],[-106.41521,34.89303],[-106.41156,34.88973],[-106.41178,34.87025],[-106.14974,34.87014],[-106.14983,34.95346],[-106.24376,34.95336],[-106.24422,35.21566],[-106.60448,35.21786],[-106.6105,35.21368],[-106.61141,35.21463],[-106.62141,35.20932],[-106.63815,35.20388],[-106.64337,35.19776],[-106.64546,35.20158],[-106.64464,35.20616],[-106.64249,35.2073],[-106.65101,35.21078],[-106.64875,35.21453],[-106.65815,35.21788],[-107.19676,35.21946]]]}},{"type":"Feature","id":"NM:254:35049","properties":{"destinationId":"254","locality":"Santa Fe","definition":"Santa Fe","state":"NM","stateName":"New Mexico","county":"Santa Fe County","countyGeoid":"35049","countyGeoids":["35049"],"coverage":"complete-counties","sourceType":"gsa_county_defined_rate_area"},"geometry":{"type":"Polygon","coordinates":[[[-106.2505,35.75582],[-106.25025,35.6529],[-106.24866,35.6529],[-106.24895,35.30457],[-106.24563,35.30433],[-106.24349,35.17139],[-106.24387,35.04],[-105.71442,35.0416],[-105.71575,35.30417],[-105.71741,35.30423],[-105.7188,35.63084],[-105.71849,35.65321],[-105.71634,35.6542],[-105.72121,35.73365],[-105.7222,35.81209],[-105.71681,36.00232],[-106.07135,36.00197],[-106.07134,35.99946],[-106.0649,35.99669],[-106.06776,35.9943],[-106.06802,35.99188],[-106.06594,35.9893],[-106.05588,35.98943],[-106.05764,35.98675],[-106.05415,35.98591],[-106.05435,35.93078],[-106.24565,35.93074],[-106.24564,35.89159],[-106.24848,35.87278],[-106.24826,35.83918],[-106.2475,35.83996],[-106.24048,35.83459],[-106.22798,35.83222],[-106.22539,35.82875],[-106.21273,35.82822],[-106.1936,35.83038],[-106.18366,35.82885],[-106.18276,35.82646],[-106.17185,35.82776],[-106.17844,35.82011],[-106.17789,35.81614],[-106.18053,35.80883],[-106.18516,35.80626],[-106.19257,35.80493],[-106.19698,35.79558],[-106.19599,35.79092],[-106.19787,35.7876],[-106.20234,35.7856],[-106.20241,35.7838],[-106.20777,35.78034],[-106.20823,35.77806],[-106.21396,35.77668],[-106.21617,35.77228],[-106.22363,35.76742],[-106.23994,35.76425],[-106.24455,35.75713],[-106.2505,35.75582]]]}},{"type":"Feature","id":"NM:423:35055","properties":{"destinationId":"423","locality":"Taos","definition":"Taos","state":"NM","stateName":"New Mexico","county":"Taos County","countyGeoid":"35055","countyGeoids":["35055"],"coverage":"complete-counties","sourceType":"gsa_county_defined_rate_area"},"geometry":{"type":"Polygon","coordinates":[[[-106.05591,36.2995],[-106.05836,36.29698],[-105.85686,36.23034],[-105.76143,36.12982],[-105.75065,36.11573],[-105.73588,36.10013],[-105.53038,36.01301],[-105.50871,36.01907],[-105.49839,36.03257],[-105.48934,36.0374],[-105.46292,36.07837],[-105.41999,36.1317],[-105.42104,36.14852],[-105.41664,36.15238],[-105.41474,36.15712],[-105.41822,36.16123],[-105.42131,36.16199],[-105.42181,36.16968],[-105.41368,36.17848],[-105.4027,36.18516],[-105.39702,36.19157],[-105.39598,36.1979],[-105.39734,36.20244],[-105.39919,36.2033],[-105.39696,36.21118],[-105.39381,36.21316],[-105.3928,36.21612],[-105.39465,36.22126],[-105.39746,36.22184],[-105.39933,36.22983],[-105.41014,36.23529],[-105.40968,36.23681],[-105.39375,36.24353],[-105.38735,36.25284],[-105.34126,36.26186],[-105.32752,36.27704],[-105.33604,36.30336],[-105.3338,36.31157],[-105.33442,36.31493],[-105.33125,36.32303],[-105.33262,36.33155],[-105.32859,36.33896],[-105.33239,36.34594],[-105.32911,36.34974],[-105.32964,36.35593],[-105.33238,36.36753],[-105.33739,36.36893],[-105.33619,36.37339],[-105.32924,36.37755],[-105.32656,36.38246],[-105.32512,36.38863],[-105.32722,36.39291],[-105.32694,36.39925],[-105.33036,36.40469],[-105.3273,36.40543],[-105.32786,36.40831],[-105.33158,36.41239],[-105.34045,36.41608],[-105.33622,36.42646],[-105.3327,36.42879],[-105.33714,36.43091],[-105.33713,36.43339],[-105.33986,36.43497],[-105.33598,36.43895],[-105.33776,36.44459],[-105.34756,36.44623],[-105.35358,36.44304],[-105.35363,36.4464],[-105.3573,36.45076],[-105.3494,36.45571],[-105.34361,36.46834],[-105.33958,36.47046],[-105.33882,36.47722],[-105.33575,36.48055],[-105.33637,36.4835],[-105.32741,36.48694],[-105.32218,36.48669],[-105.31872,36.49169],[-105.32537,36.49624],[-105.3276,36.50076],[-105.33716,36.50524],[-105.33807,36.50998],[-105.34387,36.51115],[-105.34782,36.53205],[-105.35531,36.53612],[-105.35778,36.54097],[-105.36766,36.54268],[-105.36884,36.54589],[-105.37618,36.54965],[-105.3777,36.5523],[-105.3753,36.55622],[-105.36977,36.55467],[-105.36203,36.55787],[-105.35566,36.55842],[-105.34934,36.56176],[-105.3515,36.56478],[-105.35019,36.57245],[-105.35388,36.575],[-105.35388,36.5794],[-105.35646,36.58253],[-105.35792,36.58975],[-105.36224,36.59624],[-105.36721,36.59811],[-105.37185,36.60329],[-105.37468,36.60904],[-105.37265,36.6137],[-105.37366,36.61635],[-105.3681,36.61903],[-105.36751,36.62025],[-105.36967,36.62263],[-105.36635,36.62463],[-105.36548,36.62767],[-105.35862,36.63043],[-105.35415,36.63045],[-105.35103,36.63339],[-105.35138,36.6369],[-105.35536,36.63918],[-105.35491,36.64292],[-105.36137,36.65072],[-105.36183,36.65337],[-105.3641,36.65408],[-105.36006,36.65742],[-105.36034,36.66298],[-105.37034,36.67156],[-105.37064,36.68103],[-105.36516,36.68347],[-105.36487,36.68879],[-105.35233,36.69723],[-105.34451,36.69683],[-105.3353,36.70239],[-105.32662,36.69786],[-105.32201,36.69844],[-105.32099,36.70139],[-105.32199,36.70374],[-105.31695,36.71437],[-105.31201,36.71747],[-105.31146,36.71993],[-105.31322,36.72324],[-105.31184,36.72447],[-105.30394,36.72468],[-105.30101,36.72655],[-105.29862,36.72547],[-105.29758,36.72754],[-105.29084,36.72846],[-105.2854,36.72432],[-105.28541,36.72123],[-105.28077,36.71834],[-105.27692,36.72134],[-105.2714,36.71988],[-105.26752,36.71638],[-105.26467,36.71667],[-105.26283,36.71959],[-105.25563,36.71965],[-105.25029,36.71737],[-105.24298,36.72213],[-105.23063,36.72378],[-105.22902,36.72955],[-105.22433,36.73408],[-105.22665,36.73834],[-105.22427,36.75299],[-105.22231,36.75458],[-105.22518,36.75814],[-105.22664,36.77143],[-105.23467,36.78604],[-105.2353,36.79066],[-105.22637,36.80342],[-105.23341,36.80726],[-105.23344,36.812],[-105.22444,36.82228],[-105.22477,36.83083],[-105.22326,36.83315],[-105.22933,36.84225],[-105.22937,36.84771],[-105.22178,36.86882],[-105.22198,36.87287],[-105.2154,36.883],[-105.21345,36.88988],[-105.20012,36.91563],[-105.21076,36.91729],[-105.21322,36.92662],[-105.21309,36.93236],[-105.22102,36.93427],[-105.22224,36.94157],[-105.22732,36.94626],[-105.22844,36.95456],[-105.23615,36.96234],[-105.23446,36.96664],[-105.23743,36.97322],[-105.23585,36.97682],[-105.23617,36.98195],[-105.2302,36.98592],[-105.22347,36.98671],[-105.21941,36.99298],[-105.22051,36.99517],[-106.00632,36.99535],[-106.0064,36.98141],[-106.0047,36.97646],[-106.00037,36.97133],[-105.99732,36.96037],[-105.98799,36.94046],[-105.98495,36.9228],[-105.98577,36.92045],[-105.97551,36.90238],[-105.97189,36.88625],[-105.97422,36.86645],[-105.97296,36.84722],[-105.97456,36.83749],[-105.98453,36.81137],[-105.98214,36.78217],[-105.98008,36.77337],[-105.97995,36.76734],[-105.98225,36.76408],[-105.98042,36.75888],[-105.98212,36.74639],[-105.98004,36.74211],[-105.97907,36.7271],[-105.97731,36.72176],[-105.97939,36.71976],[-105.98106,36.71283],[-105.97821,36.70983],[-105.97875,36.70114],[-105.97489,36.69526],[-105.97085,36.68311],[-105.97083,36.67148],[-105.96831,36.6596],[-105.98433,36.65963],[-105.98439,36.64529],[-105.97996,36.6476],[-105.9725,36.6476],[-105.97184,36.63244],[-105.96429,36.61318],[-105.96411,36.59833],[-105.95567,36.57559],[-105.94996,36.54259],[-105.95481,36.53916],[-105.95456,36.53576],[-105.95211,36.53383],[-105.95242,36.51959],[-105.94175,36.49657],[-105.94006,36.48726],[-105.94079,36.47722],[-105.93847,36.46552],[-105.9404,36.45714],[-105.95235,36.43444],[-105.95453,36.42572],[-105.95528,36.41346],[-105.95325,36.4072],[-105.95404,36.39609],[-105.95152,36.39195],[-105.95261,36.38747],[-105.95146,36.3798],[-105.9532,36.36854],[-105.95989,36.35659],[-105.95996,36.35378],[-105.96993,36.34739],[-105.9716,36.34481],[-105.97681,36.34298],[-105.98413,36.34311],[-105.98665,36.34065],[-105.99585,36.33822],[-105.99799,36.33667],[-105.99818,36.33383],[-106.00184,36.33205],[-106.01199,36.33177],[-106.01845,36.32796],[-106.02709,36.32916],[-106.03831,36.32566],[-106.03832,36.32357],[-106.04852,36.31271],[-106.04774,36.30959],[-106.05594,36.3049],[-106.05591,36.2995]]]}},{"type":"Feature","id":"NM:479:35015","properties":{"destinationId":"479","locality":"Carlsbad","definition":"Eddy","state":"NM","stateName":"New Mexico","county":"Eddy County","countyGeoid":"35015","countyGeoids":["35015"],"coverage":"complete-counties","sourceType":"gsa_county_defined_rate_area"},"geometry":{"type":"Polygon","coordinates":[[[-104.85152,32.52054],[-104.85128,32.25349],[-104.84764,32.2535],[-104.84774,32.00008],[-104.77211,31.99749],[-104.75479,31.99777],[-104.75456,32.00053],[-103.72288,32.00021],[-103.72294,32.52234],[-103.81422,32.52237],[-103.81451,32.96511],[-104.84158,32.96321],[-104.84217,32.52054],[-104.85152,32.52054]]]}}]}