{"type":"FeatureCollection","features":[{"type":"Feature","id":"NV:255:32031","properties":{"destinationId":"255","locality":"Incline Village / Reno / Sparks","definition":"Washoe","state":"NV","stateName":"Nevada","county":"Washoe County","countyGeoid":"32031","countyGeoids":["32031"],"coverage":"complete-counties","sourceType":"gsa_county_defined_rate_area"},"geometry":{"type":"Polygon","coordinates":[[[-120.00645,39.27288],[-120.0045,39.1656],[-119.88079,39.16551],[-119.8808,39.17091],[-119.8621,39.17115],[-119.86252,39.18564],[-119.85326,39.18576],[-119.85326,39.19302],[-119.84388,39.19315],[-119.84393,39.20078],[-119.82672,39.20082],[-119.82673,39.20799],[-119.80952,39.20943],[-119.79886,39.20804],[-119.79886,39.21524],[-119.77087,39.21528],[-119.77087,39.22983],[-119.75217,39.22989],[-119.75209,39.24438],[-119.7153,39.24428],[-119.71264,39.25087],[-119.71407,39.25918],[-119.69652,39.25914],[-119.69596,39.2809],[-119.67748,39.28087],[-119.67741,39.33166],[-119.6585,39.33154],[-119.65882,39.34609],[-119.66813,39.34622],[-119.6681,39.3608],[-119.67753,39.36065],[-119.67753,39.3751],[-119.68542,39.37506],[-119.68546,39.38958],[-119.67727,39.38958],[-119.677,39.40447],[-119.65714,39.40411],[-119.65507,39.44748],[-119.69609,39.44746],[-119.69564,39.52002],[-119.68826,39.52003],[-119.67737,39.51284],[-119.66979,39.51137],[-119.66493,39.50852],[-119.65317,39.50817],[-119.64246,39.51282],[-119.62325,39.51104],[-119.61946,39.51387],[-119.61886,39.5187],[-119.61584,39.52263],[-119.6088,39.52723],[-119.60881,39.53117],[-119.59386,39.54429],[-119.57368,39.55028],[-119.54661,39.56229],[-119.54086,39.56371],[-119.54082,39.56233],[-119.53668,39.56098],[-119.52908,39.56668],[-119.51174,39.56228],[-119.50346,39.56237],[-119.49889,39.56412],[-119.49001,39.5629],[-119.48578,39.56556],[-119.47627,39.56717],[-119.47324,39.56581],[-119.46933,39.56991],[-119.47122,39.57583],[-119.46897,39.57778],[-119.46784,39.58402],[-119.45682,39.58914],[-119.44448,39.58512],[-119.43614,39.58788],[-119.42204,39.58794],[-119.41345,39.59065],[-119.40482,39.58982],[-119.39487,39.58568],[-119.38938,39.58791],[-119.38156,39.5884],[-119.3706,39.58688],[-119.36428,39.59547],[-119.35787,39.59786],[-119.33953,39.59661],[-119.33607,39.59909],[-119.32205,39.60363],[-119.31749,39.60762],[-119.31402,39.60742],[-119.30785,39.6131],[-119.29904,39.61494],[-119.29738,39.61695],[-119.2941,39.61742],[-119.29146,39.62068],[-119.28441,39.62309],[-119.28242,39.62889],[-119.2798,39.62711],[-119.28312,39.62232],[-119.27687,39.62232],[-119.25734,39.65132],[-119.18934,39.65142],[-119.18933,39.68048],[-119.17064,39.68045],[-119.1709,39.78829],[-119.18971,39.78822],[-119.18976,39.80999],[-119.20854,39.80997],[-119.20863,39.89946],[-119.22614,39.89945],[-119.22518,39.99938],[-119.3393,39.99861],[-119.3385,40.51781],[-119.31304,40.51831],[-119.30933,40.95489],[-119.3096,40.96038],[-119.32979,40.96039],[-119.33107,41.23512],[-119.30571,41.23454],[-119.30464,41.4147],[-119.32396,41.41452],[-119.32111,41.59092],[-119.32703,41.59058],[-119.32696,41.8569],[-119.32482,41.8569],[-119.32418,41.99421],[-119.87293,41.99764],[-119.99923,41.99494],[-119.99936,40.8731],[-119.99593,40.4999],[-119.99618,40.26246],[-120.00174,39.53885],[-120.00645,39.27288]]]}},{"type":"Feature","id":"NV:256:32003","properties":{"destinationId":"256","locality":"Las Vegas","definition":"Clark","state":"NV","stateName":"Nevada","county":"Clark County","countyGeoid":"32003","countyGeoids":["32003"],"coverage":"complete-counties","sourceType":"gsa_county_defined_rate_area"},"geometry":{"type":"Polygon","coordinates":[[[-115.89692,36.84208],[-115.89508,36.42107],[-115.89575,36.17223],[-115.84576,36.17076],[-115.84598,35.96421],[-115.62739,35.79385],[-115.27134,35.51266],[-114.82781,35.15924],[-114.63349,35.00186],[-114.63667,35.00881],[-114.63802,35.02056],[-114.63689,35.02837],[-114.62712,35.04472],[-114.60669,35.05894],[-114.60291,35.06859],[-114.60474,35.07483],[-114.61313,35.0831],[-114.62252,35.0887],[-114.64283,35.0965],[-114.64676,35.10187],[-114.64435,35.1059],[-114.63228,35.11709],[-114.62136,35.12115],[-114.59779,35.12174],[-114.58532,35.12504],[-114.57826,35.12881],[-114.5726,35.13956],[-114.57394,35.14389],[-114.56953,35.16232],[-114.56924,35.18348],[-114.57212,35.20059],[-114.57484,35.2059],[-114.57996,35.20964],[-114.58031,35.2201],[-114.58713,35.26238],[-114.5975,35.29695],[-114.59516,35.32424],[-114.60575,35.35845],[-114.6177,35.38013],[-114.62089,35.39687],[-114.62676,35.40964],[-114.65275,35.43082],[-114.65401,35.43587],[-114.66354,35.4478],[-114.66388,35.45466],[-114.66694,35.45948],[-114.66599,35.46798],[-114.67316,35.47481],[-114.67191,35.48209],[-114.67582,35.48853],[-114.67872,35.49875],[-114.67716,35.51287],[-114.67124,35.51952],[-114.66398,35.52216],[-114.65716,35.5323],[-114.6574,35.53639],[-114.66157,35.54569],[-114.66323,35.56516],[-114.66839,35.57433],[-114.67575,35.57946],[-114.65924,35.58748],[-114.65431,35.59759],[-114.65341,35.61079],[-114.65946,35.61955],[-114.6661,35.62239],[-114.67762,35.64177],[-114.689,35.65028],[-114.69021,35.66516],[-114.68221,35.67819],[-114.68063,35.68405],[-114.68266,35.68857],[-114.70142,35.70108],[-114.70541,35.70829],[-114.70545,35.71176],[-114.69731,35.73369],[-114.69571,35.75599],[-114.70141,35.76909],[-114.69891,35.79018],[-114.71211,35.80618],[-114.70991,35.81018],[-114.70371,35.81458],[-114.69525,35.83228],[-114.70229,35.84079],[-114.70653,35.84903],[-114.7036,35.8526],[-114.69437,35.85446],[-114.69146,35.85866],[-114.68201,35.86328],[-114.66969,35.86508],[-114.66164,35.87107],[-114.66321,35.87369],[-114.67201,35.87802],[-114.67798,35.88471],[-114.70027,35.90177],[-114.70852,35.91231],[-114.70753,35.92806],[-114.71254,35.93186],[-114.72994,35.96218],[-114.7406,35.97566],[-114.74376,35.9851],[-114.73986,35.99211],[-114.74324,36.00653],[-114.74278,36.00996],[-114.7221,36.02895],[-114.73248,36.03743],[-114.74002,36.03747],[-114.7421,36.03979],[-114.74249,36.04556],[-114.7357,36.05339],[-114.73625,36.05847],[-114.74334,36.07054],[-114.7548,36.0847],[-114.7532,36.08951],[-114.74708,36.09701],[-114.73616,36.10437],[-114.70374,36.10835],[-114.69366,36.11248],[-114.68267,36.10915],[-114.67978,36.10987],[-114.67187,36.11596],[-114.66434,36.1163],[-114.66214,36.11774],[-114.65813,36.12413],[-114.64012,36.13513],[-114.63686,36.13555],[-114.63047,36.14222],[-114.62384,36.13714],[-114.6206,36.13176],[-114.61546,36.12965],[-114.59647,36.14154],[-114.57958,36.1467],[-114.57109,36.1511],[-114.53923,36.15176],[-114.52885,36.14775],[-114.51428,36.1508],[-114.5081,36.14971],[-114.50024,36.14323],[-114.50034,36.1407],[-114.50718,36.13634],[-114.50921,36.13325],[-114.50847,36.12991],[-114.50472,36.12719],[-114.49885,36.12661],[-114.48383,36.12972],[-114.46867,36.13889],[-114.46364,36.1397],[-114.45649,36.13803],[-114.44714,36.12602],[-114.44374,36.12559],[-114.42311,36.13735],[-114.41525,36.14512],[-114.40914,36.147],[-114.38148,36.14135],[-114.37449,36.14366],[-114.37018,36.14262],[-114.35897,36.1278],[-114.34502,36.11847],[-114.33463,36.10678],[-114.32878,36.1055],[-114.30694,36.08249],[-114.30417,36.07558],[-114.30748,36.06967],[-114.31242,36.06612],[-114.31433,36.06202],[-114.31359,36.05905],[-114.30848,36.05698],[-114.29594,36.05617],[-114.29087,36.05051],[-114.27817,36.04582],[-114.27086,36.04552],[-114.2689,36.04094],[-114.26922,36.03681],[-114.265,36.02885],[-114.2614,36.02545],[-114.24214,36.01519],[-114.23344,36.01284],[-114.22646,36.01461],[-114.21193,36.01483],[-114.19122,36.02002],[-114.17327,36.02675],[-114.16442,36.02685],[-114.15139,36.02313],[-114.14591,36.02723],[-114.14467,36.03427],[-114.13826,36.03719],[-114.13484,36.04387],[-114.13621,36.05323],[-114.13121,36.06576],[-114.12402,36.07556],[-114.11965,36.08582],[-114.1119,36.09584],[-114.12103,36.10388],[-114.12128,36.10952],[-114.11702,36.11485],[-114.10742,36.1194],[-114.09699,36.12082],[-114.0917,36.1373],[-114.08123,36.15021],[-114.06822,36.17769],[-114.05779,36.18863],[-114.04394,36.19335],[-114.04545,36.29171],[-114.0432,36.3794],[-114.04313,36.46972],[-114.0449,36.49608],[-114.0494,36.68886],[-114.05062,36.84314],[-114.7623,36.84386],[-114.76251,36.85347],[-115.74085,36.85308],[-115.74075,36.8419],[-115.89692,36.84208]]]}}]}