{"type":"FeatureCollection","features":[{"type":"Feature","id":"NY:258:36001","properties":{"destinationId":"258","locality":"Albany","definition":"Albany","state":"NY","stateName":"New York","county":"Albany County","countyGeoid":"36001","countyGeoids":["36001"],"coverage":"complete-counties","sourceType":"gsa_county_defined_rate_area"},"geometry":{"type":"Polygon","coordinates":[[[-74.26473,42.42013],[-74.26347,42.40713],[-73.9307,42.44519],[-73.83676,42.45859],[-73.78372,42.46423],[-73.78608,42.47525],[-73.78555,42.48721],[-73.77708,42.504],[-73.76113,42.52632],[-73.75831,42.53422],[-73.75217,42.56672],[-73.75236,42.57668],[-73.76126,42.60078],[-73.76126,42.61038],[-73.75296,42.62868],[-73.75116,42.63608],[-73.7418,42.65432],[-73.72913,42.66505],[-73.70292,42.6993],[-73.70356,42.70948],[-73.6972,42.72886],[-73.68896,42.73828],[-73.68726,42.75248],[-73.68436,42.75788],[-73.68327,42.76795],[-73.67676,42.78328],[-73.68026,42.78338],[-73.68916,42.77538],[-73.70316,42.78248],[-73.70896,42.78768],[-73.71136,42.79518],[-73.71986,42.80128],[-73.72036,42.80418],[-73.71666,42.80818],[-73.72136,42.81308],[-73.72266,42.82068],[-73.72666,42.82258],[-73.73766,42.81888],[-73.75016,42.80138],[-73.75847,42.79528],[-73.76666,42.78608],[-73.76876,42.78588],[-73.77736,42.79178],[-73.78246,42.79178],[-73.78706,42.78968],[-73.79797,42.77948],[-73.80937,42.77887],[-73.8096,42.77502],[-74.18027,42.72998],[-74.16468,42.71721],[-74.16952,42.69136],[-74.16852,42.67431],[-74.16972,42.66743],[-74.17932,42.64638],[-74.19257,42.62707],[-74.1935,42.619],[-74.21517,42.59744],[-74.21961,42.59141],[-74.22027,42.58541],[-74.23399,42.57569],[-74.23762,42.56312],[-74.23696,42.56012],[-74.24157,42.5508],[-74.22907,42.52903],[-74.22564,42.5264],[-74.22498,42.50855],[-74.22645,42.49923],[-74.2285,42.49438],[-74.23645,42.48546],[-74.24163,42.47204],[-74.24448,42.47018],[-74.25242,42.44537],[-74.26473,42.42013]]]}},{"type":"Feature","id":"NY:260:36029","properties":{"destinationId":"260","locality":"Buffalo","definition":"Erie","state":"NY","stateName":"New York","county":"Erie County","countyGeoid":"36029","countyGeoids":["36029"],"coverage":"complete-counties","sourceType":"gsa_county_defined_rate_area"},"geometry":{"type":"Polygon","coordinates":[[[-79.13689,42.5698],[-79.1258,42.56509],[-79.1223,42.56546],[-79.11493,42.57005],[-79.10856,42.5702],[-79.10421,42.56819],[-79.10615,42.5641],[-79.10134,42.5624],[-79.09584,42.56449],[-79.09372,42.56315],[-79.09458,42.56099],[-79.09224,42.55886],[-79.09241,42.55712],[-79.08088,42.55544],[-79.0812,42.5539],[-79.09104,42.55159],[-79.08962,42.54997],[-79.06078,42.53785],[-79.05383,42.53625],[-79.05122,42.53912],[-79.03983,42.53768],[-79.0331,42.54328],[-79.03106,42.54069],[-79.02473,42.5399],[-79.01343,42.53468],[-79.00673,42.53582],[-79.00339,42.5328],[-78.99533,42.5318],[-78.9917,42.52925],[-78.98987,42.52343],[-78.9864,42.51912],[-78.98813,42.51549],[-78.98749,42.51313],[-78.98278,42.51156],[-78.98623,42.50528],[-78.98023,42.50616],[-78.97932,42.50368],[-78.97509,42.50255],[-78.96656,42.4937],[-78.96118,42.49402],[-78.96344,42.48659],[-78.95703,42.47236],[-78.95215,42.47112],[-78.95068,42.46832],[-78.93893,42.46801],[-78.93457,42.4632],[-78.91854,42.4532],[-78.91846,42.44939],[-78.9212,42.44841],[-78.922,42.4444],[-78.92045,42.44256],[-78.91497,42.44417],[-78.91173,42.44791],[-78.90551,42.44622],[-78.90045,42.44912],[-78.89376,42.43912],[-78.88714,42.4421],[-78.8849,42.43851],[-78.88299,42.43829],[-78.87771,42.44173],[-78.87161,42.43954],[-78.86805,42.44199],[-78.85074,42.44272],[-78.84665,42.44481],[-78.8381,42.44281],[-78.83206,42.44893],[-78.82759,42.44825],[-78.82678,42.45152],[-78.8218,42.45073],[-78.80968,42.45887],[-78.80411,42.45899],[-78.79713,42.46266],[-78.79463,42.46266],[-78.78321,42.45571],[-78.77382,42.45657],[-78.77072,42.45748],[-78.77038,42.45956],[-78.77682,42.46091],[-78.77668,42.4638],[-78.77242,42.46513],[-78.76557,42.46166],[-78.75853,42.46364],[-78.75957,42.46705],[-78.76443,42.4688],[-78.76362,42.47055],[-78.75165,42.46826],[-78.7498,42.47373],[-78.73839,42.47309],[-78.7372,42.47544],[-78.73925,42.47839],[-78.73831,42.48046],[-78.73147,42.47867],[-78.72883,42.48254],[-78.71777,42.48398],[-78.7174,42.48596],[-78.71406,42.48673],[-78.71412,42.48462],[-78.71208,42.48357],[-78.70223,42.48639],[-78.70041,42.48476],[-78.69938,42.4738],[-78.69328,42.47183],[-78.69144,42.4766],[-78.68606,42.47557],[-78.68259,42.47814],[-78.68376,42.47959],[-78.68031,42.48456],[-78.67578,42.48356],[-78.6742,42.4868],[-78.67126,42.48847],[-78.66682,42.48742],[-78.66368,42.48938],[-78.6624,42.49244],[-78.65533,42.49206],[-78.65395,42.4903],[-78.64961,42.49262],[-78.64445,42.49107],[-78.63868,42.49806],[-78.63412,42.4966],[-78.63127,42.49813],[-78.62725,42.49735],[-78.62197,42.50419],[-78.61479,42.50438],[-78.61271,42.5028],[-78.61004,42.5037],[-78.60805,42.50643],[-78.60523,42.50719],[-78.60643,42.50826],[-78.60551,42.50941],[-78.59688,42.51268],[-78.58783,42.50898],[-78.58576,42.50985],[-78.58562,42.51296],[-78.58373,42.51415],[-78.57335,42.51058],[-78.56856,42.51271],[-78.56762,42.51005],[-78.56366,42.50878],[-78.55983,42.51328],[-78.55754,42.51332],[-78.55642,42.51104],[-78.55258,42.51442],[-78.54715,42.51556],[-78.54849,42.51769],[-78.53884,42.51419],[-78.5379,42.5177],[-78.53314,42.51711],[-78.53336,42.51934],[-78.53153,42.5211],[-78.52762,42.52198],[-78.51908,42.51916],[-78.51171,42.5251],[-78.51156,42.52781],[-78.50767,42.52651],[-78.49904,42.52778],[-78.49743,42.52988],[-78.49138,42.53004],[-78.48814,42.53486],[-78.48372,42.5348],[-78.48277,42.53288],[-78.47562,42.53429],[-78.46873,42.53332],[-78.4639,42.53635],[-78.4619,42.61328],[-78.464,42.69392],[-78.46332,42.78046],[-78.48796,42.78047],[-78.48625,42.86751],[-78.46438,42.86736],[-78.46305,43.01341],[-78.46445,43.0887],[-78.46801,43.08772],[-78.46516,43.08597],[-78.47254,43.08165],[-78.47192,43.0842],[-78.47464,43.08279],[-78.47415,43.08465],[-78.47668,43.08625],[-78.47693,43.08473],[-78.48162,43.08378],[-78.48166,43.08516],[-78.48467,43.08616],[-78.48894,43.08271],[-78.49274,43.084],[-78.49244,43.08197],[-78.4965,43.08175],[-78.4996,43.08348],[-78.49689,43.08644],[-78.5028,43.08658],[-78.50072,43.08906],[-78.50609,43.08969],[-78.50612,43.09307],[-78.50348,43.09142],[-78.50373,43.09324],[-78.50859,43.09329],[-78.50846,43.09628],[-78.51038,43.09796],[-78.51161,43.09559],[-78.51484,43.09488],[-78.51578,43.09151],[-78.5141,43.09036],[-78.52238,43.08956],[-78.52226,43.08815],[-78.52622,43.08761],[-78.52807,43.0883],[-78.52697,43.09036],[-78.52898,43.09012],[-78.52824,43.08857],[-78.5314,43.08735],[-78.53195,43.08859],[-78.53627,43.08549],[-78.53829,43.08742],[-78.53846,43.08574],[-78.54025,43.08589],[-78.54211,43.08809],[-78.54048,43.0883],[-78.54044,43.09009],[-78.54228,43.0911],[-78.54262,43.0888],[-78.54689,43.09026],[-78.54639,43.09328],[-78.54127,43.09335],[-78.54191,43.09648],[-78.54437,43.09664],[-78.54562,43.09869],[-78.55017,43.09659],[-78.54916,43.09506],[-78.55072,43.09291],[-78.55795,43.09068],[-78.56088,43.0904],[-78.55489,43.09491],[-78.56026,43.09728],[-78.56406,43.09464],[-78.56301,43.09364],[-78.56532,43.08822],[-78.57625,43.08879],[-78.57433,43.08712],[-78.57531,43.08574],[-78.57416,43.08241],[-78.57237,43.08205],[-78.57431,43.08021],[-78.57606,43.07976],[-78.57818,43.08266],[-78.57727,43.08414],[-78.57921,43.08523],[-78.5782,43.0875],[-78.58176,43.08893],[-78.58456,43.08666],[-78.58509,43.08457],[-78.58019,43.08017],[-78.58411,43.07686],[-78.58266,43.07515],[-78.58614,43.07311],[-78.5909,43.07616],[-78.59195,43.07136],[-78.59404,43.0695],[-78.59531,43.06964],[-78.59563,43.07247],[-78.59927,43.07205],[-78.60132,43.07394],[-78.60399,43.07202],[-78.60654,43.07267],[-78.60183,43.07664],[-78.6059,43.07558],[-78.61192,43.07788],[-78.61417,43.07429],[-78.61629,43.07449],[-78.61549,43.0767],[-78.61721,43.07789],[-78.61251,43.08364],[-78.61888,43.08744],[-78.62333,43.08499],[-78.62667,43.08511],[-78.63268,43.09096],[-78.63008,43.09355],[-78.63607,43.09327],[-78.64073,43.09728],[-78.6418,43.09736],[-78.64076,43.09067],[-78.64175,43.08858],[-78.64739,43.08962],[-78.649,43.08729],[-78.64661,43.0856],[-78.64656,43.08079],[-78.66471,43.0864],[-78.67524,43.08392],[-78.67975,43.08462],[-78.68181,43.08027],[-78.69134,43.08867],[-78.69691,43.08634],[-78.70751,43.08689],[-78.70962,43.08252],[-78.71418,43.0832],[-78.71905,43.08106],[-78.72401,43.08546],[-78.72724,43.0862],[-78.73361,43.08422],[-78.74535,43.06979],[-78.75126,43.06926],[-78.75914,43.07093],[-78.76903,43.07003],[-78.77858,43.06542],[-78.79957,43.06644],[-78.80614,43.06318],[-78.80712,43.06114],[-78.80462,43.05519],[-78.80735,43.05356],[-78.83126,43.05025],[-78.83233,43.04801],[-78.82675,43.03955],[-78.82537,43.03366],[-78.83019,43.02966],[-78.83335,43.02416],[-78.84174,43.01886],[-78.85125,43.01925],[-78.86126,43.02288],[-78.86876,43.02326],[-78.87625,43.02156],[-78.881,43.0225],[-78.88197,43.02416],[-78.89016,43.02196],[-78.89301,43.03778],[-78.89626,43.04416],[-78.91152,43.05474],[-78.94526,43.06696],[-79.00966,43.06956],[-79.01923,43.06793],[-79.00713,43.06576],[-78.99944,43.05606],[-79.00516,43.04706],[-79.01176,43.02896],[-79.02326,43.01636],[-79.01996,42.99476],[-79.01156,42.98526],[-78.97506,42.96876],[-78.96176,42.95776],[-78.93236,42.95586],[-78.91886,42.94686],[-78.90916,42.93326],[-78.90566,42.92336],[-78.90608,42.89932],[-78.89166,42.88484],[-78.88786,42.8789],[-78.89011,42.87667],[-78.87203,42.85211],[-78.86581,42.85288],[-78.85792,42.83878],[-78.8608,42.83744],[-78.85988,42.83195],[-78.86373,42.83021],[-78.8684,42.83291],[-78.86819,42.82972],[-78.87193,42.82618],[-78.8718,42.82268],[-78.85936,42.80066],[-78.85646,42.80026],[-78.85358,42.79417],[-78.85346,42.78396],[-78.85973,42.77957],[-78.8657,42.77174],[-78.87433,42.76614],[-78.87755,42.76563],[-78.88045,42.76234],[-78.90819,42.74532],[-78.91816,42.73726],[-78.93553,42.73263],[-78.94416,42.73196],[-78.96026,42.72234],[-78.96766,42.72047],[-78.96949,42.71707],[-78.99116,42.70536],[-79.00135,42.70372],[-79.00616,42.70456],[-79.015,42.70055],[-79.01972,42.70061],[-79.02158,42.69824],[-79.02709,42.69598],[-79.0306,42.69661],[-79.04293,42.69142],[-79.04675,42.69135],[-79.05197,42.683],[-79.05412,42.67566],[-79.06226,42.66836],[-79.06376,42.64476],[-79.07326,42.63996],[-79.07876,42.64006],[-79.08492,42.63168],[-79.08932,42.62953],[-79.09328,42.62982],[-79.09821,42.62198],[-79.11136,42.61336],[-79.11475,42.60367],[-79.1197,42.60262],[-79.12192,42.59423],[-79.12626,42.59094],[-79.13049,42.59019],[-79.13689,42.5698]]]}},{"type":"Feature","id":"NY:261:36059","properties":{"destinationId":"261","locality":"Floral Park / Garden City / Great Neck","definition":"Nassau","state":"NY","stateName":"New York","county":"Nassau County","countyGeoid":"36059","countyGeoids":["36059"],"coverage":"complete-counties","sourceType":"gsa_county_defined_rate_area"},"geometry":{"type":"Polygon","coordinates":[[[-73.76871,40.62439],[-73.76672,40.615],[-73.76002,40.61135],[-73.75473,40.6104],[-73.74549,40.6118],[-73.74355,40.60745],[-73.73836,40.60266],[-73.73718,40.59296],[-73.74775,40.5915],[-73.75508,40.58567],[-73.75433,40.58454],[-73.74269,40.58679],[-73.70515,40.58367],[-73.6409,40.58282],[-73.61087,40.5877],[-73.59257,40.58559],[-73.5783,40.58581],[-73.57056,40.58368],[-73.57334,40.57898],[-73.57179,40.57826],[-73.51531,40.5922],[-73.45037,40.6035],[-73.42402,40.60958],[-73.42559,40.65629],[-73.42388,40.65597],[-73.42474,40.6662],[-73.42351,40.67141],[-73.45536,40.84259],[-73.46407,40.85955],[-73.46253,40.8673],[-73.46521,40.86801],[-73.46939,40.86643],[-73.48793,40.87703],[-73.49102,40.88224],[-73.48959,40.88458],[-73.4915,40.89058],[-73.49482,40.89482],[-73.50885,40.89375],[-73.50861,40.89069],[-73.51146,40.88799],[-73.50552,40.8756],[-73.50623,40.87236],[-73.51075,40.8756],[-73.52192,40.87398],[-73.5281,40.87811],[-73.54188,40.87685],[-73.54806,40.88638],[-73.54711,40.88997],[-73.54901,40.89482],[-73.54782,40.90363],[-73.53737,40.90452],[-73.53142,40.90991],[-73.52762,40.91081],[-73.52358,40.90955],[-73.52358,40.89788],[-73.52834,40.89231],[-73.5338,40.89015],[-73.53309,40.8853],[-73.52025,40.88674],[-73.5212,40.89051],[-73.51716,40.90111],[-73.51289,40.90255],[-73.50837,40.90147],[-73.50742,40.90866],[-73.51146,40.90901],[-73.51214,40.91191],[-73.5212,40.91476],[-73.52142,40.9183],[-73.52752,40.91662],[-73.53106,40.91356],[-73.54807,40.9087],[-73.56617,40.9158],[-73.56997,40.9154],[-73.57611,40.91117],[-73.59454,40.90867],[-73.60187,40.9028],[-73.61305,40.90221],[-73.61757,40.8979],[-73.62697,40.8994],[-73.63313,40.90269],[-73.63377,40.8982],[-73.63981,40.89662],[-73.64107,40.8926],[-73.64742,40.88409],[-73.65437,40.8782],[-73.65578,40.86494],[-73.65297,40.86188],[-73.65258,40.85833],[-73.64824,40.85606],[-73.64813,40.85389],[-73.65233,40.85015],[-73.65385,40.84439],[-73.65336,40.83641],[-73.6486,40.82882],[-73.65436,40.82886],[-73.66048,40.83461],[-73.67606,40.85454],[-73.67669,40.85724],[-73.71405,40.86999],[-73.72173,40.86548],[-73.72958,40.8665],[-73.73068,40.8654],[-73.72668,40.8568],[-73.72795,40.85289],[-73.73711,40.84974],[-73.73757,40.84841],[-73.73036,40.84234],[-73.72846,40.83299],[-73.7268,40.83345],[-73.72773,40.83851],[-73.72544,40.8393],[-73.72195,40.83713],[-73.71272,40.83883],[-73.70833,40.83357],[-73.70455,40.83652],[-73.70045,40.83473],[-73.70011,40.83351],[-73.70282,40.8322],[-73.70564,40.82256],[-73.70396,40.81743],[-73.7076,40.81362],[-73.71093,40.80575],[-73.7134,40.80347],[-73.71629,40.8051],[-73.71527,40.80879],[-73.71717,40.81533],[-73.72185,40.82187],[-73.72998,40.82353],[-73.73192,40.82694],[-73.73888,40.82794],[-73.74272,40.83299],[-73.747,40.83335],[-73.75301,40.83839],[-73.75722,40.83389],[-73.7544,40.82684],[-73.75403,40.82094],[-73.76554,40.81087],[-73.76395,40.80694],[-73.75342,40.79953],[-73.75413,40.79629],[-73.75237,40.78686],[-73.74976,40.7848],[-73.75029,40.78248],[-73.70163,40.75249],[-73.70038,40.73919],[-73.70794,40.72777],[-73.73033,40.72216],[-73.72697,40.71072],[-73.72563,40.67959],[-73.72827,40.66644],[-73.72498,40.65268],[-73.74144,40.64689],[-73.74228,40.64012],[-73.73996,40.63514],[-73.74168,40.63484],[-73.74258,40.63565],[-73.74127,40.63726],[-73.7433,40.63805],[-73.74602,40.63521],[-73.76742,40.62661],[-73.76871,40.62439]]]}},{"type":"Feature","id":"NY:262:36113","properties":{"destinationId":"262","locality":"Glens Falls","definition":"Warren","state":"NY","stateName":"New York","county":"Warren County","countyGeoid":"36113","countyGeoids":["36113"],"coverage":"complete-counties","sourceType":"gsa_county_defined_rate_area"},"geometry":{"type":"Polygon","coordinates":[[[-74.21462,43.7287],[-74.1601,43.37153],[-73.8833,43.39799],[-73.87739,43.38665],[-73.87457,43.3845],[-73.87098,43.37252],[-73.87516,43.36572],[-73.87514,43.36192],[-73.86475,43.35418],[-73.86404,43.3455],[-73.85329,43.33775],[-73.85899,43.33032],[-73.85865,43.32812],[-73.8549,43.32532],[-73.84936,43.32392],[-73.84319,43.31885],[-73.84243,43.31474],[-73.83692,43.30661],[-73.83347,43.30487],[-73.82461,43.30427],[-73.8275,43.28457],[-73.82515,43.27754],[-73.83265,43.27086],[-73.83557,43.26584],[-73.83492,43.251],[-73.82664,43.24569],[-73.82097,43.24798],[-73.81953,43.25064],[-73.81537,43.25099],[-73.8033,43.25032],[-73.79289,43.24624],[-73.77949,43.2349],[-73.77269,43.22473],[-73.7675,43.22212],[-73.76527,43.22278],[-73.76022,43.23186],[-73.74396,43.24272],[-73.73788,43.25473],[-73.73982,43.26556],[-73.73284,43.26988],[-73.71123,43.27357],[-73.70487,43.27904],[-73.6967,43.27839],[-73.69193,43.28363],[-73.68856,43.2843],[-73.68549,43.28282],[-73.68421,43.28017],[-73.68126,43.26806],[-73.67646,43.26334],[-73.6721,43.26316],[-73.66398,43.26828],[-73.66176,43.27258],[-73.67324,43.28212],[-73.67123,43.29024],[-73.66788,43.29172],[-73.65306,43.29127],[-73.65138,43.29008],[-73.64186,43.29327],[-73.64276,43.30417],[-73.63594,43.307],[-73.62858,43.30403],[-73.60983,43.30654],[-73.59471,43.30593],[-73.62894,43.48639],[-73.63297,43.49467],[-73.63665,43.49724],[-73.63453,43.49824],[-73.63198,43.49704],[-73.63621,43.50013],[-73.63471,43.50218],[-73.63295,43.50069],[-73.63326,43.50531],[-73.63124,43.50459],[-73.63326,43.50802],[-73.63235,43.51199],[-73.62654,43.52162],[-73.62417,43.52148],[-73.62388,43.51926],[-73.61896,43.52063],[-73.61788,43.53484],[-73.61476,43.5395],[-73.6158,43.54025],[-73.61274,43.54184],[-73.61171,43.54618],[-73.61037,43.54592],[-73.60708,43.55168],[-73.61014,43.55542],[-73.61413,43.55611],[-73.61098,43.56107],[-73.61323,43.56293],[-73.61056,43.5645],[-73.60737,43.56385],[-73.60672,43.56714],[-73.59241,43.5684],[-73.58144,43.57337],[-73.58039,43.57683],[-73.57778,43.57715],[-73.57713,43.57943],[-73.58088,43.57873],[-73.58193,43.58017],[-73.58065,43.58185],[-73.5758,43.5817],[-73.57618,43.5835],[-73.57398,43.5834],[-73.56929,43.58991],[-73.56652,43.5908],[-73.56447,43.59756],[-73.55519,43.60465],[-73.55345,43.60984],[-73.5496,43.61168],[-73.53904,43.62568],[-73.52858,43.63273],[-73.52679,43.63601],[-73.51378,43.63761],[-73.51327,43.63896],[-73.51599,43.63997],[-73.51261,43.64113],[-73.51248,43.64321],[-73.50406,43.64404],[-73.50355,43.64708],[-73.5021,43.64506],[-73.50119,43.64577],[-73.50241,43.65173],[-73.49886,43.65076],[-73.49624,43.65192],[-73.49709,43.65378],[-73.49431,43.65397],[-73.49291,43.65714],[-73.49661,43.66176],[-73.49329,43.66271],[-73.49283,43.67016],[-73.49629,43.67027],[-73.4965,43.67307],[-73.49208,43.67292],[-73.49225,43.67446],[-73.48656,43.67977],[-73.48531,43.68708],[-73.48363,43.68752],[-73.48418,43.69215],[-73.48235,43.69307],[-73.48194,43.69636],[-73.48046,43.69892],[-73.47674,43.6994],[-73.47524,43.70258],[-73.4764,43.70371],[-73.47194,43.70693],[-73.47491,43.71105],[-73.46964,43.71732],[-73.4709,43.7204],[-73.46667,43.72119],[-73.46782,43.72267],[-73.46661,43.72556],[-73.46434,43.72528],[-73.46315,43.72928],[-73.46461,43.73094],[-73.46126,43.72872],[-73.45929,43.73003],[-73.46245,43.73391],[-73.46438,43.73344],[-73.46289,43.73502],[-73.46308,43.73857],[-73.46037,43.73701],[-73.4615,43.746],[-73.46012,43.74733],[-73.46224,43.74912],[-73.46133,43.75174],[-73.46283,43.75245],[-73.46237,43.75567],[-73.46387,43.75817],[-73.46589,43.75688],[-73.46672,43.75814],[-73.4578,43.76164],[-73.45733,43.76509],[-73.46029,43.76885],[-73.47131,43.77168],[-73.47106,43.77526],[-73.46655,43.78],[-73.45786,43.78333],[-73.4474,43.79421],[-73.43658,43.80142],[-73.43812,43.80369],[-73.4955,43.79932],[-74.21462,43.7287]]]}},{"type":"Feature","id":"NY:264:36111","properties":{"destinationId":"264","locality":"Kingston","definition":"Ulster","state":"NY","stateName":"New York","county":"Ulster County","countyGeoid":"36111","countyGeoids":["36111"],"coverage":"complete-counties","sourceType":"gsa_county_defined_rate_area"},"geometry":{"type":"Polygon","coordinates":[[[-74.78069,42.01638],[-74.6246,41.95111],[-74.45368,41.87559],[-74.48783,41.83436],[-74.57509,41.74526],[-74.46478,41.68252],[-74.39507,41.64488],[-74.3925,41.64124],[-74.39146,41.63346],[-74.38684,41.62824],[-74.38604,41.61824],[-74.38401,41.6152],[-74.38072,41.61412],[-74.37955,41.60732],[-74.37594,41.60457],[-74.37614,41.59819],[-74.37307,41.59626],[-74.36609,41.59562],[-74.36449,41.59378],[-74.36819,41.59135],[-74.3537,41.59168],[-74.35394,41.59298],[-74.35212,41.59266],[-74.35319,41.59537],[-74.35183,41.59774],[-74.34935,41.59862],[-74.34254,41.59683],[-74.34068,41.59438],[-74.3344,41.59751],[-74.33203,41.59674],[-74.32975,41.59862],[-74.32961,41.60155],[-74.32016,41.60301],[-74.31632,41.60543],[-74.31205,41.61127],[-74.30932,41.61115],[-74.3067,41.60882],[-74.30412,41.61579],[-74.29521,41.61968],[-74.29278,41.61827],[-74.28084,41.62522],[-74.27579,41.62564],[-74.27104,41.62928],[-74.26861,41.62862],[-74.26409,41.63274],[-74.25019,41.62932],[-74.2516,41.60537],[-74.1875,41.59079],[-74.18536,41.59413],[-74.12639,41.58254],[-74.13451,41.6157],[-74.09865,41.60726],[-74.09442,41.60545],[-74.0899,41.5986],[-74.06808,41.606],[-74.0538,41.58606],[-74.05394,41.58072],[-73.95331,41.58998],[-73.95258,41.62519],[-73.94688,41.65639],[-73.94738,41.66749],[-73.94248,41.68409],[-73.94668,41.6994],[-73.94108,41.73269],[-73.94083,41.75432],[-73.95161,41.77062],[-73.95245,41.78796],[-73.9496,41.80012],[-73.94833,41.81574],[-73.94974,41.82121],[-73.94894,41.84864],[-73.93939,41.86585],[-73.94041,41.87298],[-73.94563,41.88219],[-73.96222,41.90102],[-73.96441,41.91315],[-73.9583,41.92033],[-73.95283,41.95707],[-73.93979,41.99558],[-73.94004,41.999],[-73.93344,42.01566],[-73.93382,42.02134],[-73.93703,42.02683],[-73.93705,42.03292],[-73.93417,42.03955],[-73.93288,42.05994],[-73.92823,42.06487],[-73.92619,42.07193],[-73.92975,42.07531],[-73.92911,42.08166],[-73.92146,42.11002],[-73.91068,42.12729],[-73.91879,42.12916],[-74.00245,42.17699],[-74.00359,42.16336],[-74.02488,42.16213],[-74.04239,42.17039],[-74.0748,42.09659],[-74.30757,42.11435],[-74.45171,42.16922],[-74.50398,42.14492],[-74.53098,42.14648],[-74.5536,42.12148],[-74.78069,42.01638]]]}},{"type":"Feature","id":"NY:265:36031","properties":{"destinationId":"265","locality":"Lake Placid","definition":"Essex","state":"NY","stateName":"New York","county":"Essex County","countyGeoid":"36031","countyGeoids":["36031"],"coverage":"complete-counties","sourceType":"gsa_county_defined_rate_area"},"geometry":{"type":"Polygon","coordinates":[[[-74.33683,43.92522],[-74.21373,43.81088],[-74.20122,43.82124],[-74.18969,43.82421],[-74.17534,43.82376],[-74.16903,43.82663],[-74.16293,43.8259],[-74.1587,43.82848],[-74.14908,43.82961],[-74.13946,43.82644],[-74.13792,43.82236],[-74.13868,43.81772],[-74.13309,43.81754],[-74.11657,43.80903],[-74.10936,43.80821],[-74.10307,43.80512],[-74.09682,43.80605],[-74.09168,43.80433],[-74.08942,43.80468],[-74.08565,43.80886],[-74.06957,43.80165],[-74.04706,43.79634],[-74.04826,43.79098],[-74.05099,43.78862],[-74.04614,43.78121],[-74.05411,43.77033],[-74.05568,43.75604],[-74.05888,43.74691],[-74.057,43.74451],[-73.4955,43.79932],[-73.37933,43.80848],[-73.38326,43.81331],[-73.3903,43.81737],[-73.39275,43.8222],[-73.38839,43.8324],[-73.3766,43.83936],[-73.37225,43.84534],[-73.38205,43.85501],[-73.3815,43.85924],[-73.37405,43.87556],[-73.38349,43.89095],[-73.39588,43.90304],[-73.40859,43.93293],[-73.40552,43.94881],[-73.40682,43.96732],[-73.41125,43.9756],[-73.41258,43.98272],[-73.406,44.01623],[-73.41078,44.02694],[-73.42312,44.03276],[-73.42799,44.03771],[-73.43688,44.04258],[-73.43774,44.04501],[-73.43199,44.06345],[-73.42924,44.07941],[-73.41632,44.09942],[-73.41132,44.11269],[-73.41576,44.13283],[-73.40238,44.14586],[-73.39873,44.16225],[-73.39553,44.16612],[-73.39689,44.17385],[-73.38966,44.18125],[-73.39058,44.19089],[-73.38399,44.19316],[-73.38225,44.19718],[-73.37529,44.19987],[-73.37068,44.20455],[-73.36201,44.20854],[-73.35528,44.21955],[-73.35525,44.22287],[-73.35081,44.22594],[-73.34989,44.23036],[-73.34231,44.23453],[-73.34323,44.23805],[-73.33678,44.23956],[-73.3305,44.24425],[-73.3236,44.2439],[-73.31285,44.26535],[-73.31102,44.27424],[-73.3123,44.28002],[-73.31684,44.28768],[-73.32423,44.31002],[-73.324,44.33384],[-73.32734,44.34437],[-73.33464,44.35688],[-73.33494,44.36444],[-73.33358,44.37229],[-73.31502,44.38851],[-73.31049,44.4026],[-73.29603,44.42834],[-73.29385,44.43756],[-73.29522,44.44588],[-73.30011,44.45471],[-73.29894,44.4713],[-73.29988,44.47665],[-73.30442,44.48574],[-73.30671,44.50033],[-73.32084,44.51363],[-73.32203,44.52529],[-73.32946,44.5292],[-73.33159,44.53592],[-73.339,44.5433],[-73.33863,44.54684],[-73.46384,44.53768],[-73.46491,44.53381],[-73.46248,44.53294],[-73.46111,44.53026],[-73.46317,44.52474],[-73.45942,44.52317],[-73.45934,44.52081],[-73.46589,44.51899],[-73.47146,44.51404],[-73.47014,44.50866],[-73.47928,44.50686],[-73.48316,44.50126],[-73.49037,44.49792],[-73.49131,44.49375],[-73.4966,44.48608],[-73.50056,44.48848],[-73.50672,44.48721],[-73.51718,44.48826],[-73.52441,44.49324],[-73.52406,44.4898],[-73.52691,44.48803],[-73.54086,44.48633],[-73.54756,44.48269],[-73.55497,44.48255],[-73.55872,44.47963],[-73.56088,44.47249],[-73.56426,44.46914],[-73.5731,44.46456],[-73.58096,44.46449],[-73.59141,44.46111],[-73.59684,44.46311],[-73.60235,44.45813],[-73.61445,44.45439],[-73.62905,44.45839],[-73.63896,44.45255],[-73.65478,44.44836],[-73.65959,44.44347],[-73.66928,44.44136],[-73.67448,44.44065],[-73.68119,44.44223],[-73.68946,44.44098],[-73.69495,44.44243],[-73.70037,44.44082],[-73.7011,44.44554],[-73.7482,44.44281],[-73.90969,44.4297],[-74.14142,44.40727],[-74.12228,44.30705],[-74.11578,44.26128],[-74.09349,44.13762],[-74.28187,44.12055],[-74.256,43.9698],[-74.33683,43.92522]]]}},{"type":"Feature","id":"NY:267:36063","properties":{"destinationId":"267","locality":"Niagara Falls","definition":"Niagara","state":"NY","stateName":"New York","county":"Niagara County","countyGeoid":"36063","countyGeoids":["36063"],"coverage":"complete-counties","sourceType":"gsa_county_defined_rate_area"},"geometry":{"type":"Polygon","coordinates":[[[-79.07537,43.08136],[-79.07447,43.07786],[-79.01923,43.06793],[-79.00966,43.06956],[-78.94526,43.06696],[-78.91152,43.05474],[-78.89626,43.04416],[-78.89301,43.03778],[-78.89016,43.02196],[-78.88197,43.02416],[-78.881,43.0225],[-78.87625,43.02156],[-78.86876,43.02326],[-78.86126,43.02288],[-78.85125,43.01925],[-78.84174,43.01886],[-78.83335,43.02416],[-78.83019,43.02966],[-78.82537,43.03366],[-78.82675,43.03955],[-78.83233,43.04801],[-78.83126,43.05025],[-78.80735,43.05356],[-78.80462,43.05519],[-78.80712,43.06114],[-78.80614,43.06318],[-78.79957,43.06644],[-78.77858,43.06542],[-78.76903,43.07003],[-78.75914,43.07093],[-78.75126,43.06926],[-78.74535,43.06979],[-78.73361,43.08422],[-78.72724,43.0862],[-78.72401,43.08546],[-78.71905,43.08106],[-78.71418,43.0832],[-78.70962,43.08252],[-78.70751,43.08689],[-78.69691,43.08634],[-78.69134,43.08867],[-78.68181,43.08027],[-78.67975,43.08462],[-78.67524,43.08392],[-78.66471,43.0864],[-78.64656,43.08079],[-78.64661,43.0856],[-78.649,43.08729],[-78.64739,43.08962],[-78.64175,43.08858],[-78.64076,43.09067],[-78.6418,43.09736],[-78.64073,43.09728],[-78.63607,43.09327],[-78.63008,43.09355],[-78.63268,43.09096],[-78.62667,43.08511],[-78.62333,43.08499],[-78.61888,43.08744],[-78.61251,43.08364],[-78.61721,43.07789],[-78.61549,43.0767],[-78.61629,43.07449],[-78.61417,43.07429],[-78.61192,43.07788],[-78.6059,43.07558],[-78.60183,43.07664],[-78.60654,43.07267],[-78.60399,43.07202],[-78.60132,43.07394],[-78.59927,43.07205],[-78.59563,43.07247],[-78.59531,43.06964],[-78.59404,43.0695],[-78.59195,43.07136],[-78.5909,43.07616],[-78.58614,43.07311],[-78.58266,43.07515],[-78.58411,43.07686],[-78.58019,43.08017],[-78.58509,43.08457],[-78.58456,43.08666],[-78.58176,43.08893],[-78.5782,43.0875],[-78.57921,43.08523],[-78.57727,43.08414],[-78.57818,43.08266],[-78.57606,43.07976],[-78.57431,43.08021],[-78.57237,43.08205],[-78.57416,43.08241],[-78.57531,43.08574],[-78.57433,43.08712],[-78.57625,43.08879],[-78.56532,43.08822],[-78.56301,43.09364],[-78.56406,43.09464],[-78.56026,43.09728],[-78.55489,43.09491],[-78.56088,43.0904],[-78.55795,43.09068],[-78.55072,43.09291],[-78.54916,43.09506],[-78.55017,43.09659],[-78.54562,43.09869],[-78.54437,43.09664],[-78.54191,43.09648],[-78.54127,43.09335],[-78.54639,43.09328],[-78.54689,43.09026],[-78.54262,43.0888],[-78.54228,43.0911],[-78.54044,43.09009],[-78.54048,43.0883],[-78.54211,43.08809],[-78.54025,43.08589],[-78.53846,43.08574],[-78.53829,43.08742],[-78.53627,43.08549],[-78.53195,43.08859],[-78.5314,43.08735],[-78.52824,43.08857],[-78.52898,43.09012],[-78.52697,43.09036],[-78.52807,43.0883],[-78.52622,43.08761],[-78.52226,43.08815],[-78.52238,43.08956],[-78.5141,43.09036],[-78.51578,43.09151],[-78.51484,43.09488],[-78.51161,43.09559],[-78.51038,43.09796],[-78.50846,43.09628],[-78.50859,43.09329],[-78.50373,43.09324],[-78.50348,43.09142],[-78.50612,43.09307],[-78.50609,43.08969],[-78.50072,43.08906],[-78.5028,43.08658],[-78.49689,43.08644],[-78.4996,43.08348],[-78.4965,43.08175],[-78.49244,43.08197],[-78.49274,43.084],[-78.48894,43.08271],[-78.48467,43.08616],[-78.48166,43.08516],[-78.48162,43.08378],[-78.47523,43.08605],[-78.47464,43.08279],[-78.47192,43.0842],[-78.47254,43.08165],[-78.46974,43.0828],[-78.46516,43.08597],[-78.46801,43.08772],[-78.46445,43.0887],[-78.46557,43.14359],[-78.46042,43.21622],[-78.46643,43.30278],[-78.4655,43.37123],[-78.4731,43.37081],[-78.48586,43.37488],[-78.51127,43.3718],[-78.51993,43.37236],[-78.63435,43.35762],[-78.69686,43.34126],[-78.72899,43.33903],[-78.77403,43.32752],[-78.80807,43.32313],[-78.83406,43.31756],[-78.83626,43.31846],[-78.85139,43.31222],[-78.93076,43.29325],[-78.97187,43.28125],[-79.01985,43.27369],[-79.07047,43.26245],[-79.05606,43.25416],[-79.05587,43.23855],[-79.05287,43.22205],[-79.05706,43.21065],[-79.04866,43.19966],[-79.05257,43.18366],[-79.05307,43.17366],[-79.04657,43.16236],[-79.04237,43.14366],[-79.04407,43.13806],[-79.04947,43.13506],[-79.05677,43.12686],[-79.06909,43.11996],[-79.05969,43.11282],[-79.05796,43.10696],[-79.06475,43.0932],[-79.07537,43.08136]]]}},{"type":"Feature","id":"NY:268:36087","properties":{"destinationId":"268","locality":"Nyack / Palisades","definition":"Rockland","state":"NY","stateName":"New York","county":"Rockland County","countyGeoid":"36087","countyGeoids":["36087"],"coverage":"complete-counties","sourceType":"gsa_county_defined_rate_area"},"geometry":{"type":"Polygon","coordinates":[[[-74.21219,41.15927],[-74.2343,41.14315],[-74.13174,41.09929],[-73.90268,40.9973],[-73.89398,40.99717],[-73.89008,41.0226],[-73.88938,41.0376],[-73.89388,41.0579],[-73.89488,41.0824],[-73.88758,41.12879],[-73.88748,41.1383],[-73.89248,41.1506],[-73.91168,41.1678],[-73.93148,41.20499],[-73.95328,41.22899],[-73.96138,41.23419],[-73.96128,41.24199],[-73.97078,41.24789],[-73.97228,41.25619],[-73.96968,41.26319],[-73.94578,41.28759],[-73.94658,41.29099],[-73.96448,41.29969],[-73.98098,41.31419],[-73.98328,41.31739],[-73.98075,41.32542],[-74.21219,41.15927]]]}},{"type":"Feature","id":"NY:269:36007","properties":{"destinationId":"269","locality":"Binghamton","definition":"Broome","state":"NY","stateName":"New York","county":"Broome County","countyGeoid":"36007","countyGeoids":["36007"],"coverage":"complete-counties","sourceType":"gsa_county_defined_rate_area"},"geometry":{"type":"Polygon","coordinates":[[[-76.13018,42.41034],[-76.12967,42.40204],[-76.12452,42.40201],[-76.12447,42.392],[-76.12296,42.3919],[-76.12021,42.38074],[-76.12285,42.38079],[-76.12244,42.36719],[-76.11464,42.36711],[-76.11462,42.35728],[-76.11194,42.35727],[-76.1114,42.34732],[-76.10991,42.34734],[-76.10929,42.33732],[-76.1167,42.33723],[-76.11636,42.32657],[-76.11243,42.32652],[-76.1124,42.3186],[-76.10639,42.31873],[-76.10625,42.31035],[-76.10162,42.3104],[-76.10159,42.30333],[-76.09912,42.3034],[-76.09876,42.29365],[-76.10657,42.29353],[-76.10658,42.28736],[-76.10123,42.28729],[-76.10031,42.27843],[-76.08773,42.27875],[-76.08725,42.27168],[-76.08344,42.27181],[-76.08067,42.25798],[-76.09663,42.25745],[-76.09635,42.24952],[-76.09091,42.24964],[-76.09059,42.24422],[-76.0872,42.24424],[-76.0865,42.23486],[-76.0847,42.23486],[-76.0845,42.23047],[-76.08113,42.2305],[-76.08191,42.21099],[-76.08562,42.21084],[-76.08372,42.19385],[-76.08732,42.19361],[-76.08668,42.18686],[-76.11622,42.18561],[-76.11148,42.1123],[-76.10756,42.11236],[-76.10719,42.10202],[-76.11153,42.10117],[-76.10483,42.03157],[-76.10627,42.03117],[-76.10584,41.99886],[-75.74222,41.99786],[-75.35964,41.99944],[-75.36285,42.00174],[-75.3621,42.0049],[-75.36423,42.00817],[-75.37922,42.00219],[-75.3847,42.00307],[-75.38935,42.00647],[-75.39656,42.0066],[-75.40317,42.01211],[-75.40279,42.01466],[-75.40581,42.01792],[-75.41003,42.02983],[-75.42178,42.04203],[-75.42055,42.04537],[-75.42304,42.05402],[-75.41842,42.19503],[-75.63711,42.19563],[-75.63737,42.23619],[-75.63906,42.24868],[-75.71412,42.24779],[-75.72211,42.24787],[-75.72229,42.24934],[-75.8198,42.24899],[-75.83631,42.24409],[-75.84379,42.25971],[-75.85206,42.34533],[-75.86045,42.38623],[-75.86402,42.4157],[-76.01461,42.40914],[-76.02137,42.40901],[-76.02269,42.41271],[-76.13018,42.41034]]]}},{"type":"Feature","id":"NY:270:36027","properties":{"destinationId":"270","locality":"Poughkeepsie","definition":"Dutchess","state":"NY","stateName":"New York","county":"Dutchess County","countyGeoid":"36027","countyGeoids":["36027"],"coverage":"complete-counties","sourceType":"gsa_county_defined_rate_area"},"geometry":{"type":"Polygon","coordinates":[[[-73.99991,41.45966],[-74.00011,41.45655],[-73.99778,41.45219],[-73.98658,41.44489],[-73.98149,41.4389],[-73.93378,41.48828],[-73.68385,41.51331],[-73.58015,41.52638],[-73.53007,41.52719],[-73.52104,41.61977],[-73.51096,41.75875],[-73.4983,41.89251],[-73.48962,42.00009],[-73.48731,42.04964],[-73.52142,42.04997],[-73.52707,41.97798],[-73.71093,42.00549],[-73.79089,42.03681],[-73.90778,42.07961],[-73.90863,42.07841],[-73.91559,42.08091],[-73.9171,42.07647],[-73.92963,42.07878],[-73.92975,42.07531],[-73.92619,42.07193],[-73.92823,42.06487],[-73.93288,42.05994],[-73.93417,42.03955],[-73.93705,42.03292],[-73.93703,42.02683],[-73.93382,42.02134],[-73.93344,42.01566],[-73.94004,41.999],[-73.93979,41.99558],[-73.95283,41.95707],[-73.9583,41.92033],[-73.96441,41.91315],[-73.96222,41.90102],[-73.94563,41.88219],[-73.93958,41.87004],[-73.94035,41.86228],[-73.94894,41.84864],[-73.94974,41.82121],[-73.94833,41.81574],[-73.9496,41.80012],[-73.95245,41.78796],[-73.95161,41.77062],[-73.94083,41.75432],[-73.94108,41.73269],[-73.94668,41.6994],[-73.94248,41.68409],[-73.94738,41.66749],[-73.94688,41.65639],[-73.95258,41.62519],[-73.95258,41.59529],[-73.95415,41.58327],[-73.96191,41.56815],[-73.97337,41.5598],[-73.98593,41.54562],[-73.99654,41.52265],[-73.99779,41.50278],[-73.99478,41.49829],[-73.99858,41.48339],[-73.99758,41.47509],[-73.99991,41.45966]]]}},{"type":"Feature","id":"NY:271:36103","properties":{"destinationId":"271","locality":"Riverhead / Ronkonkoma / Melville","definition":"Suffolk","state":"NY","stateName":"New York","county":"Suffolk County","countyGeoid":"36103","countyGeoids":["36103"],"coverage":"complete-counties","sourceType":"gsa_county_defined_rate_area"},"geometry":{"type":"MultiPolygon","coordinates":[[[[-72.0377,41.25128],[-72.03685,41.24979],[-72.02592,41.25103],[-72.01712,41.25543],[-72.01018,41.25526],[-72.00246,41.25287],[-71.99536,41.25615],[-71.99006,41.26261],[-71.96809,41.27303],[-71.96714,41.27469],[-71.96156,41.27683],[-71.95536,41.27546],[-71.94998,41.27935],[-71.94696,41.27792],[-71.94598,41.27988],[-71.93526,41.28058],[-71.92876,41.28506],[-71.92823,41.28885],[-71.92261,41.29234],[-71.93483,41.29016],[-71.93938,41.29126],[-71.94298,41.28729],[-71.93998,41.28477],[-71.94229,41.2827],[-71.94676,41.28436],[-71.94844,41.28246],[-71.95126,41.28291],[-71.95406,41.28499],[-71.96183,41.28292],[-71.96865,41.2848],[-71.96967,41.28118],[-71.97737,41.27931],[-71.98448,41.28151],[-71.99112,41.28133],[-71.99297,41.27956],[-71.99435,41.27051],[-72.0071,41.26399],[-72.00694,41.26231],[-72.01004,41.262],[-72.01299,41.26432],[-72.00978,41.26622],[-72.00787,41.27095],[-72.02028,41.27519],[-72.02306,41.27485],[-72.02423,41.27307],[-72.02112,41.26959],[-72.02286,41.26436],[-72.02129,41.26236],[-72.0259,41.26122],[-72.02783,41.2634],[-72.02944,41.26309],[-72.03164,41.25784],[-72.03472,41.25642],[-72.0377,41.25128]]],[[[-72.14293,41.09781],[-72.14192,41.09437],[-72.13774,41.09298],[-72.12056,41.09317],[-72.1064,41.08888],[-72.10315,41.08648],[-72.09714,41.07584],[-72.0972,41.05488],[-72.09512,41.05421],[-72.087,41.05903],[-72.08643,41.06882],[-72.08294,41.07095],[-72.08257,41.07316],[-72.08548,41.07845],[-72.08686,41.08571],[-72.08586,41.0904],[-72.07711,41.09671],[-72.07793,41.09987],[-72.08212,41.1014],[-72.08734,41.10094],[-72.09289,41.104],[-72.11448,41.11049],[-72.1211,41.11514],[-72.12597,41.12118],[-72.12789,41.12044],[-72.1267,41.11514],[-72.12835,41.10813],[-72.13327,41.10368],[-72.13996,41.10161],[-72.14293,41.09781]]],[[[-72.21139,41.17656],[-72.212,41.17354],[-72.2044,41.17179],[-72.20006,41.16563],[-72.19732,41.16547],[-72.18681,41.1831],[-72.18413,41.18501],[-72.17865,41.18407],[-72.16735,41.18598],[-72.16154,41.18878],[-72.16183,41.19032],[-72.17297,41.1873],[-72.18914,41.18831],[-72.20868,41.17943],[-72.21139,41.17656]]],[[[-73.49689,40.92567],[-73.49652,40.92314],[-73.48992,40.91971],[-73.47937,40.89985],[-73.47533,40.89752],[-73.47319,40.89285],[-73.47297,40.8813],[-73.47082,40.87506],[-73.46511,40.87092],[-73.46521,40.86801],[-73.46253,40.8673],[-73.46407,40.85955],[-73.45536,40.84259],[-73.42351,40.67141],[-73.42474,40.6662],[-73.42388,40.65597],[-73.42559,40.65629],[-73.42402,40.60958],[-73.34177,40.6327],[-73.32626,40.6331],[-73.3114,40.62212],[-73.3064,40.62076],[-73.26235,40.62196],[-73.20844,40.63088],[-73.05496,40.66637],[-73.01254,40.67965],[-72.92321,40.71328],[-72.76815,40.76159],[-72.75718,40.76437],[-72.75311,40.76357],[-72.74521,40.76709],[-72.4741,40.84084],[-72.39585,40.86666],[-72.11445,40.97208],[-72.02936,40.99991],[-71.95882,41.02673],[-71.91675,41.03965],[-71.90257,41.04113],[-71.87474,41.05203],[-71.87272,41.05633],[-71.86742,41.05939],[-71.86591,41.06254],[-71.86082,41.0657],[-71.85648,41.07104],[-71.85749,41.07356],[-71.86447,41.07692],[-71.86956,41.07505],[-71.87979,41.07675],[-71.88954,41.0757],[-71.8955,41.07738],[-71.90115,41.08477],[-71.90433,41.08599],[-71.91939,41.08052],[-71.93825,41.07741],[-71.94586,41.07371],[-71.9552,41.07307],[-71.95959,41.07124],[-71.96156,41.06402],[-71.95726,41.04828],[-71.96351,41.04253],[-71.97223,41.04084],[-71.97874,41.04296],[-71.98213,41.04783],[-71.99264,41.04715],[-71.99724,41.04089],[-72.01234,41.02944],[-72.01693,41.02352],[-72.0255,41.02052],[-72.03452,41.01961],[-72.04877,41.02259],[-72.05456,41.02184],[-72.05668,41.01819],[-72.06125,41.01691],[-72.06291,41.01132],[-72.07749,41.00822],[-72.08006,41.00606],[-72.08304,40.99645],[-72.09546,40.99135],[-72.10216,40.99151],[-72.10901,40.99408],[-72.11637,40.9998],[-72.12674,41.01563],[-72.13741,41.02391],[-72.13514,41.03128],[-72.1373,41.03968],[-72.15386,41.05186],[-72.16037,41.05383],[-72.17488,41.04615],[-72.17949,41.03844],[-72.19056,41.03258],[-72.20186,41.03228],[-72.20921,41.03446],[-72.21748,41.04061],[-72.22936,41.04436],[-72.24125,41.04477],[-72.26052,41.04206],[-72.26673,41.03564],[-72.27588,41.03657],[-72.27972,41.0416],[-72.28089,41.04773],[-72.27405,41.05243],[-72.28309,41.06787],[-72.27873,41.07213],[-72.27624,41.07693],[-72.27743,41.07872],[-72.28037,41.0804],[-72.29772,41.08104],[-72.30809,41.08678],[-72.31724,41.08866],[-72.32045,41.09431],[-72.321,41.10058],[-72.32995,41.10595],[-72.33518,41.10692],[-72.339,41.11024],[-72.33916,41.11504],[-72.32972,41.12601],[-72.32663,41.13216],[-72.31815,41.13713],[-72.31712,41.13943],[-72.3088,41.13979],[-72.30004,41.13206],[-72.28521,41.1273],[-72.28447,41.12627],[-72.29637,41.11556],[-72.29411,41.11412],[-72.26935,41.12815],[-72.2608,41.12978],[-72.25474,41.13399],[-72.25182,41.14196],[-72.24258,41.1533],[-72.23403,41.16003],[-72.247,41.16094],[-72.26695,41.15408],[-72.273,41.15501],[-72.27879,41.15872],[-72.29895,41.1528],[-72.30752,41.14701],[-72.31278,41.148],[-72.32164,41.13872],[-72.33335,41.13802],[-72.33923,41.14089],[-72.35412,41.13995],[-72.35609,41.13364],[-72.36228,41.12596],[-72.37012,41.11974],[-72.37551,41.11883],[-72.38256,41.11453],[-72.38612,41.10624],[-72.397,41.09631],[-72.41794,41.08796],[-72.44524,41.08612],[-72.45925,41.06636],[-72.47731,41.05221],[-72.48966,41.04911],[-72.50964,41.04091],[-72.51798,41.04012],[-72.58533,40.99759],[-72.63556,40.98196],[-72.67316,40.97867],[-72.68576,40.98029],[-72.70807,40.97785],[-72.74566,40.96845],[-72.7741,40.96531],[-72.83313,40.97012],[-72.86564,40.96454],[-72.91383,40.96247],[-72.95516,40.96615],[-72.99593,40.9665],[-73.04093,40.9645],[-73.04376,40.96211],[-73.07755,40.9728],[-73.0905,40.97201],[-73.09386,40.96901],[-73.1024,40.9692],[-73.11037,40.97194],[-73.11843,40.97729],[-73.13028,40.96893],[-73.13877,40.9664],[-73.15813,40.96752],[-73.15876,40.9664],[-73.15445,40.96166],[-73.14805,40.95965],[-73.14467,40.95584],[-73.14708,40.92872],[-73.15448,40.92789],[-73.17298,40.9211],[-73.22838,40.90596],[-73.23739,40.90918],[-73.26744,40.91472],[-73.29506,40.9245],[-73.33136,40.9296],[-73.34421,40.92672],[-73.34488,40.92441],[-73.35276,40.9267],[-73.36596,40.9317],[-73.37446,40.9376],[-73.39286,40.9553],[-73.39924,40.95568],[-73.40207,40.95439],[-73.40306,40.94912],[-73.40196,40.947],[-73.40346,40.9422],[-73.40354,40.93133],[-73.39894,40.93001],[-73.38951,40.92363],[-73.38187,40.92865],[-73.37929,40.92553],[-73.37735,40.92562],[-73.3767,40.92908],[-73.37027,40.93028],[-73.35166,40.9227],[-73.35406,40.91292],[-73.35817,40.91138],[-73.35247,40.89792],[-73.35358,40.89484],[-73.35756,40.89304],[-73.35962,40.89496],[-73.35824,40.89823],[-73.36239,40.90396],[-73.36996,40.9084],[-73.37389,40.91286],[-73.37626,40.9124],[-73.38013,40.90018],[-73.3836,40.90022],[-73.38653,40.90469],[-73.39669,40.90894],[-73.4026,40.90578],[-73.41346,40.90405],[-73.42661,40.90614],[-73.43398,40.90901],[-73.4365,40.91142],[-73.42936,40.92071],[-73.43019,40.92869],[-73.43796,40.93465],[-73.46371,40.9377],[-73.47836,40.9423],[-73.48536,40.9464],[-73.49276,40.94144],[-73.49689,40.92567]]]]}},{"type":"Feature","id":"NY:272:36055","properties":{"destinationId":"272","locality":"Rochester","definition":"Monroe","state":"NY","stateName":"New York","county":"Monroe County","countyGeoid":"36055","countyGeoids":["36055"],"coverage":"complete-counties","sourceType":"gsa_county_defined_rate_area"},"geometry":{"type":"Polygon","coordinates":[[[-77.99725,43.13652],[-77.99729,43.13298],[-77.90593,43.13356],[-77.95104,43.03954],[-77.90412,43.03706],[-77.90754,43.00286],[-77.90941,43.00252],[-77.90983,42.98776],[-77.73096,42.98837],[-77.73294,42.98191],[-77.72075,42.97919],[-77.71783,42.97336],[-77.71884,42.97144],[-77.72459,42.97129],[-77.7262,42.96597],[-77.72503,42.95922],[-77.72841,42.95303],[-77.73257,42.95593],[-77.73447,42.95477],[-77.73091,42.94842],[-77.73167,42.94608],[-77.73375,42.94528],[-77.73755,42.94787],[-77.74637,42.94407],[-77.75318,42.94565],[-77.75942,42.94449],[-77.76062,42.94257],[-77.75873,42.94046],[-77.63752,42.93996],[-77.63502,42.94446],[-77.48266,42.9429],[-77.48542,43.03456],[-77.37148,43.0347],[-77.37605,43.27622],[-77.39102,43.27636],[-77.41452,43.26926],[-77.42546,43.27016],[-77.43236,43.26825],[-77.44202,43.26291],[-77.46971,43.25706],[-77.48688,43.25046],[-77.50092,43.25036],[-77.51432,43.244],[-77.51636,43.24075],[-77.53005,43.23599],[-77.55102,43.23576],[-77.56507,43.23816],[-77.57722,43.24326],[-77.62832,43.2713],[-77.65376,43.27948],[-77.68225,43.29787],[-77.70768,43.31085],[-77.71362,43.31794],[-77.71242,43.3215],[-77.71413,43.32356],[-77.72803,43.32756],[-77.73063,43.33016],[-77.75693,43.33736],[-77.76023,43.34116],[-77.78513,43.33926],[-77.79738,43.33986],[-77.81653,43.34356],[-77.827,43.34283],[-77.84426,43.34754],[-77.84815,43.34684],[-77.8888,43.35182],[-77.90484,43.35696],[-77.92872,43.35752],[-77.96524,43.36806],[-77.96967,43.36718],[-77.97644,43.36916],[-77.9956,43.36524],[-77.99725,43.13652]]]}},{"type":"Feature","id":"NY:273:36091","properties":{"destinationId":"273","locality":"Saratoga Springs / Schenectady","definition":"Saratoga / Schenectady","state":"NY","stateName":"New York","county":"Saratoga County","countyGeoid":"36091","countyGeoids":["36091","36093"],"coverage":"complete-counties","sourceType":"gsa_county_defined_rate_area"},"geometry":{"type":"Polygon","coordinates":[[[-74.1601,43.37153],[-74.13603,43.22883],[-74.09298,42.95587],[-74.0556,42.95329],[-74.03291,42.94314],[-74.00653,42.93407],[-73.97684,42.9159],[-73.96479,42.90206],[-73.95546,42.89731],[-73.91848,42.91036],[-73.90439,42.91116],[-73.89594,42.85108],[-73.88177,42.85088],[-73.87966,42.84858],[-73.87586,42.83427],[-73.86677,42.82838],[-73.85847,42.81998],[-73.84157,42.79788],[-73.83217,42.79308],[-73.82906,42.79018],[-73.82767,42.78378],[-73.82217,42.78028],[-73.79946,42.77888],[-73.79356,42.78258],[-73.78706,42.78968],[-73.77996,42.79218],[-73.76876,42.78588],[-73.76666,42.78608],[-73.75847,42.79528],[-73.75016,42.80138],[-73.73766,42.81888],[-73.72666,42.82258],[-73.72266,42.82068],[-73.72136,42.81308],[-73.71666,42.80818],[-73.72036,42.80418],[-73.71986,42.80128],[-73.71136,42.79518],[-73.70896,42.78768],[-73.70316,42.78248],[-73.68916,42.77538],[-73.68026,42.78338],[-73.67676,42.78328],[-73.67236,42.79579],[-73.66136,42.80298],[-73.65846,42.80908],[-73.65966,42.81898],[-73.66576,42.83337],[-73.67061,42.83974],[-73.67376,42.85546],[-73.6759,42.85858],[-73.6732,42.87508],[-73.67981,42.88233],[-73.68445,42.89159],[-73.68307,42.90378],[-73.67891,42.91221],[-73.66338,42.92681],[-73.65967,42.93336],[-73.65065,42.93828],[-73.63995,42.93942],[-73.6323,42.94438],[-73.62965,42.95026],[-73.62871,42.95915],[-73.63147,42.96974],[-73.62942,42.97215],[-73.60928,42.98224],[-73.6067,42.99924],[-73.59744,43.00737],[-73.59364,43.01433],[-73.59088,43.02324],[-73.59158,43.03196],[-73.587,43.04265],[-73.58631,43.04872],[-73.57815,43.05579],[-73.57789,43.05867],[-73.58171,43.0687],[-73.58112,43.07301],[-73.5753,43.0825],[-73.57823,43.09063],[-73.57334,43.10054],[-73.57611,43.11046],[-73.57548,43.11485],[-73.57723,43.11898],[-73.5856,43.12366],[-73.58655,43.12814],[-73.59094,43.13511],[-73.5895,43.14158],[-73.58021,43.15288],[-73.58036,43.15643],[-73.58398,43.16282],[-73.58383,43.16613],[-73.58774,43.16679],[-73.58984,43.17047],[-73.58384,43.17684],[-73.581,43.18249],[-73.58235,43.18964],[-73.58553,43.19114],[-73.5857,43.19312],[-73.57946,43.21068],[-73.58155,43.2189],[-73.58596,43.22743],[-73.59312,43.23216],[-73.59748,43.24095],[-73.59708,43.24444],[-73.58786,43.2535],[-73.58722,43.25971],[-73.59236,43.26715],[-73.596,43.26912],[-73.60074,43.26884],[-73.60004,43.27976],[-73.59273,43.29508],[-73.58922,43.2974],[-73.58882,43.30054],[-73.59673,43.3064],[-73.60983,43.30654],[-73.62858,43.30403],[-73.63594,43.307],[-73.64106,43.30578],[-73.64276,43.30417],[-73.64186,43.29327],[-73.65138,43.29008],[-73.65306,43.29127],[-73.66788,43.29172],[-73.67123,43.29024],[-73.67324,43.28212],[-73.66176,43.27258],[-73.66398,43.26828],[-73.6721,43.26316],[-73.67646,43.26334],[-73.68126,43.26806],[-73.68421,43.28017],[-73.68549,43.28282],[-73.68856,43.2843],[-73.69193,43.28363],[-73.6967,43.27839],[-73.70487,43.27904],[-73.71123,43.27357],[-73.73284,43.26988],[-73.73982,43.26556],[-73.73788,43.25473],[-73.74396,43.24272],[-73.76022,43.23186],[-73.76527,43.22278],[-73.7675,43.22212],[-73.77269,43.22473],[-73.77949,43.2349],[-73.79289,43.24624],[-73.8033,43.25032],[-73.81537,43.25099],[-73.81953,43.25064],[-73.82097,43.24798],[-73.82664,43.24569],[-73.83492,43.251],[-73.83557,43.26584],[-73.83265,43.27086],[-73.82515,43.27754],[-73.8275,43.28457],[-73.82461,43.30427],[-73.83347,43.30487],[-73.83692,43.30661],[-73.84243,43.31474],[-73.84319,43.31885],[-73.84936,43.32392],[-73.8549,43.32532],[-73.85865,43.32812],[-73.85899,43.33032],[-73.85329,43.33775],[-73.86404,43.3455],[-73.86475,43.35418],[-73.87514,43.36192],[-73.87516,43.36572],[-73.87098,43.37252],[-73.87457,43.3845],[-73.87739,43.38665],[-73.8833,43.39799],[-74.1601,43.37153]]]}},{"type":"Feature","id":"NY:273:36093","properties":{"destinationId":"273","locality":"Saratoga Springs / Schenectady","definition":"Saratoga / Schenectady","state":"NY","stateName":"New York","county":"Schenectady County","countyGeoid":"36093","countyGeoids":["36091","36093"],"coverage":"complete-counties","sourceType":"gsa_county_defined_rate_area"},"geometry":{"type":"Polygon","coordinates":[[[-74.30593,42.75149],[-74.30518,42.74724],[-74.27784,42.71947],[-74.27077,42.71954],[-74.2723,42.71427],[-74.24101,42.71686],[-74.23985,42.71892],[-74.20271,42.71083],[-74.1843,42.71249],[-74.18027,42.72998],[-73.8096,42.77502],[-73.80937,42.77887],[-73.82217,42.78028],[-73.82767,42.78378],[-73.82906,42.79018],[-73.84157,42.79788],[-73.85847,42.81998],[-73.86677,42.82838],[-73.87586,42.83427],[-73.87966,42.84858],[-73.88177,42.85088],[-73.89594,42.85108],[-73.90439,42.91116],[-73.91848,42.91036],[-73.95546,42.89731],[-73.96479,42.90206],[-73.97684,42.9159],[-74.00653,42.93407],[-74.03291,42.94314],[-74.0556,42.95329],[-74.09298,42.95587],[-74.08388,42.89735],[-74.25683,42.81221],[-74.25478,42.80848],[-74.25532,42.80606],[-74.25853,42.80239],[-74.26467,42.79966],[-74.26331,42.79653],[-74.26046,42.79512],[-74.25444,42.7953],[-74.25343,42.79053],[-74.24813,42.78689],[-74.24806,42.78457],[-74.25438,42.77601],[-74.25441,42.77224],[-74.25148,42.7661],[-74.25282,42.76349],[-74.25851,42.7574],[-74.26384,42.75557],[-74.26972,42.75737],[-74.28699,42.75668],[-74.30593,42.75149]]]}},{"type":"Feature","id":"NY:274:36067","properties":{"destinationId":"274","locality":"Syracuse / Oswego","definition":"Onondaga / Oswego","state":"NY","stateName":"New York","county":"Onondaga County","countyGeoid":"36067","countyGeoids":["36067","36075"],"coverage":"complete-counties","sourceType":"gsa_county_defined_rate_area"},"geometry":{"type":"Polygon","coordinates":[[[-76.49931,43.09795],[-76.49194,43.00496],[-76.463,43.00632],[-76.45074,42.84576],[-76.35702,42.84945],[-76.29877,42.80746],[-76.27535,42.78047],[-76.27467,42.77126],[-76.08021,42.78001],[-76.08017,42.7816],[-75.89608,42.79096],[-75.91722,43.08593],[-75.91866,43.08595],[-75.9204,43.08998],[-75.92724,43.09037],[-75.92894,43.08884],[-75.92794,43.08746],[-75.92945,43.08726],[-75.93079,43.09005],[-75.93404,43.08722],[-75.93789,43.08914],[-75.93851,43.08676],[-75.94728,43.08886],[-75.94833,43.08693],[-75.95028,43.08951],[-75.95136,43.0873],[-75.9537,43.08874],[-75.96168,43.08549],[-75.96059,43.08886],[-75.96397,43.0867],[-75.96651,43.08745],[-75.96544,43.08911],[-75.96738,43.08992],[-75.96874,43.08977],[-75.96815,43.0877],[-75.97157,43.08963],[-75.97173,43.09254],[-75.97559,43.09128],[-75.97472,43.09692],[-75.97629,43.09849],[-75.9761,43.1034],[-75.97152,43.10491],[-75.97299,43.10638],[-75.97035,43.10757],[-75.97173,43.10919],[-75.9692,43.1105],[-75.96543,43.11672],[-75.9656,43.1195],[-75.96338,43.11904],[-75.96096,43.11577],[-75.95683,43.11504],[-75.9544,43.11686],[-75.95742,43.11819],[-75.95595,43.11952],[-75.95713,43.12024],[-75.95941,43.11981],[-75.95701,43.12197],[-75.95834,43.12373],[-75.96049,43.12297],[-75.95863,43.1254],[-75.95883,43.12809],[-75.95676,43.1268],[-75.95459,43.12799],[-75.95034,43.13176],[-75.95328,43.13336],[-75.95006,43.13485],[-75.9534,43.13546],[-75.9548,43.13401],[-75.95713,43.1363],[-75.9582,43.13508],[-75.95718,43.13395],[-75.96046,43.13284],[-75.9644,43.13513],[-75.96673,43.13468],[-75.97235,43.14048],[-75.97532,43.13894],[-75.97384,43.13734],[-75.97701,43.13601],[-75.97696,43.14075],[-75.97178,43.14385],[-75.97337,43.14873],[-75.97151,43.15493],[-75.97707,43.15765],[-75.97438,43.16318],[-75.979,43.16553],[-75.97832,43.16771],[-75.98101,43.1677],[-75.97948,43.1707],[-75.98267,43.17363],[-75.99003,43.17153],[-75.99264,43.17385],[-75.98967,43.17959],[-75.99144,43.18325],[-76.00254,43.17962],[-76.00361,43.17675],[-76.00274,43.17942],[-76.00865,43.18134],[-76.01165,43.18548],[-76.02572,43.19048],[-76.03253,43.19119],[-76.03514,43.19562],[-76.04996,43.20295],[-76.05262,43.20286],[-76.05348,43.20048],[-76.05671,43.1993],[-76.06584,43.20056],[-76.0789,43.19948],[-76.08269,43.20454],[-76.08076,43.20862],[-76.07824,43.20833],[-76.08531,43.2116],[-76.08529,43.21288],[-76.08101,43.21427],[-76.06803,43.21269],[-76.06941,43.2147],[-76.07874,43.21546],[-76.08013,43.21749],[-76.08001,43.216],[-76.08468,43.21689],[-76.09925,43.22494],[-76.1066,43.22442],[-76.10665,43.22687],[-76.11589,43.23333],[-76.13049,43.23453],[-76.13984,43.24036],[-76.14853,43.23964],[-76.16905,43.24667],[-76.17427,43.25137],[-76.17963,43.25359],[-76.1821,43.25762],[-76.20257,43.27154],[-76.21171,43.26767],[-76.20882,43.26365],[-76.21276,43.25741],[-76.21061,43.244],[-76.21339,43.24002],[-76.20501,43.23741],[-76.20472,43.22898],[-76.20255,43.22227],[-76.19425,43.21707],[-76.19875,43.21257],[-76.20618,43.21661],[-76.21065,43.21057],[-76.20834,43.20804],[-76.21765,43.20482],[-76.22445,43.20497],[-76.23005,43.20787],[-76.23385,43.21237],[-76.24465,43.21457],[-76.25,43.22519],[-76.25655,43.23207],[-76.25745,43.23687],[-76.26375,43.23637],[-76.26829,43.23958],[-76.27285,43.24017],[-76.27555,43.23877],[-76.27215,43.23487],[-76.26835,43.23337],[-76.26685,43.22747],[-76.26355,43.22617],[-76.26205,43.21847],[-76.27135,43.20397],[-76.28103,43.20109],[-76.28292,43.20676],[-76.28708,43.21069],[-76.28952,43.21903],[-76.30754,43.23079],[-76.31612,43.22943],[-76.32421,43.23231],[-76.34458,43.23152],[-76.34463,43.23267],[-76.47922,43.22752],[-76.47307,43.14602],[-76.48123,43.14589],[-76.4863,43.14322],[-76.47569,43.12386],[-76.47177,43.10498],[-76.47359,43.10403],[-76.49123,43.1063],[-76.49783,43.10266],[-76.49931,43.09795]]]}},{"type":"Feature","id":"NY:274:36075","properties":{"destinationId":"274","locality":"Syracuse / Oswego","definition":"Onondaga / Oswego","state":"NY","stateName":"New York","county":"Oswego County","countyGeoid":"36075","countyGeoids":["36067","36075"],"coverage":"complete-counties","sourceType":"gsa_county_defined_rate_area"},"geometry":{"type":"Polygon","coordinates":[[[-76.61693,43.41804],[-76.60501,43.25357],[-76.48115,43.25664],[-76.47922,43.22752],[-76.34463,43.23267],[-76.34458,43.23152],[-76.32421,43.23231],[-76.31612,43.22943],[-76.30754,43.23079],[-76.28952,43.21903],[-76.28708,43.21069],[-76.28292,43.20676],[-76.28103,43.20109],[-76.27135,43.20397],[-76.26205,43.21847],[-76.26355,43.22617],[-76.26685,43.22747],[-76.26835,43.23337],[-76.27215,43.23487],[-76.27555,43.23877],[-76.27285,43.24017],[-76.26829,43.23958],[-76.26375,43.23637],[-76.25805,43.23737],[-76.25655,43.23207],[-76.25,43.22519],[-76.24465,43.21457],[-76.23385,43.21237],[-76.23005,43.20787],[-76.22445,43.20497],[-76.21765,43.20482],[-76.20834,43.20804],[-76.21065,43.21057],[-76.20618,43.21661],[-76.19875,43.21257],[-76.19425,43.21707],[-76.20255,43.22227],[-76.20472,43.22898],[-76.20501,43.23741],[-76.21339,43.24002],[-76.21061,43.244],[-76.21276,43.25741],[-76.20882,43.26365],[-76.21171,43.26767],[-76.20257,43.27154],[-76.1821,43.25762],[-76.17963,43.25359],[-76.17427,43.25137],[-76.16905,43.24667],[-76.14853,43.23964],[-76.13984,43.24036],[-76.13049,43.23453],[-76.11589,43.23333],[-76.10665,43.22687],[-76.1066,43.22442],[-76.09925,43.22494],[-76.08468,43.21689],[-76.08001,43.216],[-76.08013,43.21749],[-76.07874,43.21546],[-76.06941,43.2147],[-76.06803,43.21269],[-76.08101,43.21427],[-76.08529,43.21288],[-76.08531,43.2116],[-76.07824,43.20833],[-76.08076,43.20862],[-76.08269,43.20454],[-76.0789,43.19948],[-76.06584,43.20056],[-76.05671,43.1993],[-76.05348,43.20048],[-76.05262,43.20286],[-76.04613,43.20216],[-76.03514,43.19562],[-76.03253,43.19119],[-76.02572,43.19048],[-76.01165,43.18548],[-76.00865,43.18134],[-76.00274,43.17942],[-76.00361,43.17675],[-76.00254,43.17962],[-75.99422,43.18218],[-75.99243,43.18516],[-75.98689,43.18394],[-75.98455,43.17966],[-75.97949,43.1774],[-75.97344,43.1799],[-75.95936,43.18039],[-75.95773,43.17397],[-75.95249,43.17109],[-75.93278,43.17658],[-75.92816,43.16934],[-75.92745,43.16274],[-75.91125,43.15891],[-75.88428,43.15556],[-75.86293,43.31922],[-75.88676,43.32502],[-75.81463,43.48358],[-75.75642,43.47042],[-75.76742,43.62971],[-75.77382,43.68878],[-76.02509,43.70702],[-76.022,43.66814],[-76.19967,43.68019],[-76.19658,43.66316],[-76.1966,43.64976],[-76.19914,43.60045],[-76.20347,43.57498],[-76.22123,43.53957],[-76.2287,43.53299],[-76.23583,43.52926],[-76.25986,43.52473],[-76.27022,43.52065],[-76.2781,43.52069],[-76.28374,43.51648],[-76.2971,43.51287],[-76.30442,43.51268],[-76.30967,43.51504],[-76.33091,43.51198],[-76.33432,43.51438],[-76.34549,43.51344],[-76.35253,43.51616],[-76.3636,43.5244],[-76.36885,43.52582],[-76.38313,43.52358],[-76.38358,43.52538],[-76.41064,43.52316],[-76.41758,43.52128],[-76.42222,43.51598],[-76.43381,43.51239],[-76.43747,43.50921],[-76.44643,43.50541],[-76.44751,43.50303],[-76.45009,43.50386],[-76.46972,43.49552],[-76.48696,43.47535],[-76.4917,43.47489],[-76.49837,43.47044],[-76.50686,43.46913],[-76.52632,43.46092],[-76.54683,43.45484],[-76.5496,43.45198],[-76.5624,43.44829],[-76.56496,43.44889],[-76.57004,43.44256],[-76.57498,43.44135],[-76.58657,43.43339],[-76.59496,43.43027],[-76.59891,43.42436],[-76.60709,43.42337],[-76.61693,43.41804]]]}},{"type":"Feature","id":"NY:275:36119","properties":{"destinationId":"275","locality":"Tarrytown / White Plains / New Rochelle","definition":"Westchester","state":"NY","stateName":"New York","county":"Westchester County","countyGeoid":"36119","countyGeoids":["36119"],"coverage":"complete-counties","sourceType":"gsa_county_defined_rate_area"},"geometry":{"type":"MultiPolygon","coordinates":[[[[-73.77237,40.88479],[-73.77401,40.88264],[-73.7699,40.88002],[-73.76772,40.88104],[-73.76707,40.88603],[-73.77037,40.8878],[-73.77237,40.88479]]],[[[-73.98253,41.32182],[-73.98328,41.31739],[-73.98098,41.31419],[-73.96448,41.29969],[-73.94658,41.29099],[-73.94578,41.28759],[-73.96968,41.26319],[-73.97228,41.25619],[-73.97078,41.24789],[-73.96128,41.24199],[-73.96138,41.23419],[-73.95328,41.22899],[-73.93148,41.20499],[-73.91168,41.1678],[-73.89248,41.1506],[-73.88748,41.1383],[-73.88758,41.12879],[-73.89488,41.0824],[-73.89388,41.0579],[-73.88938,41.0376],[-73.89363,40.99717],[-73.89614,40.98187],[-73.91832,40.91771],[-73.85939,40.90038],[-73.8596,40.90218],[-73.8572,40.90288],[-73.85632,40.90617],[-73.8541,40.90668],[-73.85488,40.90822],[-73.85112,40.91001],[-73.85269,40.90714],[-73.84139,40.90417],[-73.83841,40.89406],[-73.82405,40.88987],[-73.82236,40.88964],[-73.82324,40.8912],[-73.79298,40.88335],[-73.78756,40.88438],[-73.78605,40.88237],[-73.78308,40.88198],[-73.78134,40.88545],[-73.76656,40.89731],[-73.76465,40.90273],[-73.75678,40.9126],[-73.74376,40.91778],[-73.74225,40.92769],[-73.73749,40.92805],[-73.73435,40.92154],[-73.72174,40.93204],[-73.72062,40.94098],[-73.71596,40.94451],[-73.7088,40.94474],[-73.70873,40.94062],[-73.70718,40.93944],[-73.7049,40.94034],[-73.69539,40.95472],[-73.69322,40.95502],[-73.69258,40.95352],[-73.6983,40.9405],[-73.69541,40.94],[-73.69268,40.94421],[-73.68647,40.9452],[-73.68539,40.94884],[-73.68311,40.94964],[-73.67762,40.9642],[-73.66572,40.96758],[-73.66284,40.96676],[-73.66011,40.96912],[-73.65901,40.97524],[-73.6563,40.97972],[-73.65811,40.9824],[-73.66211,40.98171],[-73.66491,40.98373],[-73.6619,40.98861],[-73.659,40.98886],[-73.65723,40.99091],[-73.65964,40.99434],[-73.66027,41.00048],[-73.65526,41.01225],[-73.72777,41.1007],[-73.48271,41.21276],[-73.55096,41.29542],[-73.54471,41.36654],[-73.98253,41.32182]]]]}},{"type":"Feature","id":"NY:276:36083","properties":{"destinationId":"276","locality":"Troy","definition":"Rensselaer","state":"NY","stateName":"New York","county":"Rensselaer County","countyGeoid":"36083","countyGeoids":["36083"],"coverage":"complete-counties","sourceType":"gsa_county_defined_rate_area"},"geometry":{"type":"Polygon","coordinates":[[[-73.78605,42.48384],[-73.78571,42.47163],[-73.78372,42.46423],[-73.35253,42.51],[-73.26496,42.74594],[-73.27642,42.74602],[-73.29094,42.80192],[-73.28375,42.81386],[-73.28706,42.82014],[-73.28539,42.83409],[-73.27867,42.83341],[-73.27429,42.94365],[-73.38024,42.94374],[-73.37851,42.94532],[-73.37937,42.94756],[-73.3889,42.94824],[-73.3921,42.95259],[-73.39808,42.95309],[-73.40384,42.95148],[-73.40399,42.95487],[-73.40821,42.95693],[-73.4121,42.95738],[-73.42066,42.9549],[-73.42492,42.95599],[-73.42684,42.95852],[-73.43062,42.95865],[-73.44927,42.95122],[-73.44933,42.94532],[-73.45059,42.94458],[-73.63546,42.94129],[-73.65065,42.93828],[-73.65967,42.93336],[-73.66338,42.92681],[-73.67891,42.91221],[-73.68307,42.90378],[-73.68461,42.8924],[-73.67981,42.88233],[-73.6732,42.87508],[-73.6759,42.85858],[-73.67376,42.85546],[-73.67061,42.83974],[-73.66576,42.83337],[-73.65966,42.81898],[-73.65846,42.80908],[-73.66136,42.80298],[-73.66736,42.80018],[-73.67256,42.79538],[-73.67346,42.79028],[-73.68327,42.76795],[-73.68436,42.75788],[-73.68726,42.75248],[-73.68896,42.73828],[-73.6972,42.72886],[-73.70356,42.70948],[-73.70292,42.6993],[-73.72913,42.66505],[-73.7418,42.65432],[-73.75116,42.63608],[-73.75296,42.62868],[-73.76126,42.61038],[-73.76126,42.60078],[-73.75236,42.57668],[-73.75217,42.56672],[-73.75831,42.53422],[-73.76309,42.52203],[-73.78088,42.49731],[-73.78605,42.48384]]]}},{"type":"Feature","id":"NY:277:36109","properties":{"destinationId":"277","locality":"Ithaca","definition":"Tompkins","state":"NY","stateName":"New York","county":"Tompkins County","countyGeoid":"36109","countyGeoids":["36109"],"coverage":"complete-counties","sourceType":"gsa_county_defined_rate_area"},"geometry":{"type":"Polygon","coordinates":[[[-76.69666,42.54679],[-76.68573,42.37511],[-76.68594,42.37319],[-76.69055,42.37322],[-76.68973,42.31344],[-76.69107,42.31332],[-76.69141,42.28431],[-76.47396,42.28113],[-76.47449,42.26376],[-76.4162,42.26298],[-76.4153,42.31837],[-76.35087,42.31829],[-76.35062,42.30844],[-76.28822,42.30823],[-76.28817,42.29676],[-76.25015,42.29668],[-76.2493,42.30355],[-76.25141,42.30991],[-76.24936,42.31574],[-76.25136,42.32489],[-76.24975,42.32831],[-76.24733,42.3288],[-76.24549,42.34186],[-76.23782,42.351],[-76.23978,42.3597],[-76.24213,42.36368],[-76.25027,42.36653],[-76.26506,42.37516],[-76.27579,42.37708],[-76.28065,42.38024],[-76.29548,42.38011],[-76.29843,42.38155],[-76.29949,42.38501],[-76.29629,42.38962],[-76.29843,42.39569],[-76.29319,42.4064],[-76.25336,42.40757],[-76.26558,42.62359],[-76.4584,42.61862],[-76.45886,42.62742],[-76.61429,42.6221],[-76.61448,42.62523],[-76.66654,42.62346],[-76.65623,42.6048],[-76.64532,42.59171],[-76.62676,42.57387],[-76.61217,42.56286],[-76.58599,42.54991],[-76.69666,42.54679]]]}},{"type":"Feature","id":"NY:278:36071","properties":{"destinationId":"278","locality":"West Point","definition":"Orange","state":"NY","stateName":"New York","county":"Orange County","countyGeoid":"36071","countyGeoids":["36071"],"coverage":"complete-counties","sourceType":"gsa_county_defined_rate_area"},"geometry":{"type":"Polygon","coordinates":[[[-74.76247,41.44952],[-74.76231,41.44435],[-74.75948,41.44259],[-74.75611,41.43395],[-74.75187,41.43248],[-74.75642,41.42801],[-74.75471,41.42499],[-74.75068,41.42798],[-74.74093,41.43116],[-74.73552,41.42746],[-74.73473,41.4227],[-74.74172,41.40788],[-74.73855,41.40119],[-74.73038,41.39566],[-74.72089,41.39469],[-74.71598,41.39258],[-74.70846,41.3789],[-74.69113,41.36732],[-74.68977,41.36156],[-74.6964,41.35734],[-74.60735,41.31777],[-74.45758,41.24822],[-74.34493,41.19205],[-74.2343,41.14315],[-73.98075,41.32542],[-73.96126,41.34854],[-73.95825,41.36728],[-73.94736,41.39525],[-73.94864,41.39758],[-73.95914,41.40044],[-73.96236,41.4037],[-73.96306,41.41034],[-73.96751,41.41891],[-73.97279,41.42459],[-73.98149,41.4389],[-73.98658,41.44489],[-73.99778,41.45219],[-74.00011,41.45655],[-73.99758,41.47509],[-73.99858,41.48339],[-73.99478,41.49829],[-73.99779,41.50278],[-73.99654,41.52265],[-73.98593,41.54562],[-73.97337,41.5598],[-73.96478,41.56531],[-73.95947,41.57144],[-73.95415,41.58327],[-73.95331,41.58998],[-74.05394,41.58072],[-74.0538,41.58606],[-74.06808,41.606],[-74.0899,41.5986],[-74.09442,41.60545],[-74.09865,41.60726],[-74.13451,41.6157],[-74.12639,41.58254],[-74.18536,41.59413],[-74.1875,41.59079],[-74.2516,41.60537],[-74.25019,41.62932],[-74.26409,41.63274],[-74.26861,41.62862],[-74.27104,41.62928],[-74.27579,41.62564],[-74.28084,41.62522],[-74.29278,41.61827],[-74.29521,41.61968],[-74.30412,41.61579],[-74.3067,41.60882],[-74.30932,41.61115],[-74.31205,41.61127],[-74.31632,41.60543],[-74.32016,41.60301],[-74.32961,41.60155],[-74.32975,41.59862],[-74.33203,41.59674],[-74.3344,41.59751],[-74.34068,41.59438],[-74.34254,41.59683],[-74.34935,41.59862],[-74.35183,41.59774],[-74.35319,41.59537],[-74.35212,41.59266],[-74.35394,41.59298],[-74.3537,41.59168],[-74.36347,41.59196],[-74.37797,41.58638],[-74.37995,41.58742],[-74.38615,41.58313],[-74.39061,41.58622],[-74.3913,41.58206],[-74.39543,41.58069],[-74.39761,41.57509],[-74.40187,41.57533],[-74.40695,41.57232],[-74.40828,41.57518],[-74.41102,41.57123],[-74.40762,41.56888],[-74.41414,41.5678],[-74.4184,41.5694],[-74.41973,41.56243],[-74.42344,41.56264],[-74.42331,41.55988],[-74.42996,41.55799],[-74.42622,41.55609],[-74.43038,41.55592],[-74.43142,41.55466],[-74.43036,41.5538],[-74.43417,41.55354],[-74.43615,41.5507],[-74.43509,41.54618],[-74.43862,41.54733],[-74.43789,41.54346],[-74.43955,41.54302],[-74.44518,41.54409],[-74.44578,41.54087],[-74.44379,41.54092],[-74.4446,41.53723],[-74.45046,41.53296],[-74.45454,41.53337],[-74.45604,41.53188],[-74.45545,41.53011],[-74.45746,41.52936],[-74.45699,41.52778],[-74.46024,41.52466],[-74.46575,41.52286],[-74.46562,41.51688],[-74.4761,41.51024],[-74.47406,41.50873],[-74.47562,41.50395],[-74.4938,41.50445],[-74.5719,41.50009],[-74.7524,41.49374],[-74.75501,41.4914],[-74.76065,41.49079],[-74.76204,41.48806],[-74.75974,41.48504],[-74.75965,41.48186],[-74.7545,41.47885],[-74.75234,41.47264],[-74.75296,41.46809],[-74.75041,41.46433],[-74.7599,41.46069],[-74.75863,41.45429],[-74.76247,41.44952]]]}}]}