{"type":"FeatureCollection","features":[{"type":"Feature","id":"OH:280:39043","properties":{"destinationId":"280","locality":"Sandusky","definition":"Erie","state":"OH","stateName":"Ohio","county":"Erie County","countyGeoid":"39043","countyGeoids":["39043"],"coverage":"complete-counties","sourceType":"gsa_county_defined_rate_area"},"geometry":{"type":"MultiPolygon","coordinates":[[[[-82.73447,41.60351],[-82.73453,41.60113],[-82.72487,41.59578],[-82.71517,41.59496],[-82.70197,41.59122],[-82.7015,41.58994],[-82.70327,41.58882],[-82.70239,41.58657],[-82.69892,41.58522],[-82.6887,41.58654],[-82.6858,41.58764],[-82.68023,41.59546],[-82.67729,41.59621],[-82.67971,41.59891],[-82.6789,41.6079],[-82.68142,41.61178],[-82.67358,41.62322],[-82.6771,41.62286],[-82.68979,41.61149],[-82.69697,41.61078],[-82.70205,41.61231],[-82.70505,41.61523],[-82.70386,41.61739],[-82.70738,41.61949],[-82.71802,41.61942],[-82.72264,41.61679],[-82.72226,41.61299],[-82.72425,41.60897],[-82.73447,41.60351]]],[[[-82.90187,41.43051],[-82.84771,41.4305],[-82.84148,41.29002],[-82.44255,41.28387],[-82.34234,41.28424],[-82.34807,41.42831],[-82.3635,41.427],[-82.37258,41.42172],[-82.39149,41.41613],[-82.43132,41.39687],[-82.4606,41.38632],[-82.48121,41.38134],[-82.51221,41.38302],[-82.54836,41.39836],[-82.55162,41.39702],[-82.5576,41.39939],[-82.5708,41.40772],[-82.58319,41.4106],[-82.60096,41.41954],[-82.60331,41.41723],[-82.61179,41.42109],[-82.61448,41.42017],[-82.62549,41.42307],[-82.62035,41.43293],[-82.65807,41.46084],[-82.68169,41.48379],[-82.68693,41.4914],[-82.69406,41.48794],[-82.69355,41.48392],[-82.68117,41.47738],[-82.67233,41.46259],[-82.67378,41.45347],[-82.67968,41.45439],[-82.68002,41.45316],[-82.68406,41.45323],[-82.69106,41.45608],[-82.69227,41.45446],[-82.69931,41.45887],[-82.69828,41.45962],[-82.7016,41.46299],[-82.71808,41.45758],[-82.73066,41.45002],[-82.73431,41.45052],[-82.73114,41.4612],[-82.73351,41.46047],[-82.7369,41.45082],[-82.73614,41.44885],[-82.73854,41.44814],[-82.7408,41.45093],[-82.7439,41.45036],[-82.75467,41.44399],[-82.76632,41.44577],[-82.80102,41.4643],[-82.81171,41.47534],[-82.81266,41.46982],[-82.82122,41.46928],[-82.82645,41.47356],[-82.83002,41.47285],[-82.82812,41.45862],[-82.83256,41.45305],[-82.83775,41.44985],[-82.84625,41.4486],[-82.84815,41.44568],[-82.85884,41.44103],[-82.87305,41.44076],[-82.87443,41.43822],[-82.884,41.43573],[-82.888,41.43664],[-82.88845,41.4347],[-82.89556,41.43416],[-82.90187,41.43051]]]]}},{"type":"Feature","id":"OH:282:39025","properties":{"destinationId":"282","locality":"Cincinnati","definition":"Hamilton / Clermont","state":"OH","stateName":"Ohio","county":"Clermont County","countyGeoid":"39025","countyGeoids":["39025","39061"],"coverage":"complete-counties","sourceType":"gsa_county_defined_rate_area"},"geometry":{"type":"Polygon","coordinates":[[[-84.32003,39.22343],[-84.31608,39.22051],[-84.31115,39.20963],[-84.29946,39.20906],[-84.28962,39.21293],[-84.28404,39.21313],[-84.27638,39.20387],[-84.27635,39.20078],[-84.278,39.19692],[-84.28704,39.18872],[-84.28893,39.1815],[-84.29289,39.17999],[-84.29945,39.17388],[-84.2952,39.16696],[-84.30012,39.16443],[-84.30174,39.15943],[-84.30272,39.14261],[-84.31994,39.02208],[-84.3047,39.00646],[-84.29936,38.99598],[-84.29647,38.98531],[-84.29508,38.9683],[-84.28816,38.95579],[-84.27992,38.94517],[-84.25701,38.92321],[-84.23445,38.89323],[-84.23184,38.87287],[-84.23326,38.84267],[-84.23018,38.82655],[-84.2253,38.81766],[-84.2129,38.80571],[-84.20559,38.80259],[-84.15591,38.79491],[-84.13509,38.78948],[-84.10884,38.77925],[-84.07149,38.77047],[-84.05267,38.77138],[-83.98992,39.2541],[-84.25943,39.27086],[-84.26141,39.26469],[-84.26497,39.26396],[-84.27133,39.25844],[-84.28282,39.25194],[-84.29326,39.24886],[-84.29607,39.2452],[-84.29642,39.2393],[-84.29944,39.23516],[-84.30711,39.23441],[-84.32003,39.22343]]]}},{"type":"Feature","id":"OH:282:39061","properties":{"destinationId":"282","locality":"Cincinnati","definition":"Hamilton / Clermont","state":"OH","stateName":"Ohio","county":"Hamilton County","countyGeoid":"39061","countyGeoids":["39025","39061"],"coverage":"complete-counties","sourceType":"gsa_county_defined_rate_area"},"geometry":{"type":"Polygon","coordinates":[[[-84.82015,39.11201],[-84.82016,39.10548],[-84.78768,39.1153],[-84.76675,39.13856],[-84.75445,39.14666],[-84.74415,39.14746],[-84.73205,39.14446],[-84.71855,39.13706],[-84.68975,39.10416],[-84.68485,39.10046],[-84.65725,39.09546],[-84.65035,39.09166],[-84.63245,39.07676],[-84.62011,39.07346],[-84.60793,39.07324],[-84.57214,39.08206],[-84.56394,39.08736],[-84.55754,39.09486],[-84.55084,39.09936],[-84.54134,39.09916],[-84.52464,39.09216],[-84.50974,39.09366],[-84.50206,39.09664],[-84.49374,39.10246],[-84.48774,39.11076],[-84.48094,39.11676],[-84.47054,39.12146],[-84.46204,39.12176],[-84.45534,39.12036],[-84.44524,39.11446],[-84.43554,39.10226],[-84.43284,39.09426],[-84.43464,39.08686],[-84.43294,39.08396],[-84.43234,39.06756],[-84.42984,39.05826],[-84.42573,39.05306],[-84.40694,39.04566],[-84.38684,39.04516],[-84.36044,39.04136],[-84.33634,39.03286],[-84.31994,39.02208],[-84.30272,39.14261],[-84.30174,39.15943],[-84.30012,39.16443],[-84.2952,39.16696],[-84.29945,39.17388],[-84.29289,39.17999],[-84.28893,39.1815],[-84.28704,39.18872],[-84.278,39.19692],[-84.27635,39.20078],[-84.27638,39.20387],[-84.28404,39.21313],[-84.28962,39.21293],[-84.29946,39.20906],[-84.31115,39.20963],[-84.31608,39.22051],[-84.32003,39.22343],[-84.30711,39.23441],[-84.29944,39.23516],[-84.29642,39.2393],[-84.29607,39.2452],[-84.29326,39.24886],[-84.28282,39.25194],[-84.27133,39.25844],[-84.26497,39.26396],[-84.26141,39.26469],[-84.25637,39.27682],[-84.26466,39.28066],[-84.26524,39.28222],[-84.26217,39.28834],[-84.3157,39.29269],[-84.35321,39.29229],[-84.39108,39.29758],[-84.42913,39.29876],[-84.46546,39.30292],[-84.48515,39.30155],[-84.50464,39.30596],[-84.52368,39.30328],[-84.56235,39.30808],[-84.59875,39.30856],[-84.63005,39.31206],[-84.63859,39.30975],[-84.64181,39.30504],[-84.81945,39.30515],[-84.82015,39.11201]]]}},{"type":"Feature","id":"OH:283:39035","properties":{"destinationId":"283","locality":"Cleveland","definition":"Cuyahoga","state":"OH","stateName":"Ohio","county":"Cuyahoga County","countyGeoid":"39035","countyGeoids":["39035"],"coverage":"complete-counties","sourceType":"gsa_county_defined_rate_area"},"geometry":{"type":"Polygon","coordinates":[[[-81.97097,41.36911],[-81.97126,41.35127],[-81.87696,41.35068],[-81.87805,41.27504],[-81.56514,41.27776],[-81.56242,41.28039],[-81.56478,41.28421],[-81.56806,41.28602],[-81.56689,41.28797],[-81.56514,41.28785],[-81.56534,41.28918],[-81.5709,41.29081],[-81.56988,41.29342],[-81.57205,41.2939],[-81.57107,41.29587],[-81.57251,41.2965],[-81.57286,41.30075],[-81.57573,41.30091],[-81.57552,41.30266],[-81.57333,41.30329],[-81.58429,41.30698],[-81.58544,41.30886],[-81.58362,41.31152],[-81.58364,41.31568],[-81.58766,41.31977],[-81.58734,41.32371],[-81.59154,41.32788],[-81.59124,41.33128],[-81.5879,41.33631],[-81.5881,41.34265],[-81.59473,41.34354],[-81.59682,41.34721],[-81.59357,41.34768],[-81.59332,41.34963],[-81.59724,41.3493],[-81.59805,41.35116],[-81.39169,41.34827],[-81.39176,41.42427],[-81.37477,41.42443],[-81.37499,41.44529],[-81.39152,41.44522],[-81.39101,41.56972],[-81.48784,41.57005],[-81.48864,41.63135],[-81.5071,41.62103],[-81.52427,41.61614],[-81.53495,41.61071],[-81.56377,41.58685],[-81.58157,41.57375],[-81.58421,41.57425],[-81.58895,41.57064],[-81.59185,41.56621],[-81.6273,41.54408],[-81.63329,41.54818],[-81.63779,41.54316],[-81.63295,41.542],[-81.64062,41.5393],[-81.65533,41.53079],[-81.6555,41.5288],[-81.66753,41.52271],[-81.66818,41.52542],[-81.6624,41.52884],[-81.66511,41.5316],[-81.68887,41.51818],[-81.68767,41.51692],[-81.69324,41.51439],[-81.69136,41.51058],[-81.69213,41.50932],[-81.69538,41.50987],[-81.70921,41.50115],[-81.71808,41.49719],[-81.72065,41.49793],[-81.7272,41.49311],[-81.73261,41.4912],[-81.73403,41.49319],[-81.73965,41.49115],[-81.73876,41.48855],[-81.74476,41.48715],[-81.77754,41.49341],[-81.78202,41.4957],[-81.79041,41.49521],[-81.79811,41.49728],[-81.80027,41.4957],[-81.81228,41.49532],[-81.83513,41.48959],[-81.83862,41.49018],[-81.86364,41.4827],[-81.87699,41.48318],[-81.94445,41.49236],[-81.95226,41.49528],[-81.96833,41.50495],[-81.97097,41.36911]]]}},{"type":"Feature","id":"OH:284:39049","properties":{"destinationId":"284","locality":"Columbus","definition":"Franklin","state":"OH","stateName":"Ohio","county":"Franklin County","countyGeoid":"39049","countyGeoids":["39049"],"coverage":"complete-counties","sourceType":"gsa_county_defined_rate_area"},"geometry":{"type":"Polygon","coordinates":[[[-83.26088,40.00281],[-83.24611,39.98732],[-83.25012,39.98315],[-83.25023,39.97033],[-83.24694,39.97114],[-83.24544,39.96329],[-83.24017,39.96012],[-83.2417,39.95255],[-83.23186,39.94486],[-83.22564,39.93226],[-83.25203,39.91736],[-83.2437,39.8125],[-83.16794,39.80874],[-83.03763,39.80557],[-82.82425,39.795],[-82.8215,39.82427],[-82.80248,39.82295],[-82.79438,39.91078],[-82.8131,39.91166],[-82.8108,39.94116],[-82.7825,39.93966],[-82.77946,39.97629],[-82.77382,39.97613],[-82.76183,40.12586],[-83.16987,40.14308],[-83.17021,40.10707],[-83.20627,40.10773],[-83.2122,40.04807],[-83.25535,40.04825],[-83.2549,40.04268],[-83.25248,40.04059],[-83.25622,40.03055],[-83.25551,40.02879],[-83.25275,40.02845],[-83.25176,40.01963],[-83.25327,40.01432],[-83.25168,40.00838],[-83.25409,40.00505],[-83.25855,40.00482],[-83.26088,40.00281]]]}},{"type":"Feature","id":"OH:285:39057","properties":{"destinationId":"285","locality":"Dayton / Fairborn","definition":"Greene / Montgomery","state":"OH","stateName":"Ohio","county":"Greene County","countyGeoid":"39057","countyGeoids":["39057","39113"],"coverage":"complete-counties","sourceType":"gsa_county_defined_rate_area"},"geometry":{"type":"Polygon","coordinates":[[[-84.11375,39.5845],[-84.11417,39.57823],[-83.6702,39.55025],[-83.64769,39.77521],[-83.74085,39.78151],[-83.73948,39.78896],[-83.82937,39.79777],[-83.82742,39.82256],[-83.94129,39.82884],[-83.93981,39.84345],[-84.05371,39.85071],[-84.05505,39.83621],[-84.09294,39.83834],[-84.11126,39.63802],[-84.11194,39.62636],[-84.10964,39.62596],[-84.11375,39.5845]]]}},{"type":"Feature","id":"OH:285:39113","properties":{"destinationId":"285","locality":"Dayton / Fairborn","definition":"Greene / Montgomery","state":"OH","stateName":"Ohio","county":"Montgomery County","countyGeoid":"39113","countyGeoids":["39057","39113"],"coverage":"complete-counties","sourceType":"gsa_county_defined_rate_area"},"geometry":{"type":"Polygon","coordinates":[[[-84.48537,39.91849],[-84.47921,39.59102],[-84.28632,39.58958],[-84.11417,39.57823],[-84.10964,39.62596],[-84.11194,39.62636],[-84.11126,39.63802],[-84.09294,39.83834],[-84.05505,39.83621],[-84.05101,39.87981],[-84.15722,39.88599],[-84.16446,39.89718],[-84.16719,39.91137],[-84.15767,39.92297],[-84.48537,39.91849]]]}},{"type":"Feature","id":"OH:287:39017","properties":{"destinationId":"287","locality":"Hamilton","definition":"Butler / Warren","state":"OH","stateName":"Ohio","county":"Butler County","countyGeoid":"39017","countyGeoids":["39017","39165"],"coverage":"complete-counties","sourceType":"gsa_county_defined_rate_area"},"geometry":{"type":"Polygon","coordinates":[[[-84.81924,39.31704],[-84.81945,39.30515],[-84.64181,39.30504],[-84.63859,39.30975],[-84.63005,39.31206],[-84.59875,39.30856],[-84.56235,39.30808],[-84.52368,39.30328],[-84.50464,39.30596],[-84.48515,39.30155],[-84.46546,39.30292],[-84.42913,39.29876],[-84.39108,39.29758],[-84.35321,39.29229],[-84.33672,39.45599],[-84.34021,39.4567],[-84.33168,39.54921],[-84.36155,39.54217],[-84.3643,39.54381],[-84.36524,39.58986],[-84.47921,39.59102],[-84.47893,39.56879],[-84.76309,39.5666],[-84.81494,39.56771],[-84.81924,39.31704]]]}},{"type":"Feature","id":"OH:287:39165","properties":{"destinationId":"287","locality":"Hamilton","definition":"Butler / Warren","state":"OH","stateName":"Ohio","county":"Warren County","countyGeoid":"39165","countyGeoids":["39017","39165"],"coverage":"complete-counties","sourceType":"gsa_county_defined_rate_area"},"geometry":{"type":"Polygon","coordinates":[[[-84.36523,39.58949],[-84.3643,39.54381],[-84.36155,39.54217],[-84.33168,39.54921],[-84.34021,39.4567],[-84.33672,39.45599],[-84.35321,39.29229],[-84.3157,39.29269],[-84.26217,39.28834],[-84.26524,39.28222],[-84.26466,39.28066],[-84.25637,39.27682],[-84.25943,39.27086],[-84.00745,39.25511],[-83.97699,39.5694],[-84.28569,39.58955],[-84.36523,39.58949]]]}}]}