{"type":"FeatureCollection","features":[{"type":"Feature","id":"OK:295:40109","properties":{"destinationId":"295","locality":"Oklahoma City","definition":"Oklahoma","state":"OK","stateName":"Oklahoma","county":"Oklahoma County","countyGeoid":"40109","countyGeoids":["40109"],"coverage":"complete-counties","sourceType":"gsa_county_defined_rate_area"},"geometry":{"type":"Polygon","coordinates":[[[-97.67405,35.56932],[-97.67405,35.55113],[-97.67144,35.55111],[-97.67137,35.37715],[-97.14211,35.37686],[-97.14107,35.7244],[-97.67403,35.72597],[-97.67405,35.56932]]]}}]}