{"type":"FeatureCollection","features":[{"type":"Feature","id":"OR:298:41067","properties":{"destinationId":"298","locality":"Beaverton","definition":"Washington","state":"OR","stateName":"Oregon","county":"Washington County","countyGeoid":"41067","countyGeoids":["41067"],"coverage":"complete-counties","sourceType":"gsa_county_defined_rate_area"},"geometry":{"type":"Polygon","coordinates":[[[-123.48544,45.44714],[-123.48608,45.4332],[-123.13543,45.43346],[-123.13466,45.41894],[-123.1147,45.41896],[-123.11464,45.40438],[-123.03216,45.40496],[-123.03229,45.39089],[-123.01129,45.3909],[-123.01165,45.37635],[-122.99139,45.37547],[-122.9914,45.3611],[-122.9703,45.36077],[-122.97023,45.34645],[-122.9088,45.34618],[-122.90887,45.31748],[-122.8465,45.31719],[-122.84649,45.34595],[-122.80719,45.34628],[-122.80556,45.34566],[-122.80547,45.33177],[-122.74374,45.33207],[-122.74386,45.51951],[-122.76446,45.51956],[-122.76441,45.53382],[-122.78486,45.53399],[-122.78477,45.5484],[-122.79511,45.54843],[-122.7927,45.54935],[-122.79591,45.55208],[-122.79606,45.5557],[-122.80543,45.55569],[-122.80548,45.56291],[-122.826,45.56304],[-122.82634,45.57752],[-122.84698,45.57752],[-122.84685,45.59184],[-122.86759,45.59188],[-122.8675,45.60623],[-122.88796,45.60635],[-122.88784,45.62047],[-122.90899,45.62076],[-122.90908,45.63523],[-122.92913,45.63531],[-122.9289,45.73569],[-122.99037,45.73646],[-122.99034,45.75084],[-123.03184,45.75142],[-123.03087,45.77916],[-123.36162,45.77958],[-123.36103,45.7087],[-123.48473,45.70876],[-123.48512,45.67925],[-123.46436,45.67927],[-123.46409,45.66514],[-123.44375,45.66513],[-123.44385,45.65068],[-123.423,45.65062],[-123.42327,45.63618],[-123.38022,45.63575],[-123.38066,45.62198],[-123.3405,45.6222],[-123.34033,45.60746],[-123.29944,45.60725],[-123.29926,45.59302],[-123.32021,45.59298],[-123.32,45.57868],[-123.36113,45.57878],[-123.36115,45.5499],[-123.40205,45.55007],[-123.40215,45.53565],[-123.42194,45.53538],[-123.42197,45.52141],[-123.44272,45.52112],[-123.44074,45.50533],[-123.44112,45.49127],[-123.46118,45.49156],[-123.46196,45.46211],[-123.46388,45.44726],[-123.48544,45.44714]]]}},{"type":"Feature","id":"OR:299:41017","properties":{"destinationId":"299","locality":"Bend","definition":"Deschutes","state":"OR","stateName":"Oregon","county":"Deschutes County","countyGeoid":"41017","countyGeoids":["41017"],"coverage":"complete-counties","sourceType":"gsa_county_defined_rate_area"},"geometry":{"type":"Polygon","coordinates":[[[-122.00194,43.61641],[-120.97498,43.61744],[-120.97496,43.61538],[-120.37775,43.61595],[-120.37771,43.61149],[-119.89658,43.61116],[-119.89743,43.6982],[-120.23793,43.69738],[-120.25778,43.69876],[-120.25839,43.7853],[-120.37811,43.78543],[-120.37874,43.87236],[-120.74785,43.87133],[-120.74825,43.95731],[-120.98659,43.96085],[-120.98727,44.13403],[-121.10277,44.13812],[-121.10294,44.21849],[-121.10854,44.21852],[-121.10753,44.3906],[-121.22929,44.39065],[-121.2293,44.39304],[-121.84314,44.39263],[-121.84316,44.38909],[-121.84647,44.38561],[-121.84368,44.38307],[-121.84541,44.38015],[-121.84195,44.37289],[-121.84491,44.37051],[-121.84599,44.36687],[-121.83688,44.35732],[-121.8439,44.34643],[-121.84344,44.34214],[-121.83761,44.33402],[-121.83956,44.32752],[-121.83826,44.32514],[-121.84078,44.32098],[-121.83874,44.31248],[-121.84044,44.30822],[-121.8385,44.30723],[-121.83719,44.30301],[-121.84135,44.28565],[-121.83703,44.28684],[-121.82563,44.28344],[-121.82503,44.27481],[-121.82006,44.2678],[-121.81917,44.26195],[-121.814,44.26024],[-121.80087,44.25955],[-121.79746,44.25461],[-121.78965,44.24933],[-121.79046,44.24546],[-121.78781,44.24076],[-121.78575,44.22924],[-121.77823,44.22148],[-121.7779,44.21888],[-121.77955,44.21698],[-121.78406,44.21575],[-121.78525,44.2126],[-121.78346,44.2096],[-121.78563,44.20781],[-121.78161,44.20533],[-121.78151,44.19481],[-121.77405,44.19016],[-121.77341,44.18562],[-121.77974,44.17565],[-121.77881,44.17313],[-121.77165,44.16758],[-121.77243,44.16353],[-121.77671,44.15993],[-121.78202,44.15976],[-121.78107,44.1552],[-121.78342,44.15432],[-121.78402,44.14846],[-121.77274,44.13983],[-121.77134,44.12392],[-121.76807,44.11524],[-121.77,44.10813],[-121.76926,44.10134],[-121.77135,44.0996],[-121.77248,44.09103],[-121.77678,44.08854],[-121.77975,44.08012],[-121.78921,44.07502],[-121.7965,44.06166],[-121.80151,44.05684],[-121.80222,44.05269],[-121.81219,44.05316],[-121.82006,44.0509],[-121.82573,44.04415],[-121.83447,44.03974],[-121.83519,44.03702],[-121.82804,44.02916],[-121.82202,44.01236],[-121.8271,43.99759],[-121.83338,43.99109],[-121.8284,43.98873],[-121.83546,43.98728],[-121.83728,43.98265],[-121.84509,43.97624],[-121.84356,43.97344],[-121.83672,43.97123],[-121.84539,43.96718],[-121.85706,43.96525],[-121.85971,43.96153],[-121.8581,43.94559],[-121.86093,43.94305],[-121.86155,43.93584],[-121.86534,43.93232],[-121.86649,43.9258],[-121.86997,43.92329],[-121.86555,43.91979],[-121.86938,43.91186],[-121.8769,43.90784],[-121.89144,43.90866],[-121.89257,43.9109],[-121.89839,43.91227],[-121.90148,43.9159],[-121.90586,43.91336],[-121.92036,43.91117],[-121.92358,43.90857],[-121.92821,43.90918],[-121.93933,43.90087],[-121.93148,43.89899],[-121.93242,43.89421],[-121.94233,43.88626],[-121.94521,43.88206],[-121.95226,43.87806],[-121.95134,43.87394],[-121.95296,43.87168],[-121.95946,43.8682],[-121.96205,43.865],[-121.96855,43.86455],[-121.97511,43.85757],[-121.97608,43.84604],[-121.9744,43.84128],[-121.9778,43.82853],[-121.97526,43.82788],[-121.97366,43.82934],[-121.97546,43.81177],[-121.96777,43.81276],[-121.96375,43.80974],[-121.9644,43.80395],[-121.96838,43.80098],[-121.96739,43.78699],[-121.96403,43.78263],[-121.96051,43.78124],[-121.96889,43.77475],[-121.96961,43.76954],[-121.96905,43.76734],[-121.96144,43.76374],[-121.97012,43.75683],[-121.97199,43.75298],[-121.97044,43.75075],[-121.97414,43.75036],[-121.97568,43.74696],[-121.98125,43.74296],[-121.97965,43.73908],[-121.97517,43.73584],[-121.97557,43.73358],[-121.97369,43.73064],[-121.97826,43.72445],[-121.97312,43.71582],[-121.97463,43.71403],[-121.97461,43.70858],[-121.9735,43.70623],[-121.96718,43.70425],[-121.96692,43.70282],[-121.97242,43.69714],[-121.97349,43.69141],[-121.97822,43.68802],[-121.9811,43.67304],[-121.98572,43.66425],[-121.98691,43.65386],[-121.98062,43.64254],[-121.98051,43.63968],[-121.97454,43.63563],[-121.96795,43.62755],[-121.96492,43.62704],[-121.98666,43.62563],[-121.99776,43.62704],[-122.0001,43.62636],[-122.00162,43.62253],[-122.00194,43.61641]]]}},{"type":"Feature","id":"OR:300:41005","properties":{"destinationId":"300","locality":"Clackamas","definition":"Clackamas","state":"OR","stateName":"Oregon","county":"Clackamas County","countyGeoid":"41005","countyGeoids":["41005"],"coverage":"complete-counties","sourceType":"gsa_county_defined_rate_area"},"geometry":{"type":"Polygon","coordinates":[[[-122.86802,45.28858],[-122.86807,45.2597],[-122.84987,45.25972],[-122.83458,45.27406],[-122.7849,45.27407],[-122.78476,45.25956],[-122.73899,45.25953],[-122.74144,45.25905],[-122.74112,45.25703],[-122.74445,45.25344],[-122.74348,45.25155],[-122.74792,45.25181],[-122.74713,45.24928],[-122.75006,45.24728],[-122.75111,45.24534],[-122.74996,45.24336],[-122.75195,45.24254],[-122.75025,45.24053],[-122.75124,45.23841],[-122.74913,45.2382],[-122.74756,45.2358],[-122.75074,45.23504],[-122.74982,45.23197],[-122.74776,45.23348],[-122.7453,45.23277],[-122.74677,45.22926],[-122.74811,45.23121],[-122.75253,45.22884],[-122.7496,45.22889],[-122.74671,45.2252],[-122.74662,45.22166],[-122.74809,45.22069],[-122.7454,45.21595],[-122.74856,45.21415],[-122.74736,45.21228],[-122.74831,45.21103],[-122.75339,45.21232],[-122.75248,45.20976],[-122.75747,45.20914],[-122.75582,45.20697],[-122.75949,45.20332],[-122.7588,45.2007],[-122.75365,45.20183],[-122.75437,45.19993],[-122.75046,45.1992],[-122.74982,45.19496],[-122.75444,45.19674],[-122.75146,45.19276],[-122.75316,45.19176],[-122.75652,45.1931],[-122.75553,45.19542],[-122.75987,45.19473],[-122.75943,45.18977],[-122.75509,45.19158],[-122.75388,45.18918],[-122.75652,45.18885],[-122.75318,45.18752],[-122.7544,45.18614],[-122.75821,45.18687],[-122.75491,45.1847],[-122.76013,45.18265],[-122.75189,45.18219],[-122.75684,45.17958],[-122.75415,45.17744],[-122.75766,45.17751],[-122.7593,45.17516],[-122.7567,45.17471],[-122.75688,45.1728],[-122.7619,45.17198],[-122.75989,45.1709],[-122.76054,45.16958],[-122.7666,45.1633],[-122.76971,45.16167],[-122.77369,45.16345],[-122.77475,45.16182],[-122.77003,45.15942],[-122.77855,45.15112],[-122.78038,45.1477],[-122.77956,45.14657],[-122.78288,45.14385],[-122.77996,45.13939],[-122.78489,45.1359],[-122.78663,45.13054],[-122.7885,45.13036],[-122.78282,45.12618],[-122.78283,45.12453],[-122.77766,45.12245],[-122.77619,45.12351],[-122.77694,45.12198],[-122.77431,45.12023],[-122.77589,45.11883],[-122.7707,45.11826],[-122.767,45.11574],[-122.76768,45.11487],[-122.76562,45.11581],[-122.76475,45.11254],[-122.76392,45.1136],[-122.76028,45.11158],[-122.75725,45.11185],[-122.75287,45.1094],[-122.75258,45.10706],[-122.75003,45.10787],[-122.74922,45.10224],[-122.74632,45.10276],[-122.7433,45.09629],[-122.73294,45.09217],[-122.72974,45.08728],[-122.72561,45.08565],[-122.72529,45.08287],[-122.71986,45.07988],[-122.72072,45.0758],[-122.71789,45.07418],[-122.71875,45.0724],[-122.7171,45.06989],[-122.70729,45.06448],[-122.70742,45.06248],[-122.70464,45.06101],[-122.70524,45.05929],[-122.69464,45.05406],[-122.68115,45.0503],[-122.68152,45.04779],[-122.67794,45.04631],[-122.66964,45.04653],[-122.66254,45.03864],[-122.65851,45.03588],[-122.65023,45.03584],[-122.64925,45.03245],[-122.6442,45.03377],[-122.64039,45.03144],[-122.63394,45.0338],[-122.62649,45.02836],[-122.61168,45.02435],[-122.60922,45.02187],[-122.59616,45.02006],[-122.5948,45.0163],[-122.59564,45.01391],[-122.59354,45.01225],[-122.5947,45.0095],[-122.5932,45.00344],[-122.59463,45.00081],[-122.59313,44.99543],[-122.59549,44.99278],[-122.59495,44.99089],[-122.59247,44.98888],[-122.58168,44.98841],[-122.57986,44.98598],[-122.57148,44.98521],[-122.56738,44.98256],[-122.56507,44.9739],[-122.56115,44.9714],[-122.55894,44.96716],[-122.55976,44.9652],[-122.55178,44.95795],[-122.54861,44.95042],[-122.5432,44.94887],[-122.53547,44.93668],[-122.53286,44.93745],[-122.52966,44.93504],[-122.52398,44.93568],[-122.51754,44.9328],[-122.5159,44.92786],[-122.51149,44.92263],[-122.50532,44.91833],[-122.49917,44.91778],[-122.48619,44.92266],[-122.46649,44.91547],[-122.4585,44.91521],[-122.44149,44.90396],[-122.42968,44.90203],[-122.42273,44.90415],[-122.39955,44.90408],[-122.39435,44.89911],[-122.39323,44.89167],[-122.40102,44.88572],[-121.73422,44.88572],[-121.7344,44.88931],[-121.72821,44.89135],[-121.72452,44.89538],[-121.71822,44.89745],[-121.71559,44.90002],[-121.71456,44.90613],[-121.72899,44.90481],[-121.7473,44.91464],[-121.74732,44.91717],[-121.74458,44.91983],[-121.74544,44.92304],[-121.74845,44.92754],[-121.76408,44.94195],[-121.77224,44.93984],[-121.77977,44.93515],[-121.7897,44.93468],[-121.79511,44.93567],[-121.79613,44.93743],[-121.78674,44.94522],[-121.78559,44.95038],[-121.78779,44.95477],[-121.79216,44.95786],[-121.79868,44.97496],[-121.80334,44.9771],[-121.80162,44.98274],[-121.80316,44.99961],[-121.80567,45.00612],[-121.80527,45.0115],[-121.80044,45.01518],[-121.79322,45.01747],[-121.78456,45.01513],[-121.78118,45.01572],[-121.78112,45.02149],[-121.7788,45.02624],[-121.77967,45.03165],[-121.78183,45.0337],[-121.77867,45.03728],[-121.77074,45.03984],[-121.7665,45.03958],[-121.75215,45.03616],[-121.74944,45.0341],[-121.73779,45.03362],[-121.73062,45.03618],[-121.71765,45.03757],[-121.71898,45.04232],[-121.72258,45.04543],[-121.71081,45.05591],[-121.69994,45.05852],[-121.69121,45.06569],[-121.68035,45.06811],[-121.65871,45.06636],[-121.66043,45.06947],[-121.65964,45.07964],[-121.65139,45.0888],[-121.65264,45.10199],[-121.66166,45.10542],[-121.66238,45.11335],[-121.66469,45.11517],[-121.66638,45.1203],[-121.68612,45.12343],[-121.69339,45.11693],[-121.69968,45.12179],[-121.69865,45.12379],[-121.70021,45.12707],[-121.70805,45.13406],[-121.71029,45.14039],[-121.7116,45.15282],[-121.72528,45.15934],[-121.7334,45.17491],[-121.74645,45.18635],[-121.74865,45.1918],[-121.74824,45.2051],[-121.74687,45.206],[-121.73851,45.20616],[-121.73048,45.21154],[-121.71447,45.21133],[-121.70925,45.21998],[-121.69945,45.22405],[-121.69768,45.22739],[-121.69111,45.22956],[-121.68261,45.22899],[-121.68626,45.2333],[-121.68479,45.24007],[-121.68154,45.2435],[-121.68246,45.2472],[-121.6809,45.25058],[-121.68926,45.25135],[-121.69188,45.25414],[-121.69641,45.25536],[-121.69503,45.26386],[-121.69073,45.27164],[-121.6903,45.27596],[-121.68503,45.2818],[-121.68456,45.28626],[-121.68,45.29002],[-121.68081,45.29482],[-121.67908,45.29718],[-121.68794,45.30503],[-121.69175,45.31944],[-121.69847,45.32358],[-121.70326,45.33127],[-121.70479,45.34046],[-121.70123,45.35617],[-121.70214,45.36339],[-121.69923,45.36834],[-121.70021,45.3699],[-121.69692,45.37356],[-121.70553,45.38354],[-121.71698,45.38713],[-121.72419,45.39365],[-121.74462,45.39726],[-121.76192,45.40281],[-121.7763,45.40278],[-121.78563,45.41216],[-121.79319,45.4157],[-121.79594,45.42677],[-121.79968,45.42785],[-121.80692,45.43549],[-121.80791,45.44256],[-121.80559,45.44431],[-121.80752,45.44856],[-121.80598,45.45183],[-121.80684,45.45465],[-121.81171,45.45593],[-121.81959,45.46168],[-121.82196,45.46167],[-121.82196,45.46023],[-121.98315,45.46024],[-121.98315,45.4614],[-122.00419,45.46153],[-122.12654,45.4613],[-122.12654,45.46004],[-122.24983,45.46142],[-122.64158,45.46148],[-122.64124,45.45867],[-122.66098,45.45782],[-122.6526,45.44574],[-122.64767,45.44398],[-122.64616,45.44142],[-122.64627,45.43958],[-122.65118,45.43606],[-122.64872,45.43272],[-122.74372,45.43329],[-122.74374,45.33207],[-122.80547,45.33177],[-122.80556,45.34566],[-122.80719,45.34628],[-122.84649,45.34595],[-122.8465,45.31719],[-122.86789,45.31734],[-122.86802,45.28858]]]}},{"type":"Feature","id":"OR:302:41039","properties":{"destinationId":"302","locality":"Eugene / Florence","definition":"Lane","state":"OR","stateName":"Oregon","county":"Lane County","countyGeoid":"41039","countyGeoids":["41039"],"coverage":"complete-counties","sourceType":"gsa_county_defined_rate_area"},"geometry":{"type":"Polygon","coordinates":[[[-124.15027,43.91085],[-124.15873,43.86372],[-124.06461,43.86421],[-124.06458,43.86228],[-123.94629,43.86274],[-123.94653,43.87169],[-123.93471,43.86601],[-123.92548,43.86595],[-123.92592,43.89848],[-123.90239,43.89628],[-123.9022,43.90051],[-123.89741,43.90051],[-123.8972,43.90471],[-123.8828,43.90458],[-123.88255,43.90871],[-123.87775,43.90863],[-123.87748,43.91275],[-123.87267,43.91266],[-123.8724,43.91673],[-123.86268,43.91656],[-123.86238,43.92066],[-123.8526,43.92055],[-123.85227,43.92468],[-123.8474,43.92466],[-123.84706,43.92882],[-123.84214,43.92888],[-123.84206,43.93243],[-123.83714,43.93246],[-123.83707,43.93598],[-123.83212,43.93599],[-123.83198,43.94308],[-123.82704,43.94305],[-123.827,43.94484],[-123.7038,43.94432],[-123.70363,43.9374],[-123.65877,43.93647],[-123.65891,43.92167],[-123.61901,43.92112],[-123.61957,43.89167],[-123.57958,43.89106],[-123.57969,43.86829],[-123.529,43.86833],[-123.52915,43.83006],[-123.47025,43.83118],[-123.47037,43.81006],[-123.3482,43.80921],[-123.34825,43.78017],[-123.13732,43.77967],[-123.13721,43.60591],[-123.10732,43.60589],[-123.10748,43.54001],[-122.98763,43.53899],[-122.98762,43.54099],[-122.93253,43.54436],[-122.74184,43.54465],[-122.74172,43.4374],[-122.62295,43.43846],[-122.62291,43.44026],[-122.50844,43.44023],[-122.50844,43.44128],[-122.27067,43.44163],[-122.27065,43.44001],[-122.13203,43.44022],[-122.14068,43.44495],[-122.1473,43.44248],[-122.15296,43.44766],[-122.1463,43.45092],[-122.14734,43.45265],[-122.14536,43.45489],[-122.13691,43.45634],[-122.13898,43.45699],[-122.13646,43.46069],[-122.13888,43.46178],[-122.14049,43.46672],[-122.13533,43.46842],[-122.13233,43.47818],[-122.13305,43.48281],[-122.13094,43.48506],[-122.13355,43.48997],[-122.13345,43.4914],[-122.13053,43.49197],[-122.12872,43.49689],[-122.13058,43.49977],[-122.1298,43.50569],[-122.13247,43.51043],[-122.14773,43.51546],[-122.14953,43.52069],[-122.14622,43.52362],[-122.14699,43.52551],[-122.14495,43.52841],[-122.14027,43.52968],[-122.14281,43.53711],[-122.13635,43.54454],[-122.13101,43.55728],[-122.12716,43.55829],[-122.12434,43.56194],[-122.11668,43.56245],[-122.11075,43.56527],[-122.10354,43.57449],[-122.09661,43.57462],[-122.09351,43.57922],[-122.08674,43.57958],[-122.08085,43.57733],[-122.07615,43.57964],[-122.07129,43.57958],[-122.07028,43.58162],[-122.07272,43.58494],[-122.07153,43.58775],[-122.06436,43.5874],[-122.04978,43.59458],[-122.04771,43.59788],[-122.04094,43.60082],[-122.02,43.60661],[-122.01694,43.60992],[-122.01096,43.60927],[-122.00236,43.6155],[-122.0001,43.62636],[-121.97701,43.6258],[-121.96492,43.62704],[-121.96795,43.62755],[-121.97454,43.63563],[-121.98051,43.63968],[-121.98062,43.64254],[-121.98691,43.65386],[-121.98572,43.66425],[-121.9811,43.67304],[-121.97822,43.68802],[-121.97349,43.69141],[-121.97242,43.69714],[-121.96692,43.70282],[-121.96718,43.70425],[-121.9735,43.70623],[-121.97461,43.70858],[-121.97463,43.71403],[-121.97312,43.71582],[-121.97826,43.72445],[-121.97369,43.73064],[-121.97557,43.73358],[-121.97517,43.73584],[-121.97965,43.73908],[-121.98125,43.74296],[-121.97568,43.74696],[-121.97414,43.75036],[-121.97044,43.75075],[-121.97199,43.75298],[-121.97012,43.75683],[-121.96144,43.76374],[-121.96905,43.76734],[-121.96961,43.76954],[-121.96889,43.77475],[-121.96051,43.78124],[-121.96403,43.78263],[-121.96739,43.78699],[-121.96838,43.80098],[-121.9644,43.80395],[-121.96375,43.80974],[-121.96777,43.81276],[-121.97546,43.81177],[-121.97366,43.82934],[-121.97526,43.82788],[-121.9778,43.82853],[-121.9744,43.84128],[-121.97608,43.84604],[-121.97511,43.85757],[-121.96855,43.86455],[-121.96205,43.865],[-121.95946,43.8682],[-121.95296,43.87168],[-121.95134,43.87394],[-121.95226,43.87806],[-121.94521,43.88206],[-121.94233,43.88626],[-121.93242,43.89421],[-121.93148,43.89899],[-121.93933,43.90087],[-121.92821,43.90918],[-121.92358,43.90857],[-121.92036,43.91117],[-121.90586,43.91336],[-121.90148,43.9159],[-121.89839,43.91227],[-121.89257,43.9109],[-121.89144,43.90866],[-121.8769,43.90784],[-121.86938,43.91186],[-121.86555,43.91979],[-121.86997,43.92329],[-121.86649,43.9258],[-121.86534,43.93232],[-121.86155,43.93584],[-121.86093,43.94305],[-121.8581,43.94559],[-121.85971,43.96153],[-121.85706,43.96525],[-121.84539,43.96718],[-121.83672,43.97123],[-121.84356,43.97344],[-121.84509,43.97624],[-121.83728,43.98265],[-121.83546,43.98728],[-121.8284,43.98873],[-121.83338,43.99109],[-121.8271,43.99759],[-121.82202,44.01236],[-121.82804,44.02916],[-121.83519,44.03702],[-121.83447,44.03974],[-121.82573,44.04415],[-121.82006,44.0509],[-121.81219,44.05316],[-121.80222,44.05269],[-121.80151,44.05684],[-121.7965,44.06166],[-121.78921,44.07502],[-121.77975,44.08012],[-121.77678,44.08854],[-121.77248,44.09103],[-121.77135,44.0996],[-121.76926,44.10134],[-121.77,44.10813],[-121.76807,44.11524],[-121.77134,44.12392],[-121.77274,44.13983],[-121.78402,44.14846],[-121.78342,44.15432],[-121.78107,44.1552],[-121.78202,44.15976],[-121.77671,44.15993],[-121.77243,44.16353],[-121.77165,44.16758],[-121.77881,44.17313],[-121.77974,44.17565],[-121.77341,44.18562],[-121.77452,44.19079],[-121.78151,44.19481],[-121.78161,44.20533],[-121.78563,44.20781],[-121.78346,44.2096],[-121.78525,44.2126],[-121.78406,44.21575],[-121.77955,44.21698],[-121.7779,44.21888],[-121.77823,44.22148],[-121.78575,44.22924],[-121.78781,44.24076],[-121.79046,44.24546],[-121.78965,44.24933],[-121.79746,44.25461],[-121.79943,44.25828],[-122.02802,44.25616],[-122.028,44.25382],[-122.32715,44.25284],[-122.33245,44.24338],[-122.33148,44.2406],[-122.32574,44.23758],[-122.32873,44.23472],[-122.32731,44.23119],[-122.33186,44.22765],[-122.33679,44.227],[-122.33992,44.22445],[-122.34061,44.22158],[-122.35262,44.22074],[-122.35807,44.21333],[-122.36124,44.21175],[-122.36374,44.21194],[-122.3672,44.20938],[-122.3738,44.21041],[-122.37959,44.20944],[-122.38457,44.21101],[-122.38456,44.21706],[-122.40478,44.21694],[-122.40475,44.22058],[-122.42509,44.22066],[-122.42508,44.2182],[-122.43488,44.22131],[-122.4388,44.21871],[-122.44844,44.21675],[-122.46563,44.22304],[-122.47368,44.22241],[-122.47964,44.21913],[-122.48838,44.22193],[-122.49227,44.21997],[-122.497,44.22231],[-122.50318,44.22167],[-122.51056,44.2262],[-122.51342,44.23154],[-122.52954,44.22672],[-122.53538,44.23486],[-122.54854,44.23559],[-122.55495,44.23109],[-122.56241,44.23162],[-122.56734,44.22935],[-122.57723,44.22804],[-122.5754,44.23536],[-122.58562,44.23918],[-122.59347,44.24443],[-122.60462,44.24423],[-122.62231,44.24985],[-122.6397,44.24926],[-122.64493,44.25346],[-122.64576,44.25681],[-122.64454,44.26009],[-122.64685,44.26638],[-122.65158,44.26708],[-122.65791,44.27109],[-122.66892,44.2689],[-122.67625,44.27354],[-122.68935,44.27395],[-122.69641,44.27702],[-122.69608,44.27889],[-122.70022,44.27994],[-122.70448,44.27822],[-122.71472,44.2816],[-122.72118,44.28178],[-122.72494,44.28316],[-122.7257,44.28667],[-122.73112,44.28823],[-122.73813,44.28583],[-122.74203,44.28747],[-122.74983,44.28473],[-122.7589,44.29007],[-122.76274,44.29054],[-122.77632,44.28382],[-122.7842,44.28346],[-122.79108,44.28587],[-122.80716,44.28417],[-122.81442,44.27627],[-122.82302,44.27432],[-122.82527,44.27686],[-122.82907,44.27711],[-122.83045,44.28217],[-122.83514,44.28346],[-122.8434,44.28119],[-122.84685,44.28428],[-122.86546,44.28732],[-122.86554,44.25898],[-122.904,44.25913],[-122.90576,44.20074],[-123.16543,44.20007],[-123.166,44.20188],[-123.16423,44.20472],[-123.15787,44.21161],[-123.15911,44.21409],[-123.15034,44.22663],[-123.15339,44.23134],[-123.1636,44.23532],[-123.16934,44.24585],[-123.17841,44.25092],[-123.17405,44.26661],[-123.17598,44.27761],[-123.18039,44.28372],[-123.37141,44.28372],[-123.37141,44.28102],[-123.45127,44.2805],[-123.57361,44.2826],[-123.59329,44.28192],[-123.59351,44.2767],[-123.71538,44.28027],[-123.71539,44.28395],[-123.94108,44.28295],[-123.94107,44.27738],[-124.06326,44.27718],[-124.0633,44.27509],[-124.11404,44.27699],[-124.11595,44.27464],[-124.11487,44.27272],[-124.10974,44.2706],[-124.10894,44.26548],[-124.11177,44.26049],[-124.11168,44.25542],[-124.11531,44.24598],[-124.11294,44.24275],[-124.11105,44.23507],[-124.11472,44.2167],[-124.11567,44.20655],[-124.11442,44.19816],[-124.11672,44.18596],[-124.11701,44.17191],[-124.12267,44.14252],[-124.12527,44.14189],[-124.12888,44.13755],[-124.12388,44.1341],[-124.12776,44.12203],[-124.12364,44.11722],[-124.12544,44.11123],[-124.12398,44.10583],[-124.13694,44.02301],[-124.13833,43.99532],[-124.15027,43.91085]]]}},{"type":"Feature","id":"OR:304:41041","properties":{"destinationId":"304","locality":"Lincoln City","definition":"Lincoln","state":"OR","stateName":"Oregon","county":"Lincoln County","countyGeoid":"41041","countyGeoids":["41041"],"coverage":"complete-counties","sourceType":"gsa_county_defined_rate_area"},"geometry":{"type":"Polygon","coordinates":[[[-124.1152,44.28649],[-124.11175,44.28324],[-124.11404,44.27699],[-124.0633,44.27509],[-124.06326,44.27718],[-123.94107,44.27738],[-123.94108,44.28295],[-123.7756,44.28355],[-123.77579,44.31617],[-123.81652,44.3153],[-123.81671,44.34462],[-123.735,44.34578],[-123.73515,44.36035],[-123.71554,44.36046],[-123.71587,44.3895],[-123.72014,44.38951],[-123.72007,44.43337],[-123.59768,44.43311],[-123.59723,44.47745],[-123.59613,44.47745],[-123.59693,44.65114],[-123.60282,44.65116],[-123.60261,44.72115],[-123.70447,44.72115],[-123.70458,44.73898],[-123.725,44.73905],[-123.72423,44.95549],[-123.7246,45.00076],[-123.72577,45.00075],[-123.72466,45.04443],[-124.00888,45.045],[-124.0055,45.04293],[-124.00627,45.03821],[-124.01166,45.03348],[-124.01218,45.02611],[-124.01018,45.02382],[-124.00918,45.01672],[-124.01524,44.9829],[-124.02383,44.94982],[-124.02568,44.93654],[-124.02514,44.92818],[-124.0323,44.90081],[-124.04881,44.85001],[-124.05415,44.83823],[-124.06662,44.83056],[-124.06788,44.81407],[-124.0635,44.81222],[-124.06374,44.80531],[-124.06744,44.80464],[-124.07407,44.79811],[-124.07301,44.79105],[-124.07547,44.7714],[-124.06916,44.76781],[-124.06632,44.76267],[-124.06811,44.76062],[-124.06429,44.75368],[-124.06482,44.74608],[-124.06017,44.74508],[-124.0579,44.73516],[-124.05986,44.71603],[-124.06844,44.68309],[-124.07201,44.67792],[-124.07925,44.6772],[-124.07409,44.67318],[-124.0635,44.67244],[-124.06004,44.66936],[-124.05828,44.65887],[-124.06704,44.62785],[-124.06635,44.62222],[-124.06914,44.61298],[-124.06725,44.60804],[-124.06635,44.59616],[-124.0754,44.53161],[-124.0836,44.50112],[-124.0837,44.4304],[-124.08687,44.40518],[-124.10059,44.33193],[-124.10906,44.31839],[-124.10907,44.30371],[-124.1152,44.28649]]]}},{"type":"Feature","id":"OR:305:41051","properties":{"destinationId":"305","locality":"Portland","definition":"Multnomah","state":"OR","stateName":"Oregon","county":"Multnomah County","countyGeoid":"41051","countyGeoids":["41051"],"coverage":"complete-counties","sourceType":"gsa_county_defined_rate_area"},"geometry":{"type":"Polygon","coordinates":[[[-122.92919,45.67102],[-122.92913,45.63531],[-122.90908,45.63523],[-122.90899,45.62076],[-122.88784,45.62047],[-122.88796,45.60635],[-122.8675,45.60623],[-122.86759,45.59188],[-122.84685,45.59184],[-122.84698,45.57752],[-122.82634,45.57752],[-122.826,45.56304],[-122.80548,45.56291],[-122.80543,45.55569],[-122.79606,45.5557],[-122.79591,45.55208],[-122.7927,45.54935],[-122.79511,45.54843],[-122.78477,45.5484],[-122.78486,45.53399],[-122.76441,45.53382],[-122.76446,45.51956],[-122.74386,45.51951],[-122.74372,45.43329],[-122.64872,45.43272],[-122.65118,45.43606],[-122.64627,45.43958],[-122.64616,45.44142],[-122.64767,45.44398],[-122.6526,45.44574],[-122.66098,45.45782],[-122.64124,45.45867],[-122.64158,45.46148],[-122.24983,45.46142],[-122.12654,45.46004],[-122.12654,45.4613],[-122.00419,45.46153],[-121.98315,45.4614],[-121.98315,45.46024],[-121.82196,45.46023],[-121.82196,45.46167],[-121.81959,45.46168],[-121.83681,45.47462],[-121.8443,45.47619],[-121.8504,45.4865],[-121.85465,45.48664],[-121.86032,45.48938],[-121.86337,45.49284],[-121.85983,45.49917],[-121.86819,45.50872],[-121.86934,45.5141],[-121.87466,45.51575],[-121.8856,45.51241],[-121.89175,45.51263],[-121.90669,45.52083],[-121.90692,45.52466],[-121.91144,45.52908],[-121.91322,45.53728],[-121.91644,45.5432],[-121.92214,45.54667],[-121.90879,45.54999],[-121.90188,45.55619],[-121.90292,45.56112],[-121.90718,45.56255],[-121.90833,45.56498],[-121.90733,45.56672],[-121.91262,45.56821],[-121.91391,45.57116],[-121.91055,45.58124],[-121.91549,45.58245],[-121.91839,45.58548],[-121.91455,45.59368],[-121.91518,45.5987],[-121.91312,45.6013],[-121.91651,45.60764],[-121.92205,45.61076],[-121.92203,45.64916],[-121.93515,45.64417],[-121.95184,45.64495],[-121.95573,45.64356],[-121.96355,45.63278],[-121.98304,45.62281],[-122.00369,45.61593],[-122.02257,45.61515],[-122.04437,45.60952],[-122.10168,45.58352],[-122.11236,45.58141],[-122.14075,45.58451],[-122.1837,45.5777],[-122.2017,45.56414],[-122.24899,45.54774],[-122.2667,45.54384],[-122.2949,45.54354],[-122.3315,45.54824],[-122.3528,45.56944],[-122.3803,45.57594],[-122.3918,45.57454],[-122.41071,45.56763],[-122.43867,45.56358],[-122.45389,45.56731],[-122.47932,45.57976],[-122.52367,45.58963],[-122.54815,45.59677],[-122.60261,45.60764],[-122.64391,45.60974],[-122.67501,45.61804],[-122.69101,45.62474],[-122.71331,45.63744],[-122.73811,45.64414],[-122.76381,45.65714],[-122.77451,45.68044],[-122.77251,45.69964],[-122.76244,45.72866],[-122.78466,45.72865],[-122.78474,45.72095],[-122.92915,45.72148],[-122.92919,45.67102]]]}},{"type":"Feature","id":"OR:306:41007","properties":{"destinationId":"306","locality":"Seaside","definition":"Clatsop","state":"OR","stateName":"Oregon","county":"Clatsop County","countyGeoid":"41007","countyGeoids":["41007"],"coverage":"complete-counties","sourceType":"gsa_county_defined_rate_area"},"geometry":{"type":"MultiPolygon","coordinates":[[[[-123.66475,46.24431],[-123.66499,46.24269],[-123.66301,46.24258],[-123.65064,46.24407],[-123.64134,46.24798],[-123.64897,46.24846],[-123.66475,46.24431]]],[[[-124.01263,46.23685],[-124.02143,46.23011],[-124.01034,46.22351],[-123.99677,46.20399],[-123.97412,46.1688],[-123.95919,46.14168],[-123.94753,46.11613],[-123.93337,46.07167],[-123.92933,46.04198],[-123.92789,46.00956],[-123.93747,45.97731],[-123.94183,45.97566],[-123.95744,45.97447],[-123.96999,45.96914],[-123.97507,45.96168],[-123.97385,45.95926],[-123.975,45.95613],[-123.9937,45.94643],[-123.99127,45.94249],[-123.99304,45.93884],[-123.98506,45.93501],[-123.98382,45.93109],[-123.98042,45.93086],[-123.97793,45.92856],[-123.97845,45.91818],[-123.97183,45.91534],[-123.97152,45.91021],[-123.96763,45.90781],[-123.96563,45.89234],[-123.96723,45.88478],[-123.96428,45.88195],[-123.96274,45.86997],[-123.96252,45.86389],[-123.96461,45.85681],[-123.96154,45.8371],[-123.96598,45.80642],[-123.96898,45.80294],[-123.96908,45.78308],[-123.71984,45.78322],[-123.72,45.77308],[-123.65364,45.77503],[-123.48509,45.77566],[-123.48513,45.78002],[-123.36162,45.77958],[-123.35883,45.83666],[-123.36063,45.86659],[-123.35961,46.03937],[-123.36744,46.03953],[-123.36374,46.14632],[-123.37143,46.14637],[-123.37954,46.151],[-123.3904,46.15443],[-123.43099,46.18157],[-123.42763,46.22935],[-123.44759,46.24983],[-123.47484,46.26783],[-123.50124,46.271],[-123.52639,46.2634],[-123.54766,46.25911],[-123.54816,46.24902],[-123.58243,46.23052],[-123.60196,46.22475],[-123.61951,46.21531],[-123.63235,46.21317],[-123.64423,46.21317],[-123.66675,46.21823],[-123.67538,46.2124],[-123.67418,46.1982],[-123.69343,46.18981],[-123.71815,46.18899],[-123.72528,46.19508],[-123.73573,46.20126],[-123.74429,46.20396],[-123.75759,46.213],[-123.76331,46.21103],[-123.76687,46.20626],[-123.7832,46.19854],[-123.82183,46.19029],[-123.84621,46.19268],[-123.85494,46.18846],[-123.85776,46.19076],[-123.86421,46.18953],[-123.86664,46.18767],[-123.85991,46.18038],[-123.84364,46.17154],[-123.83842,46.17105],[-123.8396,46.16216],[-123.8548,46.15734],[-123.87478,46.16282],[-123.87882,46.16809],[-123.88334,46.16875],[-123.89176,46.16498],[-123.9025,46.1687],[-123.90045,46.17434],[-123.90528,46.18069],[-123.94742,46.20222],[-123.95397,46.20716],[-123.96174,46.20792],[-123.97294,46.21268],[-123.98031,46.20692],[-123.98982,46.20922],[-123.996,46.21909],[-123.99172,46.22041],[-123.98843,46.22413],[-123.98887,46.22715],[-123.99623,46.22978],[-124.00021,46.23642],[-124.00503,46.23833],[-124.01263,46.23685]]],[[[-124.03522,46.28514],[-124.03617,46.28152],[-124.02833,46.27397],[-124.01859,46.272],[-124.01122,46.26575],[-124.00893,46.26557],[-124.02402,46.29083],[-124.02561,46.2907],[-124.02544,46.28457],[-124.03118,46.28333],[-124.03522,46.28514]]]]}}]}