{"type":"FeatureCollection","features":[{"type":"Feature","id":"PA:307:42077","properties":{"destinationId":"307","locality":"Allentown / Easton / Bethlehem","definition":"Lehigh / Northampton","state":"PA","stateName":"Pennsylvania","county":"Lehigh County","countyGeoid":"42077","countyGeoids":["42077","42095"],"coverage":"complete-counties","sourceType":"gsa_county_defined_rate_area"},"geometry":{"type":"Polygon","coordinates":[[[-75.88921,40.67834],[-75.89147,40.67727],[-75.7793,40.6047],[-75.48386,40.41863],[-75.40973,40.48798],[-75.33351,40.53706],[-75.40441,40.58115],[-75.39127,40.59655],[-75.38856,40.61442],[-75.37812,40.61536],[-75.38304,40.61735],[-75.38334,40.62425],[-75.38887,40.62921],[-75.38746,40.63312],[-75.39248,40.63412],[-75.39979,40.64011],[-75.43012,40.66843],[-75.4304,40.67415],[-75.48147,40.65574],[-75.48393,40.65962],[-75.48503,40.6715],[-75.48936,40.67606],[-75.49798,40.67916],[-75.50305,40.68972],[-75.51191,40.697],[-75.52218,40.71288],[-75.52553,40.7201],[-75.52624,40.7327],[-75.53015,40.73634],[-75.53737,40.73759],[-75.54031,40.73606],[-75.54181,40.72792],[-75.54432,40.72505],[-75.55816,40.72089],[-75.5678,40.72593],[-75.57063,40.73247],[-75.57402,40.73471],[-75.5879,40.73389],[-75.59256,40.73613],[-75.60169,40.74955],[-75.60357,40.7568],[-75.60287,40.76596],[-75.60666,40.77132],[-75.60468,40.77673],[-75.60546,40.78078],[-75.60907,40.78752],[-75.67683,40.77491],[-75.69475,40.77008],[-75.70242,40.76224],[-75.7286,40.75392],[-75.73931,40.74416],[-75.74358,40.74346],[-75.74486,40.74031],[-75.76595,40.73093],[-75.77769,40.72953],[-75.77968,40.72502],[-75.79652,40.71703],[-75.80828,40.7073],[-75.84466,40.693],[-75.85481,40.69319],[-75.88921,40.67834]]]}},{"type":"Feature","id":"PA:307:42095","properties":{"destinationId":"307","locality":"Allentown / Easton / Bethlehem","definition":"Lehigh / Northampton","state":"PA","stateName":"Pennsylvania","county":"Northampton County","countyGeoid":"42095","countyGeoids":["42077","42095"],"coverage":"complete-counties","sourceType":"gsa_county_defined_rate_area"},"geometry":{"type":"Polygon","coordinates":[[[-75.60805,40.78748],[-75.60468,40.77673],[-75.60666,40.77132],[-75.60287,40.76596],[-75.60357,40.7568],[-75.60169,40.74955],[-75.59256,40.73613],[-75.5879,40.73389],[-75.57402,40.73471],[-75.57063,40.73247],[-75.5678,40.72593],[-75.55816,40.72089],[-75.54432,40.72505],[-75.54181,40.72792],[-75.54031,40.73606],[-75.53737,40.73759],[-75.53015,40.73634],[-75.52624,40.7327],[-75.52553,40.7201],[-75.52218,40.71288],[-75.51191,40.697],[-75.50305,40.68972],[-75.49798,40.67916],[-75.48936,40.67606],[-75.48503,40.6715],[-75.48393,40.65962],[-75.48147,40.65574],[-75.4304,40.67415],[-75.43012,40.66843],[-75.39979,40.64011],[-75.39248,40.63412],[-75.38746,40.63312],[-75.38887,40.62921],[-75.38334,40.62425],[-75.38304,40.61735],[-75.37812,40.61536],[-75.38856,40.61442],[-75.39127,40.59655],[-75.40441,40.58115],[-75.33305,40.53677],[-75.29353,40.56198],[-75.25815,40.58201],[-75.1968,40.60858],[-75.20181,40.61719],[-75.19789,40.61933],[-75.19069,40.61996],[-75.18858,40.62463],[-75.19069,40.63589],[-75.19539,40.64308],[-75.20047,40.6469],[-75.20045,40.64922],[-75.19085,40.66194],[-75.18276,40.66597],[-75.17749,40.6726],[-75.1768,40.67571],[-75.18056,40.67936],[-75.19058,40.67938],[-75.19692,40.6813],[-75.20392,40.6915],[-75.19442,40.71402],[-75.18637,40.72027],[-75.18559,40.72637],[-75.18208,40.73152],[-75.18578,40.73727],[-75.19535,40.74547],[-75.19653,40.75163],[-75.1918,40.75583],[-75.17904,40.7619],[-75.17562,40.77292],[-75.17159,40.77775],[-75.16365,40.77839],[-75.14938,40.77479],[-75.1344,40.77376],[-75.12309,40.78675],[-75.1085,40.79109],[-75.1008,40.7998],[-75.10028,40.80758],[-75.09052,40.81591],[-75.08393,40.82447],[-75.08382,40.8278],[-75.08552,40.83008],[-75.09701,40.83934],[-75.09759,40.84304],[-75.09578,40.84708],[-75.09096,40.84919],[-75.07668,40.84987],[-75.07083,40.84739],[-75.06601,40.84759],[-75.0635,40.84946],[-75.06392,40.85542],[-75.05889,40.86039],[-75.05157,40.86404],[-75.05084,40.86807],[-75.05366,40.87366],[-75.07534,40.89416],[-75.07609,40.90704],[-75.07928,40.91389],[-75.09553,40.92415],[-75.10552,40.93629],[-75.10615,40.93967],[-75.11168,40.94811],[-75.11776,40.95302],[-75.1207,40.96253],[-75.12023,40.9687],[-75.12923,40.95893],[-75.14513,40.95158],[-75.15294,40.94931],[-75.16946,40.94802],[-75.17684,40.94552],[-75.17807,40.94032],[-75.18753,40.93713],[-75.19554,40.93634],[-75.21819,40.92788],[-75.22182,40.91958],[-75.24113,40.90944],[-75.2325,40.89976],[-75.26722,40.88247],[-75.27353,40.87315],[-75.28404,40.86604],[-75.30059,40.85956],[-75.32093,40.85566],[-75.33979,40.84594],[-75.38327,40.83104],[-75.41676,40.8261],[-75.42049,40.82345],[-75.44327,40.81828],[-75.50802,40.8091],[-75.54155,40.80682],[-75.55136,40.80455],[-75.55753,40.80119],[-75.57749,40.79941],[-75.59545,40.7933],[-75.60261,40.78804],[-75.60805,40.78748]]]}},{"type":"Feature","id":"PA:309:42045","properties":{"destinationId":"309","locality":"Chester / Radnor / Essington","definition":"Delaware","state":"PA","stateName":"Pennsylvania","county":"Delaware County","countyGeoid":"42045","countyGeoids":["42045"],"coverage":"complete-counties","sourceType":"gsa_county_defined_rate_area"},"geometry":{"type":"Polygon","coordinates":[[[-75.60153,39.85643],[-75.59874,39.8542],[-75.592,39.85254],[-75.59774,39.84115],[-75.59736,39.83888],[-75.59485,39.83729],[-75.58645,39.84434],[-75.5799,39.83852],[-75.53935,39.83821],[-75.49884,39.83331],[-75.45374,39.82031],[-75.42804,39.80921],[-75.41506,39.80192],[-75.39054,39.81531],[-75.3544,39.83992],[-75.34176,39.84608],[-75.32323,39.84981],[-75.27214,39.84909],[-75.23503,39.85661],[-75.22137,39.86154],[-75.21169,39.86695],[-75.21604,39.87112],[-75.21572,39.87609],[-75.23412,39.87718],[-75.24047,39.87238],[-75.24843,39.87649],[-75.26253,39.87656],[-75.265,39.88098],[-75.26196,39.88324],[-75.2646,39.88474],[-75.26273,39.88555],[-75.26488,39.88793],[-75.26248,39.88841],[-75.26174,39.89177],[-75.25679,39.89519],[-75.2556,39.8996],[-75.25129,39.9044],[-75.25349,39.90558],[-75.25032,39.90763],[-75.24993,39.90935],[-75.2515,39.91005],[-75.2472,39.91358],[-75.24751,39.92171],[-75.24434,39.92625],[-75.24337,39.93191],[-75.24191,39.93354],[-75.23744,39.93256],[-75.23492,39.93633],[-75.23688,39.93843],[-75.23957,39.93804],[-75.24037,39.94217],[-75.24703,39.94341],[-75.25012,39.94697],[-75.25158,39.95213],[-75.24901,39.95691],[-75.25088,39.95902],[-75.24855,39.96027],[-75.24806,39.96407],[-75.25414,39.9654],[-75.25711,39.96372],[-75.26049,39.96631],[-75.26545,39.96526],[-75.27754,39.97113],[-75.28027,39.97496],[-75.27648,39.97696],[-75.31143,40.01981],[-75.3207,40.01622],[-75.36007,40.0662],[-75.41499,40.04179],[-75.40434,40.02736],[-75.45377,39.99359],[-75.4431,39.99371],[-75.44076,39.99185],[-75.43769,39.99389],[-75.43822,39.99071],[-75.43563,39.98883],[-75.43606,39.98495],[-75.52382,39.94412],[-75.51954,39.93896],[-75.51905,39.93416],[-75.52454,39.9316],[-75.52617,39.93499],[-75.53048,39.93205],[-75.5235,39.92314],[-75.53024,39.92212],[-75.53611,39.92993],[-75.54273,39.92718],[-75.54108,39.9251],[-75.54439,39.9234],[-75.54249,39.91842],[-75.55045,39.91493],[-75.54642,39.90973],[-75.55611,39.90534],[-75.55864,39.90868],[-75.56131,39.90743],[-75.55929,39.90298],[-75.57338,39.8964],[-75.57252,39.89301],[-75.57425,39.89215],[-75.57116,39.88814],[-75.58041,39.88375],[-75.58242,39.88574],[-75.58719,39.88421],[-75.58476,39.88098],[-75.59791,39.87446],[-75.59322,39.86948],[-75.59301,39.86704],[-75.59523,39.86659],[-75.60153,39.85643]]]}},{"type":"Feature","id":"PA:311:42001","properties":{"destinationId":"311","locality":"Gettysburg","definition":"Adams","state":"PA","stateName":"Pennsylvania","county":"Adams County","countyGeoid":"42001","countyGeoids":["42001"],"coverage":"complete-counties","sourceType":"gsa_county_defined_rate_area"},"geometry":{"type":"Polygon","coordinates":[[[-77.47108,39.94408],[-77.46318,39.82047],[-77.45913,39.72002],[-76.99932,39.71983],[-76.99968,39.83128],[-76.99066,39.83435],[-76.97857,39.84771],[-76.96484,39.85077],[-76.95505,39.85698],[-76.96224,39.86484],[-76.96362,39.87399],[-76.97254,39.87291],[-76.97824,39.88176],[-76.97744,39.8853],[-76.98013,39.88656],[-76.98374,39.89356],[-76.98206,39.8974],[-76.98408,39.89949],[-76.98385,39.90206],[-76.98092,39.90345],[-76.98143,39.90542],[-76.9753,39.90872],[-76.97255,39.91173],[-76.97301,39.91362],[-76.96698,39.91618],[-76.96854,39.91826],[-76.965,39.92187],[-76.97001,39.92125],[-76.96998,39.92382],[-76.97235,39.92614],[-76.97106,39.93095],[-76.97258,39.93402],[-76.96969,39.93733],[-76.9662,39.93519],[-77.01865,40.01395],[-77.02624,40.01838],[-77.05702,40.02383],[-77.06954,40.02949],[-77.07235,40.03401],[-77.07856,40.03787],[-77.08081,40.04322],[-77.09198,40.05364],[-77.12763,40.06862],[-77.13742,40.06994],[-77.16207,40.0517],[-77.18563,40.0295],[-77.22887,40.02508],[-77.40349,39.9945],[-77.47108,39.94408]]]}},{"type":"Feature","id":"PA:313:42017","properties":{"destinationId":"313","locality":"Bucks","definition":"Bucks","state":"PA","stateName":"Pennsylvania","county":"Bucks County","countyGeoid":"42017","countyGeoids":["42017"],"coverage":"complete-counties","sourceType":"gsa_county_defined_rate_area"},"geometry":{"type":"Polygon","coordinates":[[[-75.48386,40.41863],[-74.99788,40.12782],[-74.99389,40.13188],[-74.99275,40.13061],[-74.99417,40.12609],[-74.98916,40.12616],[-74.98691,40.12338],[-74.98343,40.12362],[-74.98237,40.11994],[-74.97296,40.1198],[-74.9692,40.11682],[-74.96499,40.11863],[-74.96317,40.11668],[-74.96377,40.10975],[-74.96543,40.10789],[-74.96116,40.10345],[-74.96177,40.09775],[-74.95578,40.0951],[-74.95842,40.08392],[-74.9636,40.07711],[-74.97109,40.07601],[-74.97106,40.07397],[-74.98088,40.06603],[-74.98044,40.0603],[-74.98516,40.05693],[-74.97394,40.04804],[-74.96689,40.05272],[-74.93258,40.06881],[-74.92087,40.0714],[-74.90901,40.07021],[-74.86211,40.08328],[-74.85461,40.09327],[-74.83801,40.10091],[-74.83511,40.10391],[-74.8331,40.11197],[-74.82874,40.12034],[-74.82253,40.12684],[-74.81612,40.12774],[-74.80061,40.12281],[-74.78871,40.12041],[-74.78211,40.12081],[-74.75888,40.13404],[-74.74056,40.13549],[-74.72436,40.14644],[-74.72219,40.14994],[-74.7223,40.16061],[-74.7372,40.17761],[-74.7543,40.18521],[-74.7595,40.19691],[-74.77172,40.21529],[-74.79531,40.22941],[-74.81951,40.23851],[-74.83631,40.24621],[-74.84231,40.25051],[-74.86049,40.28458],[-74.86821,40.29521],[-74.89161,40.31301],[-74.90831,40.31691],[-74.93971,40.33801],[-74.94378,40.34256],[-74.94872,40.36477],[-74.964,40.39525],[-74.96813,40.39913],[-74.98274,40.40443],[-74.9889,40.40877],[-74.99638,40.41053],[-75.00378,40.40762],[-75.02832,40.40388],[-75.03443,40.40607],[-75.04616,40.41397],[-75.05885,40.41806],[-75.06149,40.42285],[-75.06652,40.44718],[-75.07057,40.45516],[-75.06702,40.46531],[-75.06772,40.47367],[-75.06433,40.4768],[-75.06287,40.48164],[-75.06262,40.48955],[-75.06484,40.5035],[-75.06509,40.52615],[-75.06861,40.54222],[-75.0785,40.5483],[-75.10032,40.56781],[-75.11729,40.57321],[-75.14191,40.57527],[-75.14737,40.57315],[-75.15845,40.56529],[-75.16287,40.5641],[-75.17531,40.565],[-75.18315,40.56735],[-75.19235,40.57426],[-75.19487,40.57859],[-75.19466,40.58194],[-75.1908,40.58684],[-75.19015,40.59036],[-75.19229,40.60268],[-75.1968,40.60858],[-75.25815,40.58201],[-75.29353,40.56198],[-75.40973,40.48798],[-75.48386,40.41863]]]}},{"type":"Feature","id":"PA:314:42071","properties":{"destinationId":"314","locality":"Lancaster","definition":"Lancaster","state":"PA","stateName":"Pennsylvania","county":"Lancaster County","countyGeoid":"42071","countyGeoids":["42071"],"coverage":"complete-counties","sourceType":"gsa_county_defined_rate_area"},"geometry":{"type":"Polygon","coordinates":[[[-76.72162,40.12007],[-76.71093,40.11384],[-76.69316,40.09876],[-76.68043,40.08319],[-76.6755,40.0736],[-76.66382,40.06323],[-76.65277,40.05957],[-76.64451,40.05807],[-76.6439,40.05954],[-76.64114,40.05949],[-76.57122,40.04567],[-76.55582,40.04637],[-76.54146,40.05104],[-76.53387,40.05082],[-76.53155,40.04616],[-76.53217,40.03823],[-76.52965,40.03095],[-76.52692,40.02618],[-76.51346,40.0154],[-76.50061,40.00062],[-76.49797,39.9945],[-76.49535,39.97613],[-76.48739,39.96214],[-76.47788,39.95297],[-76.47769,39.94983],[-76.47702,39.95151],[-76.46981,39.94439],[-76.45975,39.94125],[-76.44897,39.93434],[-76.42216,39.92583],[-76.40507,39.91539],[-76.39513,39.91401],[-76.39045,39.91175],[-76.38552,39.9057],[-76.38378,39.89362],[-76.37977,39.88791],[-76.38171,39.87906],[-76.37793,39.86715],[-76.36964,39.8604],[-76.36167,39.85705],[-76.35211,39.84903],[-76.35076,39.84709],[-76.35054,39.83776],[-76.33826,39.82206],[-76.32835,39.81479],[-76.3157,39.81004],[-76.3105,39.80306],[-76.29018,39.78501],[-76.27832,39.77849],[-76.26748,39.75936],[-76.26058,39.75204],[-76.25656,39.75004],[-76.24958,39.73998],[-76.24225,39.73287],[-76.23879,39.72596],[-76.2398,39.7213],[-76.13558,39.72156],[-76.13667,39.72527],[-76.13436,39.72706],[-76.12762,39.72756],[-76.12471,39.72661],[-76.12225,39.72341],[-76.11926,39.72344],[-76.11823,39.72541],[-76.1203,39.72985],[-76.11992,39.73636],[-76.11362,39.73712],[-76.10856,39.73484],[-76.11118,39.72852],[-76.1052,39.72398],[-76.10179,39.72427],[-76.09676,39.72909],[-76.09259,39.73419],[-76.10205,39.73988],[-76.10034,39.74572],[-76.09688,39.74311],[-76.09299,39.74283],[-76.08803,39.74493],[-76.08433,39.74834],[-76.0826,39.75305],[-76.08579,39.75589],[-76.08185,39.76135],[-76.06669,39.75997],[-76.0626,39.7645],[-76.06456,39.77119],[-76.06052,39.77501],[-76.0584,39.77986],[-76.04968,39.78378],[-76.04852,39.78924],[-76.04364,39.79124],[-76.0451,39.79303],[-76.04126,39.79695],[-76.04975,39.80243],[-76.04572,39.80378],[-76.03916,39.80116],[-76.03512,39.80814],[-76.03522,39.81184],[-76.02959,39.813],[-76.03764,39.82692],[-76.02703,39.82415],[-76.02378,39.82713],[-76.02283,39.8308],[-76.01647,39.83148],[-76.01781,39.83817],[-76.01981,39.83974],[-76.01878,39.84051],[-76.02095,39.84946],[-76.0225,39.84854],[-76.02282,39.84984],[-76.01883,39.85408],[-76.00758,39.85235],[-76.00586,39.86661],[-76.00414,39.87288],[-76.00171,39.8747],[-75.9975,39.87362],[-75.99837,39.87203],[-75.99128,39.86874],[-75.99049,39.87094],[-75.98747,39.87248],[-75.98678,39.87472],[-75.98839,39.87822],[-75.99235,39.88216],[-75.99058,39.88458],[-75.99126,39.88759],[-75.98682,39.89219],[-75.98779,39.89477],[-75.99513,39.89892],[-75.99455,39.90254],[-75.99752,39.90989],[-75.99552,39.91136],[-75.9949,39.91658],[-75.99713,39.92206],[-75.99583,39.92459],[-75.99723,39.9286],[-75.9926,39.92657],[-75.99117,39.92726],[-75.99147,39.929],[-75.98736,39.9298],[-75.98514,39.93208],[-75.98159,39.92954],[-75.98097,39.93348],[-75.98823,39.93988],[-75.99464,39.95225],[-75.98598,39.96454],[-75.9867,39.96724],[-75.93587,40.03747],[-75.93433,40.04757],[-75.93613,40.07854],[-75.943,40.10927],[-75.87338,40.13711],[-76.15121,40.31597],[-76.30774,40.25504],[-76.43543,40.23822],[-76.56702,40.19555],[-76.58071,40.19469],[-76.58268,40.19095],[-76.58641,40.18948],[-76.58789,40.19056],[-76.59986,40.18826],[-76.60652,40.18999],[-76.61299,40.18538],[-76.61222,40.18394],[-76.61595,40.18061],[-76.62626,40.17826],[-76.6321,40.17062],[-76.63602,40.17006],[-76.63841,40.16674],[-76.64061,40.16727],[-76.6441,40.16491],[-76.6531,40.16605],[-76.65471,40.16404],[-76.66099,40.1651],[-76.66204,40.16347],[-76.66637,40.16302],[-76.66678,40.16125],[-76.6728,40.1575],[-76.67056,40.15449],[-76.67637,40.15306],[-76.67721,40.14889],[-76.68061,40.14906],[-76.68086,40.15099],[-76.68315,40.1518],[-76.69049,40.14836],[-76.6908,40.15625],[-76.69232,40.15741],[-76.69766,40.15634],[-76.69559,40.1541],[-76.69616,40.15012],[-76.69892,40.14842],[-76.69987,40.14511],[-76.7057,40.14301],[-76.71009,40.13708],[-76.70641,40.13527],[-76.71591,40.13148],[-76.72162,40.12007]]]}},{"type":"Feature","id":"PA:315:42029","properties":{"destinationId":"315","locality":"Malvern / Frazer / Berwyn","definition":"Chester","state":"PA","stateName":"Pennsylvania","county":"Chester County","countyGeoid":"42029","countyGeoids":["42029"],"coverage":"complete-counties","sourceType":"gsa_county_defined_rate_area"},"geometry":{"type":"MultiPolygon","coordinates":[[[[-75.59129,39.84045],[-75.59308,39.8375],[-75.5799,39.83852],[-75.58645,39.84434],[-75.59129,39.84045]]],[[[-76.13667,39.72527],[-76.13558,39.72156],[-75.77379,39.7222],[-75.76035,39.74723],[-75.74439,39.76785],[-75.72705,39.78413],[-75.70121,39.80261],[-75.66282,39.82115],[-75.64152,39.82836],[-75.59485,39.83729],[-75.59736,39.83888],[-75.59774,39.84115],[-75.592,39.85254],[-75.59874,39.8542],[-75.60153,39.85643],[-75.59523,39.86659],[-75.59301,39.86704],[-75.59322,39.86948],[-75.59791,39.87446],[-75.58476,39.88098],[-75.58719,39.88421],[-75.58242,39.88574],[-75.58041,39.88375],[-75.57116,39.88814],[-75.57425,39.89215],[-75.57252,39.89301],[-75.57338,39.8964],[-75.55929,39.90298],[-75.56131,39.90743],[-75.55864,39.90868],[-75.55611,39.90534],[-75.54642,39.90973],[-75.55045,39.91493],[-75.54249,39.91842],[-75.54439,39.9234],[-75.54108,39.9251],[-75.54273,39.92718],[-75.53611,39.92993],[-75.53024,39.92212],[-75.5235,39.92314],[-75.53048,39.93205],[-75.52617,39.93499],[-75.52454,39.9316],[-75.51905,39.93416],[-75.51954,39.93896],[-75.52382,39.94412],[-75.43606,39.98495],[-75.43563,39.98883],[-75.43822,39.99071],[-75.43769,39.99389],[-75.44076,39.99185],[-75.4431,39.99371],[-75.45377,39.99359],[-75.40434,40.02736],[-75.41499,40.04179],[-75.36107,40.06554],[-75.36669,40.07236],[-75.39263,40.06097],[-75.42012,40.0972],[-75.43786,40.08957],[-75.44072,40.09432],[-75.45619,40.08778],[-75.45662,40.09385],[-75.46293,40.09725],[-75.46173,40.10304],[-75.46924,40.10738],[-75.4716,40.11185],[-75.46941,40.11666],[-75.46167,40.12082],[-75.46209,40.12527],[-75.47245,40.1293],[-75.48108,40.1268],[-75.49258,40.12614],[-75.50562,40.13263],[-75.51084,40.14053],[-75.50932,40.14559],[-75.50098,40.15448],[-75.50108,40.15744],[-75.5038,40.15973],[-75.50897,40.16009],[-75.51321,40.1583],[-75.51776,40.14974],[-75.52107,40.14708],[-75.52684,40.14955],[-75.52778,40.15311],[-75.52662,40.15856],[-75.52916,40.16868],[-75.54099,40.17595],[-75.54866,40.18842],[-75.55775,40.20798],[-75.56428,40.2091],[-75.56491,40.20618],[-75.56224,40.20056],[-75.5648,40.19569],[-75.5674,40.19416],[-75.57334,40.1953],[-75.57922,40.20104],[-75.58149,40.20712],[-75.58776,40.21445],[-75.59703,40.23684],[-75.60136,40.23805],[-75.60692,40.23613],[-75.60747,40.23277],[-75.6037,40.22955],[-75.60317,40.22701],[-75.60552,40.22481],[-75.61237,40.223],[-75.61628,40.22491],[-75.61958,40.23008],[-75.65089,40.24202],[-75.65604,40.24117],[-75.66491,40.24506],[-75.6712,40.24458],[-75.68853,40.23619],[-75.69678,40.24186],[-75.74318,40.21672],[-75.87338,40.13711],[-75.943,40.10927],[-75.93613,40.07854],[-75.93433,40.04757],[-75.93587,40.03747],[-75.9867,39.96724],[-75.98598,39.96454],[-75.99464,39.95225],[-75.98823,39.93988],[-75.98097,39.93348],[-75.98159,39.92954],[-75.98514,39.93208],[-75.98736,39.9298],[-75.99147,39.929],[-75.99117,39.92726],[-75.9926,39.92657],[-75.99723,39.9286],[-75.99583,39.92459],[-75.99713,39.92206],[-75.9949,39.91658],[-75.99552,39.91136],[-75.99752,39.90989],[-75.99455,39.90254],[-75.99513,39.89892],[-75.98779,39.89477],[-75.98682,39.89219],[-75.99126,39.88759],[-75.99058,39.88458],[-75.99235,39.88216],[-75.98839,39.87822],[-75.98691,39.8735],[-75.99128,39.86874],[-75.99837,39.87203],[-75.9975,39.87362],[-76.00171,39.8747],[-76.00414,39.87288],[-76.00586,39.86661],[-76.00758,39.85235],[-76.01883,39.85408],[-76.02282,39.84984],[-76.0225,39.84854],[-76.02095,39.84946],[-76.01878,39.84051],[-76.01981,39.83974],[-76.01781,39.83817],[-76.01647,39.83148],[-76.02283,39.8308],[-76.02378,39.82713],[-76.02703,39.82415],[-76.03764,39.82692],[-76.02959,39.813],[-76.03522,39.81184],[-76.03512,39.80814],[-76.03916,39.80116],[-76.04572,39.80378],[-76.04975,39.80243],[-76.04126,39.79695],[-76.0451,39.79303],[-76.04364,39.79124],[-76.04852,39.78924],[-76.04968,39.78378],[-76.0584,39.77986],[-76.06052,39.77501],[-76.06456,39.77119],[-76.0626,39.7645],[-76.06669,39.75997],[-76.08185,39.76135],[-76.08579,39.75589],[-76.0826,39.75305],[-76.08433,39.74834],[-76.08803,39.74493],[-76.09299,39.74283],[-76.09688,39.74311],[-76.10034,39.74572],[-76.10205,39.73988],[-76.09259,39.73419],[-76.09676,39.72909],[-76.10179,39.72427],[-76.1052,39.72398],[-76.11118,39.72852],[-76.10856,39.73484],[-76.11362,39.73712],[-76.12065,39.73513],[-76.11823,39.72541],[-76.11926,39.72344],[-76.12225,39.72341],[-76.12471,39.72661],[-76.12762,39.72756],[-76.13436,39.72706],[-76.13667,39.72527]]]]}},{"type":"Feature","id":"PA:317:42101","properties":{"destinationId":"317","locality":"Philadelphia","definition":"Philadelphia","state":"PA","stateName":"Pennsylvania","county":"Philadelphia County","countyGeoid":"42101","countyGeoids":["42101"],"coverage":"complete-counties","sourceType":"gsa_county_defined_rate_area"},"geometry":{"type":"Polygon","coordinates":[[[-75.28027,39.97496],[-75.27539,39.96958],[-75.2706,39.96866],[-75.26545,39.96526],[-75.26049,39.96631],[-75.25711,39.96372],[-75.25414,39.9654],[-75.24806,39.96407],[-75.24855,39.96027],[-75.25088,39.95902],[-75.24901,39.95691],[-75.25158,39.95213],[-75.25012,39.94697],[-75.24703,39.94341],[-75.24037,39.94217],[-75.23957,39.93804],[-75.23487,39.93746],[-75.23744,39.93256],[-75.24191,39.93354],[-75.24337,39.93191],[-75.24434,39.92625],[-75.24751,39.92171],[-75.2472,39.91358],[-75.2515,39.91005],[-75.24993,39.90935],[-75.25032,39.90763],[-75.25349,39.90558],[-75.25129,39.9044],[-75.2556,39.8996],[-75.25679,39.89519],[-75.26174,39.89177],[-75.26248,39.88841],[-75.26488,39.88793],[-75.26273,39.88555],[-75.2646,39.88474],[-75.26196,39.88324],[-75.265,39.88098],[-75.26253,39.87656],[-75.24843,39.87649],[-75.24047,39.87238],[-75.23412,39.87718],[-75.21572,39.87609],[-75.21604,39.87112],[-75.21169,39.86695],[-75.18932,39.88071],[-75.14375,39.885],[-75.1373,39.88997],[-75.13082,39.90021],[-75.12792,39.91181],[-75.13502,39.92731],[-75.13612,39.93391],[-75.13572,39.94711],[-75.13386,39.95422],[-75.12692,39.96111],[-75.10229,39.97238],[-75.0756,39.97804],[-75.06418,39.98603],[-75.0534,40.00457],[-75.04709,40.00994],[-75.03422,40.01522],[-75.01221,40.0207],[-74.97394,40.04804],[-74.98516,40.05693],[-74.98044,40.0603],[-74.98088,40.06603],[-74.97106,40.07397],[-74.97109,40.07601],[-74.9636,40.07711],[-74.95842,40.08392],[-74.95578,40.0951],[-74.96177,40.09775],[-74.96116,40.10345],[-74.96543,40.10789],[-74.96377,40.10975],[-74.96317,40.11668],[-74.96499,40.11863],[-74.9692,40.11682],[-74.97296,40.1198],[-74.98237,40.11994],[-74.98343,40.12362],[-74.98691,40.12338],[-74.98916,40.12616],[-74.99417,40.12609],[-74.99275,40.13061],[-74.99389,40.13188],[-74.99788,40.12782],[-75.01507,40.13799],[-75.02057,40.13227],[-75.05834,40.10589],[-75.0778,40.08577],[-75.08691,40.07865],[-75.09673,40.06899],[-75.08742,40.0636],[-75.0935,40.05724],[-75.10789,40.0482],[-75.10941,40.04584],[-75.17644,40.08465],[-75.18846,40.07275],[-75.22361,40.09291],[-75.26443,40.05409],[-75.2456,40.03766],[-75.23204,40.02804],[-75.21962,40.02191],[-75.20598,40.01172],[-75.28027,39.97496]]]}},{"type":"Feature","id":"PA:318:42003","properties":{"destinationId":"318","locality":"Pittsburgh","definition":"Allegheny","state":"PA","stateName":"Pennsylvania","county":"Allegheny County","countyGeoid":"42003","countyGeoids":["42003"],"coverage":"complete-counties","sourceType":"gsa_county_defined_rate_area"},"geometry":{"type":"Polygon","coordinates":[[[-80.3608,40.47774],[-80.1846,40.33314],[-79.91446,40.25244],[-79.9175,40.24945],[-79.93075,40.24297],[-79.96259,40.23877],[-79.97004,40.2333],[-79.97128,40.22817],[-79.96932,40.22467],[-79.95489,40.21277],[-79.92929,40.20708],[-79.91078,40.19698],[-79.89477,40.19428],[-79.87142,40.19739],[-79.78259,40.22763],[-79.80439,40.23195],[-79.80743,40.23689],[-79.79911,40.24697],[-79.79665,40.25283],[-79.78774,40.26185],[-79.78878,40.26531],[-79.79506,40.27219],[-79.7958,40.28108],[-79.7796,40.2823],[-79.77582,40.28501],[-79.77596,40.28921],[-79.78865,40.29774],[-79.77108,40.37542],[-79.76561,40.38447],[-79.76484,40.38377],[-79.76481,40.39003],[-79.76207,40.39277],[-79.75126,40.38836],[-79.75068,40.39086],[-79.74802,40.39076],[-79.74463,40.39616],[-79.73865,40.39554],[-79.73874,40.39772],[-79.73252,40.3996],[-79.73198,40.40665],[-79.73043,40.40847],[-79.7224,40.40857],[-79.72723,40.41219],[-79.72683,40.41447],[-79.71723,40.41379],[-79.71603,40.41741],[-79.70694,40.42232],[-79.70478,40.42632],[-79.70162,40.52545],[-79.71023,40.5323],[-79.71437,40.53288],[-79.72237,40.5422],[-79.73193,40.54507],[-79.73571,40.54901],[-79.74266,40.54852],[-79.7517,40.55182],[-79.76509,40.54924],[-79.77205,40.56296],[-79.7748,40.5728],[-79.77162,40.58563],[-79.76404,40.59287],[-79.75758,40.59625],[-79.72315,40.60699],[-79.71458,40.61701],[-79.70333,40.6257],[-79.69435,40.63513],[-79.68898,40.64544],[-79.69582,40.6615],[-79.69582,40.66479],[-79.69288,40.66961],[-79.91463,40.67329],[-79.95994,40.67228],[-80.07143,40.67494],[-80.1485,40.67377],[-80.14511,40.61345],[-80.15087,40.61162],[-80.15501,40.60801],[-80.16082,40.60949],[-80.16578,40.60603],[-80.18076,40.60911],[-80.18053,40.60759],[-80.18475,40.60359],[-80.18404,40.60113],[-80.18848,40.60005],[-80.18418,40.59733],[-80.18652,40.59613],[-80.19499,40.59672],[-80.20416,40.58857],[-80.208,40.58806],[-80.21183,40.58248],[-80.21443,40.58099],[-80.21898,40.582],[-80.21918,40.57945],[-80.22401,40.57733],[-80.22405,40.57527],[-80.3608,40.47774]]]}},{"type":"Feature","id":"PA:319:42011","properties":{"destinationId":"319","locality":"Reading","definition":"Berks","state":"PA","stateName":"Pennsylvania","county":"Berks County","countyGeoid":"42011","countyGeoids":["42011"],"coverage":"complete-counties","sourceType":"gsa_county_defined_rate_area"},"geometry":{"type":"Polygon","coordinates":[[[-76.4366,40.49623],[-76.44018,40.49595],[-76.23192,40.36629],[-76.20553,40.36066],[-76.14976,40.31474],[-75.87338,40.13711],[-75.74318,40.21672],[-75.69595,40.24236],[-75.52981,40.44709],[-75.89147,40.67727],[-75.99321,40.63971],[-76.01223,40.57771],[-76.0156,40.57705],[-76.01856,40.57383],[-76.0212,40.57376],[-76.02651,40.5786],[-76.03384,40.57726],[-76.03951,40.58309],[-76.045,40.58379],[-76.04725,40.58268],[-76.04722,40.57989],[-76.05094,40.57517],[-76.05609,40.57488],[-76.05802,40.57963],[-76.06534,40.57968],[-76.07957,40.56608],[-76.10586,40.5622],[-76.13474,40.55348],[-76.1376,40.55113],[-76.1551,40.54523],[-76.16014,40.54045],[-76.1636,40.53999],[-76.17162,40.53495],[-76.18564,40.53556],[-76.19663,40.53126],[-76.21941,40.5287],[-76.23432,40.52207],[-76.25601,40.51707],[-76.27215,40.51759],[-76.30233,40.51466],[-76.31458,40.51591],[-76.32254,40.51416],[-76.33043,40.51591],[-76.33823,40.51554],[-76.35511,40.51075],[-76.36922,40.5096],[-76.41591,40.49602],[-76.4366,40.49623]]]}},{"type":"Feature","id":"PA:321:42027","properties":{"destinationId":"321","locality":"State College","definition":"Centre","state":"PA","stateName":"Pennsylvania","county":"Centre County","countyGeoid":"42027","countyGeoids":["42027"],"coverage":"complete-counties","sourceType":"gsa_county_defined_rate_area"},"geometry":{"type":"Polygon","coordinates":[[[-78.37603,40.7545],[-78.37558,40.75091],[-78.37302,40.74989],[-78.37287,40.7469],[-78.36886,40.74008],[-78.36299,40.73316],[-78.13183,40.74302],[-77.94425,40.69156],[-77.89428,40.7162],[-77.8249,40.74353],[-77.76855,40.71947],[-77.71868,40.72737],[-77.71055,40.71456],[-77.68385,40.72872],[-77.66199,40.73774],[-77.65257,40.74492],[-77.59336,40.76125],[-77.4296,40.82754],[-77.37471,40.8453],[-77.36418,40.84694],[-77.27924,40.90971],[-77.20403,40.99271],[-77.1438,41.04286],[-77.14416,41.04434],[-77.33992,40.98717],[-77.39391,40.97828],[-77.44027,40.97445],[-77.5086,40.96294],[-77.58019,41.04727],[-77.56184,41.05779],[-77.56741,41.06511],[-77.57356,41.06868],[-77.58248,41.06737],[-77.58382,41.0701],[-77.59178,41.07115],[-77.59192,41.07444],[-77.59532,41.07774],[-77.62095,41.08909],[-77.62176,41.09119],[-77.62814,41.09255],[-77.63181,41.09513],[-77.65007,41.09755],[-77.65921,41.10107],[-77.66081,41.10676],[-77.66407,41.109],[-77.67205,41.10524],[-77.68375,41.10931],[-77.69187,41.10638],[-77.70662,41.11389],[-77.71168,41.11114],[-77.7146,41.10557],[-77.71776,41.10495],[-77.72478,41.10739],[-77.72561,41.11014],[-77.72872,41.11147],[-77.73699,41.10791],[-77.74668,41.10626],[-77.778,41.14661],[-77.78956,41.14213],[-77.79001,41.17714],[-77.89767,41.17692],[-77.89826,41.25266],[-77.91379,41.24056],[-77.9218,41.22746],[-77.93791,41.22484],[-77.9388,41.21979],[-77.93562,41.21489],[-77.93709,41.21034],[-77.9436,41.21029],[-77.95561,41.21743],[-77.95944,41.2175],[-77.96565,41.20958],[-77.97084,41.20672],[-77.97308,41.20419],[-77.97372,41.19239],[-77.97078,41.1747],[-77.98419,41.17024],[-77.98793,41.16265],[-77.99027,41.1617],[-77.9992,41.16302],[-78.00075,41.16166],[-78.0018,41.15813],[-78.00033,41.15095],[-78.00357,41.14486],[-78.01073,41.14385],[-78.01573,41.1529],[-78.02859,41.15032],[-78.03497,41.15392],[-78.03817,41.1536],[-78.04344,41.14651],[-78.05273,41.14532],[-78.05603,41.132],[-78.05884,41.13091],[-78.06559,41.13234],[-78.07035,41.13058],[-78.06866,41.12431],[-78.07042,41.12188],[-78.07373,41.12206],[-78.08191,41.12631],[-78.08645,41.12357],[-78.08661,41.11943],[-78.0892,41.11604],[-78.09378,41.11635],[-78.09476,41.11967],[-78.10034,41.12178],[-78.11124,41.11547],[-78.1117,41.11106],[-78.09811,41.08604],[-78.09267,41.07956],[-78.09373,41.07583],[-78.09718,41.07235],[-78.0851,41.06811],[-78.0888,41.06343],[-78.09036,41.05817],[-78.08462,41.05739],[-78.07556,41.05966],[-78.0714,41.04992],[-78.0682,41.04996],[-78.06236,41.05323],[-78.05939,41.05083],[-78.06408,41.04591],[-78.05726,41.03935],[-78.05715,41.03753],[-78.06562,41.03578],[-78.06927,41.03272],[-78.0783,41.03406],[-78.08031,41.03066],[-78.07731,41.0266],[-78.07125,41.02658],[-78.07046,41.02494],[-78.0756,41.02218],[-78.06789,41.01948],[-78.06914,41.01324],[-78.06012,41.01221],[-78.05596,41.00827],[-78.0557,41.00486],[-78.05827,41.00366],[-78.06277,41.00479],[-78.06514,41.00334],[-78.06445,40.99996],[-78.06109,40.99628],[-78.06192,40.99522],[-78.06445,40.99532],[-78.06668,40.99769],[-78.0756,40.99346],[-78.0861,40.99447],[-78.08686,40.99277],[-78.08209,40.98418],[-78.08443,40.98083],[-78.09052,40.98088],[-78.08867,40.97608],[-78.09144,40.97308],[-78.09479,40.9741],[-78.09678,40.97285],[-78.09375,40.97049],[-78.08616,40.96967],[-78.0785,40.96045],[-78.0781,40.95645],[-78.08957,40.95446],[-78.0949,40.95044],[-78.09926,40.95159],[-78.10421,40.94952],[-78.10983,40.94993],[-78.11133,40.94512],[-78.12027,40.94193],[-78.12244,40.94389],[-78.12091,40.94686],[-78.12703,40.94568],[-78.13386,40.94674],[-78.13062,40.95134],[-78.13638,40.95602],[-78.12996,40.96184],[-78.13369,40.96704],[-78.13635,40.96602],[-78.13601,40.9626],[-78.13965,40.9571],[-78.14032,40.95102],[-78.14428,40.94859],[-78.14763,40.94933],[-78.14715,40.95667],[-78.15979,40.96122],[-78.1676,40.96102],[-78.16963,40.95567],[-78.16821,40.95203],[-78.16233,40.95476],[-78.15937,40.95407],[-78.15941,40.95037],[-78.15564,40.94164],[-78.16245,40.94207],[-78.16455,40.94094],[-78.16333,40.93934],[-78.16646,40.93669],[-78.17128,40.93677],[-78.17148,40.93242],[-78.1772,40.93021],[-78.17988,40.92356],[-78.18183,40.92229],[-78.19097,40.91873],[-78.19238,40.92057],[-78.19598,40.91999],[-78.20164,40.91581],[-78.20941,40.91737],[-78.21484,40.91481],[-78.21522,40.91332],[-78.2174,40.91383],[-78.22594,40.9074],[-78.2243,40.90598],[-78.22652,40.90348],[-78.22781,40.90423],[-78.22914,40.89974],[-78.22422,40.89597],[-78.22064,40.89031],[-78.2216,40.88851],[-78.22794,40.88673],[-78.22823,40.88301],[-78.23294,40.87839],[-78.23299,40.88018],[-78.23471,40.87926],[-78.24045,40.88164],[-78.24776,40.87956],[-78.24723,40.8778],[-78.24934,40.87639],[-78.23833,40.87644],[-78.23571,40.8736],[-78.23795,40.87207],[-78.24629,40.87209],[-78.24898,40.86952],[-78.24913,40.8611],[-78.24691,40.85836],[-78.24922,40.85538],[-78.25476,40.85376],[-78.25677,40.8554],[-78.26057,40.85468],[-78.26395,40.85103],[-78.26758,40.85002],[-78.26774,40.84765],[-78.27067,40.84698],[-78.27773,40.85099],[-78.28424,40.85105],[-78.29076,40.84802],[-78.2906,40.84252],[-78.29384,40.84062],[-78.29444,40.83792],[-78.30189,40.83415],[-78.29952,40.82984],[-78.29938,40.82456],[-78.30563,40.82064],[-78.30801,40.81572],[-78.31163,40.81389],[-78.31389,40.8085],[-78.32031,40.80843],[-78.32217,40.80553],[-78.32693,40.8059],[-78.33166,40.80112],[-78.33949,40.79786],[-78.34025,40.79156],[-78.34368,40.79083],[-78.34188,40.78701],[-78.34348,40.78393],[-78.34281,40.78183],[-78.3459,40.78105],[-78.35087,40.7749],[-78.35205,40.76891],[-78.35913,40.7679],[-78.36063,40.76539],[-78.36526,40.76454],[-78.37603,40.7545]]]}},{"type":"Feature","id":"PA:435:42091","properties":{"destinationId":"435","locality":"Montgomery","definition":"Montgomery","state":"PA","stateName":"Pennsylvania","county":"Montgomery County","countyGeoid":"42091","countyGeoids":["42091"],"coverage":"complete-counties","sourceType":"gsa_county_defined_rate_area"},"geometry":{"type":"Polygon","coordinates":[[[-75.69595,40.24236],[-75.68853,40.23619],[-75.6712,40.24458],[-75.66491,40.24506],[-75.65604,40.24117],[-75.65089,40.24202],[-75.61958,40.23008],[-75.61628,40.22491],[-75.61237,40.223],[-75.60552,40.22481],[-75.60317,40.22701],[-75.6037,40.22955],[-75.60747,40.23277],[-75.60692,40.23613],[-75.60136,40.23805],[-75.59703,40.23684],[-75.58776,40.21445],[-75.58149,40.20712],[-75.57922,40.20104],[-75.57334,40.1953],[-75.5674,40.19416],[-75.5648,40.19569],[-75.56224,40.20056],[-75.56491,40.20618],[-75.56428,40.2091],[-75.55775,40.20798],[-75.54866,40.18842],[-75.54099,40.17595],[-75.52916,40.16868],[-75.52662,40.15856],[-75.52778,40.15311],[-75.52684,40.14955],[-75.52107,40.14708],[-75.51776,40.14974],[-75.51321,40.1583],[-75.50897,40.16009],[-75.5038,40.15973],[-75.50108,40.15744],[-75.50098,40.15448],[-75.50932,40.14559],[-75.51084,40.14053],[-75.50562,40.13263],[-75.49258,40.12614],[-75.48108,40.1268],[-75.47245,40.1293],[-75.46209,40.12527],[-75.46167,40.12082],[-75.46941,40.11666],[-75.4716,40.11185],[-75.46924,40.10738],[-75.46173,40.10304],[-75.46293,40.09725],[-75.45662,40.09385],[-75.45619,40.08778],[-75.44072,40.09432],[-75.43786,40.08957],[-75.42012,40.0972],[-75.39263,40.06097],[-75.36669,40.07236],[-75.36107,40.06554],[-75.36007,40.0662],[-75.35681,40.06311],[-75.3207,40.01622],[-75.31143,40.01981],[-75.27648,39.97696],[-75.20598,40.01172],[-75.21962,40.02191],[-75.23204,40.02804],[-75.2456,40.03766],[-75.26443,40.05409],[-75.22361,40.09291],[-75.18846,40.07275],[-75.17644,40.08465],[-75.10941,40.04584],[-75.10789,40.0482],[-75.0935,40.05724],[-75.08742,40.0636],[-75.09673,40.06899],[-75.08691,40.07865],[-75.0778,40.08577],[-75.05834,40.10589],[-75.02057,40.13227],[-75.01507,40.13799],[-75.52981,40.44709],[-75.69595,40.24236]]]}}]}