{"type":"FeatureCollection","features":[{"type":"Feature","id":"RI:323:44005","properties":{"destinationId":"323","locality":"Jamestown / Middletown / Newport","definition":"Newport","state":"RI","stateName":"Rhode Island","county":"Newport County","countyGeoid":"44005","countyGeoids":["44005"],"coverage":"complete-counties","sourceType":"gsa_county_defined_rate_area"},"geometry":{"type":"MultiPolygon","coordinates":[[[[-71.36704,41.6607],[-71.36254,41.65114],[-71.36001,41.64988],[-71.35635,41.65209],[-71.3534,41.65787],[-71.35466,41.65976],[-71.36071,41.66112],[-71.36704,41.6607]]],[[[-71.37224,41.59985],[-71.37336,41.59744],[-71.37168,41.59733],[-71.36479,41.60143],[-71.36338,41.60669],[-71.36732,41.60595],[-71.37224,41.59985]]],[[[-71.40056,41.46094],[-71.39957,41.4486],[-71.39028,41.45504],[-71.38903,41.46555],[-71.3845,41.46411],[-71.38159,41.46806],[-71.38624,41.48769],[-71.38066,41.4888],[-71.37676,41.47488],[-71.37509,41.47376],[-71.37174,41.47752],[-71.36424,41.47648],[-71.35432,41.47889],[-71.35409,41.48045],[-71.35948,41.48309],[-71.36654,41.49479],[-71.36598,41.49882],[-71.35892,41.50328],[-71.35762,41.5087],[-71.35985,41.51065],[-71.36338,41.5101],[-71.36561,41.51399],[-71.36134,41.52638],[-71.36468,41.5414],[-71.3604,41.54779],[-71.35987,41.55631],[-71.36356,41.57086],[-71.37019,41.57396],[-71.37362,41.57321],[-71.37902,41.56777],[-71.38132,41.56312],[-71.38141,41.55879],[-71.38448,41.55674],[-71.38661,41.54583],[-71.38568,41.53904],[-71.38884,41.53445],[-71.39214,41.52447],[-71.39256,41.51761],[-71.39101,41.51458],[-71.37891,41.50495],[-71.38345,41.50105],[-71.38494,41.49701],[-71.38401,41.49381],[-71.39237,41.49186],[-71.39944,41.49298],[-71.40055,41.49033],[-71.39751,41.48698],[-71.39665,41.47892],[-71.39758,41.47376],[-71.39442,41.46722],[-71.40056,41.46094]]],[[[-71.4051,41.49821],[-71.40324,41.49758],[-71.39628,41.5037],[-71.39739,41.5062],[-71.40141,41.50627],[-71.40363,41.50457],[-71.4051,41.49821]]],[[[-71.28802,41.64558],[-71.28816,41.64295],[-71.28534,41.64038],[-71.28535,41.63685],[-71.27704,41.63803],[-71.27213,41.63706],[-71.27635,41.64053],[-71.27817,41.64731],[-71.28647,41.64757],[-71.28802,41.64558]]],[[[-71.30151,41.58566],[-71.30081,41.58061],[-71.29716,41.57977],[-71.29856,41.58492],[-71.30151,41.58566]]],[[[-71.32757,41.45287],[-71.32565,41.45211],[-71.3243,41.45392],[-71.32635,41.45471],[-71.32757,41.45287]]],[[[-71.32883,41.49233],[-71.32782,41.48298],[-71.32537,41.4876],[-71.32696,41.49312],[-71.32883,41.49233]]],[[[-71.34313,41.49729],[-71.34313,41.49493],[-71.33867,41.49493],[-71.34127,41.50049],[-71.34313,41.49729]]],[[[-71.34591,41.53695],[-71.34591,41.52958],[-71.34257,41.52902],[-71.34313,41.53584],[-71.34498,41.53792],[-71.34591,41.53695]]],[[[-71.35382,41.64747],[-71.35073,41.63391],[-71.34735,41.63128],[-71.34496,41.63233],[-71.33737,41.63128],[-71.32556,41.62414],[-71.32661,41.61611],[-71.33006,41.6111],[-71.32956,41.6091],[-71.33375,41.60586],[-71.33705,41.59469],[-71.33595,41.5859],[-71.3312,41.58032],[-71.3261,41.57858],[-71.3167,41.58313],[-71.30489,41.60448],[-71.30264,41.60553],[-71.30433,41.60795],[-71.30405,41.61878],[-71.30812,41.62624],[-71.31403,41.62792],[-71.31712,41.63139],[-71.32682,41.6317],[-71.3347,41.63444],[-71.3406,41.63969],[-71.34367,41.6399],[-71.34468,41.64253],[-71.33709,41.64673],[-71.33498,41.64421],[-71.33652,41.6419],[-71.33343,41.64179],[-71.33245,41.64379],[-71.33807,41.65083],[-71.33934,41.65503],[-71.33765,41.65797],[-71.34402,41.6615],[-71.34482,41.66701],[-71.3489,41.66532],[-71.34693,41.66333],[-71.35157,41.6586],[-71.34327,41.65377],[-71.34763,41.65282],[-71.3503,41.64904],[-71.35284,41.64925],[-71.35382,41.64747]]],[[[-71.36291,41.46175],[-71.3588,41.45966],[-71.35616,41.45054],[-71.35361,41.44975],[-71.34418,41.45403],[-71.33793,41.45169],[-71.33804,41.44953],[-71.33476,41.44952],[-71.32691,41.45894],[-71.32375,41.46013],[-71.32033,41.45978],[-71.31691,41.45479],[-71.31256,41.4565],[-71.31098,41.45511],[-71.31205,41.45138],[-71.31017,41.45112],[-71.30439,41.4545],[-71.30276,41.45975],[-71.30398,41.46372],[-71.30141,41.46728],[-71.29818,41.46749],[-71.29685,41.46913],[-71.29692,41.48552],[-71.28549,41.489],[-71.28231,41.48829],[-71.27664,41.48004],[-71.27486,41.47985],[-71.26886,41.4847],[-71.26764,41.48821],[-71.25819,41.48792],[-71.24586,41.48164],[-71.24737,41.473],[-71.24043,41.47615],[-71.23744,41.48571],[-71.24426,41.48574],[-71.24799,41.49029],[-71.24667,41.49426],[-71.24074,41.5017],[-71.24074,41.50555],[-71.23346,41.51405],[-71.22944,41.52154],[-71.22799,41.5283],[-71.22894,41.5303],[-71.23478,41.53254],[-71.23664,41.53585],[-71.23488,41.54169],[-71.23652,41.54489],[-71.23369,41.55236],[-71.23384,41.55379],[-71.23702,41.55485],[-71.2382,41.55876],[-71.23488,41.57655],[-71.23779,41.5776],[-71.2436,41.58751],[-71.24071,41.61922],[-71.23649,41.62137],[-71.22101,41.6235],[-71.21934,41.62548],[-71.21531,41.62549],[-71.21184,41.62353],[-71.21266,41.61007],[-71.20374,41.5961],[-71.2054,41.59432],[-71.20921,41.59397],[-71.20944,41.59059],[-71.21467,41.58597],[-71.21444,41.58366],[-71.20835,41.58117],[-71.20982,41.55871],[-71.21142,41.55822],[-71.21871,41.56268],[-71.221,41.56088],[-71.21378,41.5568],[-71.216,41.54718],[-71.20683,41.54347],[-71.20493,41.5408],[-71.20826,41.52888],[-71.2048,41.52334],[-71.20477,41.5191],[-71.20079,41.51437],[-71.20638,41.49922],[-71.20226,41.49838],[-71.19969,41.49551],[-71.19939,41.49177],[-71.19017,41.48428],[-71.19235,41.46656],[-71.19661,41.46476],[-71.19686,41.46112],[-71.19398,41.4564],[-71.18628,41.46028],[-71.17554,41.45985],[-71.17362,41.46142],[-71.16865,41.46145],[-71.17023,41.46838],[-71.16734,41.4714],[-71.1631,41.47174],[-71.15927,41.47598],[-71.15086,41.47582],[-71.14646,41.4785],[-71.14575,41.48118],[-71.14244,41.48122],[-71.13909,41.48345],[-71.14109,41.48994],[-71.13687,41.49394],[-71.12057,41.49745],[-71.13131,41.59231],[-71.14091,41.6074],[-71.14047,41.62389],[-71.13569,41.6284],[-71.13289,41.6601],[-71.17609,41.6681],[-71.17599,41.6714],[-71.19564,41.67509],[-71.20802,41.65314],[-71.21182,41.6391],[-71.21658,41.6391],[-71.22033,41.65557],[-71.22537,41.6471],[-71.23226,41.64337],[-71.23323,41.64023],[-71.23654,41.63839],[-71.24628,41.63981],[-71.25108,41.63878],[-71.25888,41.63323],[-71.26102,41.62738],[-71.27186,41.62399],[-71.27523,41.61944],[-71.27241,41.61504],[-71.27344,41.60699],[-71.28065,41.59285],[-71.28526,41.59237],[-71.28907,41.58271],[-71.28574,41.58277],[-71.28408,41.57939],[-71.28514,41.57713],[-71.28838,41.57327],[-71.29436,41.57142],[-71.30365,41.55992],[-71.31053,41.54692],[-71.31113,41.54405],[-71.30808,41.54294],[-71.30808,41.53938],[-71.3127,41.53651],[-71.31415,41.53145],[-71.31125,41.52262],[-71.31458,41.51981],[-71.3209,41.51949],[-71.32399,41.52241],[-71.32713,41.52159],[-71.32803,41.51885],[-71.32545,41.51728],[-71.32604,41.51431],[-71.32931,41.51383],[-71.33069,41.5077],[-71.3278,41.50426],[-71.32312,41.50309],[-71.32282,41.49115],[-71.32115,41.48812],[-71.31806,41.48776],[-71.31652,41.47756],[-71.32353,41.47583],[-71.33599,41.46965],[-71.33438,41.4782],[-71.33644,41.48198],[-71.3479,41.47059],[-71.35277,41.46924],[-71.35827,41.46443],[-71.36119,41.46462],[-71.36291,41.46175]]]]}},{"type":"Feature","id":"RI:325:44001","properties":{"destinationId":"325","locality":"Providence / Bristol","definition":"Providence / Bristol","state":"RI","stateName":"Rhode Island","county":"Bristol County","countyGeoid":"44001","countyGeoids":["44001","44007"],"coverage":"complete-counties","sourceType":"gsa_county_defined_rate_area"},"geometry":{"type":"Polygon","coordinates":[[[-71.3539,41.7513],[-71.35582,41.74506],[-71.35229,41.74506],[-71.34825,41.74205],[-71.34445,41.73619],[-71.34112,41.73477],[-71.33946,41.72484],[-71.32419,41.72538],[-71.30713,41.72165],[-71.30576,41.71866],[-71.30798,41.71276],[-71.30547,41.70852],[-71.30145,41.70644],[-71.2988,41.71101],[-71.29122,41.70267],[-71.29312,41.68835],[-71.29894,41.68152],[-71.30263,41.68175],[-71.3061,41.67258],[-71.30499,41.65935],[-71.3014,41.64998],[-71.29916,41.64953],[-71.29786,41.65828],[-71.29055,41.66239],[-71.28764,41.67246],[-71.28907,41.67959],[-71.2855,41.68243],[-71.27885,41.67835],[-71.28037,41.67258],[-71.27766,41.66628],[-71.2691,41.66006],[-71.26768,41.6574],[-71.27008,41.65244],[-71.26706,41.64494],[-71.25956,41.6426],[-71.25674,41.65029],[-71.2546,41.65225],[-71.25342,41.66059],[-71.25033,41.66503],[-71.24438,41.66912],[-71.23844,41.66556],[-71.23535,41.67213],[-71.23464,41.67746],[-71.24248,41.68793],[-71.24581,41.69716],[-71.24099,41.69774],[-71.22788,41.7055],[-71.2248,41.7105],[-71.22579,41.7117],[-71.26139,41.7523],[-71.31792,41.77616],[-71.3539,41.7513]]]}},{"type":"Feature","id":"RI:325:44007","properties":{"destinationId":"325","locality":"Providence / Bristol","definition":"Providence / Bristol","state":"RI","stateName":"Rhode Island","county":"Providence County","countyGeoid":"44007","countyGeoids":["44001","44007"],"coverage":"complete-counties","sourceType":"gsa_county_defined_rate_area"},"geometry":{"type":"Polygon","coordinates":[[[-71.79924,42.00806],[-71.79792,41.9354],[-71.78969,41.7252],[-71.45534,41.73236],[-71.45285,41.73434],[-71.45374,41.73743],[-71.45128,41.7397],[-71.44468,41.74016],[-71.44436,41.74421],[-71.44654,41.74889],[-71.44062,41.75215],[-71.44116,41.75471],[-71.43912,41.75639],[-71.44057,41.75791],[-71.43378,41.76144],[-71.43297,41.75934],[-71.42622,41.76102],[-71.4198,41.76479],[-71.41872,41.76408],[-71.42009,41.76175],[-71.41908,41.76188],[-71.41438,41.76295],[-71.4107,41.76655],[-71.4052,41.76761],[-71.40139,41.76655],[-71.39958,41.76832],[-71.39563,41.76668],[-71.39412,41.76404],[-71.38852,41.76378],[-71.38473,41.7576],[-71.3855,41.76866],[-71.39174,41.78105],[-71.39056,41.78371],[-71.38129,41.7853],[-71.37154,41.78335],[-71.37058,41.78087],[-71.36798,41.7807],[-71.36513,41.7775],[-71.36608,41.77112],[-71.36964,41.76456],[-71.36465,41.76474],[-71.3618,41.76066],[-71.36085,41.75517],[-71.36235,41.75089],[-71.36013,41.74949],[-71.3599,41.74506],[-71.35582,41.74506],[-71.3539,41.7513],[-71.31792,41.77616],[-71.3279,41.7805],[-71.3322,41.7923],[-71.3407,41.7983],[-71.3389,41.8083],[-71.3472,41.8231],[-71.3449,41.828],[-71.3352,41.8355],[-71.3422,41.8448],[-71.334,41.8623],[-71.3408,41.8816],[-71.3387,41.8984],[-71.3817,41.8932],[-71.3814,42.0188],[-71.4999,42.0172],[-71.52761,42.015],[-71.79924,42.00806]]]}}]}