{"type":"FeatureCollection","features":[{"type":"Feature","id":"SC:326:45015","properties":{"destinationId":"326","locality":"Charleston","definition":"Charleston / Berkeley / Dorchester","state":"SC","stateName":"South Carolina","county":"Berkeley County","countyGeoid":"45015","countyGeoids":["45015","45019","45035"],"coverage":"complete-counties","sourceType":"gsa_county_defined_rate_area"},"geometry":{"type":"Polygon","coordinates":[[[-80.3613,33.26308],[-80.36185,33.25744],[-80.35189,33.24957],[-80.34841,33.24892],[-80.34721,33.24525],[-80.34868,33.24192],[-80.34686,33.23609],[-80.34339,33.23345],[-80.34334,33.2316],[-80.3375,33.22834],[-80.3354,33.22449],[-80.33646,33.21538],[-80.33082,33.19842],[-80.32469,33.19852],[-80.3088,33.19043],[-80.30853,33.18784],[-80.3027,33.18537],[-80.29635,33.17945],[-80.3018,33.17423],[-80.30311,33.16972],[-80.30739,33.16534],[-80.31096,33.15836],[-80.31303,33.15925],[-80.31763,33.15705],[-80.31815,33.1549],[-80.33594,33.14546],[-80.11336,32.99806],[-80.11247,33.0006],[-80.11103,32.99981],[-80.10912,33.00156],[-80.11043,33.00216],[-80.10815,33.0016],[-80.10803,32.99976],[-80.10271,33.00132],[-80.10225,32.99981],[-80.10492,32.99601],[-80.10241,32.99553],[-80.10507,32.99249],[-80.09822,32.98811],[-80.08398,32.9933],[-80.08338,32.99216],[-80.0815,32.99382],[-80.05602,32.99936],[-80.04583,32.98502],[-80.04006,32.98275],[-80.04262,32.96034],[-80.04149,32.95501],[-80.01177,32.89988],[-79.95083,32.91075],[-79.94756,32.90775],[-79.95732,32.89885],[-79.9624,32.89111],[-79.96408,32.88487],[-79.96373,32.87535],[-79.95631,32.86005],[-79.94401,32.85647],[-79.93118,32.85001],[-79.92973,32.8468],[-79.93137,32.82984],[-79.92968,32.82321],[-79.92329,32.81662],[-79.91897,32.81542],[-79.91116,32.81622],[-79.89745,32.82694],[-79.89386,32.83868],[-79.89366,32.84311],[-79.89816,32.8536],[-79.89595,32.85986],[-79.88539,32.86577],[-79.85908,32.87096],[-79.85296,32.8761],[-79.84189,32.89676],[-79.83956,32.90462],[-79.84118,32.90938],[-79.84057,32.91273],[-79.83595,32.91975],[-79.82599,32.91864],[-79.81852,32.92246],[-79.81356,32.92761],[-79.80299,32.92908],[-79.79778,32.93427],[-79.78139,32.94378],[-79.77163,32.94184],[-79.76767,32.95486],[-79.76344,32.95634],[-79.76592,32.96415],[-79.76932,32.96854],[-79.7693,32.97157],[-79.76211,32.98909],[-79.74304,33.00538],[-79.7303,33.01264],[-79.72175,33.03067],[-79.71784,33.03322],[-79.71809,33.03622],[-79.7164,33.03856],[-79.71234,33.04217],[-79.70303,33.04593],[-79.69867,33.05499],[-79.69183,33.06015],[-79.67466,33.08046],[-79.6605,33.09083],[-79.64772,33.11161],[-79.64686,33.11789],[-79.64233,33.12439],[-79.63431,33.12903],[-79.62804,33.12888],[-79.62091,33.13598],[-79.61227,33.13845],[-79.60909,33.13312],[-79.60286,33.13378],[-79.59793,33.14203],[-79.58684,33.14684],[-79.57013,33.15047],[-79.56229,33.15633],[-79.55052,33.15543],[-79.54618,33.15335],[-79.54197,33.14731],[-79.53391,33.14375],[-79.53013,33.14579],[-79.52196,33.1467],[-79.51821,33.14908],[-79.51205,33.15808],[-79.51349,33.16046],[-79.513,33.16616],[-79.51116,33.16792],[-79.50835,33.16788],[-79.50391,33.17295],[-79.50446,33.17705],[-79.50183,33.1781],[-79.49754,33.17698],[-79.49656,33.18515],[-79.49286,33.18792],[-79.49282,33.19182],[-79.49088,33.19372],[-79.48637,33.19237],[-79.48611,33.19504],[-79.48257,33.19835],[-79.48428,33.20139],[-79.48367,33.20381],[-79.47796,33.20302],[-79.47823,33.20751],[-79.47358,33.20929],[-79.47402,33.21034],[-79.47097,33.2104],[-79.46779,33.20654],[-79.46661,33.20918],[-79.46244,33.2075],[-79.45823,33.20922],[-79.45885,33.21035],[-79.45485,33.21009],[-79.45029,33.20733],[-79.44665,33.21182],[-79.4467,33.21346],[-79.45509,33.21773],[-79.45541,33.21955],[-79.45206,33.22266],[-79.45172,33.22541],[-79.45373,33.22784],[-79.46203,33.22939],[-79.45759,33.23265],[-79.45873,33.23522],[-79.46578,33.23154],[-79.47393,33.22977],[-79.47445,33.23215],[-79.46905,33.23652],[-79.46866,33.23804],[-79.47065,33.23941],[-79.4787,33.23508],[-79.48288,33.23544],[-79.4834,33.23693],[-79.47808,33.24327],[-79.47928,33.24607],[-79.48264,33.24592],[-79.48904,33.23684],[-79.49399,33.23603],[-79.51648,33.24559],[-79.53018,33.24748],[-79.53542,33.24961],[-79.53704,33.25291],[-79.54583,33.25481],[-79.54976,33.26498],[-79.55981,33.26048],[-79.56102,33.26232],[-79.55777,33.26623],[-79.55767,33.26859],[-79.56225,33.27252],[-79.59555,33.27929],[-79.60657,33.27932],[-79.61258,33.28514],[-79.63099,33.29293],[-79.66425,33.29832],[-79.69541,33.31404],[-79.6993,33.31763],[-79.70454,33.31768],[-79.70958,33.32125],[-79.7192,33.31863],[-79.72683,33.32212],[-79.73481,33.32017],[-79.74115,33.32231],[-79.7442,33.32744],[-79.7498,33.33036],[-79.75542,33.32945],[-79.75638,33.33019],[-79.75445,33.33447],[-79.76153,33.33557],[-79.76139,33.34225],[-79.76792,33.34461],[-79.76786,33.34975],[-79.77177,33.35616],[-79.77855,33.35915],[-79.7783,33.36193],[-79.78167,33.36396],[-79.78164,33.36822],[-79.78645,33.37202],[-79.78416,33.37613],[-79.7904,33.37316],[-79.79497,33.37795],[-79.8008,33.37263],[-79.80827,33.37328],[-79.81386,33.38232],[-79.83582,33.39055],[-79.83811,33.39232],[-79.84022,33.39801],[-79.85477,33.40292],[-79.85499,33.40635],[-79.8608,33.40851],[-79.8613,33.41779],[-79.86778,33.41993],[-79.87157,33.42392],[-79.87752,33.42444],[-79.87867,33.42706],[-79.87763,33.42847],[-79.87162,33.4279],[-79.86854,33.42927],[-79.86704,33.43231],[-79.86822,33.43448],[-79.87632,33.43531],[-79.88015,33.44282],[-79.89004,33.44856],[-79.89415,33.45365],[-79.89957,33.45452],[-79.90141,33.45014],[-79.90312,33.45043],[-79.90214,33.45535],[-79.91023,33.45571],[-79.91539,33.46418],[-79.9279,33.4704],[-79.93477,33.47773],[-79.94011,33.47573],[-79.94115,33.48083],[-79.95157,33.48691],[-79.95293,33.49137],[-79.96089,33.49445],[-79.96456,33.49864],[-79.97196,33.50094],[-79.97548,33.49762],[-79.98224,33.49967],[-79.98626,33.49792],[-79.98979,33.4983],[-79.99186,33.5046],[-79.99623,33.50684],[-80.00036,33.50559],[-79.9969,33.49922],[-80.00014,33.49483],[-80.00189,33.49472],[-80.00445,33.49573],[-80.00364,33.50017],[-80.00536,33.50254],[-80.01396,33.5051],[-80.01661,33.50017],[-80.02048,33.49842],[-80.02056,33.50218],[-80.02526,33.50644],[-80.02936,33.50151],[-80.03172,33.50091],[-80.03326,33.50571],[-80.03656,33.50683],[-80.03997,33.50173],[-80.04248,33.50095],[-80.04865,33.50637],[-80.07989,33.50687],[-80.08217,33.50573],[-80.08466,33.49998],[-80.09383,33.50297],[-80.09306,33.49889],[-80.09587,33.49545],[-80.09594,33.49961],[-80.10442,33.49705],[-80.10668,33.49987],[-80.11312,33.49878],[-80.12555,33.50244],[-80.12764,33.50017],[-80.126,33.49509],[-80.12728,33.49327],[-80.13365,33.49286],[-80.13653,33.48818],[-80.1441,33.48439],[-80.14925,33.48684],[-80.15208,33.48542],[-80.15083,33.48304],[-80.15204,33.47857],[-80.14822,33.47402],[-80.13201,33.46399],[-80.13304,33.461],[-80.13512,33.46108],[-80.13875,33.46506],[-80.14424,33.46411],[-80.14342,33.46098],[-80.1384,33.45871],[-80.13877,33.45417],[-80.14195,33.45468],[-80.14416,33.45835],[-80.15067,33.46026],[-80.15216,33.45937],[-80.15187,33.45691],[-80.14861,33.45518],[-80.14831,33.44987],[-80.15072,33.44818],[-80.16115,33.44879],[-80.15854,33.45703],[-80.16273,33.4607],[-80.16482,33.45896],[-80.16582,33.45404],[-80.17056,33.44974],[-80.17568,33.44861],[-80.17719,33.45313],[-80.18102,33.45463],[-80.18314,33.45253],[-80.18166,33.44849],[-80.18353,33.44792],[-80.18679,33.45052],[-80.19752,33.44364],[-80.19985,33.44391],[-80.20014,33.44583],[-80.19769,33.44892],[-80.1981,33.45158],[-80.20054,33.45293],[-80.20816,33.45229],[-80.20691,33.44694],[-80.20372,33.44397],[-80.20402,33.44187],[-80.21414,33.4443],[-80.21896,33.44772],[-80.22236,33.44776],[-80.22148,33.43458],[-80.22473,33.42548],[-80.22384,33.41505],[-80.2252,33.40934],[-80.22189,33.40454],[-80.22257,33.39129],[-80.22988,33.39158],[-80.23024,33.3841],[-80.2324,33.38412],[-80.23846,33.39115],[-80.24156,33.38308],[-80.24179,33.37605],[-80.23907,33.36284],[-80.23962,33.3522],[-80.2479,33.33816],[-80.24729,33.32869],[-80.2525,33.31958],[-80.25201,33.31031],[-80.25384,33.29926],[-80.25564,33.3],[-80.26351,33.29232],[-80.2702,33.29043],[-80.2726,33.28573],[-80.28927,33.27911],[-80.29448,33.27126],[-80.30194,33.26746],[-80.3172,33.26412],[-80.33766,33.27587],[-80.34893,33.27802],[-80.35735,33.27478],[-80.3613,33.26308]]]}},{"type":"Feature","id":"SC:326:45019","properties":{"destinationId":"326","locality":"Charleston","definition":"Charleston / Berkeley / Dorchester","state":"SC","stateName":"South Carolina","county":"Charleston County","countyGeoid":"45019","countyGeoids":["45015","45019","45035"],"coverage":"complete-counties","sourceType":"gsa_county_defined_rate_area"},"geometry":{"type":"MultiPolygon","coordinates":[[[[-79.50795,33.02008],[-79.50311,33.01756],[-79.50097,33.01819],[-79.50237,33.02058],[-79.50795,33.02008]]],[[[-79.55361,32.99039],[-79.55218,32.98879],[-79.54522,32.99072],[-79.54873,32.99298],[-79.55361,32.99039]]],[[[-80.18632,32.55302],[-80.18205,32.54722],[-80.17715,32.54826],[-80.18449,32.55358],[-80.18632,32.55302]]],[[[-80.45355,32.7405],[-80.44715,32.72838],[-80.43128,32.72258],[-80.42956,32.72039],[-80.43033,32.71838],[-80.43514,32.71614],[-80.43541,32.71313],[-80.43082,32.71216],[-80.42609,32.71589],[-80.42278,32.71459],[-80.42345,32.71022],[-80.41589,32.69474],[-80.41787,32.69139],[-80.42266,32.68847],[-80.41787,32.68069],[-80.42096,32.67395],[-80.42091,32.67006],[-80.40492,32.65241],[-80.401,32.65196],[-80.39134,32.65523],[-80.38901,32.65228],[-80.39145,32.64717],[-80.39583,32.64596],[-80.40236,32.63952],[-80.40551,32.62889],[-80.40754,32.62708],[-80.42265,32.62736],[-80.42732,32.62518],[-80.42804,32.62246],[-80.42467,32.60813],[-80.42041,32.6042],[-80.41625,32.60571],[-80.40323,32.6168],[-80.39914,32.61826],[-80.39157,32.61936],[-80.38719,32.61513],[-80.38811,32.60941],[-80.39546,32.59817],[-80.3972,32.59186],[-80.38914,32.57384],[-80.39368,32.5633],[-80.39571,32.5617],[-80.40627,32.55988],[-80.4123,32.55686],[-80.41528,32.55197],[-80.41488,32.54648],[-80.4077,32.54148],[-80.38148,32.53023],[-80.36805,32.51876],[-80.3513,32.49866],[-80.33682,32.4932],[-80.32675,32.49308],[-80.32402,32.50017],[-80.32465,32.50373],[-80.3303,32.50658],[-80.33378,32.51306],[-80.34999,32.51874],[-80.34766,32.52176],[-80.34835,32.52535],[-80.33868,32.52312],[-80.33594,32.52396],[-80.33729,32.52613],[-80.33541,32.52658],[-80.33025,32.52233],[-80.32797,32.52396],[-80.3229,32.52368],[-80.32071,32.52232],[-80.32027,32.51958],[-80.31863,32.51996],[-80.32036,32.5131],[-80.31818,32.51128],[-80.3103,32.51377],[-80.29099,32.52733],[-80.28478,32.52964],[-80.27752,32.52362],[-80.27184,32.52628],[-80.27164,32.52842],[-80.269,32.52681],[-80.26512,32.52824],[-80.26564,32.53146],[-80.2636,32.53337],[-80.26021,32.5329],[-80.26077,32.53651],[-80.25555,32.5361],[-80.25642,32.53226],[-80.25441,32.5321],[-80.23678,32.54232],[-80.19498,32.56003],[-80.16655,32.56022],[-80.15568,32.57198],[-80.14541,32.57813],[-80.12137,32.59052],[-80.09807,32.59828],[-80.03728,32.61024],[-80.01696,32.6104],[-80.00603,32.60599],[-80.0008,32.60589],[-79.99224,32.611],[-79.98692,32.62639],[-79.98,32.63242],[-79.9743,32.64102],[-79.97002,32.64052],[-79.91568,32.66492],[-79.88558,32.68487],[-79.88802,32.68765],[-79.88709,32.70195],[-79.88006,32.71605],[-79.87015,32.73],[-79.86936,32.73364],[-79.87093,32.74243],[-79.87911,32.75083],[-79.89087,32.75103],[-79.89634,32.74954],[-79.89907,32.75333],[-79.90109,32.75103],[-79.91797,32.75443],[-79.9232,32.75303],[-79.92855,32.75423],[-79.92878,32.76912],[-79.92439,32.77502],[-79.9232,32.78181],[-79.886,32.78791],[-79.87804,32.78571],[-79.86544,32.77492],[-79.86342,32.77102],[-79.86639,32.76602],[-79.86271,32.76153],[-79.8547,32.75488],[-79.8488,32.75363],[-79.82397,32.76273],[-79.81451,32.77045],[-79.81398,32.77482],[-79.80504,32.77509],[-79.78756,32.78447],[-79.75647,32.7966],[-79.73659,32.80159],[-79.72639,32.806],[-79.72071,32.81115],[-79.71807,32.81698],[-79.71988,32.8258],[-79.71012,32.83335],[-79.70379,32.83602],[-79.6993,32.8439],[-79.69812,32.85133],[-79.69338,32.85282],[-79.68124,32.86171],[-79.65593,32.87588],[-79.64666,32.87606],[-79.63115,32.88861],[-79.58106,32.90642],[-79.57809,32.91041],[-79.57461,32.92112],[-79.57409,32.93251],[-79.57577,32.9338],[-79.58009,32.93088],[-79.58315,32.93088],[-79.58571,32.92956],[-79.5859,32.92646],[-79.58981,32.92453],[-79.60753,32.92623],[-79.61772,32.94487],[-79.61761,32.95273],[-79.60622,32.96559],[-79.60662,32.97225],[-79.60102,32.97928],[-79.59866,32.97965],[-79.58659,32.99133],[-79.58072,33.00645],[-79.57111,33.01381],[-79.54532,33.02654],[-79.54132,33.02599],[-79.53497,33.02847],[-79.53215,33.03146],[-79.53211,33.03519],[-79.52522,33.03729],[-79.52245,33.03535],[-79.50692,33.03281],[-79.50407,33.02742],[-79.48873,33.01583],[-79.48933,33.01397],[-79.48327,33.00978],[-79.41636,33.01612],[-79.40729,33.01445],[-79.40442,33.01962],[-79.40065,33.01751],[-79.40108,33.01118],[-79.42148,33.01118],[-79.42314,33.01018],[-79.41652,33.00682],[-79.38,33.00939],[-79.36229,33.00909],[-79.3598,33.01965],[-79.34149,33.05382],[-79.32816,33.09041],[-79.32338,33.09258],[-79.31606,33.09923],[-79.27558,33.11677],[-79.27672,33.11791],[-79.27185,33.12339],[-79.26841,33.13031],[-79.26876,33.13604],[-79.27508,33.14116],[-79.29125,33.14656],[-79.31655,33.14614],[-79.33332,33.15578],[-79.35129,33.15352],[-79.35789,33.15933],[-79.36692,33.16227],[-79.37371,33.16649],[-79.38345,33.17516],[-79.3944,33.17804],[-79.40403,33.18378],[-79.41434,33.19901],[-79.42298,33.20277],[-79.42614,33.20568],[-79.42748,33.20978],[-79.43775,33.21524],[-79.4467,33.21346],[-79.45029,33.20733],[-79.45485,33.21009],[-79.45885,33.21035],[-79.45823,33.20922],[-79.46244,33.2075],[-79.46661,33.20918],[-79.46779,33.20654],[-79.47097,33.2104],[-79.47729,33.20887],[-79.47796,33.20302],[-79.48367,33.20381],[-79.48428,33.20139],[-79.48257,33.19835],[-79.48611,33.19504],[-79.48637,33.19237],[-79.49088,33.19372],[-79.49282,33.19182],[-79.49286,33.18792],[-79.49656,33.18515],[-79.49754,33.17698],[-79.50183,33.1781],[-79.50446,33.17705],[-79.50391,33.17295],[-79.50835,33.16788],[-79.51116,33.16792],[-79.513,33.16616],[-79.51349,33.16046],[-79.51205,33.15808],[-79.51821,33.14908],[-79.52196,33.1467],[-79.53013,33.14579],[-79.53391,33.14375],[-79.54197,33.14731],[-79.54618,33.15335],[-79.55052,33.15543],[-79.56229,33.15633],[-79.57013,33.15047],[-79.58684,33.14684],[-79.59793,33.14203],[-79.60286,33.13378],[-79.60909,33.13312],[-79.61227,33.13845],[-79.62091,33.13598],[-79.62804,33.12888],[-79.63431,33.12903],[-79.64233,33.12439],[-79.64686,33.11789],[-79.64772,33.11161],[-79.6605,33.09083],[-79.67466,33.08046],[-79.69183,33.06015],[-79.69867,33.05499],[-79.70303,33.04593],[-79.71234,33.04217],[-79.7164,33.03856],[-79.71809,33.03622],[-79.71784,33.03322],[-79.72175,33.03067],[-79.7303,33.01264],[-79.74304,33.00538],[-79.76211,32.98909],[-79.7693,32.97157],[-79.76932,32.96854],[-79.76592,32.96415],[-79.76344,32.95634],[-79.76767,32.95486],[-79.77163,32.94184],[-79.78139,32.94378],[-79.79778,32.93427],[-79.80299,32.92908],[-79.81356,32.92761],[-79.81852,32.92246],[-79.82599,32.91864],[-79.83595,32.91975],[-79.84057,32.91273],[-79.84118,32.90938],[-79.83956,32.90462],[-79.84189,32.89676],[-79.85296,32.8761],[-79.85908,32.87096],[-79.88539,32.86577],[-79.89595,32.85986],[-79.89816,32.8536],[-79.89366,32.84311],[-79.89622,32.82973],[-79.89745,32.82694],[-79.90703,32.8188],[-79.91378,32.81565],[-79.92329,32.81662],[-79.92968,32.82321],[-79.93137,32.82984],[-79.92973,32.8468],[-79.93118,32.85001],[-79.94401,32.85647],[-79.95631,32.86005],[-79.96373,32.87535],[-79.96408,32.88487],[-79.9624,32.89111],[-79.95732,32.89885],[-79.94756,32.90775],[-79.95083,32.91075],[-80.01177,32.89988],[-80.04149,32.95501],[-80.04262,32.96034],[-80.04006,32.98275],[-80.04583,32.98502],[-80.05602,32.99936],[-80.0815,32.99382],[-80.08338,32.99216],[-80.08398,32.9933],[-80.09822,32.98811],[-80.10507,32.99249],[-80.10241,32.99553],[-80.10492,32.99601],[-80.10225,32.99981],[-80.10271,33.00132],[-80.10803,32.99976],[-80.10815,33.0016],[-80.11043,33.00216],[-80.10912,33.00156],[-80.11103,32.99981],[-80.11247,33.0006],[-80.11336,32.99806],[-80.14925,33.0216],[-80.15398,33.0181],[-80.16073,33.02077],[-80.16349,33.01937],[-80.16019,33.01761],[-80.16446,33.01282],[-80.16998,33.01552],[-80.17638,33.00996],[-80.16995,33.00435],[-80.1675,33.0076],[-80.1695,33.00888],[-80.16635,33.01266],[-80.16259,33.0105],[-80.16762,33.00256],[-80.14604,32.9843],[-80.14374,32.98572],[-80.13555,32.99889],[-80.11054,32.98549],[-80.12543,32.98233],[-80.13065,32.97901],[-80.13924,32.98178],[-80.14135,32.97921],[-80.0798,32.92819],[-80.09766,32.88696],[-80.09939,32.89123],[-80.10233,32.89314],[-80.1137,32.89175],[-80.11967,32.89397],[-80.11743,32.89768],[-80.11842,32.90131],[-80.12279,32.90177],[-80.12544,32.88964],[-80.12778,32.8902],[-80.12803,32.88822],[-80.13768,32.88374],[-80.13662,32.88772],[-80.14479,32.88756],[-80.14966,32.87886],[-80.16218,32.87461],[-80.15492,32.86505],[-80.1613,32.8559],[-80.16349,32.85454],[-80.17674,32.86708],[-80.1857,32.86081],[-80.1869,32.852],[-80.18347,32.84924],[-80.18374,32.84707],[-80.1608,32.84092],[-80.15759,32.83211],[-80.15864,32.83012],[-80.15686,32.82673],[-80.15331,32.82526],[-80.14848,32.81903],[-80.14926,32.8182],[-80.15772,32.81822],[-80.2764,32.84363],[-80.30169,32.8519],[-80.31194,32.85148],[-80.40132,32.85853],[-80.39943,32.84574],[-80.39414,32.8445],[-80.39717,32.84199],[-80.39572,32.84025],[-80.3993,32.83547],[-80.40028,32.82833],[-80.4044,32.8226],[-80.40541,32.81497],[-80.40775,32.81084],[-80.41118,32.809],[-80.40992,32.80654],[-80.41251,32.80682],[-80.41171,32.80888],[-80.41409,32.80884],[-80.41475,32.80256],[-80.41828,32.80514],[-80.41829,32.80248],[-80.42108,32.79838],[-80.42616,32.79793],[-80.43099,32.79161],[-80.43581,32.78819],[-80.43223,32.78326],[-80.43293,32.77848],[-80.43848,32.77274],[-80.43658,32.77022],[-80.43931,32.76588],[-80.44522,32.76535],[-80.44749,32.76271],[-80.44958,32.75725],[-80.44794,32.74844],[-80.45355,32.7405]]]]}},{"type":"Feature","id":"SC:326:45035","properties":{"destinationId":"326","locality":"Charleston","definition":"Charleston / Berkeley / Dorchester","state":"SC","stateName":"South Carolina","county":"Dorchester County","countyGeoid":"45035","countyGeoids":["45015","45019","45035"],"coverage":"complete-counties","sourceType":"gsa_county_defined_rate_area"},"geometry":{"type":"Polygon","coordinates":[[[-80.78992,33.17943],[-80.79197,33.17617],[-80.78821,33.17686],[-80.78676,33.1751],[-80.78254,33.17464],[-80.77908,33.17677],[-80.77671,33.17521],[-80.7765,33.17305],[-80.77377,33.17351],[-80.772,33.17156],[-80.76702,33.17239],[-80.765,33.17461],[-80.76217,33.17034],[-80.76004,33.17218],[-80.75729,33.17163],[-80.75868,33.17467],[-80.75042,33.17268],[-80.74611,33.17454],[-80.74556,33.17337],[-80.7475,33.17222],[-80.74374,33.16819],[-80.73445,33.17005],[-80.72088,33.16126],[-80.71739,33.15958],[-80.71546,33.16052],[-80.71257,33.15381],[-80.71071,33.15345],[-80.71126,33.15569],[-80.70974,33.15647],[-80.70306,33.15248],[-80.70617,33.1499],[-80.70527,33.14701],[-80.70301,33.1444],[-80.69908,33.14405],[-80.69993,33.14268],[-80.69451,33.14076],[-80.69326,33.13743],[-80.69165,33.13752],[-80.69157,33.13443],[-80.6935,33.13237],[-80.68939,33.13024],[-80.69304,33.1287],[-80.68944,33.1287],[-80.68509,33.12378],[-80.68117,33.12445],[-80.67861,33.12159],[-80.67991,33.12044],[-80.67771,33.11854],[-80.67825,33.11565],[-80.6721,33.11318],[-80.67404,33.10981],[-80.67357,33.10802],[-80.67109,33.10768],[-80.6718,33.10568],[-80.67044,33.10355],[-80.66508,33.09945],[-80.65961,33.0976],[-80.66135,33.09459],[-80.65798,33.09226],[-80.65322,33.09317],[-80.64693,33.08554],[-80.64378,33.08581],[-80.64076,33.08297],[-80.64019,33.08068],[-80.63586,33.08082],[-80.63219,33.0777],[-80.63238,33.07628],[-80.62726,33.07593],[-80.62941,33.07277],[-80.62773,33.06952],[-80.62368,33.06924],[-80.62381,33.06693],[-80.6181,33.06475],[-80.61511,33.06521],[-80.604,33.06176],[-80.60058,33.06268],[-80.60038,33.06137],[-80.59149,33.05782],[-80.57731,33.05741],[-80.57895,33.06002],[-80.57794,33.06053],[-80.57057,33.05769],[-80.57103,33.05943],[-80.56785,33.05931],[-80.56801,33.06037],[-80.55878,33.05982],[-80.5534,33.06206],[-80.55304,33.05931],[-80.55054,33.05821],[-80.54461,33.06197],[-80.54752,33.06275],[-80.54744,33.06575],[-80.54605,33.06614],[-80.54436,33.06383],[-80.54382,33.06603],[-80.54227,33.06621],[-80.54023,33.06431],[-80.53783,33.066],[-80.53976,33.06813],[-80.53808,33.06992],[-80.53644,33.06852],[-80.53223,33.06972],[-80.52731,33.06631],[-80.52834,33.06339],[-80.52606,33.06118],[-80.52038,33.06204],[-80.5162,33.06082],[-80.51482,33.05846],[-80.50968,33.05726],[-80.50641,33.0588],[-80.50396,33.0577],[-80.49459,33.05967],[-80.49383,33.06059],[-80.49614,33.06102],[-80.49683,33.06317],[-80.49117,33.06379],[-80.48959,33.06198],[-80.48613,33.0627],[-80.48056,33.06155],[-80.48053,33.05986],[-80.47675,33.06114],[-80.47541,33.05995],[-80.47479,33.06439],[-80.46151,33.06229],[-80.45958,33.06374],[-80.45811,33.06066],[-80.45571,33.06128],[-80.45552,33.05899],[-80.45174,33.06023],[-80.45207,33.0622],[-80.44788,33.0581],[-80.44891,33.05455],[-80.44458,33.05578],[-80.4408,33.05327],[-80.4423,33.05173],[-80.43955,33.04889],[-80.43738,33.05322],[-80.43174,33.05143],[-80.4259,33.05281],[-80.42475,33.05148],[-80.42263,33.05476],[-80.41202,33.0466],[-80.40427,33.04944],[-80.40312,33.05308],[-80.4007,33.05278],[-80.38969,33.04299],[-80.38782,33.03284],[-80.39557,33.02437],[-80.40648,33.01901],[-80.40692,33.01035],[-80.4036,33.00962],[-80.4038,33.0084],[-80.40785,33.00458],[-80.40709,33.00017],[-80.40585,32.99984],[-80.41079,32.99352],[-80.40927,32.98997],[-80.40976,32.98756],[-80.41231,32.98603],[-80.40946,32.98618],[-80.4087,32.9846],[-80.41427,32.98417],[-80.41367,32.97906],[-80.41865,32.97535],[-80.41791,32.9713],[-80.41623,32.97098],[-80.4152,32.9732],[-80.41368,32.9715],[-80.41881,32.96726],[-80.41142,32.95768],[-80.4092,32.95814],[-80.41012,32.95567],[-80.40764,32.95271],[-80.40621,32.95377],[-80.40772,32.95529],[-80.40522,32.95513],[-80.4047,32.95042],[-80.40733,32.94605],[-80.4052,32.94529],[-80.40261,32.94699],[-80.40279,32.9414],[-80.40045,32.94031],[-80.3994,32.93604],[-80.40063,32.9333],[-80.39836,32.9269],[-80.40171,32.91738],[-80.40565,32.91454],[-80.40645,32.91023],[-80.4021,32.90774],[-80.4018,32.90448],[-80.40001,32.9032],[-80.40123,32.90034],[-80.39726,32.90077],[-80.39526,32.89713],[-80.39746,32.89385],[-80.39292,32.89415],[-80.39289,32.89596],[-80.39148,32.8946],[-80.39308,32.89233],[-80.39116,32.89211],[-80.38949,32.88853],[-80.38718,32.88837],[-80.38534,32.88612],[-80.38728,32.88458],[-80.39329,32.88528],[-80.39338,32.88267],[-80.3962,32.88305],[-80.39443,32.87968],[-80.39886,32.87779],[-80.39923,32.87321],[-80.40326,32.86964],[-80.40263,32.86587],[-80.3993,32.86445],[-80.40132,32.85853],[-80.31194,32.85148],[-80.30169,32.8519],[-80.2764,32.84363],[-80.15772,32.81822],[-80.14926,32.8182],[-80.14848,32.81903],[-80.15331,32.82526],[-80.15686,32.82673],[-80.15864,32.83012],[-80.15759,32.83211],[-80.1608,32.84092],[-80.18374,32.84707],[-80.18347,32.84924],[-80.1869,32.852],[-80.1857,32.86081],[-80.17674,32.86708],[-80.16349,32.85454],[-80.1613,32.8559],[-80.15492,32.86505],[-80.16218,32.87461],[-80.14966,32.87886],[-80.14479,32.88756],[-80.13662,32.88772],[-80.13768,32.88374],[-80.12803,32.88822],[-80.12778,32.8902],[-80.12544,32.88964],[-80.12279,32.90177],[-80.11842,32.90131],[-80.11743,32.89768],[-80.11967,32.89397],[-80.1137,32.89175],[-80.10233,32.89314],[-80.09939,32.89123],[-80.09766,32.88696],[-80.0798,32.92819],[-80.14135,32.97921],[-80.13924,32.98178],[-80.13065,32.97901],[-80.12543,32.98233],[-80.11054,32.98549],[-80.13555,32.99889],[-80.14374,32.98572],[-80.14604,32.9843],[-80.16762,33.00256],[-80.16259,33.0105],[-80.16635,33.01266],[-80.1695,33.00888],[-80.1675,33.0076],[-80.16995,33.00435],[-80.17638,33.00996],[-80.16998,33.01552],[-80.16446,33.01282],[-80.16019,33.01761],[-80.16349,33.01937],[-80.16073,33.02077],[-80.15398,33.0181],[-80.14925,33.0216],[-80.33594,33.14546],[-80.31815,33.1549],[-80.31763,33.15705],[-80.31303,33.15925],[-80.31096,33.15836],[-80.30739,33.16534],[-80.30311,33.16972],[-80.3018,33.17423],[-80.29635,33.17945],[-80.3027,33.18537],[-80.30853,33.18784],[-80.3088,33.19043],[-80.32469,33.19852],[-80.33082,33.19842],[-80.33646,33.21538],[-80.3354,33.22449],[-80.3375,33.22834],[-80.34334,33.2316],[-80.34339,33.23345],[-80.34686,33.23609],[-80.34868,33.24192],[-80.34721,33.24525],[-80.34841,33.24892],[-80.35189,33.24957],[-80.35825,33.25552],[-80.3643,33.25856],[-80.38197,33.26101],[-80.39187,33.26456],[-80.42709,33.25776],[-80.44116,33.2624],[-80.45168,33.27066],[-80.46228,33.27067],[-80.47561,33.27485],[-80.48458,33.28003],[-80.49396,33.29754],[-80.49534,33.30497],[-80.49388,33.31579],[-80.49467,33.32381],[-80.49847,33.33057],[-80.50279,33.3345],[-80.7903,33.18084],[-80.78992,33.17943]]]}},{"type":"Feature","id":"SC:327:45063","properties":{"destinationId":"327","locality":"Columbia","definition":"Richland / Lexington","state":"SC","stateName":"South Carolina","county":"Lexington County","countyGeoid":"45063","countyGeoids":["45063","45079"],"coverage":"complete-counties","sourceType":"gsa_county_defined_rate_area"},"geometry":{"type":"Polygon","coordinates":[[[-81.57131,33.87746],[-81.566,33.86736],[-81.56107,33.86281],[-81.5464,33.85858],[-81.54672,33.85688],[-81.5407,33.85183],[-81.54234,33.84664],[-81.53902,33.84513],[-81.53679,33.83833],[-81.5345,33.83783],[-81.53167,33.8309],[-81.52576,33.82871],[-81.52565,33.82663],[-81.52363,33.82709],[-81.51972,33.82384],[-81.51802,33.81782],[-81.5149,33.81651],[-81.5153,33.81352],[-81.50612,33.81129],[-81.50493,33.80805],[-81.49336,33.80954],[-81.48955,33.80465],[-81.48693,33.80488],[-81.48395,33.80177],[-81.47714,33.80154],[-81.47633,33.79884],[-81.47152,33.79958],[-81.46056,33.79725],[-81.45144,33.78989],[-81.44263,33.77918],[-81.43574,33.77567],[-81.43108,33.76608],[-81.43158,33.75676],[-81.42568,33.74806],[-81.42672,33.74311],[-81.41814,33.73447],[-81.41583,33.73415],[-81.41517,33.73212],[-81.41168,33.73068],[-81.4034,33.7322],[-81.39328,33.72678],[-81.3813,33.7252],[-81.3762,33.72485],[-81.36653,33.72867],[-81.36451,33.7281],[-81.35742,33.72296],[-81.33953,33.71924],[-81.33096,33.7152],[-81.32919,33.71577],[-81.32393,33.71146],[-81.31075,33.70846],[-81.30654,33.70423],[-81.30286,33.70467],[-81.30047,33.69987],[-81.29258,33.69666],[-81.29052,33.69424],[-81.28594,33.69305],[-81.27732,33.6963],[-81.27006,33.69389],[-81.2699,33.69161],[-81.26555,33.68712],[-81.25724,33.68543],[-81.25173,33.68162],[-81.24576,33.68034],[-81.24012,33.67615],[-81.23602,33.67515],[-81.23461,33.67286],[-81.23338,33.67358],[-81.23087,33.67006],[-81.22249,33.66854],[-81.21803,33.66414],[-81.21293,33.66167],[-81.21169,33.66293],[-81.20761,33.65885],[-81.19957,33.65917],[-81.19666,33.65714],[-81.19079,33.65625],[-81.18727,33.65294],[-81.0868,33.69532],[-81.04226,33.70729],[-81.01944,33.71993],[-80.99923,33.72656],[-80.99152,33.73214],[-80.97847,33.73048],[-80.96731,33.73624],[-80.95574,33.73782],[-80.9456,33.7493],[-80.94026,33.75242],[-80.9246,33.75694],[-80.92649,33.75687],[-80.93361,33.76481],[-80.93995,33.76913],[-80.9504,33.77206],[-80.95493,33.77604],[-80.96189,33.77899],[-80.967,33.77718],[-81.014,33.78124],[-81.01444,33.77502],[-81.0226,33.77319],[-81.02348,33.76347],[-81.03287,33.76406],[-81.03612,33.74521],[-81.05852,33.74705],[-81.06049,33.76255],[-81.05921,33.77081],[-81.04752,33.78942],[-81.0461,33.80462],[-81.03835,33.84431],[-81.0416,33.85884],[-81.0379,33.87087],[-81.01233,33.88008],[-81.01833,33.88216],[-81.02142,33.88807],[-81.01865,33.89561],[-81.011,33.89813],[-81.00875,33.9041],[-81.01181,33.90707],[-81.02603,33.91036],[-81.03014,33.91365],[-81.02921,33.91645],[-81.01941,33.92116],[-81.01721,33.92586],[-81.01701,33.93086],[-81.03851,33.96807],[-81.04583,33.97664],[-81.04645,33.98803],[-81.05086,33.99578],[-81.05468,34.00079],[-81.06492,34.00861],[-81.06762,34.00895],[-81.07301,34.00646],[-81.08104,34.01153],[-81.08961,34.01341],[-81.09747,34.01773],[-81.09948,34.02338],[-81.10329,34.02349],[-81.11631,34.04521],[-81.13204,34.06232],[-81.1484,34.07494],[-81.1659,34.0854],[-81.17285,34.08755],[-81.1729,34.09045],[-81.18057,34.09054],[-81.20603,34.09807],[-81.23343,34.10177],[-81.25806,34.10193],[-81.27584,34.09738],[-81.28831,34.11753],[-81.29102,34.11716],[-81.31504,34.14614],[-81.31164,34.15446],[-81.30227,34.16239],[-81.31446,34.18691],[-81.31903,34.18565],[-81.32125,34.1887],[-81.3294,34.19042],[-81.32968,34.19325],[-81.33723,34.19528],[-81.33896,34.19759],[-81.35235,34.19669],[-81.36015,34.18906],[-81.37477,34.17901],[-81.38695,34.17625],[-81.40383,34.17766],[-81.43717,34.12996],[-81.4322,34.12125],[-81.42695,34.11736],[-81.42091,34.11549],[-81.42216,34.11001],[-81.41708,34.10981],[-81.41651,34.10707],[-81.41298,34.10636],[-81.41321,34.10425],[-81.40899,34.09882],[-81.40325,34.0979],[-81.40368,34.09422],[-81.39701,34.08598],[-81.38823,34.07935],[-81.39014,34.07526],[-81.39408,34.07154],[-81.40282,34.07084],[-81.40444,34.07246],[-81.41473,34.07419],[-81.42492,34.08295],[-81.43042,34.08328],[-81.44487,34.07767],[-81.4655,34.08731],[-81.57131,33.87746]]]}},{"type":"Feature","id":"SC:327:45079","properties":{"destinationId":"327","locality":"Columbia","definition":"Richland / Lexington","state":"SC","stateName":"South Carolina","county":"Richland County","countyGeoid":"45079","countyGeoids":["45063","45079"],"coverage":"complete-counties","sourceType":"gsa_county_defined_rate_area"},"geometry":{"type":"Polygon","coordinates":[[[-81.34533,34.20503],[-81.33723,34.19528],[-81.32968,34.19325],[-81.3294,34.19042],[-81.32125,34.1887],[-81.31903,34.18565],[-81.31446,34.18691],[-81.30227,34.16239],[-81.31164,34.15446],[-81.31504,34.14614],[-81.29102,34.11716],[-81.28831,34.11753],[-81.27584,34.09738],[-81.25806,34.10193],[-81.23343,34.10177],[-81.20603,34.09807],[-81.18057,34.09054],[-81.1729,34.09045],[-81.17285,34.08755],[-81.1659,34.0854],[-81.1484,34.07494],[-81.13204,34.06232],[-81.11631,34.04521],[-81.10329,34.02349],[-81.09948,34.02338],[-81.09747,34.01773],[-81.08961,34.01341],[-81.08104,34.01153],[-81.07301,34.00646],[-81.06762,34.00895],[-81.06492,34.00861],[-81.05468,34.00079],[-81.04645,33.98803],[-81.04583,33.97664],[-81.03851,33.96807],[-81.01701,33.93086],[-81.01721,33.92586],[-81.01941,33.92116],[-81.02921,33.91645],[-81.03014,33.91365],[-81.02603,33.91036],[-81.01181,33.90707],[-81.00875,33.9041],[-81.011,33.89813],[-81.01739,33.89655],[-81.02011,33.8933],[-81.02071,33.88466],[-81.01556,33.8808],[-81.00017,33.87844],[-80.99817,33.87679],[-80.99672,33.87077],[-81.00208,33.86306],[-80.99978,33.8606],[-80.98622,33.85746],[-80.98593,33.85564],[-80.98996,33.85168],[-80.98828,33.8498],[-80.97299,33.84699],[-80.96595,33.84785],[-80.95374,33.8427],[-80.94705,33.83739],[-80.94058,33.82848],[-80.93619,33.82639],[-80.92636,33.82657],[-80.92303,33.82888],[-80.92313,33.833],[-80.92049,33.83485],[-80.91532,33.83392],[-80.9131,33.83293],[-80.91173,33.82988],[-80.91598,33.82491],[-80.91696,33.82098],[-80.91731,33.81374],[-80.91556,33.81142],[-80.89854,33.80877],[-80.88219,33.81508],[-80.87481,33.81549],[-80.86766,33.81006],[-80.86576,33.80272],[-80.85783,33.80157],[-80.83747,33.79391],[-80.83346,33.78551],[-80.82958,33.78491],[-80.82255,33.787],[-80.82445,33.78179],[-80.82926,33.77819],[-80.82799,33.77621],[-80.8219,33.77439],[-80.81569,33.78107],[-80.81125,33.77975],[-80.80759,33.77421],[-80.79335,33.76952],[-80.78297,33.7689],[-80.78301,33.76516],[-80.78614,33.76272],[-80.78486,33.76101],[-80.77935,33.76171],[-80.77177,33.7719],[-80.76795,33.77136],[-80.76784,33.76715],[-80.76634,33.76682],[-80.75973,33.774],[-80.75751,33.77308],[-80.75618,33.76482],[-80.74981,33.7646],[-80.74734,33.76174],[-80.74486,33.76401],[-80.75157,33.77056],[-80.74798,33.77581],[-80.74503,33.77643],[-80.74159,33.77386],[-80.74068,33.76884],[-80.73634,33.76742],[-80.7359,33.7655],[-80.74046,33.75909],[-80.73846,33.75639],[-80.73386,33.75998],[-80.728,33.76182],[-80.72685,33.76828],[-80.72254,33.76735],[-80.72141,33.76404],[-80.71537,33.76049],[-80.71331,33.76602],[-80.71372,33.77026],[-80.71234,33.77123],[-80.70439,33.76649],[-80.70539,33.75979],[-80.69971,33.75698],[-80.69169,33.75684],[-80.6874,33.76109],[-80.68598,33.76064],[-80.68762,33.75683],[-80.68659,33.75599],[-80.67922,33.76251],[-80.6751,33.76198],[-80.67179,33.76648],[-80.65905,33.77299],[-80.65468,33.77351],[-80.65174,33.76998],[-80.65626,33.76572],[-80.6564,33.7614],[-80.64954,33.75775],[-80.6458,33.7532],[-80.64057,33.75155],[-80.64041,33.74755],[-80.63278,33.74367],[-80.62275,33.74565],[-80.61866,33.74359],[-80.62013,33.74788],[-80.61465,33.74758],[-80.61616,33.75097],[-80.6111,33.7515],[-80.609,33.7541],[-80.61181,33.75545],[-80.60497,33.75848],[-80.60731,33.75906],[-80.60884,33.76194],[-80.6037,33.76271],[-80.60628,33.76741],[-80.60201,33.76741],[-80.60155,33.76872],[-80.60568,33.77177],[-80.59771,33.77751],[-80.60298,33.78532],[-80.60141,33.78648],[-80.59976,33.78461],[-80.5962,33.78643],[-80.59752,33.78846],[-80.60126,33.7884],[-80.60053,33.79179],[-80.60376,33.79306],[-80.60173,33.79457],[-80.60034,33.79918],[-80.60419,33.80044],[-80.60538,33.80475],[-80.59878,33.80338],[-80.59829,33.80448],[-80.60208,33.80724],[-80.60309,33.81093],[-80.60642,33.80869],[-80.60749,33.81112],[-80.60914,33.80982],[-80.61568,33.81451],[-80.61745,33.82109],[-80.61613,33.82278],[-80.61681,33.82689],[-80.6192,33.8281],[-80.62029,33.83103],[-80.61698,33.83222],[-80.61638,33.83494],[-80.619,33.83651],[-80.61907,33.83931],[-80.62797,33.84266],[-80.62749,33.84473],[-80.63097,33.84736],[-80.63354,33.85268],[-80.63158,33.85241],[-80.63035,33.85414],[-80.63077,33.8572],[-80.6276,33.86114],[-80.62481,33.85945],[-80.62296,33.86041],[-80.62532,33.86962],[-80.6229,33.87249],[-80.62355,33.87722],[-80.61959,33.87873],[-80.625,33.8808],[-80.62164,33.88051],[-80.62079,33.88249],[-80.62362,33.88424],[-80.62586,33.88879],[-80.62556,33.89351],[-80.62041,33.88865],[-80.61504,33.89189],[-80.61703,33.89552],[-80.62145,33.89512],[-80.62574,33.89854],[-80.62451,33.9055],[-80.63409,33.91733],[-80.63078,33.92166],[-80.63236,33.92511],[-80.6262,33.9299],[-80.63057,33.9337],[-80.62481,33.93485],[-80.62153,33.93376],[-80.61672,33.93643],[-80.61824,33.93868],[-80.62071,33.93593],[-80.62278,33.93665],[-80.62251,33.9391],[-80.61944,33.94128],[-80.62016,33.94239],[-80.62905,33.94178],[-80.62751,33.95035],[-80.62104,33.95246],[-80.6201,33.95382],[-80.62362,33.95604],[-80.62297,33.95749],[-80.61774,33.95725],[-80.6211,33.96062],[-80.61958,33.9632],[-80.61529,33.96242],[-80.61576,33.96547],[-80.62329,33.96827],[-80.62894,33.96471],[-80.63315,33.96655],[-80.63044,33.97577],[-80.64113,33.98332],[-80.64397,33.98912],[-80.63938,33.99068],[-80.63926,33.99341],[-80.64115,33.99636],[-80.64626,33.99683],[-80.6466,33.99901],[-80.63539,34.00145],[-80.63727,34.00761],[-80.63494,34.00797],[-80.62719,34.00301],[-80.62529,34.0037],[-80.62805,34.01189],[-80.61866,34.01668],[-80.61547,34.02446],[-80.6045,34.02362],[-80.60209,34.02535],[-80.60378,34.02745],[-80.608,34.02755],[-80.60802,34.02929],[-80.6043,34.03432],[-80.60104,34.03593],[-80.60095,34.03939],[-80.60696,34.04265],[-80.60786,34.04619],[-80.61212,34.04924],[-80.61257,34.05177],[-80.60642,34.05798],[-80.61274,34.05616],[-80.61451,34.05918],[-80.61233,34.0613],[-80.61272,34.06311],[-80.61968,34.06329],[-80.63117,34.06824],[-80.62144,34.07691],[-80.61931,34.07979],[-80.6195,34.08231],[-80.6213,34.08316],[-80.62421,34.08186],[-80.6266,34.07744],[-80.63366,34.07835],[-80.63616,34.08021],[-80.63653,34.08298],[-80.63243,34.08937],[-80.6209,34.09004],[-80.6157,34.09676],[-80.61619,34.0996],[-80.63559,34.09767],[-80.65833,34.08877],[-80.65884,34.08587],[-80.66906,34.08391],[-80.67642,34.08461],[-80.68366,34.0816],[-80.70359,34.08098],[-80.71003,34.07707],[-80.71088,34.07474],[-80.71717,34.07265],[-80.71932,34.06897],[-80.85138,34.17407],[-80.86851,34.1817],[-80.86913,34.18287],[-80.82592,34.26876],[-80.9619,34.25202],[-81.03922,34.23254],[-81.04269,34.23666],[-81.05565,34.23286],[-81.05755,34.23366],[-81.06123,34.228],[-81.06987,34.23225],[-81.07116,34.23048],[-81.07084,34.22506],[-81.07675,34.2209],[-81.07775,34.22491],[-81.0833,34.22475],[-81.08838,34.21932],[-81.09323,34.2176],[-81.09586,34.21387],[-81.1812,34.22028],[-81.1821,34.21813],[-81.18052,34.21573],[-81.17351,34.2107],[-81.17308,34.20433],[-81.16987,34.20325],[-81.16843,34.19765],[-81.16888,34.19438],[-81.17309,34.18984],[-81.17951,34.18664],[-81.17829,34.17455],[-81.20841,34.19432],[-81.21873,34.1968],[-81.22185,34.20302],[-81.22641,34.20569],[-81.25127,34.20295],[-81.25826,34.20783],[-81.26632,34.21889],[-81.27313,34.22281],[-81.27957,34.23062],[-81.2966,34.23739],[-81.31033,34.23696],[-81.31691,34.23946],[-81.32879,34.22733],[-81.34533,34.20503]]]}},{"type":"Feature","id":"SC:329:45013","properties":{"destinationId":"329","locality":"Hilton Head","definition":"Beaufort","state":"SC","stateName":"South Carolina","county":"Beaufort County","countyGeoid":"45013","countyGeoids":["45013"],"coverage":"complete-counties","sourceType":"gsa_county_defined_rate_area"},"geometry":{"type":"Polygon","coordinates":[[[-81.01611,32.24429],[-81.01603,32.24116],[-81.01245,32.23623],[-81.01432,32.23096],[-81.01237,32.21823],[-81.00756,32.21909],[-81.0069,32.21798],[-81.00961,32.21668],[-81.00902,32.21481],[-81.00615,32.21587],[-81.00658,32.21319],[-81.00996,32.21341],[-81.00596,32.21146],[-81.00395,32.20649],[-81.00055,32.20692],[-80.99824,32.2046],[-80.99614,32.2006],[-80.99758,32.19808],[-80.99423,32.19738],[-81.00014,32.19612],[-80.99044,32.19023],[-80.99381,32.18796],[-80.98846,32.1897],[-80.98693,32.19337],[-80.98518,32.18856],[-80.98005,32.19043],[-80.9785,32.18599],[-80.97659,32.18526],[-80.97109,32.18552],[-80.9689,32.1831],[-80.96479,32.18538],[-80.96239,32.18496],[-80.96207,32.18206],[-80.96858,32.18026],[-80.96932,32.17621],[-80.96572,32.17656],[-80.96182,32.17947],[-80.96022,32.17395],[-80.95411,32.17536],[-80.95208,32.17149],[-80.94859,32.16908],[-80.94842,32.16739],[-80.95762,32.16504],[-80.95051,32.16126],[-80.95033,32.15649],[-80.95435,32.14892],[-80.95096,32.14542],[-80.95302,32.14155],[-80.95954,32.14597],[-80.95943,32.15023],[-80.96102,32.15188],[-80.96494,32.15177],[-80.96896,32.14767],[-80.96931,32.14319],[-80.96725,32.14073],[-80.96421,32.13844],[-80.958,32.13773],[-80.9619,32.13325],[-80.96147,32.12622],[-80.95344,32.13156],[-80.94691,32.12885],[-80.94132,32.13733],[-80.93405,32.13507],[-80.92854,32.13858],[-80.92616,32.13614],[-80.92496,32.13108],[-80.92116,32.13005],[-80.91506,32.13484],[-80.90946,32.13474],[-80.90725,32.13101],[-80.91262,32.1276],[-80.92677,32.12404],[-80.92831,32.12141],[-80.92693,32.11945],[-80.90057,32.11162],[-80.89566,32.1077],[-80.8966,32.10254],[-80.9117,32.0854],[-80.91054,32.07992],[-80.9038,32.07689],[-80.89113,32.08141],[-80.8738,32.0823],[-80.85874,32.09958],[-80.84801,32.10889],[-80.84242,32.11784],[-80.82839,32.11322],[-80.82153,32.10859],[-80.8125,32.10975],[-80.79,32.12249],[-80.73994,32.14613],[-80.72152,32.16069],[-80.70019,32.18834],[-80.68628,32.20321],[-80.67165,32.21341],[-80.66917,32.21678],[-80.66788,32.22068],[-80.67222,32.22951],[-80.67785,32.23641],[-80.68651,32.24419],[-80.69326,32.24698],[-80.7059,32.25616],[-80.7178,32.26697],[-80.73012,32.2705],[-80.73808,32.26417],[-80.74236,32.26377],[-80.76126,32.28004],[-80.76542,32.28597],[-80.76604,32.29261],[-80.75345,32.30682],[-80.741,32.30378],[-80.73712,32.30603],[-80.73881,32.31377],[-80.73364,32.31947],[-80.72222,32.3247],[-80.7146,32.32566],[-80.70814,32.32373],[-80.69965,32.31523],[-80.69847,32.31066],[-80.68853,32.30285],[-80.67379,32.29642],[-80.66825,32.29784],[-80.64479,32.2915],[-80.64301,32.27281],[-80.64646,32.26507],[-80.64539,32.26085],[-80.63297,32.25693],[-80.62369,32.25806],[-80.61984,32.26226],[-80.60902,32.26789],[-80.60641,32.27251],[-80.58846,32.28266],[-80.58171,32.2782],[-80.58147,32.27649],[-80.57624,32.27528],[-80.54864,32.2856],[-80.54447,32.29032],[-80.53877,32.29028],[-80.50388,32.30749],[-80.49938,32.30614],[-80.47857,32.31463],[-80.4533,32.32191],[-80.45506,32.32679],[-80.46439,32.33616],[-80.46364,32.34011],[-80.45893,32.34116],[-80.454,32.33927],[-80.44421,32.35493],[-80.44014,32.36786],[-80.42929,32.38967],[-80.42922,32.40555],[-80.43556,32.41246],[-80.44075,32.41337],[-80.443,32.41127],[-80.4575,32.41026],[-80.46153,32.41289],[-80.46759,32.42526],[-80.46964,32.43376],[-80.47941,32.44575],[-80.48462,32.46098],[-80.47688,32.46791],[-80.47784,32.472],[-80.4813,32.47559],[-80.47704,32.48545],[-80.48644,32.4879],[-80.50294,32.49565],[-80.50615,32.50018],[-80.506,32.50243],[-80.51776,32.51914],[-80.52972,32.52275],[-80.53648,32.52922],[-80.54109,32.54548],[-80.5515,32.56577],[-80.5574,32.5662],[-80.55894,32.55521],[-80.56244,32.55096],[-80.56602,32.55094],[-80.56844,32.55296],[-80.56843,32.55656],[-80.5646,32.56385],[-80.56522,32.56549],[-80.56731,32.56644],[-80.57656,32.56507],[-80.58421,32.56773],[-80.58359,32.57073],[-80.57617,32.57776],[-80.57595,32.58106],[-80.57984,32.58427],[-80.58636,32.58617],[-80.59979,32.58105],[-80.60322,32.58178],[-80.60723,32.58916],[-80.60991,32.59003],[-80.61166,32.58987],[-80.61867,32.58224],[-80.62088,32.5812],[-80.62536,32.58234],[-80.63084,32.59172],[-80.64783,32.59637],[-80.65975,32.61268],[-80.66066,32.61514],[-80.65515,32.62217],[-80.6544,32.62688],[-80.65975,32.62812],[-80.66996,32.62246],[-80.67515,32.62518],[-80.67587,32.62912],[-80.67396,32.63291],[-80.66067,32.63386],[-80.65812,32.63761],[-80.66069,32.64328],[-80.66405,32.64566],[-80.67628,32.64249],[-80.68006,32.64391],[-80.68162,32.64708],[-80.68485,32.6561],[-80.68434,32.659],[-80.68053,32.66285],[-80.67106,32.66164],[-80.66885,32.66357],[-80.66814,32.66749],[-80.67115,32.67164],[-80.68588,32.67281],[-80.69004,32.66727],[-80.70333,32.66459],[-80.70512,32.66534],[-80.7065,32.67324],[-80.71558,32.67315],[-80.71835,32.6795],[-80.72162,32.68024],[-80.72853,32.67366],[-80.73059,32.67479],[-80.73341,32.6808],[-80.73924,32.6823],[-80.74059,32.67825],[-80.74489,32.67423],[-80.75317,32.67438],[-80.75973,32.67956],[-80.76325,32.67537],[-80.76562,32.67527],[-80.76778,32.67656],[-80.76595,32.67942],[-80.76863,32.68148],[-80.77266,32.67624],[-80.77782,32.68073],[-80.77618,32.68458],[-80.7783,32.68692],[-80.78086,32.68564],[-80.78126,32.68179],[-80.78382,32.68402],[-80.78726,32.68248],[-80.78884,32.68359],[-80.78684,32.68463],[-80.78748,32.68822],[-80.79025,32.68491],[-80.79221,32.68562],[-80.79069,32.68688],[-80.79245,32.68797],[-80.7947,32.68617],[-80.79656,32.68837],[-80.80003,32.68686],[-80.8025,32.69091],[-80.80788,32.68944],[-80.80924,32.69268],[-80.80735,32.69395],[-80.81,32.69433],[-80.81136,32.69743],[-80.8128,32.69713],[-80.81301,32.69503],[-80.81667,32.69625],[-80.81819,32.69848],[-80.82094,32.69624],[-80.82273,32.6969],[-80.82156,32.69893],[-80.82529,32.70003],[-80.8245,32.70277],[-80.82627,32.70425],[-80.83015,32.70364],[-80.83721,32.69982],[-80.8697,32.66094],[-80.8634,32.64621],[-80.85465,32.63609],[-80.85608,32.63476],[-80.8549,32.63335],[-80.85308,32.63481],[-80.85235,32.63222],[-80.8483,32.63255],[-80.84943,32.6302],[-80.84584,32.62513],[-80.84994,32.61652],[-80.83655,32.60884],[-80.83559,32.59928],[-80.83225,32.59636],[-80.83154,32.59339],[-80.836,32.57877],[-80.83508,32.56419],[-80.83921,32.55751],[-80.83598,32.54404],[-80.83785,32.53928],[-80.84773,32.53006],[-80.83601,32.51816],[-80.82828,32.50272],[-80.82333,32.49719],[-80.82023,32.49079],[-80.81823,32.48129],[-80.81773,32.46569],[-80.81869,32.46394],[-80.83016,32.46209],[-80.83393,32.45689],[-80.84773,32.42899],[-80.8502,32.41631],[-80.84797,32.41164],[-80.84514,32.41117],[-80.83765,32.41504],[-80.82924,32.41147],[-80.84233,32.39469],[-80.84097,32.38744],[-80.84194,32.3849],[-80.84785,32.38394],[-80.85056,32.37936],[-80.8588,32.3797],[-80.85941,32.37727],[-80.86134,32.37643],[-80.86151,32.37351],[-80.87372,32.36906],[-80.86849,32.36373],[-80.87434,32.35922],[-80.87759,32.3459],[-80.89088,32.34754],[-80.89205,32.35373],[-80.91058,32.35424],[-80.92446,32.35029],[-80.92791,32.3431],[-80.92878,32.3313],[-80.93412,32.32115],[-80.93494,32.30011],[-80.98167,32.30587],[-81.00637,32.30652],[-81.00443,32.3008],[-80.99866,32.29804],[-80.99421,32.29056],[-80.99754,32.28133],[-80.99668,32.27718],[-80.99246,32.27272],[-80.99168,32.26755],[-80.99413,32.26752],[-80.99565,32.262],[-81.00492,32.2507],[-81.01039,32.24984],[-81.01611,32.24429]]]}},{"type":"Feature","id":"SC:330:45051","properties":{"destinationId":"330","locality":"Myrtle Beach","definition":"Horry","state":"SC","stateName":"South Carolina","county":"Horry County","countyGeoid":"45051","countyGeoids":["45051"],"coverage":"complete-counties","sourceType":"gsa_county_defined_rate_area"},"geometry":{"type":"Polygon","coordinates":[[[-79.33884,33.97049],[-79.33862,33.96862],[-79.33561,33.96754],[-79.33422,33.96214],[-79.33012,33.96163],[-79.33388,33.95443],[-79.33344,33.95272],[-79.32916,33.95289],[-79.32976,33.95482],[-79.3256,33.95379],[-79.32658,33.95166],[-79.3218,33.94698],[-79.32067,33.94869],[-79.31161,33.94419],[-79.31144,33.94239],[-79.31445,33.9413],[-79.31399,33.93835],[-79.31696,33.93659],[-79.31697,33.93414],[-79.30967,33.93581],[-79.30687,33.93479],[-79.31106,33.92993],[-79.31054,33.92655],[-79.30671,33.9239],[-79.31127,33.9234],[-79.31235,33.91823],[-79.30357,33.91397],[-79.29909,33.90707],[-79.29986,33.90382],[-79.29502,33.90435],[-79.29399,33.90356],[-79.29599,33.9007],[-79.29106,33.9004],[-79.28637,33.89524],[-79.28387,33.89606],[-79.28467,33.89927],[-79.28307,33.90072],[-79.2636,33.89247],[-79.26304,33.88445],[-79.26047,33.87931],[-79.25748,33.87967],[-79.25714,33.87773],[-79.25898,33.87642],[-79.25656,33.87355],[-79.25623,33.87165],[-79.25804,33.87103],[-79.25775,33.86649],[-79.25601,33.86536],[-79.25872,33.86025],[-79.26061,33.86042],[-79.25926,33.84992],[-79.26138,33.84754],[-79.26155,33.8443],[-79.26407,33.84253],[-79.26095,33.8385],[-79.25084,33.83478],[-79.25304,33.83327],[-79.25237,33.83158],[-79.24881,33.83116],[-79.25294,33.82577],[-79.25855,33.8252],[-79.25798,33.82233],[-79.2602,33.82124],[-79.26089,33.81885],[-79.26028,33.81485],[-79.25274,33.80824],[-79.25244,33.80583],[-79.2547,33.80635],[-79.25528,33.80349],[-79.25101,33.80254],[-79.25288,33.79824],[-79.24809,33.78442],[-79.24247,33.77764],[-79.23995,33.7777],[-79.23986,33.77541],[-79.23662,33.77391],[-79.23438,33.76801],[-79.23547,33.7644],[-79.23341,33.7618],[-79.22968,33.76206],[-79.22824,33.75722],[-79.22411,33.75598],[-79.22045,33.75698],[-79.21823,33.7551],[-79.21688,33.75236],[-79.21907,33.75244],[-79.22037,33.74829],[-79.2169,33.74809],[-79.21258,33.74172],[-79.20983,33.74186],[-79.20472,33.73669],[-79.2056,33.73517],[-79.20176,33.73448],[-79.1959,33.72789],[-79.19237,33.72117],[-79.19504,33.71664],[-79.19539,33.71218],[-79.19135,33.70651],[-79.17671,33.70085],[-79.17675,33.69931],[-79.18066,33.69684],[-79.17549,33.69225],[-79.16734,33.68993],[-79.16339,33.68511],[-79.15735,33.68478],[-79.15186,33.6762],[-79.15431,33.66256],[-79.1533,33.65938],[-79.14982,33.65795],[-79.14148,33.65859],[-79.13768,33.66413],[-79.13636,33.66381],[-79.13441,33.65767],[-79.12953,33.65015],[-79.12618,33.65316],[-79.12389,33.65219],[-79.12347,33.64878],[-79.12727,33.64363],[-79.13328,33.6493],[-79.13492,33.64851],[-79.13367,33.64248],[-79.12967,33.64064],[-79.13421,33.63802],[-79.13371,33.63566],[-79.13029,33.63522],[-79.12958,33.63379],[-79.13095,33.63201],[-79.12793,33.62906],[-79.12896,33.62593],[-79.12325,33.62324],[-79.12216,33.61495],[-79.12355,33.6124],[-79.1201,33.60908],[-79.12217,33.60571],[-79.12128,33.60477],[-79.10908,33.60033],[-79.10755,33.60121],[-79.10451,33.61114],[-79.1016,33.61108],[-79.09982,33.609],[-79.09679,33.60035],[-79.09872,33.59652],[-79.09829,33.58786],[-79.10218,33.58167],[-79.10107,33.57297],[-79.0874,33.57291],[-79.08652,33.57127],[-79.01669,33.57228],[-79.01568,33.56911],[-79.01138,33.5727],[-79.00178,33.57268],[-78.93843,33.64002],[-78.91406,33.66162],[-78.8438,33.72133],[-78.79579,33.75506],[-78.73624,33.78964],[-78.6977,33.808],[-78.66793,33.81943],[-78.59171,33.84343],[-78.57819,33.84685],[-78.55464,33.84917],[-78.55377,33.85273],[-78.54732,33.85648],[-78.70277,33.98927],[-79.07126,34.29931],[-79.0779,34.29722],[-79.07696,34.29516],[-79.07831,34.29274],[-79.08607,34.29496],[-79.08822,34.29234],[-79.08681,34.2896],[-79.08968,34.28877],[-79.08819,34.28804],[-79.08863,34.28561],[-79.08642,34.28504],[-79.08849,34.28369],[-79.09183,34.28513],[-79.09373,34.27796],[-79.09583,34.27698],[-79.09679,34.27876],[-79.10024,34.27572],[-79.10049,34.27819],[-79.10554,34.27562],[-79.10576,34.27242],[-79.10998,34.27244],[-79.11141,34.26587],[-79.11736,34.26289],[-79.11568,34.26167],[-79.11766,34.25952],[-79.1202,34.25936],[-79.121,34.25505],[-79.12401,34.25768],[-79.1264,34.25727],[-79.12438,34.25402],[-79.12816,34.25365],[-79.12659,34.25171],[-79.12676,34.24828],[-79.1291,34.24686],[-79.1296,34.24402],[-79.13385,34.24276],[-79.13479,34.24102],[-79.13261,34.24006],[-79.13316,34.23795],[-79.13098,34.23853],[-79.12848,34.23555],[-79.12666,34.23614],[-79.12853,34.23473],[-79.12826,34.23074],[-79.13294,34.23318],[-79.13566,34.22913],[-79.13535,34.22275],[-79.13176,34.22267],[-79.13108,34.22126],[-79.13466,34.22085],[-79.13412,34.21533],[-79.13701,34.2141],[-79.13938,34.2157],[-79.14013,34.21387],[-79.14222,34.21391],[-79.14209,34.2092],[-79.14512,34.20613],[-79.14592,34.20867],[-79.14859,34.20691],[-79.1503,34.20888],[-79.15256,34.2067],[-79.15394,34.20721],[-79.15805,34.20045],[-79.16623,34.19506],[-79.17358,34.17953],[-79.17644,34.1803],[-79.17456,34.18406],[-79.17693,34.18479],[-79.18024,34.18136],[-79.18379,34.18102],[-79.19294,34.17506],[-79.19242,34.17126],[-79.19707,34.16853],[-79.19586,34.16537],[-79.19776,34.16249],[-79.19594,34.16109],[-79.19732,34.15869],[-79.2022,34.15676],[-79.20299,34.15317],[-79.20754,34.15484],[-79.20547,34.15085],[-79.20831,34.1506],[-79.20938,34.14882],[-79.20627,34.14165],[-79.20577,34.13297],[-79.2103,34.12726],[-79.21203,34.12725],[-79.21447,34.13059],[-79.21935,34.12619],[-79.21764,34.12549],[-79.22066,34.12203],[-79.22281,34.1131],[-79.21904,34.11242],[-79.2209,34.10774],[-79.2301,34.10882],[-79.23299,34.10254],[-79.23489,34.10236],[-79.23456,34.10078],[-79.23921,34.10048],[-79.24312,34.09752],[-79.24102,34.09432],[-79.24187,34.09274],[-79.24394,34.09322],[-79.25013,34.09037],[-79.25016,34.08864],[-79.24691,34.0871],[-79.24938,34.08506],[-79.24658,34.0811],[-79.24809,34.07945],[-79.24533,34.07801],[-79.23991,34.07849],[-79.23958,34.07675],[-79.24129,34.07581],[-79.23939,34.07336],[-79.24244,34.07249],[-79.24296,34.06796],[-79.24827,34.06644],[-79.24709,34.06551],[-79.24776,34.05708],[-79.25815,34.05406],[-79.25835,34.0495],[-79.26102,34.04863],[-79.26509,34.04398],[-79.26803,34.04604],[-79.26916,34.04408],[-79.27414,34.04405],[-79.27805,34.03957],[-79.28259,34.03975],[-79.28143,34.03638],[-79.2879,34.0349],[-79.28795,34.03306],[-79.29095,34.03448],[-79.29197,34.03341],[-79.29395,34.03572],[-79.29645,34.03337],[-79.29931,34.03398],[-79.30234,34.03222],[-79.30211,34.02918],[-79.3041,34.02961],[-79.30383,34.02794],[-79.30757,34.02768],[-79.30773,34.02599],[-79.30424,34.02283],[-79.30622,34.01917],[-79.30507,34.01655],[-79.30905,34.00817],[-79.30716,34.00593],[-79.31444,34.00062],[-79.31508,33.99651],[-79.31816,33.99709],[-79.3177,33.99957],[-79.32327,34.00016],[-79.3219,34.00229],[-79.32847,34.00016],[-79.32731,33.99819],[-79.3305,33.99739],[-79.33007,33.99566],[-79.33246,33.995],[-79.33164,33.99132],[-79.32866,33.99252],[-79.32984,33.98926],[-79.32843,33.98676],[-79.33144,33.98774],[-79.3313,33.97899],[-79.33884,33.97049]]]}}]}