{"type":"FeatureCollection","features":[{"type":"Feature","id":"SD:332:46033","properties":{"destinationId":"332","locality":"Hot Springs","definition":"Fall River / Custer","state":"SD","stateName":"South Dakota","county":"Custer County","countyGeoid":"46033","countyGeoids":["46033","46047"],"coverage":"complete-counties","sourceType":"gsa_county_defined_rate_area"},"geometry":{"type":"Polygon","coordinates":[[[-104.05542,43.85348],[-104.0548,43.47782],[-103.9362,43.47881],[-103.1524,43.47694],[-103.00091,43.47685],[-103.00102,43.60582],[-102.99607,43.60719],[-102.99325,43.61073],[-102.98951,43.61178],[-102.98485,43.61008],[-102.98147,43.61129],[-102.97913,43.61296],[-102.97915,43.61695],[-102.97678,43.61852],[-102.96358,43.6163],[-102.95829,43.61353],[-102.9467,43.61721],[-102.93747,43.617],[-102.93257,43.61871],[-102.92686,43.62614],[-102.93212,43.62908],[-102.93272,43.63092],[-102.9298,43.63642],[-102.92221,43.63998],[-102.92073,43.64344],[-102.92419,43.65068],[-102.91809,43.6566],[-102.91955,43.66122],[-102.9118,43.66326],[-102.90864,43.66624],[-102.91091,43.67385],[-102.9025,43.67489],[-102.88178,43.67085],[-102.87173,43.66698],[-102.86342,43.66886],[-102.8619,43.66745],[-102.8631,43.66266],[-102.86205,43.65965],[-102.85526,43.6582],[-102.84894,43.66002],[-102.84886,43.66409],[-102.84677,43.66535],[-102.83187,43.65698],[-102.82786,43.65744],[-102.824,43.66412],[-102.81375,43.66759],[-102.8161,43.67352],[-102.80806,43.68569],[-102.8094,43.68756],[-102.81596,43.68887],[-102.81688,43.69121],[-102.8105,43.69741],[-102.80096,43.69877],[-102.80391,43.70694],[-102.80332,43.71023],[-102.79518,43.71329],[-102.79141,43.72184],[-102.78491,43.72227],[-102.78088,43.72012],[-102.77847,43.72051],[-102.77724,43.72685],[-102.77118,43.72842],[-102.7705,43.73089],[-102.77317,43.7337],[-102.76985,43.73894],[-102.75859,43.74114],[-102.75367,43.74668],[-102.75257,43.75174],[-102.74754,43.75641],[-102.73788,43.76044],[-102.73359,43.76419],[-102.7341,43.76641],[-102.7389,43.76975],[-102.73783,43.77174],[-102.7257,43.77581],[-102.7137,43.78472],[-102.70533,43.79256],[-102.70651,43.79653],[-102.70503,43.79762],[-102.69951,43.79673],[-102.69553,43.79815],[-102.69597,43.80075],[-102.6991,43.80247],[-102.70086,43.81198],[-102.69881,43.82311],[-102.69351,43.83372],[-102.68865,43.83955],[-102.68814,43.84268],[-102.69299,43.84484],[-102.6937,43.84792],[-102.68678,43.8526],[-102.68719,43.8556],[-103.07963,43.85675],[-104.05542,43.85348]]]}},{"type":"Feature","id":"SD:332:46047","properties":{"destinationId":"332","locality":"Hot Springs","definition":"Fall River / Custer","state":"SD","stateName":"South Dakota","county":"Fall River County","countyGeoid":"46047","countyGeoids":["46033","46047"],"coverage":"complete-counties","sourceType":"gsa_county_defined_rate_area"},"geometry":{"type":"Polygon","coordinates":[[[-104.0548,43.47782],[-104.05303,43.00059],[-103.96627,43.00171],[-103.00061,43.00047],[-103.00091,43.47685],[-103.9362,43.47881],[-104.0548,43.47782]]]}},{"type":"Feature","id":"SD:333:46103","properties":{"destinationId":"333","locality":"Rapid City","definition":"Pennington","state":"SD","stateName":"South Dakota","county":"Pennington County","countyGeoid":"46103","countyGeoids":["46103"],"coverage":"complete-counties","sourceType":"gsa_county_defined_rate_area"},"geometry":{"type":"Polygon","coordinates":[[[-104.055,43.93766],[-104.05542,43.85348],[-103.37969,43.85663],[-102.68719,43.8556],[-102.68678,43.8526],[-102.6937,43.84792],[-102.69299,43.84484],[-102.68814,43.84268],[-102.68865,43.83955],[-102.69351,43.83372],[-102.69881,43.82311],[-102.70086,43.81198],[-102.6991,43.80247],[-102.69597,43.80075],[-102.69553,43.79815],[-102.69951,43.79673],[-102.70503,43.79762],[-102.70651,43.79653],[-102.70533,43.79256],[-102.7137,43.78472],[-102.7257,43.77581],[-102.73783,43.77174],[-102.7389,43.76975],[-102.7341,43.76641],[-102.73359,43.76419],[-102.73788,43.76044],[-102.74754,43.75641],[-102.75257,43.75174],[-102.75367,43.74668],[-102.75859,43.74114],[-102.76985,43.73894],[-102.77317,43.7337],[-102.7705,43.73089],[-102.77118,43.72842],[-102.77724,43.72685],[-102.77847,43.72051],[-102.78088,43.72012],[-102.78491,43.72227],[-102.79141,43.72184],[-102.79518,43.71329],[-102.80332,43.71023],[-102.80391,43.70694],[-102.80096,43.69877],[-102.8105,43.69741],[-102.81688,43.69121],[-102.81596,43.68887],[-102.8094,43.68756],[-102.17872,43.6873],[-102.1665,43.69178],[-102.16839,43.69687],[-102.15914,43.69627],[-102.1561,43.6977],[-102.15705,43.70306],[-102.15325,43.70618],[-102.1402,43.70064],[-102.12943,43.70524],[-102.12248,43.70441],[-102.12028,43.70554],[-102.1163,43.71283],[-102.11165,43.70537],[-102.10744,43.70185],[-102.10777,43.69787],[-102.11166,43.69473],[-102.11229,43.69232],[-102.10847,43.68584],[-102.09773,43.6857],[-102.0952,43.68828],[-102.09581,43.69531],[-102.07034,43.6898],[-102.05557,43.6888],[-102.05244,43.68923],[-102.04715,43.69538],[-102.04365,43.69568],[-102.0364,43.68827],[-102.03348,43.68934],[-102.03712,43.69878],[-102.03424,43.70263],[-102.02756,43.70674],[-102.02446,43.71341],[-102.01889,43.70862],[-102.01971,43.97164],[-102.01915,43.99449],[-102.00734,43.99453],[-102.00723,44.34378],[-102.00096,44.34383],[-102.00107,44.51093],[-102.01182,44.50529],[-102.03759,44.50374],[-102.03881,44.50171],[-102.04603,44.49989],[-102.04913,44.49449],[-102.05443,44.49029],[-102.05543,44.48129],[-102.06303,44.48089],[-102.07593,44.47509],[-102.07623,44.47159],[-102.07233,44.46809],[-102.07323,44.46559],[-102.08394,44.46067],[-102.08263,44.45709],[-102.08393,44.45429],[-102.09403,44.45469],[-102.09903,44.45169],[-102.10443,44.44649],[-102.10563,44.43929],[-102.10803,44.43659],[-102.11254,44.43589],[-102.13245,44.43894],[-102.1441,44.44415],[-102.15376,44.44523],[-102.15928,44.44368],[-102.15887,44.44106],[-102.15408,44.43782],[-102.15438,44.43514],[-102.16016,44.42882],[-102.18944,44.42719],[-102.19877,44.42874],[-102.19646,44.43235],[-102.19711,44.434],[-102.21094,44.44039],[-102.21818,44.44128],[-102.22242,44.44371],[-102.22033,44.45135],[-102.22611,44.45251],[-102.2546,44.44676],[-102.26779,44.44659],[-102.27496,44.45068],[-102.28003,44.45029],[-102.28288,44.44863],[-102.2844,44.44123],[-102.29237,44.43511],[-102.29338,44.43198],[-102.29881,44.43081],[-102.30622,44.43408],[-102.30615,44.42877],[-102.31093,44.42439],[-102.30312,44.42064],[-102.30564,44.40884],[-102.30255,44.40766],[-102.30184,44.40309],[-102.30274,44.39538],[-102.30536,44.39214],[-102.29818,44.38889],[-102.29855,44.38629],[-102.30252,44.38336],[-102.29851,44.37909],[-102.29828,44.37692],[-102.30605,44.37261],[-102.30554,44.36776],[-102.31169,44.36384],[-102.31459,44.36345],[-102.31794,44.36665],[-102.32291,44.36804],[-102.32638,44.36685],[-102.32676,44.36217],[-102.32326,44.36011],[-102.325,44.35786],[-102.3288,44.35785],[-102.33552,44.35184],[-102.34164,44.34877],[-102.33665,44.34396],[-102.33693,44.34251],[-102.3429,44.34025],[-102.34219,44.32896],[-102.34783,44.32635],[-102.34452,44.32347],[-102.34458,44.32112],[-102.34869,44.31817],[-102.34904,44.31243],[-102.35093,44.30974],[-102.34786,44.30628],[-102.34874,44.30365],[-102.35119,44.30201],[-102.35556,44.30292],[-102.35905,44.30075],[-102.36049,44.29821],[-102.36024,44.29333],[-102.36696,44.28561],[-102.36775,44.2775],[-102.35884,44.26566],[-102.36157,44.26274],[-102.36745,44.26276],[-102.36786,44.26118],[-102.36306,44.25869],[-102.36275,44.25509],[-102.35866,44.24894],[-102.3652,44.24457],[-102.36585,44.24236],[-102.35699,44.23056],[-102.35963,44.22772],[-102.37253,44.22177],[-102.37361,44.21937],[-102.37258,44.20941],[-102.37633,44.20732],[-102.3892,44.20621],[-102.39352,44.20297],[-102.39614,44.19605],[-102.39499,44.19364],[-102.40161,44.17559],[-102.40158,44.17282],[-102.3999,44.17191],[-102.39634,44.177],[-102.39396,44.17798],[-102.3911,44.17808],[-102.38716,44.17483],[-102.38822,44.16004],[-102.40165,44.16148],[-102.40398,44.15793],[-102.40369,44.1558],[-102.39772,44.15624],[-102.39936,44.1513],[-102.3958,44.14882],[-102.39259,44.14299],[-102.38804,44.14018],[-104.05466,44.14108],[-104.055,43.93766]]]}},{"type":"Feature","id":"SD:334:46081","properties":{"destinationId":"334","locality":"Deadwood / Spearfish","definition":"Lawrence","state":"SD","stateName":"South Dakota","county":"Lawrence County","countyGeoid":"46081","countyGeoids":["46081"],"coverage":"complete-counties","sourceType":"gsa_county_defined_rate_area"},"geometry":{"type":"Polygon","coordinates":[[[-104.0559,44.51762],[-104.05466,44.14108],[-103.45245,44.14077],[-103.45302,44.25661],[-103.5744,44.25608],[-103.57429,44.3442],[-103.56942,44.34425],[-103.56765,44.6041],[-103.82052,44.60478],[-103.82836,44.60113],[-103.82709,44.59882],[-103.82868,44.59834],[-103.82607,44.5951],[-103.827,44.59283],[-103.83621,44.59412],[-103.83803,44.59348],[-103.83394,44.59202],[-103.8339,44.58998],[-103.8349,44.58911],[-103.83723,44.59055],[-103.84292,44.58753],[-103.84491,44.59071],[-103.84739,44.5898],[-103.84977,44.59231],[-103.85217,44.5923],[-103.85417,44.5908],[-103.85292,44.58848],[-103.85498,44.59033],[-103.8584,44.58877],[-103.86365,44.58971],[-103.86338,44.58651],[-103.86752,44.58791],[-103.8668,44.58952],[-103.87063,44.5924],[-103.87147,44.59506],[-103.87438,44.59429],[-103.8741,44.59644],[-103.88841,44.59896],[-103.88809,44.59729],[-103.89249,44.59449],[-103.89479,44.59488],[-103.89342,44.597],[-103.89684,44.59737],[-103.89842,44.59647],[-103.89645,44.59544],[-103.89781,44.59415],[-103.90311,44.59482],[-103.90739,44.59277],[-103.9048,44.59273],[-103.90444,44.5903],[-103.9059,44.59058],[-103.90754,44.58708],[-103.91013,44.58694],[-103.91184,44.5892],[-103.91456,44.58838],[-103.91603,44.59],[-103.91619,44.58847],[-103.91827,44.58923],[-103.91802,44.58669],[-103.92052,44.58411],[-103.924,44.58683],[-103.92819,44.58315],[-103.93117,44.58529],[-103.93009,44.5835],[-103.93297,44.58343],[-103.93324,44.58199],[-103.93189,44.58196],[-103.93304,44.57968],[-103.93812,44.58018],[-103.94049,44.58273],[-103.94831,44.57766],[-103.94754,44.5801],[-103.95383,44.57759],[-103.95544,44.57775],[-103.95349,44.5789],[-103.95668,44.57892],[-103.9578,44.57755],[-103.9598,44.57862],[-103.95953,44.57727],[-103.96329,44.57757],[-103.96849,44.58167],[-103.96895,44.57944],[-103.97073,44.57952],[-103.97008,44.5771],[-103.97291,44.57812],[-103.97264,44.58031],[-103.97643,44.58086],[-103.97903,44.57905],[-103.97893,44.5815],[-103.98015,44.5816],[-103.98423,44.57944],[-103.98265,44.57773],[-103.98663,44.57599],[-103.9862,44.57766],[-103.99015,44.57883],[-103.99129,44.5777],[-103.98919,44.57613],[-103.999,44.57814],[-103.99994,44.575],[-104.00333,44.57354],[-104.01299,44.57577],[-104.01304,44.57865],[-104.01623,44.58029],[-104.0174,44.58],[-104.01691,44.57702],[-104.02243,44.57807],[-104.02526,44.58285],[-104.02671,44.58113],[-104.02569,44.57953],[-104.02846,44.57984],[-104.02923,44.57724],[-104.03075,44.57691],[-104.03464,44.58096],[-104.03605,44.5789],[-104.03891,44.57941],[-104.03783,44.57776],[-104.04019,44.57772],[-104.04134,44.57542],[-104.04658,44.57456],[-104.04685,44.57631],[-104.05048,44.57626],[-104.04979,44.5746],[-104.05209,44.5747],[-104.05174,44.57329],[-104.05583,44.57101],[-104.0559,44.51762]]]}}]}