{"type":"FeatureCollection","features":[{"type":"Feature","id":"TN:335:47187","properties":{"destinationId":"335","locality":"Brentwood / Franklin","definition":"Williamson","state":"TN","stateName":"Tennessee","county":"Williamson County","countyGeoid":"47187","countyGeoids":["47187"],"coverage":"complete-counties","sourceType":"gsa_county_defined_rate_area"},"geometry":{"type":"Polygon","coordinates":[[[-87.2122,35.86736],[-87.2151,35.85065],[-87.0397,35.79463],[-87.03568,35.79621],[-87.03303,35.79251],[-87.01552,35.78697],[-87.01608,35.78573],[-87.01137,35.78122],[-87.00366,35.78071],[-87.00396,35.77903],[-86.99746,35.77853],[-86.99687,35.78047],[-86.96951,35.77168],[-86.96404,35.77263],[-86.966,35.77573],[-86.96057,35.77532],[-86.96216,35.77633],[-86.96247,35.78288],[-86.95073,35.78164],[-86.95224,35.7735],[-86.9443,35.77265],[-86.94229,35.77515],[-86.94172,35.77955],[-86.92903,35.77813],[-86.93321,35.76839],[-86.93875,35.7622],[-86.92898,35.7572],[-86.8794,35.74079],[-86.85412,35.73434],[-86.84946,35.73154],[-86.84549,35.72517],[-86.84248,35.72752],[-86.8427,35.72589],[-86.84071,35.72526],[-86.81189,35.72046],[-86.81129,35.71593],[-86.80631,35.71569],[-86.80697,35.71249],[-86.79743,35.71144],[-86.79997,35.70898],[-86.7979,35.70799],[-86.78202,35.7066],[-86.78228,35.70338],[-86.77468,35.70283],[-86.77435,35.70591],[-86.77264,35.7058],[-86.77317,35.70045],[-86.76952,35.70029],[-86.76928,35.70246],[-86.76737,35.70236],[-86.76791,35.70868],[-86.7601,35.70821],[-86.76073,35.70181],[-86.75221,35.70174],[-86.75279,35.69654],[-86.75165,35.69645],[-86.75,35.70349],[-86.74676,35.70316],[-86.74661,35.70789],[-86.74164,35.70759],[-86.74338,35.70434],[-86.7407,35.70056],[-86.73435,35.69885],[-86.73293,35.70384],[-86.73119,35.7039],[-86.7311,35.70676],[-86.69692,35.70543],[-86.69554,35.71086],[-86.68619,35.71005],[-86.68592,35.71356],[-86.6891,35.71325],[-86.68856,35.71837],[-86.69928,35.71784],[-86.70026,35.72262],[-86.6969,35.75233],[-86.69288,35.75372],[-86.69237,35.75107],[-86.68181,35.75007],[-86.67814,35.76577],[-86.67509,35.76569],[-86.67515,35.76896],[-86.672,35.76888],[-86.67129,35.77174],[-86.66382,35.77098],[-86.66127,35.76743],[-86.6597,35.78136],[-86.66422,35.7829],[-86.66147,35.78635],[-86.66286,35.79093],[-86.64798,35.79044],[-86.64705,35.79556],[-86.63199,35.79542],[-86.624,35.79476],[-86.6237,35.79119],[-86.61333,35.79033],[-86.61091,35.80412],[-86.61353,35.80996],[-86.61902,35.8085],[-86.61948,35.80571],[-86.62242,35.80523],[-86.6252,35.8089],[-86.62329,35.81573],[-86.61703,35.81623],[-86.61691,35.81348],[-86.61295,35.81352],[-86.61181,35.82447],[-86.62603,35.82653],[-86.62553,35.83225],[-86.61734,35.83129],[-86.61638,35.83879],[-86.60343,35.8387],[-86.60151,35.8415],[-86.60146,35.84889],[-86.60003,35.84999],[-86.60043,35.85319],[-86.6071,35.85583],[-86.60617,35.85898],[-86.61208,35.85991],[-86.61743,35.86413],[-86.61732,35.87022],[-86.62137,35.88257],[-86.61377,35.88376],[-86.61763,35.89986],[-86.628,35.91016],[-86.61498,35.94371],[-86.62498,35.95392],[-86.622,35.96406],[-86.62504,35.96671],[-86.6189,35.96814],[-86.6186,35.97134],[-86.6277,35.97213],[-86.6274,35.97403],[-86.64829,35.97557],[-86.68189,35.9894],[-86.68771,35.99534],[-86.69232,35.99475],[-86.7129,36.00812],[-86.73207,36.00987],[-86.77713,36.03324],[-86.78308,36.03489],[-86.9286,36.05291],[-87.02834,35.98986],[-87.03922,35.98929],[-87.05372,36.04558],[-87.08492,36.0438],[-87.18257,36.04973],[-87.19427,35.98989],[-87.19198,35.98969],[-87.19254,35.98532],[-87.19675,35.98558],[-87.19741,35.97997],[-87.19051,35.97918],[-87.19083,35.97588],[-87.19944,35.97564],[-87.1998,35.97169],[-87.20977,35.97198],[-87.21199,35.97008],[-87.21073,35.96793],[-87.2085,35.96792],[-87.20899,35.96272],[-87.20393,35.96232],[-87.20566,35.94097],[-87.20143,35.94058],[-87.2122,35.86736]]]}},{"type":"Feature","id":"TN:336:47065","properties":{"destinationId":"336","locality":"Chattanooga","definition":"Hamilton","state":"TN","stateName":"Tennessee","county":"Hamilton County","countyGeoid":"47065","countyGeoids":["47065"],"coverage":"complete-counties","sourceType":"gsa_county_defined_rate_area"},"geometry":{"type":"Polygon","coordinates":[[[-85.47489,34.98697],[-85.47411,34.98306],[-85.38497,34.98299],[-84.97697,34.98767],[-84.96136,35.01588],[-84.96925,35.01853],[-84.96906,35.0199],[-84.99403,35.03504],[-85.00152,35.04574],[-84.99445,35.05887],[-85.00228,35.06191],[-84.99515,35.07517],[-85.00674,35.07937],[-85.00993,35.08379],[-85.00745,35.08784],[-85.01025,35.10084],[-85.02643,35.12808],[-85.02664,35.13617],[-85.02404,35.14883],[-85.01747,35.14807],[-85.01556,35.1522],[-85.01236,35.15234],[-85.0134,35.15504],[-85.0096,35.15791],[-85.00736,35.16342],[-85.00708,35.16868],[-85.00487,35.17333],[-85.01018,35.17466],[-85.0087,35.18368],[-85.00318,35.19614],[-84.99885,35.20307],[-84.99465,35.20177],[-84.99035,35.20657],[-84.98775,35.21207],[-84.98085,35.21977],[-84.97615,35.23397],[-84.96975,35.24507],[-84.96205,35.25287],[-84.96143,35.25456],[-84.96635,35.25997],[-84.96555,35.26237],[-84.96065,35.26257],[-84.96045,35.26637],[-84.95375,35.27127],[-84.95125,35.27907],[-84.94233,35.28224],[-84.94887,35.2921],[-84.95744,35.29977],[-84.96417,35.31015],[-84.96681,35.32164],[-84.97148,35.32968],[-84.97116,35.33962],[-84.9763,35.34727],[-84.97505,35.35617],[-84.97775,35.36107],[-84.99053,35.36654],[-85.00052,35.38036],[-85.00837,35.38326],[-85.01515,35.37189],[-85.02354,35.37471],[-85.02264,35.37621],[-85.03037,35.37912],[-85.02682,35.38522],[-85.0254,35.40476],[-85.02302,35.40819],[-85.01666,35.4091],[-85.06691,35.43648],[-85.07343,35.42928],[-85.0787,35.43187],[-85.08061,35.42872],[-85.08201,35.42907],[-85.08199,35.43086],[-85.08729,35.43454],[-85.10216,35.42844],[-85.1064,35.43209],[-85.10435,35.43253],[-85.10593,35.4344],[-85.11073,35.43724],[-85.10332,35.44553],[-85.10956,35.45031],[-85.10726,35.45242],[-85.11144,35.45689],[-85.11711,35.45641],[-85.12004,35.45814],[-85.12572,35.45514],[-85.12538,35.45923],[-85.13109,35.458],[-85.13176,35.45097],[-85.136,35.45131],[-85.13605,35.45561],[-85.13797,35.45622],[-85.14879,35.44559],[-85.15147,35.4452],[-85.15413,35.44722],[-85.16308,35.44885],[-85.1683,35.45561],[-85.18409,35.42816],[-85.19597,35.40349],[-85.246,35.31908],[-85.38845,35.1455],[-85.38579,35.1371],[-85.39577,35.10564],[-85.3833,35.10574],[-85.37303,35.1001],[-85.36747,35.09496],[-85.36716,35.09087],[-85.36196,35.08777],[-85.36636,35.06947],[-85.37727,35.05731],[-85.38226,35.04473],[-85.38697,35.04097],[-85.39264,35.03914],[-85.39764,35.04175],[-85.40871,35.0412],[-85.4141,35.02953],[-85.4199,35.0266],[-85.4182,35.02022],[-85.41983,35.01918],[-85.42103,35.01374],[-85.42757,35.00688],[-85.43542,35.00234],[-85.43798,35.00295],[-85.4427,35.00059],[-85.44354,34.99712],[-85.45008,34.99568],[-85.4527,34.99657],[-85.46845,34.98694],[-85.47489,34.98697]]]}},{"type":"Feature","id":"TN:338:47093","properties":{"destinationId":"338","locality":"Knoxville","definition":"Knox","state":"TN","stateName":"Tennessee","county":"Knox County","countyGeoid":"47093","countyGeoids":["47093"],"coverage":"complete-counties","sourceType":"gsa_county_defined_rate_area"},"geometry":{"type":"Polygon","coordinates":[[[-84.27347,35.93928],[-84.27167,35.93568],[-84.25637,35.92836],[-84.25268,35.92039],[-84.25259,35.91818],[-84.25536,35.91608],[-84.2679,35.91388],[-84.27067,35.91201],[-84.27174,35.9088],[-84.26839,35.90256],[-84.1654,35.80676],[-84.16627,35.80511],[-84.16211,35.80185],[-84.15966,35.7952],[-84.15238,35.79381],[-84.14252,35.79695],[-84.13947,35.8001],[-84.1372,35.80759],[-84.1426,35.81853],[-84.14239,35.82201],[-84.13493,35.83131],[-84.13425,35.83417],[-84.13779,35.83852],[-84.14713,35.84496],[-84.14566,35.84959],[-84.13429,35.85128],[-84.13005,35.85008],[-84.12813,35.84683],[-84.12298,35.8444],[-84.12258,35.84077],[-84.12654,35.83596],[-84.12622,35.83298],[-84.12105,35.83102],[-84.11732,35.83241],[-84.10314,35.84404],[-84.08901,35.84925],[-84.07896,35.85079],[-84.07012,35.84407],[-84.0702,35.83752],[-84.06686,35.83063],[-84.05826,35.82731],[-84.05496,35.82758],[-84.05004,35.83396],[-84.05194,35.84883],[-84.04751,35.85229],[-84.03962,35.85383],[-84.03281,35.85291],[-84.02784,35.8486],[-84.02521,35.84165],[-84.02056,35.83934],[-84.01648,35.8395],[-84.00984,35.84371],[-84.00676,35.84928],[-84.00658,35.85374],[-84.01043,35.86406],[-84.01796,35.86905],[-84.02432,35.86941],[-84.0275,35.87153],[-84.02856,35.87582],[-84.02369,35.87765],[-84.01533,35.87528],[-84.00874,35.87528],[-84.00409,35.87721],[-83.99614,35.88393],[-83.9934,35.88292],[-83.99046,35.87831],[-83.9844,35.87567],[-83.9783,35.86694],[-83.97361,35.86346],[-83.9687,35.86701],[-83.96465,35.86788],[-83.96127,35.87316],[-83.9466,35.87626],[-83.94269,35.86997],[-83.94127,35.87027],[-83.93908,35.86757],[-83.93465,35.86911],[-83.90681,35.85438],[-83.90754,35.84663],[-83.90278,35.84834],[-83.89545,35.84838],[-83.88797,35.84446],[-83.85346,35.84114],[-83.85016,35.84202],[-83.84896,35.84441],[-83.84365,35.84693],[-83.82962,35.86228],[-83.8122,35.87508],[-83.81182,35.87839],[-83.78038,35.89519],[-83.7742,35.90528],[-83.76806,35.90826],[-83.76724,35.91186],[-83.74388,35.92058],[-83.74072,35.92099],[-83.73851,35.91697],[-83.70211,35.93873],[-83.69779,35.93976],[-83.69336,35.9447],[-83.68808,35.93865],[-83.68396,35.93669],[-83.68309,35.93978],[-83.68736,35.94645],[-83.68707,35.94934],[-83.6755,35.95415],[-83.6546,35.97194],[-83.65971,35.98589],[-83.65189,35.98607],[-83.65093,35.9874],[-83.65129,35.98962],[-83.66194,35.99151],[-83.66896,36.00872],[-83.66998,36.01831],[-83.6734,36.02549],[-83.67727,36.02559],[-83.6775,36.02807],[-83.6749,36.02959],[-83.6734,36.03639],[-83.6752,36.04822],[-83.67127,36.04894],[-83.67117,36.0531],[-83.68474,36.05454],[-83.68486,36.05747],[-83.6946,36.05825],[-83.692,36.06242],[-83.70027,36.07122],[-83.71029,36.08906],[-83.70798,36.09426],[-83.69912,36.09622],[-83.69129,36.09463],[-83.67474,36.08182],[-83.66746,36.08059],[-83.66703,36.08624],[-83.67566,36.09809],[-83.67932,36.09871],[-83.6812,36.10178],[-83.68721,36.10231],[-83.68769,36.11241],[-83.6994,36.10947],[-83.69902,36.11337],[-83.69775,36.11273],[-83.69701,36.11592],[-83.69474,36.11581],[-83.69425,36.12087],[-83.69144,36.12197],[-83.70004,36.12288],[-83.70174,36.12006],[-83.70398,36.12065],[-83.70349,36.12207],[-83.70669,36.12474],[-83.70638,36.12821],[-83.7126,36.12878],[-83.721,36.13688],[-83.7237,36.13748],[-83.7233,36.14028],[-83.7251,36.14238],[-83.7237,36.1475],[-83.726,36.14958],[-83.7229,36.15188],[-83.73072,36.15853],[-83.7327,36.16458],[-83.90397,36.16898],[-83.90049,36.16453],[-83.90517,36.16091],[-83.90973,36.16269],[-83.90591,36.16535],[-83.90611,36.16901],[-83.92271,36.16938],[-83.94171,36.18638],[-83.94441,36.18638],[-83.94761,36.18188],[-83.95201,36.18168],[-83.95721,36.17758],[-83.96281,36.17578],[-83.96491,36.17278],[-83.96861,36.17128],[-83.96991,36.16748],[-83.97621,36.16808],[-83.97551,36.16338],[-83.99972,36.14442],[-83.99887,36.14076],[-84.00031,36.13898],[-84.00391,36.13838],[-84.00971,36.13437],[-84.01531,36.13538],[-84.01551,36.12938],[-84.02051,36.12888],[-84.02374,36.12508],[-84.0287,36.12259],[-84.02807,36.11862],[-84.03475,36.11278],[-84.04096,36.11083],[-84.04384,36.11158],[-84.04363,36.1084],[-84.04612,36.10384],[-84.05136,36.1023],[-84.06355,36.09368],[-84.06808,36.08656],[-84.08457,36.07547],[-84.08867,36.07697],[-84.093,36.07352],[-84.09134,36.07144],[-84.09401,36.06891],[-84.05858,36.0363],[-84.06898,36.03081],[-84.0709,36.02631],[-84.07659,36.02349],[-84.07662,36.02],[-84.07986,36.02043],[-84.08509,36.01671],[-84.10363,36.01207],[-84.10396,36.00795],[-84.1146,35.99954],[-84.11987,36.00096],[-84.1292,35.99669],[-84.1306,35.99419],[-84.13792,35.99349],[-84.13892,35.99003],[-84.14496,35.98998],[-84.14721,35.98733],[-84.15038,35.98718],[-84.15789,35.99128],[-84.16175,35.98991],[-84.18057,35.9922],[-84.19229,35.99549],[-84.19551,35.9916],[-84.19433,35.98362],[-84.19661,35.97841],[-84.21341,35.97577],[-84.21576,35.97331],[-84.21653,35.96651],[-84.22054,35.96064],[-84.2145,35.95411],[-84.21409,35.94785],[-84.2159,35.94638],[-84.22137,35.94575],[-84.2407,35.95571],[-84.24536,35.95313],[-84.24485,35.94866],[-84.23858,35.94697],[-84.23779,35.94446],[-84.23921,35.94099],[-84.23582,35.93168],[-84.23758,35.92965],[-84.24478,35.93033],[-84.25434,35.93994],[-84.26472,35.94364],[-84.27155,35.94223],[-84.27347,35.93928]]]}},{"type":"Feature","id":"TN:339:47157","properties":{"destinationId":"339","locality":"Memphis","definition":"Shelby","state":"TN","stateName":"Tennessee","county":"Shelby County","countyGeoid":"47157","countyGeoids":["47157"],"coverage":"complete-counties","sourceType":"gsa_county_defined_rate_area"},"geometry":{"type":"Polygon","coordinates":[[[-90.31045,35.0027],[-90.30836,34.99569],[-89.84849,34.99419],[-89.64405,34.99529],[-89.63709,35.19799],[-89.63659,35.27016],[-89.63609,35.27178],[-89.63416,35.27153],[-89.63614,35.27271],[-89.6344,35.29586],[-89.63573,35.31756],[-89.63278,35.37582],[-89.63653,35.37686],[-89.63674,35.37488],[-89.6405,35.3754],[-89.64498,35.37121],[-89.646,35.37226],[-89.6443,35.37489],[-89.64461,35.38301],[-89.64174,35.38589],[-89.6428,35.38798],[-89.70289,35.38906],[-89.70238,35.40389],[-89.70368,35.40399],[-89.70248,35.40858],[-89.70928,35.40948],[-89.71018,35.40438],[-89.73028,35.40676],[-89.72942,35.40598],[-89.73276,35.40571],[-89.73081,35.40111],[-89.77674,35.40517],[-89.77876,35.38782],[-89.80044,35.39131],[-89.81165,35.39032],[-89.8287,35.39219],[-89.83778,35.39064],[-89.88932,35.39091],[-89.92693,35.39348],[-89.97224,35.39358],[-90.04156,35.39662],[-90.04486,35.39296],[-90.06179,35.38618],[-90.07499,35.38415],[-90.08095,35.38591],[-90.07861,35.38062],[-90.07826,35.37493],[-90.09618,35.34885],[-90.10997,35.30499],[-90.11717,35.30336],[-90.12371,35.30453],[-90.12985,35.30117],[-90.1395,35.29883],[-90.1485,35.30289],[-90.15732,35.30149],[-90.16381,35.29612],[-90.16879,35.27909],[-90.15882,35.26289],[-90.15209,35.25599],[-90.13972,35.2523],[-90.11735,35.2558],[-90.10514,35.25442],[-90.09434,35.24879],[-90.08635,35.23818],[-90.08454,35.23104],[-90.07486,35.2181],[-90.07821,35.20967],[-90.08068,35.20854],[-90.08856,35.21232],[-90.09647,35.19485],[-90.10871,35.19926],[-90.11606,35.19859],[-90.11738,35.19006],[-90.11365,35.18329],[-90.10814,35.18157],[-90.10666,35.17603],[-90.10143,35.17109],[-90.07888,35.15941],[-90.06867,35.156],[-90.06538,35.15138],[-90.06401,35.14463],[-90.06655,35.13684],[-90.08262,35.12133],[-90.08967,35.11805],[-90.09501,35.11753],[-90.10684,35.11944],[-90.1418,35.13304],[-90.1547,35.13092],[-90.16736,35.12358],[-90.17684,35.11209],[-90.18137,35.09401],[-90.18099,35.08499],[-90.175,35.07606],[-90.17762,35.06384],[-90.18116,35.05394],[-90.18655,35.04542],[-90.20732,35.02577],[-90.21323,35.0255],[-90.23235,35.03124],[-90.24298,35.03268],[-90.2518,35.03161],[-90.2617,35.03623],[-90.26482,35.04045],[-90.29235,35.04136],[-90.29697,35.03818],[-90.29947,35.03029],[-90.30574,35.01908],[-90.30528,35.0136],[-90.30926,35.00959],[-90.31045,35.0027]]]}},{"type":"Feature","id":"TN:340:47037","properties":{"destinationId":"340","locality":"Nashville","definition":"Davidson","state":"TN","stateName":"Tennessee","county":"Davidson County","countyGeoid":"47037","countyGeoids":["47037"],"coverage":"complete-counties","sourceType":"gsa_county_defined_rate_area"},"geometry":{"type":"MultiPolygon","coordinates":[[[[-86.52315,36.13873],[-86.52345,36.13746],[-86.52174,36.13729],[-86.52106,36.14114],[-86.52256,36.14128],[-86.52315,36.13873]]],[[[-87.0547,36.04999],[-87.03922,35.98929],[-87.02834,35.98986],[-86.9286,36.05291],[-86.78308,36.03489],[-86.77713,36.03324],[-86.73207,36.00987],[-86.7129,36.00812],[-86.69232,35.99475],[-86.68771,35.99534],[-86.68189,35.9894],[-86.64829,35.97557],[-86.6274,35.97403],[-86.6277,35.97213],[-86.6186,35.97134],[-86.61889,35.96822],[-86.61442,35.96778],[-86.61365,35.97555],[-86.61042,35.97547],[-86.6096,35.97982],[-86.608,35.97977],[-86.60722,35.98547],[-86.61009,35.98575],[-86.60959,35.99093],[-86.61559,35.99162],[-86.61234,36.00999],[-86.60074,36.01188],[-86.59176,36.02206],[-86.59162,36.02413],[-86.57848,36.0268],[-86.56876,36.03439],[-86.56243,36.03532],[-86.56068,36.03984],[-86.56638,36.04876],[-86.56207,36.05421],[-86.56179,36.05828],[-86.56429,36.06358],[-86.56252,36.06392],[-86.5632,36.06617],[-86.56168,36.06842],[-86.55739,36.06572],[-86.54649,36.06652],[-86.54609,36.07752],[-86.54849,36.08022],[-86.54899,36.08592],[-86.54688,36.08782],[-86.54069,36.07762],[-86.52949,36.07752],[-86.52749,36.07402],[-86.53288,36.06002],[-86.53079,36.05762],[-86.52569,36.05732],[-86.52438,36.05902],[-86.52499,36.06892],[-86.52088,36.07252],[-86.51936,36.08419],[-86.5176,36.08408],[-86.51559,36.10061],[-86.52336,36.10663],[-86.53594,36.10817],[-86.53529,36.1125],[-86.53118,36.11205],[-86.52924,36.12435],[-86.5351,36.12625],[-86.53113,36.12868],[-86.53204,36.13227],[-86.53051,36.13223],[-86.52913,36.1364],[-86.52707,36.13615],[-86.52605,36.13962],[-86.52784,36.14077],[-86.52844,36.13801],[-86.53284,36.13847],[-86.53335,36.13736],[-86.53579,36.13851],[-86.5386,36.1354],[-86.54272,36.14059],[-86.54696,36.13705],[-86.54954,36.13782],[-86.5544,36.13576],[-86.55495,36.134],[-86.55686,36.13496],[-86.55528,36.14352],[-86.55125,36.14326],[-86.55093,36.14435],[-86.55576,36.14538],[-86.57089,36.17368],[-86.57562,36.1946],[-86.57989,36.20637],[-86.58151,36.20663],[-86.5809,36.20882],[-86.58854,36.23028],[-86.59109,36.23701],[-86.59369,36.23711],[-86.59349,36.2398],[-86.59544,36.23941],[-86.59464,36.24193],[-86.59359,36.24097],[-86.59436,36.24538],[-86.6145,36.24444],[-86.62817,36.25114],[-86.63838,36.25405],[-86.64238,36.265],[-86.64227,36.28939],[-86.66246,36.29943],[-86.66857,36.3008],[-86.66656,36.30349],[-86.67223,36.30914],[-86.67499,36.31635],[-86.68029,36.31586],[-86.68739,36.3182],[-86.68842,36.31991],[-86.69687,36.32176],[-86.69688,36.32673],[-86.70304,36.32721],[-86.70664,36.32941],[-86.70796,36.33397],[-86.71546,36.33651],[-86.72096,36.34191],[-86.7235,36.34768],[-86.72279,36.35163],[-86.72468,36.35343],[-86.72543,36.36335],[-86.73045,36.38126],[-86.73343,36.38584],[-86.74021,36.39072],[-86.74167,36.39734],[-86.74606,36.39964],[-86.74569,36.4031],[-86.7548,36.4055],[-86.7566,36.40044],[-86.76415,36.39972],[-86.76433,36.39429],[-86.7812,36.39019],[-86.78129,36.38364],[-86.78392,36.38368],[-86.78474,36.37944],[-86.78734,36.37712],[-86.79103,36.37676],[-86.79195,36.36932],[-86.78694,36.36577],[-86.78736,36.35964],[-86.79705,36.35961],[-86.80328,36.35547],[-86.82308,36.35165],[-86.82592,36.34964],[-86.83021,36.35343],[-86.83073,36.356],[-86.83376,36.35672],[-86.83451,36.35984],[-86.83661,36.36025],[-86.83677,36.35838],[-86.84084,36.3629],[-86.85144,36.3671],[-86.8543,36.3698],[-86.85292,36.38014],[-86.8628,36.38117],[-86.86214,36.36957],[-86.87017,36.37419],[-86.87433,36.3737],[-86.87612,36.37189],[-86.87883,36.37468],[-86.87861,36.37863],[-86.88119,36.38092],[-86.88563,36.38178],[-86.88926,36.38667],[-86.89894,36.38998],[-86.9092,36.39026],[-86.91292,36.38359],[-86.91421,36.38354],[-86.90981,36.37919],[-86.91207,36.37715],[-86.91494,36.37807],[-86.91606,36.37351],[-86.91473,36.37335],[-86.91562,36.37087],[-86.90982,36.37213],[-86.90625,36.36622],[-86.91,36.36328],[-86.9208,36.3307],[-86.94787,36.28237],[-86.95771,36.2758],[-86.97461,36.24937],[-86.98401,36.22542],[-86.98041,36.21699],[-86.98233,36.2137],[-86.98783,36.21552],[-86.98788,36.21435],[-86.98426,36.21385],[-86.98526,36.21006],[-86.98361,36.20957],[-86.9977,36.12851],[-87.03817,36.09431],[-87.03861,36.08672],[-87.03551,36.08643],[-87.0354,36.08272],[-87.03855,36.08209],[-87.04136,36.04131],[-87.0445,36.04687],[-87.04909,36.04674],[-87.0547,36.04999]]]]}}]}