{"type":"FeatureCollection","features":[{"type":"Feature","id":"TX:343:48453","properties":{"destinationId":"343","locality":"Austin","definition":"Travis","state":"TX","stateName":"Texas","county":"Travis County","countyGeoid":"48453","countyGeoids":["48453"],"coverage":"complete-counties","sourceType":"gsa_county_defined_rate_area"},"geometry":{"type":"Polygon","coordinates":[[[-98.15927,30.37665],[-98.17298,30.35631],[-97.70879,30.02345],[-97.65369,30.07156],[-97.64937,30.06794],[-97.49248,30.21001],[-97.36954,30.41956],[-97.37354,30.41772],[-97.37677,30.4192],[-97.37943,30.4239],[-97.38339,30.42415],[-97.3876,30.43342],[-97.39254,30.43443],[-97.3915,30.43686],[-97.39303,30.43877],[-97.39549,30.43776],[-97.40624,30.44229],[-97.40877,30.43819],[-97.41525,30.43834],[-97.42534,30.44782],[-97.42709,30.4522],[-97.43328,30.45291],[-97.43411,30.45972],[-97.43954,30.46028],[-97.44184,30.45533],[-97.44495,30.45612],[-97.44563,30.4614],[-97.45339,30.46131],[-97.45978,30.45832],[-97.46393,30.46064],[-97.46692,30.46519],[-97.4755,30.46714],[-97.47649,30.46913],[-97.48012,30.47043],[-97.48643,30.46947],[-97.48909,30.47329],[-97.50135,30.47729],[-97.50255,30.48057],[-97.51086,30.48526],[-97.52236,30.47638],[-97.52397,30.47218],[-97.52815,30.47543],[-97.54418,30.47954],[-97.54314,30.47916],[-97.54608,30.47542],[-97.55007,30.47648],[-97.54933,30.48113],[-97.55296,30.4903],[-97.56346,30.49183],[-97.56377,30.49556],[-97.56889,30.49616],[-97.56826,30.49972],[-97.58118,30.50075],[-97.58986,30.4974],[-97.59106,30.49756],[-97.59131,30.50091],[-97.59616,30.50148],[-97.60609,30.49514],[-97.60683,30.49031],[-97.61865,30.49038],[-97.62801,30.48524],[-97.64135,30.48204],[-97.64348,30.47808],[-97.65144,30.47489],[-97.66389,30.48159],[-97.6699,30.47841],[-97.67424,30.48079],[-97.68289,30.48007],[-97.68878,30.4614],[-97.69598,30.4614],[-97.70398,30.4585],[-97.71519,30.45865],[-97.73368,30.4497],[-97.7468,30.44935],[-97.75466,30.44022],[-97.75364,30.43329],[-97.76799,30.43257],[-97.77634,30.42977],[-97.77939,30.4384],[-97.78534,30.44066],[-97.78878,30.44419],[-97.79972,30.44714],[-97.81194,30.44707],[-97.82307,30.45344],[-97.84654,30.47341],[-97.84589,30.47564],[-97.86225,30.49731],[-97.85611,30.50281],[-97.85576,30.5074],[-97.87142,30.52271],[-97.86787,30.5465],[-97.8813,30.5533],[-97.88337,30.55296],[-97.8877,30.55661],[-97.89004,30.5658],[-97.89578,30.56492],[-97.90246,30.57133],[-97.92182,30.56423],[-97.92698,30.56765],[-97.91512,30.58057],[-97.92038,30.58677],[-97.9219,30.59096],[-97.91706,30.60487],[-97.93481,30.61029],[-97.95673,30.62825],[-97.96631,30.62368],[-97.97787,30.62211],[-97.9924,30.60949],[-97.99799,30.61302],[-98.00628,30.62752],[-98.01274,30.61677],[-98.0297,30.61472],[-98.0365,30.61173],[-98.03959,30.61855],[-98.04989,30.62416],[-98.12313,30.48704],[-98.12311,30.48472],[-98.11372,30.48558],[-98.10592,30.49534],[-98.09779,30.49744],[-98.09771,30.46763],[-98.15927,30.37665]]]}},{"type":"Feature","id":"TX:346:48113","properties":{"destinationId":"346","locality":"Dallas","definition":"Dallas","state":"TX","stateName":"Texas","county":"Dallas County","countyGeoid":"48113","countyGeoids":["48113"],"coverage":"complete-counties","sourceType":"gsa_county_defined_rate_area"},"geometry":{"type":"Polygon","coordinates":[[[-97.03852,32.56],[-97.03868,32.54867],[-96.52312,32.54521],[-96.51701,32.98286],[-97.03101,32.98969],[-97.03852,32.56]]]}},{"type":"Feature","id":"TX:348:48167","properties":{"destinationId":"348","locality":"Galveston","definition":"Galveston","state":"TX","stateName":"Texas","county":"Galveston County","countyGeoid":"48167","countyGeoids":["48167"],"coverage":"complete-counties","sourceType":"gsa_county_defined_rate_area"},"geometry":{"type":"MultiPolygon","coordinates":[[[[-94.78337,29.37748],[-94.78444,29.37572],[-94.78296,29.37492],[-94.77778,29.37582],[-94.77731,29.37106],[-94.7807,29.36507],[-94.77869,29.36148],[-94.76336,29.36585],[-94.76149,29.36188],[-94.74202,29.37588],[-94.73923,29.37493],[-94.73827,29.37044],[-94.73341,29.36799],[-94.72858,29.3723],[-94.72371,29.38214],[-94.70847,29.40305],[-94.68127,29.42464],[-94.65482,29.4401],[-94.63161,29.4518],[-94.56434,29.48137],[-94.49007,29.51119],[-94.37082,29.55624],[-94.37162,29.59725],[-94.37289,29.59738],[-94.37288,29.59576],[-94.37532,29.59678],[-94.37706,29.59372],[-94.37876,29.59605],[-94.38663,29.59608],[-94.38703,29.59432],[-94.38852,29.5957],[-94.3936,29.59503],[-94.39806,29.5968],[-94.39883,29.59445],[-94.40648,29.59826],[-94.40805,29.59652],[-94.40899,29.59747],[-94.41381,29.59002],[-94.41681,29.59248],[-94.41918,29.58919],[-94.41878,29.586],[-94.41379,29.58687],[-94.41431,29.58511],[-94.41692,29.58456],[-94.41328,29.58009],[-94.41734,29.57812],[-94.41421,29.57762],[-94.41244,29.57337],[-94.41593,29.57268],[-94.41782,29.56928],[-94.42167,29.56971],[-94.42287,29.56626],[-94.42702,29.56687],[-94.42969,29.5647],[-94.43926,29.56543],[-94.44356,29.56237],[-94.4478,29.56405],[-94.46312,29.56074],[-94.47227,29.55701],[-94.4707,29.55658],[-94.47058,29.55327],[-94.47391,29.55038],[-94.47617,29.54511],[-94.48663,29.53684],[-94.48888,29.51957],[-94.48984,29.51646],[-94.49328,29.51357],[-94.5054,29.51047],[-94.51542,29.51716],[-94.53009,29.51681],[-94.54232,29.52138],[-94.5585,29.53004],[-94.56897,29.53018],[-94.57159,29.52747],[-94.57457,29.52764],[-94.57706,29.5258],[-94.59067,29.51295],[-94.59467,29.50724],[-94.59757,29.49525],[-94.59421,29.49213],[-94.59907,29.49029],[-94.60656,29.48279],[-94.61576,29.48117],[-94.64041,29.4724],[-94.64556,29.47251],[-94.65716,29.47664],[-94.66539,29.4774],[-94.67171,29.47616],[-94.68516,29.46599],[-94.68717,29.45976],[-94.69123,29.4601],[-94.69263,29.45844],[-94.69187,29.45502],[-94.69555,29.45273],[-94.70346,29.44036],[-94.70351,29.43649],[-94.71088,29.43132],[-94.71741,29.43003],[-94.74545,29.40854],[-94.75497,29.41589],[-94.7665,29.40761],[-94.77434,29.39923],[-94.77374,29.39529],[-94.77018,29.39301],[-94.76685,29.39349],[-94.76721,29.39043],[-94.78337,29.37748]]],[[[-94.82326,29.32392],[-94.82196,29.31324],[-94.79843,29.31242],[-94.78999,29.31615],[-94.78417,29.32102],[-94.78179,29.32402],[-94.7812,29.33247],[-94.79211,29.34109],[-94.81052,29.35213],[-94.8216,29.34526],[-94.81994,29.33946],[-94.82326,29.32392]]],[[[-94.82591,29.35265],[-94.82425,29.34892],[-94.82187,29.34845],[-94.81995,29.35017],[-94.82097,29.35267],[-94.82433,29.3539],[-94.82591,29.35265]]],[[[-94.91513,29.27345],[-94.91382,29.26992],[-94.91144,29.26878],[-94.90919,29.26982],[-94.90919,29.27396],[-94.91311,29.275],[-94.91513,29.27345]]],[[[-94.92868,29.28703],[-94.92899,29.2851],[-94.92439,29.28162],[-94.92193,29.28199],[-94.91966,29.28682],[-94.92271,29.28844],[-94.92868,29.28703]]],[[[-95.12215,29.09042],[-95.12226,29.08855],[-95.11656,29.0846],[-95.11062,29.08668],[-95.08794,29.10791],[-95.04659,29.13572],[-94.89175,29.22902],[-94.79476,29.28439],[-94.76734,29.30564],[-94.72617,29.33252],[-94.7314,29.33705],[-94.74622,29.33476],[-94.76657,29.33734],[-94.77228,29.33366],[-94.77466,29.32102],[-94.7812,29.31853],[-94.78904,29.3119],[-94.79807,29.30848],[-94.82077,29.30962],[-94.82374,29.30589],[-94.8279,29.30464],[-94.82766,29.30091],[-94.82968,29.30029],[-94.83194,29.30205],[-94.83776,29.3012],[-94.83764,29.29977],[-94.84965,29.29749],[-94.85286,29.29905],[-94.85464,29.29708],[-94.86557,29.29335],[-94.86533,29.29169],[-94.87437,29.28993],[-94.88185,29.27925],[-94.88007,29.27272],[-94.89124,29.27054],[-94.91857,29.25572],[-94.92095,29.25344],[-94.92071,29.25053],[-94.93022,29.24348],[-94.93046,29.23488],[-94.93426,29.2326],[-94.94341,29.23571],[-94.95565,29.22938],[-94.94876,29.22865],[-94.94448,29.22378],[-94.94531,29.2215],[-94.95339,29.21828],[-94.96231,29.21922],[-94.96219,29.21642],[-94.95898,29.21289],[-94.95946,29.21019],[-94.9692,29.21351],[-94.97431,29.21123],[-94.97502,29.20884],[-94.97193,29.20698],[-94.97574,29.20148],[-94.97954,29.20283],[-94.99178,29.20034],[-94.99404,29.19577],[-94.98952,29.19058],[-95.00533,29.18509],[-95.01305,29.18509],[-95.00866,29.18291],[-95.00652,29.1798],[-95.00877,29.17782],[-95.01329,29.17876],[-95.01709,29.17751],[-95.01899,29.17564],[-95.01674,29.17212],[-95.01697,29.16848],[-95.02363,29.169],[-95.02541,29.16267],[-95.02422,29.16018],[-95.02814,29.15655],[-95.03979,29.15427],[-95.0638,29.13704],[-95.06831,29.13631],[-95.07592,29.12936],[-95.09303,29.1225],[-95.09695,29.11887],[-95.11014,29.09769],[-95.12215,29.09042]]],[[[-95.23228,29.46972],[-95.23308,29.46557],[-95.05709,29.20052],[-95.03451,29.2115],[-95.02738,29.22835],[-95.02218,29.23385],[-95.0103,29.24124],[-94.98881,29.26526],[-94.97241,29.27998],[-94.97091,29.28322],[-94.96202,29.28719],[-94.95427,29.29324],[-94.95389,29.29532],[-94.94406,29.30563],[-94.94198,29.31348],[-94.93659,29.3149],[-94.90728,29.30884],[-94.905,29.30252],[-94.91003,29.29947],[-94.9169,29.30128],[-94.92587,29.30069],[-94.92885,29.29836],[-94.91834,29.29322],[-94.91251,29.29324],[-94.90882,29.29751],[-94.90004,29.30236],[-94.89267,29.31345],[-94.8929,29.32526],[-94.90817,29.33992],[-94.9086,29.34656],[-94.9066,29.35598],[-94.8916,29.35593],[-94.86641,29.36734],[-94.86437,29.37051],[-94.86663,29.3742],[-94.88212,29.3783],[-94.88494,29.37664],[-94.88982,29.3782],[-94.88686,29.387],[-94.88882,29.4133],[-94.88785,29.41682],[-94.89203,29.43368],[-94.93097,29.45204],[-94.95185,29.46753],[-94.95339,29.4726],[-94.93557,29.48118],[-94.92844,29.47984],[-94.92705,29.47523],[-94.9282,29.47291],[-94.92543,29.47087],[-94.91052,29.49214],[-94.90946,29.49684],[-94.93013,29.49968],[-94.98201,29.51316],[-95.00305,29.52608],[-95.01516,29.53999],[-95.01711,29.54869],[-95.02308,29.54944],[-95.02872,29.54765],[-95.02956,29.55219],[-95.04189,29.5546],[-95.04988,29.55848],[-95.06324,29.55898],[-95.06833,29.55748],[-95.0721,29.54926],[-95.08089,29.54572],[-95.07921,29.54324],[-95.08043,29.54102],[-95.07867,29.53782],[-95.07922,29.53474],[-95.08614,29.53474],[-95.08963,29.53113],[-95.09233,29.53435],[-95.09626,29.53518],[-95.09362,29.5258],[-95.09487,29.52239],[-95.09882,29.51817],[-95.10264,29.52127],[-95.10355,29.5179],[-95.10607,29.51686],[-95.10387,29.51129],[-95.10547,29.51033],[-95.11311,29.51082],[-95.11849,29.50698],[-95.12201,29.51041],[-95.12509,29.51026],[-95.12858,29.50844],[-95.12952,29.50515],[-95.14171,29.50636],[-95.14888,29.4987],[-95.15277,29.50037],[-95.1607,29.49752],[-95.16393,29.49806],[-95.16292,29.50134],[-95.16643,29.5021],[-95.16722,29.50574],[-95.171,29.50772],[-95.17106,29.51002],[-95.1675,29.51255],[-95.16967,29.51489],[-95.17433,29.51518],[-95.17372,29.5172],[-95.17503,29.51829],[-95.17761,29.51694],[-95.17906,29.5196],[-95.18314,29.5191],[-95.18457,29.52295],[-95.18785,29.52434],[-95.18683,29.52708],[-95.18981,29.52717],[-95.18778,29.52784],[-95.1906,29.53072],[-95.18751,29.53404],[-95.18828,29.53541],[-95.19398,29.53657],[-95.19453,29.53827],[-95.19222,29.53866],[-95.19225,29.5405],[-95.19462,29.54134],[-95.19506,29.54361],[-95.19724,29.54199],[-95.19947,29.54453],[-95.19738,29.54944],[-95.19996,29.55233],[-95.19768,29.55728],[-95.19592,29.55763],[-95.19481,29.55606],[-95.19315,29.55952],[-95.19702,29.56008],[-95.19602,29.55896],[-95.1978,29.55821],[-95.20098,29.56321],[-95.2013,29.56132],[-95.20594,29.55916],[-95.20558,29.55776],[-95.20773,29.5578],[-95.20695,29.55916],[-95.21361,29.55845],[-95.2132,29.55575],[-95.21635,29.55577],[-95.23228,29.46972]]]]}},{"type":"Feature","id":"TX:350:48157","properties":{"destinationId":"350","locality":"Houston","definition":"Montgomery / Fort Bend / Harris","state":"TX","stateName":"Texas","county":"Fort Bend County","countyGeoid":"48157","countyGeoids":["48157","48201","48339"],"coverage":"complete-counties","sourceType":"gsa_county_defined_rate_area"},"geometry":{"type":"Polygon","coordinates":[[[-96.08891,29.60166],[-96.08439,29.60105],[-96.07582,29.59674],[-96.07135,29.59246],[-96.06232,29.59152],[-96.05956,29.58852],[-96.06276,29.58372],[-96.06196,29.57782],[-96.0631,29.57591],[-96.06,29.56866],[-96.0445,29.56195],[-96.04491,29.5579],[-96.04188,29.55335],[-96.04291,29.55072],[-96.0415,29.54972],[-96.04327,29.54348],[-96.04114,29.54052],[-96.0471,29.54003],[-96.048,29.53827],[-96.05009,29.54079],[-96.05134,29.53847],[-96.05632,29.53949],[-96.05456,29.53519],[-96.05556,29.52561],[-96.05234,29.52541],[-96.05081,29.52316],[-96.05579,29.51809],[-96.0531,29.51621],[-96.05471,29.51462],[-96.05307,29.51194],[-96.04709,29.5097],[-96.03631,29.51081],[-96.0305,29.50782],[-96.02776,29.509],[-96.02432,29.50702],[-96.02499,29.50381],[-96.02242,29.50189],[-96.02523,29.49915],[-96.02626,29.49503],[-96.03114,29.49564],[-96.03552,29.49229],[-96.04562,29.49254],[-96.0472,29.49126],[-96.05305,29.49427],[-96.05642,29.49076],[-96.05837,29.49028],[-96.05968,29.49187],[-96.06032,29.48736],[-96.05865,29.48609],[-96.05996,29.48412],[-96.05772,29.48134],[-96.06068,29.47647],[-96.05883,29.47462],[-96.05963,29.47333],[-96.04999,29.47218],[-96.04798,29.46184],[-96.04361,29.46149],[-96.04364,29.45796],[-96.04162,29.45712],[-96.03894,29.45857],[-96.03774,29.45299],[-96.03277,29.45414],[-96.02947,29.45205],[-96.02958,29.44948],[-96.03659,29.44569],[-96.03529,29.44301],[-96.0295,29.44103],[-96.02045,29.44122],[-96.01865,29.43737],[-96.01245,29.43498],[-96.00836,29.42948],[-96.00385,29.42886],[-95.99502,29.43372],[-95.99202,29.43379],[-95.98623,29.42266],[-95.98822,29.41872],[-95.98532,29.41696],[-95.98206,29.41077],[-95.97241,29.4107],[-95.97076,29.40843],[-95.97206,29.40232],[-95.96969,29.39922],[-95.96952,29.39202],[-95.96705,29.38713],[-95.96841,29.38345],[-95.96384,29.37999],[-95.96034,29.38142],[-95.95463,29.37941],[-95.95444,29.37724],[-95.95242,29.37724],[-95.94749,29.37291],[-95.94825,29.37174],[-95.94495,29.36646],[-95.94386,29.36115],[-95.94094,29.35973],[-95.94018,29.36099],[-95.93652,29.35836],[-95.93876,29.35771],[-95.94023,29.35172],[-95.94598,29.35289],[-95.94736,29.34972],[-95.9491,29.35147],[-95.95026,29.34804],[-95.95258,29.34804],[-95.95338,29.34508],[-95.94958,29.34101],[-95.95064,29.33658],[-95.94946,29.33532],[-95.93294,29.32863],[-95.92338,29.32945],[-95.91939,29.32627],[-95.91661,29.31937],[-95.90381,29.31701],[-95.89826,29.31438],[-95.89447,29.31498],[-95.89275,29.31094],[-95.89615,29.30673],[-95.89754,29.29928],[-95.89092,29.29214],[-95.88467,29.27921],[-95.88494,29.27429],[-95.88019,29.27077],[-95.8796,29.26676],[-95.87704,29.26574],[-95.87231,29.26674],[-95.86851,29.26928],[-95.8651,29.26728],[-95.85693,29.26797],[-95.85353,29.26588],[-95.85083,29.26627],[-95.84766,29.26259],[-95.79782,29.30797],[-95.78401,29.29625],[-95.75287,29.3245],[-95.67278,29.29953],[-95.66509,29.29889],[-95.66364,29.29571],[-95.65462,29.29095],[-95.65273,29.2944],[-95.64385,29.29382],[-95.64176,29.29433],[-95.64065,29.29664],[-95.63727,29.29684],[-95.63763,29.29572],[-95.63133,29.29267],[-95.62654,29.29315],[-95.62082,29.29984],[-95.62202,29.30509],[-95.62819,29.3095],[-95.62578,29.31298],[-95.61612,29.31936],[-95.61454,29.32336],[-95.60498,29.33074],[-95.60316,29.3283],[-95.59079,29.32748],[-95.5883,29.33591],[-95.5792,29.34062],[-95.5821,29.35155],[-95.5761,29.35286],[-95.57397,29.35639],[-95.58084,29.36208],[-95.57794,29.3651],[-95.57234,29.38383],[-95.56557,29.39079],[-95.55886,29.39049],[-95.54758,29.3952],[-95.54986,29.40262],[-95.54582,29.40774],[-95.55192,29.41964],[-95.55632,29.42359],[-95.55178,29.42882],[-95.55062,29.43831],[-95.4626,29.43924],[-95.4242,29.58068],[-95.60547,29.66447],[-95.82598,29.78862],[-95.95093,29.74077],[-95.97129,29.74045],[-95.97094,29.72855],[-96.03271,29.72794],[-96.03261,29.71769],[-96.025,29.71712],[-96.0116,29.71984],[-96.00766,29.71768],[-96.0065,29.71486],[-96.00457,29.70858],[-96.00599,29.70386],[-96.01168,29.70258],[-96.02264,29.70501],[-96.02236,29.70208],[-96.01452,29.69359],[-96.01503,29.68267],[-96.01664,29.68006],[-96.02144,29.6789],[-96.02599,29.68619],[-96.03121,29.68847],[-96.0359,29.68836],[-96.05722,29.68194],[-96.05956,29.67933],[-96.06,29.67596],[-96.05754,29.67272],[-96.05397,29.67193],[-96.04608,29.66551],[-96.03091,29.67519],[-96.0185,29.66981],[-96.01677,29.66749],[-96.01604,29.66372],[-96.02086,29.65874],[-96.03047,29.66041],[-96.03312,29.65825],[-96.03185,29.65557],[-96.01754,29.64546],[-96.01475,29.64167],[-96.01508,29.63934],[-96.01878,29.63744],[-96.01931,29.63554],[-96.01644,29.6271],[-96.01888,29.62459],[-96.02366,29.62324],[-96.02482,29.6029],[-96.08891,29.60166]]]}},{"type":"Feature","id":"TX:350:48201","properties":{"destinationId":"350","locality":"Houston","definition":"Montgomery / Fort Bend / Harris","state":"TX","stateName":"Texas","county":"Harris County","countyGeoid":"48201","countyGeoids":["48157","48201","48339"],"coverage":"complete-counties","sourceType":"gsa_county_defined_rate_area"},"geometry":{"type":"MultiPolygon","coordinates":[[[[-94.97839,29.68365],[-94.9761,29.67826],[-94.96858,29.68255],[-94.97375,29.68613],[-94.97839,29.68365]]],[[[-94.99205,29.69842],[-94.99074,29.69604],[-94.97957,29.6883],[-94.97518,29.68789],[-94.97375,29.68912],[-94.97328,29.6914],[-94.97518,29.69398],[-94.97934,29.69387],[-94.98017,29.69604],[-94.98564,29.69852],[-94.99205,29.69842]]],[[[-95.95911,30.16324],[-95.96073,30.16342],[-95.93661,30.09596],[-95.92692,30.06944],[-95.92472,30.06873],[-95.92508,30.0639],[-95.9215,30.06403],[-95.92107,30.05358],[-95.82598,29.78862],[-95.60547,29.66447],[-95.5137,29.62143],[-95.4242,29.58068],[-95.41711,29.58328],[-95.39328,29.58169],[-95.38813,29.58567],[-95.37618,29.58828],[-95.36822,29.58471],[-95.36405,29.58594],[-95.36073,29.58494],[-95.35681,29.58678],[-95.34645,29.58555],[-95.34058,29.59274],[-95.33115,29.59911],[-95.32244,29.59672],[-95.3197,29.59823],[-95.3147,29.59801],[-95.30865,29.59492],[-95.28803,29.59833],[-95.28281,29.59775],[-95.28024,29.59552],[-95.26161,29.59316],[-95.26029,29.58988],[-95.26213,29.58714],[-95.26034,29.58408],[-95.26115,29.58108],[-95.25896,29.57816],[-95.25967,29.57442],[-95.25249,29.56078],[-95.25253,29.55811],[-95.25494,29.55727],[-95.25395,29.55394],[-95.24823,29.55571],[-95.24737,29.5531],[-95.24313,29.55502],[-95.24161,29.55971],[-95.23772,29.56137],[-95.23367,29.55714],[-95.22857,29.56002],[-95.22361,29.55913],[-95.22134,29.55702],[-95.21824,29.55936],[-95.2148,29.55714],[-95.21635,29.55577],[-95.2132,29.55575],[-95.21361,29.55845],[-95.21142,29.5592],[-95.20695,29.55916],[-95.20773,29.5578],[-95.20558,29.55776],[-95.20594,29.55916],[-95.2013,29.56132],[-95.20098,29.56321],[-95.1978,29.55821],[-95.19602,29.55896],[-95.19702,29.56008],[-95.19315,29.55952],[-95.19481,29.55606],[-95.19592,29.55763],[-95.19768,29.55728],[-95.19996,29.55233],[-95.19738,29.54944],[-95.19947,29.54453],[-95.19724,29.54199],[-95.19506,29.54361],[-95.19462,29.54134],[-95.19225,29.5405],[-95.19222,29.53866],[-95.19453,29.53827],[-95.19398,29.53657],[-95.18828,29.53541],[-95.18751,29.53404],[-95.1906,29.53072],[-95.18778,29.52784],[-95.18981,29.52717],[-95.18683,29.52708],[-95.18785,29.52434],[-95.18457,29.52295],[-95.18505,29.52138],[-95.1828,29.51887],[-95.17906,29.5196],[-95.17761,29.51694],[-95.17503,29.51829],[-95.17372,29.5172],[-95.17433,29.51518],[-95.16967,29.51489],[-95.1675,29.51255],[-95.17106,29.51002],[-95.171,29.50772],[-95.16722,29.50574],[-95.16643,29.5021],[-95.16292,29.50134],[-95.16393,29.49806],[-95.15672,29.49818],[-95.15277,29.50037],[-95.15023,29.49854],[-95.14171,29.50636],[-95.13389,29.50642],[-95.13083,29.50494],[-95.12858,29.50844],[-95.12509,29.51026],[-95.12201,29.51041],[-95.11849,29.50698],[-95.11311,29.51082],[-95.10805,29.5096],[-95.10387,29.51129],[-95.10607,29.51686],[-95.10355,29.5179],[-95.10244,29.5214],[-95.09809,29.51832],[-95.09362,29.5258],[-95.09626,29.53518],[-95.09233,29.53435],[-95.08963,29.53113],[-95.08614,29.53474],[-95.07922,29.53474],[-95.07867,29.53782],[-95.08043,29.54102],[-95.07921,29.54324],[-95.08089,29.54572],[-95.0721,29.54926],[-95.06833,29.55748],[-95.06324,29.55898],[-95.04988,29.55848],[-95.04189,29.5546],[-95.02956,29.55219],[-95.02872,29.54765],[-95.02308,29.54944],[-95.01711,29.54869],[-95.02099,29.55153],[-95.02118,29.55376],[-95.01825,29.55488],[-95.00732,29.57513],[-94.99394,29.58844],[-94.99346,29.59048],[-94.98795,29.59404],[-94.98714,29.59702],[-94.98271,29.60134],[-94.989,29.60959],[-94.99905,29.61694],[-94.99817,29.62046],[-95.00188,29.61884],[-95.0135,29.62919],[-95.01564,29.63946],[-95.01168,29.6498],[-95.0054,29.65937],[-95.00104,29.66474],[-94.98215,29.67686],[-94.98278,29.6819],[-94.98766,29.68138],[-94.98932,29.68272],[-94.99015,29.68582],[-95.00073,29.69676],[-95.01898,29.70114],[-95.01968,29.70437],[-95.0165,29.70687],[-95.01349,29.70622],[-95.00348,29.71222],[-94.99763,29.70887],[-94.99498,29.70968],[-94.9927,29.71349],[-94.98985,29.71338],[-94.98816,29.70914],[-94.97839,29.70905],[-94.97209,29.70172],[-94.94268,29.69778],[-94.93609,29.6927],[-94.93658,29.68042],[-94.93071,29.67375],[-94.92773,29.68069],[-94.91987,29.68686],[-94.92161,29.69323],[-94.91628,29.69615],[-94.91581,29.69843],[-94.92017,29.6996],[-94.92386,29.69916],[-94.92536,29.6968],[-94.92991,29.69737],[-94.93028,29.69919],[-94.9265,29.70091],[-94.92527,29.70369],[-94.93296,29.70521],[-94.93456,29.71042],[-94.93297,29.71472],[-94.94252,29.71334],[-94.9454,29.71624],[-94.94147,29.72468],[-94.92902,29.73706],[-94.92983,29.75],[-94.9234,29.75526],[-94.91837,29.75611],[-94.91902,29.76539],[-94.91704,29.76684],[-94.91381,29.7663],[-94.91425,29.76915],[-94.91963,29.77128],[-94.91915,29.77289],[-94.91769,29.77193],[-94.9163,29.77366],[-94.92007,29.77536],[-94.92003,29.781],[-94.92137,29.78208],[-94.91837,29.78355],[-94.91711,29.78622],[-94.91861,29.78754],[-94.91783,29.78904],[-94.92112,29.79193],[-94.91944,29.79366],[-94.92384,29.79472],[-94.92381,29.7964],[-94.9225,29.79664],[-94.92294,29.80238],[-94.91688,29.8033],[-94.91617,29.80645],[-94.91244,29.80878],[-94.91325,29.81292],[-94.91175,29.81405],[-94.91071,29.81192],[-94.91072,29.81402],[-94.9085,29.81494],[-94.91073,29.81585],[-94.91113,29.81817],[-94.90897,29.82673],[-94.92673,29.83369],[-94.9346,29.83429],[-94.94472,29.84429],[-94.94759,29.85082],[-94.95264,29.85503],[-94.968,29.85915],[-94.97295,29.86551],[-94.97704,29.86806],[-94.97633,29.87699],[-94.98598,29.89055],[-94.9845,29.89426],[-94.98792,29.90474],[-94.99866,29.91977],[-94.99651,29.92377],[-94.99306,29.92603],[-94.99288,29.92775],[-94.99614,29.93008],[-94.99511,29.93624],[-94.99197,29.94076],[-94.9877,29.95284],[-94.98118,29.95556],[-94.9821,29.96475],[-94.98476,29.96802],[-94.98591,29.97301],[-94.99542,29.97783],[-94.99983,29.99132],[-95.02191,29.99691],[-95.02677,29.99674],[-95.03118,29.99332],[-95.09671,30.16721],[-95.26414,30.03207],[-95.27099,30.0324],[-95.293,30.0279],[-95.29993,30.03219],[-95.30293,30.03202],[-95.3056,30.02977],[-95.31099,30.03289],[-95.31281,30.03599],[-95.30955,30.04562],[-95.31324,30.05078],[-95.31595,30.05384],[-95.32233,30.05362],[-95.32932,30.06249],[-95.33732,30.06333],[-95.33814,30.06608],[-95.34936,30.07361],[-95.34954,30.0764],[-95.35972,30.0767],[-95.36214,30.07839],[-95.36522,30.07663],[-95.36956,30.07796],[-95.37374,30.0803],[-95.37497,30.08637],[-95.37923,30.08748],[-95.38476,30.08777],[-95.38494,30.08575],[-95.38953,30.08521],[-95.39163,30.0827],[-95.3985,30.08583],[-95.39988,30.0899],[-95.40224,30.09166],[-95.4094,30.09264],[-95.41279,30.09516],[-95.41064,30.09794],[-95.41174,30.10085],[-95.41906,30.10505],[-95.41878,30.10851],[-95.42201,30.10965],[-95.42422,30.11549],[-95.43513,30.11298],[-95.43664,30.11037],[-95.45186,30.10818],[-95.45376,30.10464],[-95.46064,30.10563],[-95.46642,30.10501],[-95.46649,30.10365],[-95.46938,30.10463],[-95.47189,30.10337],[-95.47299,30.1046],[-95.47475,30.10323],[-95.47911,30.10473],[-95.4795,30.10638],[-95.48788,30.10781],[-95.49134,30.11082],[-95.49176,30.11492],[-95.49781,30.12349],[-95.49774,30.12585],[-95.49593,30.12601],[-95.49704,30.12883],[-95.49577,30.13181],[-95.49984,30.14248],[-95.5152,30.15117],[-95.51716,30.15401],[-95.51855,30.15223],[-95.52,30.1529],[-95.52436,30.15874],[-95.52498,30.16335],[-95.5414,30.17028],[-95.54478,30.16909],[-95.55276,30.17011],[-95.55804,30.16553],[-95.55925,30.16311],[-95.55777,30.16055],[-95.56025,30.15833],[-95.56519,30.16068],[-95.56992,30.15741],[-95.56988,30.15374],[-95.58061,30.14991],[-95.58423,30.14656],[-95.5881,30.13783],[-95.59091,30.13606],[-95.60258,30.13279],[-95.61349,30.13541],[-95.62322,30.13565],[-95.62586,30.1287],[-95.62345,30.12718],[-95.63698,30.12628],[-95.6392,30.12234],[-95.65256,30.11368],[-95.6542,30.10919],[-95.65848,30.11015],[-95.65908,30.11234],[-95.66162,30.1114],[-95.66231,30.10819],[-95.66729,30.10564],[-95.6683,30.10172],[-95.67254,30.10152],[-95.68365,30.10733],[-95.68812,30.10362],[-95.68681,30.10145],[-95.69083,30.09882],[-95.70128,30.09848],[-95.70714,30.1029],[-95.71514,30.10228],[-95.7173,30.09936],[-95.72305,30.09976],[-95.72762,30.09595],[-95.73449,30.09352],[-95.74075,30.09612],[-95.74957,30.09543],[-95.75938,30.09023],[-95.76093,30.08641],[-95.76484,30.08842],[-95.77112,30.0875],[-95.77448,30.09119],[-95.78024,30.09004],[-95.78587,30.09401],[-95.78928,30.09449],[-95.78862,30.09205],[-95.79961,30.09017],[-95.80138,30.09128],[-95.80949,30.08822],[-95.8096,30.08531],[-95.81578,30.08532],[-95.81704,30.08178],[-95.81927,30.08309],[-95.82849,30.08173],[-95.8301,30.08394],[-95.83383,30.08491],[-95.83894,30.08324],[-95.84474,30.08891],[-95.84275,30.09483],[-95.8461,30.09747],[-95.84665,30.1005],[-95.84868,30.10015],[-95.85057,30.10209],[-95.8569,30.1018],[-95.85719,30.10422],[-95.86193,30.10561],[-95.86343,30.11253],[-95.86851,30.11567],[-95.86828,30.11741],[-95.87232,30.11796],[-95.87216,30.12059],[-95.87393,30.12219],[-95.87873,30.12036],[-95.88069,30.12318],[-95.88312,30.11978],[-95.88656,30.12091],[-95.8908,30.11902],[-95.897,30.12269],[-95.89862,30.12093],[-95.90536,30.12751],[-95.91108,30.12811],[-95.91273,30.13114],[-95.91551,30.13093],[-95.919,30.13539],[-95.92198,30.13667],[-95.92177,30.13874],[-95.92455,30.13965],[-95.92475,30.14232],[-95.9266,30.14156],[-95.92906,30.14418],[-95.93229,30.14327],[-95.93773,30.14529],[-95.94094,30.14472],[-95.94464,30.14831],[-95.94713,30.15445],[-95.95184,30.15639],[-95.95911,30.16324]]]]}},{"type":"Feature","id":"TX:350:48339","properties":{"destinationId":"350","locality":"Houston","definition":"Montgomery / Fort Bend / Harris","state":"TX","stateName":"Texas","county":"Montgomery County","countyGeoid":"48339","countyGeoids":["48157","48201","48339"],"coverage":"complete-counties","sourceType":"gsa_county_defined_rate_area"},"geometry":{"type":"Polygon","coordinates":[[[-95.83024,30.63028],[-95.81748,30.50022],[-95.80435,30.3378],[-95.80333,30.0901],[-95.78862,30.09205],[-95.78928,30.09449],[-95.78587,30.09401],[-95.78024,30.09004],[-95.77448,30.09119],[-95.77112,30.0875],[-95.76484,30.08842],[-95.76093,30.08641],[-95.75938,30.09023],[-95.74957,30.09543],[-95.74075,30.09612],[-95.73449,30.09352],[-95.72762,30.09595],[-95.72305,30.09976],[-95.7173,30.09936],[-95.71514,30.10228],[-95.70714,30.1029],[-95.70128,30.09848],[-95.69083,30.09882],[-95.68681,30.10145],[-95.68812,30.10362],[-95.68365,30.10733],[-95.67254,30.10152],[-95.6683,30.10172],[-95.66729,30.10564],[-95.66231,30.10819],[-95.66162,30.1114],[-95.65908,30.11234],[-95.65848,30.11015],[-95.6542,30.10919],[-95.65256,30.11368],[-95.6392,30.12234],[-95.63698,30.12628],[-95.62345,30.12718],[-95.62586,30.1287],[-95.62322,30.13565],[-95.61349,30.13541],[-95.60258,30.13279],[-95.59091,30.13606],[-95.5881,30.13783],[-95.58423,30.14656],[-95.58061,30.14991],[-95.56988,30.15374],[-95.56992,30.15741],[-95.56519,30.16068],[-95.56025,30.15833],[-95.55777,30.16055],[-95.55925,30.16311],[-95.55804,30.16553],[-95.55276,30.17011],[-95.54478,30.16909],[-95.54294,30.17048],[-95.5387,30.16854],[-95.537,30.16923],[-95.53168,30.16511],[-95.52953,30.16582],[-95.52498,30.16335],[-95.52436,30.15874],[-95.52,30.1529],[-95.51855,30.15223],[-95.51716,30.15401],[-95.5152,30.15117],[-95.49984,30.14248],[-95.49577,30.13181],[-95.49704,30.12883],[-95.49593,30.12601],[-95.49774,30.12585],[-95.49781,30.12349],[-95.49176,30.11492],[-95.49134,30.11082],[-95.48788,30.10781],[-95.4795,30.10638],[-95.47911,30.10473],[-95.47475,30.10323],[-95.47299,30.1046],[-95.47189,30.10337],[-95.46938,30.10463],[-95.46649,30.10365],[-95.46642,30.10501],[-95.46064,30.10563],[-95.45376,30.10464],[-95.45186,30.10818],[-95.43664,30.11037],[-95.43513,30.11298],[-95.42422,30.11549],[-95.42201,30.10965],[-95.41878,30.10851],[-95.41906,30.10505],[-95.41174,30.10085],[-95.41064,30.09794],[-95.41279,30.09516],[-95.4094,30.09264],[-95.40224,30.09166],[-95.39988,30.0899],[-95.3985,30.08583],[-95.39163,30.0827],[-95.38953,30.08521],[-95.38494,30.08575],[-95.38476,30.08777],[-95.37923,30.08748],[-95.37497,30.08637],[-95.37374,30.0803],[-95.36956,30.07796],[-95.36522,30.07663],[-95.36214,30.07839],[-95.35972,30.0767],[-95.34954,30.0764],[-95.34936,30.07361],[-95.33814,30.06608],[-95.33732,30.06333],[-95.32932,30.06249],[-95.32233,30.05362],[-95.31595,30.05384],[-95.31324,30.05078],[-95.30955,30.04562],[-95.31281,30.03599],[-95.31099,30.03289],[-95.3056,30.02977],[-95.30293,30.03202],[-95.29993,30.03219],[-95.293,30.0279],[-95.27099,30.0324],[-95.26414,30.03207],[-95.09671,30.16721],[-95.1659,30.34498],[-95.22649,30.31986],[-95.22537,30.32149],[-95.22761,30.32597],[-95.22197,30.33233],[-95.22075,30.33707],[-95.2114,30.33862],[-95.20892,30.34356],[-95.20775,30.34314],[-95.20631,30.34634],[-95.20332,30.34786],[-95.2038,30.35201],[-95.21597,30.35452],[-95.22072,30.3616],[-95.22699,30.36373],[-95.22853,30.36929],[-95.23336,30.3721],[-95.2368,30.37958],[-95.25011,30.38349],[-95.26334,30.38426],[-95.26863,30.38643],[-95.27703,30.39354],[-95.28761,30.3953],[-95.30799,30.40545],[-95.31084,30.41039],[-95.3141,30.41237],[-95.31696,30.4194],[-95.32953,30.43319],[-95.33098,30.43793],[-95.33028,30.4431],[-95.33598,30.44946],[-95.3414,30.46452],[-95.3507,30.47606],[-95.35019,30.4795],[-95.35336,30.48755],[-95.35288,30.49357],[-95.36187,30.50892],[-95.59888,30.50898],[-95.83024,30.63028]]]}},{"type":"Feature","id":"TX:354:48085","properties":{"destinationId":"354","locality":"Plano","definition":"Collin","state":"TX","stateName":"Texas","county":"Collin County","countyGeoid":"48085","countyGeoids":["48085"],"coverage":"complete-counties","sourceType":"gsa_county_defined_rate_area"},"geometry":{"type":"Polygon","coordinates":[[[-96.8441,32.98891],[-96.84412,32.98744],[-96.52154,32.98291],[-96.29723,32.98175],[-96.29541,33.35194],[-96.3845,33.34112],[-96.3846,33.39783],[-96.38647,33.39808],[-96.61012,33.40049],[-96.83411,33.4055],[-96.8441,32.98891]]]}},{"type":"Feature","id":"TX:356:48029","properties":{"destinationId":"356","locality":"San Antonio","definition":"Bexar","state":"TX","stateName":"Texas","county":"Bexar County","countyGeoid":"48029","countyGeoids":["48029"],"coverage":"complete-counties","sourceType":"gsa_county_defined_rate_area"},"geometry":{"type":"Polygon","coordinates":[[[-98.80655,29.69071],[-98.80476,29.25069],[-98.79948,29.2487],[-98.40734,29.11444],[-98.28702,29.25763],[-98.13719,29.44043],[-98.12868,29.44536],[-98.1207,29.44698],[-98.1205,29.44967],[-98.12677,29.45474],[-98.12686,29.45722],[-98.12012,29.45757],[-98.1169,29.46388],[-98.12074,29.47337],[-98.12409,29.474],[-98.12488,29.47564],[-98.12227,29.4775],[-98.126,29.48179],[-98.12821,29.4826],[-98.13601,29.47914],[-98.13709,29.48119],[-98.13549,29.48401],[-98.13945,29.48248],[-98.14058,29.48415],[-98.1394,29.48536],[-98.14279,29.48646],[-98.14279,29.48403],[-98.14447,29.48423],[-98.14247,29.48161],[-98.14296,29.47974],[-98.15002,29.47567],[-98.15118,29.48056],[-98.15416,29.47786],[-98.16464,29.47809],[-98.16682,29.47991],[-98.16877,29.48709],[-98.16694,29.48962],[-98.16834,29.49615],[-98.17023,29.49786],[-98.1732,29.49451],[-98.17376,29.49663],[-98.17811,29.49762],[-98.18308,29.49666],[-98.18491,29.49339],[-98.18046,29.49278],[-98.17707,29.48484],[-98.18508,29.48609],[-98.18996,29.49284],[-98.18975,29.49665],[-98.18632,29.50132],[-98.19089,29.50946],[-98.19536,29.51111],[-98.19939,29.50966],[-98.19969,29.5136],[-98.19676,29.51534],[-98.19857,29.51733],[-98.20188,29.51687],[-98.20133,29.51905],[-98.20487,29.52218],[-98.21915,29.52393],[-98.21863,29.52669],[-98.22202,29.53366],[-98.22215,29.53799],[-98.22944,29.54195],[-98.22905,29.54344],[-98.22186,29.54386],[-98.22094,29.54619],[-98.22265,29.54903],[-98.22635,29.54964],[-98.22741,29.547],[-98.22992,29.54685],[-98.23254,29.55402],[-98.2392,29.55658],[-98.24842,29.55538],[-98.24888,29.55152],[-98.25144,29.54983],[-98.2538,29.55031],[-98.25532,29.55479],[-98.25752,29.55525],[-98.26008,29.55016],[-98.25781,29.54571],[-98.25302,29.54321],[-98.25519,29.54041],[-98.27039,29.54573],[-98.27084,29.54882],[-98.27376,29.55127],[-98.27907,29.55114],[-98.28418,29.55326],[-98.28846,29.55974],[-98.29802,29.5611],[-98.29985,29.56687],[-98.30254,29.56989],[-98.3029,29.57465],[-98.30614,29.57864],[-98.30412,29.58474],[-98.31194,29.59056],[-98.31083,29.59808],[-98.31222,29.6018],[-98.32578,29.60358],[-98.32782,29.60582],[-98.32856,29.61043],[-98.33919,29.6131],[-98.34234,29.61719],[-98.34525,29.6183],[-98.34054,29.62971],[-98.3476,29.64505],[-98.34273,29.65344],[-98.35663,29.65865],[-98.3608,29.66523],[-98.36376,29.66673],[-98.37891,29.66295],[-98.38165,29.67408],[-98.38434,29.67653],[-98.38411,29.67859],[-98.37732,29.68292],[-98.37632,29.68706],[-98.38083,29.69628],[-98.38016,29.70393],[-98.37507,29.70637],[-98.37127,29.705],[-98.36233,29.70597],[-98.35456,29.70386],[-98.34135,29.70965],[-98.33862,29.72179],[-98.34965,29.72803],[-98.35259,29.73436],[-98.35582,29.73407],[-98.35938,29.72904],[-98.36983,29.72069],[-98.37521,29.71998],[-98.37373,29.73059],[-98.38435,29.73514],[-98.38826,29.73394],[-98.39097,29.73648],[-98.39917,29.73811],[-98.39813,29.74225],[-98.40236,29.748],[-98.40805,29.74847],[-98.41535,29.74679],[-98.42067,29.74353],[-98.42175,29.73872],[-98.42048,29.73381],[-98.41689,29.7317],[-98.42972,29.72398],[-98.42684,29.71769],[-98.43093,29.71575],[-98.43834,29.71563],[-98.44385,29.71965],[-98.44461,29.72615],[-98.44268,29.73229],[-98.44598,29.73588],[-98.45749,29.73156],[-98.46213,29.7335],[-98.46597,29.73854],[-98.47699,29.73344],[-98.47978,29.73508],[-98.49235,29.73593],[-98.49696,29.73849],[-98.50397,29.73864],[-98.52337,29.74524],[-98.52609,29.74342],[-98.52538,29.74079],[-98.52678,29.74044],[-98.52829,29.74366],[-98.53396,29.74679],[-98.53402,29.75235],[-98.54372,29.75205],[-98.54731,29.75362],[-98.54807,29.76],[-98.55049,29.76071],[-98.555,29.75863],[-98.55512,29.75526],[-98.5593,29.75148],[-98.56554,29.75266],[-98.56857,29.74833],[-98.57457,29.75042],[-98.57929,29.74548],[-98.57893,29.7436],[-98.58285,29.74114],[-98.58668,29.74245],[-98.58849,29.7476],[-98.59311,29.74568],[-98.60041,29.74998],[-98.6034,29.74952],[-98.60474,29.74726],[-98.60129,29.74487],[-98.60047,29.74126],[-98.60338,29.73993],[-98.6116,29.74006],[-98.61434,29.7376],[-98.61738,29.73964],[-98.61783,29.74385],[-98.62876,29.74415],[-98.63402,29.74156],[-98.64354,29.74036],[-98.64623,29.7436],[-98.64547,29.74786],[-98.65094,29.754],[-98.6525,29.75354],[-98.65305,29.74883],[-98.656,29.74777],[-98.66139,29.74915],[-98.66374,29.74628],[-98.66057,29.74372],[-98.66025,29.74157],[-98.66324,29.74103],[-98.66958,29.74354],[-98.67383,29.74212],[-98.6745,29.7388],[-98.67658,29.73727],[-98.68294,29.73935],[-98.68755,29.73872],[-98.69272,29.73521],[-98.70042,29.7374],[-98.69989,29.73271],[-98.70779,29.73237],[-98.71767,29.72531],[-98.72323,29.72961],[-98.72606,29.72775],[-98.73413,29.72945],[-98.72895,29.72231],[-98.73425,29.72136],[-98.73816,29.71658],[-98.74402,29.71648],[-98.74805,29.72056],[-98.76005,29.72232],[-98.76666,29.71955],[-98.77084,29.72136],[-98.77512,29.71969],[-98.77878,29.72017],[-98.80655,29.69071]]]}},{"type":"Feature","id":"TX:357:48061","properties":{"destinationId":"357","locality":"South Padre Island","definition":"Cameron","state":"TX","stateName":"Texas","county":"Cameron County","countyGeoid":"48061","countyGeoids":["48061"],"coverage":"complete-counties","sourceType":"gsa_county_defined_rate_area"},"geometry":{"type":"MultiPolygon","coordinates":[[[[-97.24047,26.41119],[-97.24151,26.40833],[-97.23629,26.40368],[-97.22203,26.37707],[-97.21953,26.36961],[-97.22548,26.3629],[-97.21228,26.3365],[-97.20242,26.29847],[-97.20123,26.28675],[-97.19731,26.27801],[-97.19386,26.2438],[-97.18887,26.23261],[-97.17901,26.18079],[-97.17901,26.17439],[-97.18225,26.1629],[-97.18101,26.15958],[-97.18244,26.14831],[-97.1792,26.14533],[-97.17816,26.135],[-97.17445,26.12919],[-97.17493,26.12587],[-97.17274,26.12365],[-97.17207,26.11793],[-97.17378,26.11468],[-97.16694,26.09283],[-97.17027,26.0848],[-97.16932,26.07771],[-97.16276,26.06712],[-97.16019,26.06994],[-97.15371,26.06758],[-97.16184,26.09579],[-97.18214,26.23716],[-97.20165,26.32495],[-97.22495,26.4112],[-97.24047,26.41119]]],[[[-97.86217,26.06111],[-97.8605,26.05292],[-97.84959,26.05211],[-97.84232,26.05358],[-97.8374,26.05241],[-97.83466,26.04601],[-97.83278,26.04616],[-97.82594,26.05588],[-97.81722,26.05611],[-97.81483,26.05245],[-97.81645,26.04706],[-97.81479,26.04431],[-97.81126,26.0454],[-97.81238,26.04841],[-97.81097,26.05551],[-97.80132,26.06016],[-97.79915,26.05332],[-97.79216,26.05289],[-97.78903,26.04974],[-97.78976,26.04742],[-97.79441,26.04745],[-97.79722,26.0437],[-97.79764,26.04021],[-97.79233,26.03417],[-97.78307,26.03404],[-97.77775,26.02939],[-97.77619,26.03006],[-97.77572,26.03217],[-97.76941,26.03562],[-97.77646,26.04074],[-97.77683,26.04397],[-97.76898,26.0475],[-97.76312,26.04245],[-97.76381,26.02733],[-97.76104,26.0257],[-97.75852,26.02656],[-97.75164,26.03148],[-97.74972,26.03112],[-97.74798,26.02625],[-97.7424,26.02981],[-97.73614,26.02712],[-97.73822,26.02198],[-97.73574,26.02161],[-97.7317,26.02331],[-97.72647,26.02266],[-97.72538,26.02443],[-97.72627,26.02731],[-97.73313,26.0274],[-97.7349,26.03202],[-97.71992,26.03084],[-97.71839,26.0296],[-97.72134,26.02346],[-97.71862,26.02372],[-97.70966,26.02619],[-97.70884,26.03603],[-97.70655,26.0375],[-97.70252,26.03121],[-97.69713,26.03039],[-97.69707,26.02346],[-97.69137,26.01899],[-97.69024,26.02255],[-97.69355,26.02679],[-97.69389,26.0313],[-97.69226,26.03234],[-97.68605,26.02699],[-97.67494,26.02616],[-97.67342,26.0279],[-97.67604,26.03097],[-97.67455,26.03303],[-97.67123,26.03401],[-97.66798,26.02887],[-97.66472,26.03137],[-97.66273,26.03808],[-97.66052,26.03371],[-97.66092,26.03074],[-97.6677,26.02374],[-97.66827,26.01976],[-97.65747,26.0198],[-97.65094,26.01639],[-97.65024,26.0238],[-97.64522,26.02776],[-97.63904,26.02297],[-97.6368,26.01758],[-97.63844,26.01313],[-97.64122,26.01183],[-97.64818,26.01267],[-97.64956,26.01132],[-97.64772,26.00849],[-97.63963,26.00416],[-97.6348,25.99951],[-97.62965,26.00568],[-97.62649,26.00557],[-97.62831,25.99762],[-97.62703,25.99691],[-97.62382,25.9967],[-97.6193,26.00292],[-97.61767,26.00108],[-97.62077,25.99206],[-97.62364,25.99196],[-97.63041,25.99641],[-97.63286,25.99552],[-97.63444,25.99027],[-97.63157,25.98818],[-97.62172,25.98912],[-97.61767,25.97996],[-97.60828,25.97659],[-97.60808,25.97128],[-97.61037,25.96584],[-97.60215,25.95738],[-97.59963,25.95673],[-97.5947,25.96117],[-97.58237,25.96247],[-97.58304,25.95544],[-97.57972,25.9438],[-97.57794,25.94286],[-97.57305,25.9464],[-97.57467,25.95278],[-97.57373,25.95391],[-97.56765,25.95183],[-97.56632,25.94507],[-97.58319,25.93741],[-97.58411,25.93468],[-97.58234,25.93268],[-97.57457,25.93513],[-97.56657,25.9335],[-97.56585,25.93168],[-97.56816,25.92793],[-97.56383,25.92572],[-97.56013,25.92594],[-97.55936,25.93226],[-97.55538,25.93714],[-97.54763,25.93515],[-97.54576,25.93288],[-97.54548,25.92517],[-97.54253,25.92237],[-97.54296,25.92004],[-97.53018,25.91985],[-97.53041,25.91632],[-97.5334,25.91275],[-97.53342,25.90908],[-97.53286,25.90763],[-97.52839,25.90631],[-97.52328,25.89721],[-97.52339,25.88985],[-97.52176,25.88646],[-97.51116,25.88743],[-97.50604,25.89069],[-97.49889,25.89872],[-97.49739,25.89864],[-97.49643,25.8958],[-97.49669,25.87968],[-97.49281,25.88081],[-97.48847,25.88538],[-97.48647,25.88399],[-97.48764,25.87902],[-97.48486,25.8787],[-97.46874,25.88863],[-97.46846,25.88371],[-97.47422,25.88012],[-97.47474,25.87804],[-97.47232,25.8756],[-97.46951,25.87554],[-97.46491,25.88125],[-97.45572,25.884],[-97.45473,25.87934],[-97.45702,25.86894],[-97.45426,25.86716],[-97.44864,25.87213],[-97.44474,25.86706],[-97.44764,25.86329],[-97.44841,25.85927],[-97.45226,25.85831],[-97.45406,25.85482],[-97.45266,25.85373],[-97.44818,25.85599],[-97.44445,25.85575],[-97.44585,25.85137],[-97.44297,25.84809],[-97.43535,25.84938],[-97.42489,25.84063],[-97.41266,25.84118],[-97.41467,25.84674],[-97.41379,25.85705],[-97.41151,25.86113],[-97.40842,25.86196],[-97.40824,25.85584],[-97.4104,25.85058],[-97.40825,25.84563],[-97.4064,25.8448],[-97.40225,25.85193],[-97.39964,25.85155],[-97.39905,25.84959],[-97.40062,25.84667],[-97.40041,25.84197],[-97.40213,25.84038],[-97.40654,25.84027],[-97.40699,25.83885],[-97.40525,25.83773],[-97.399,25.83911],[-97.39451,25.83738],[-97.38952,25.83934],[-97.38714,25.84385],[-97.38258,25.83979],[-97.37286,25.84012],[-97.37062,25.84982],[-97.3641,25.85003],[-97.36658,25.85356],[-97.3761,25.85421],[-97.37618,25.85573],[-97.36974,25.85804],[-97.36236,25.86846],[-97.35766,25.86918],[-97.35909,25.87204],[-97.35857,25.87813],[-97.35993,25.87988],[-97.3625,25.87775],[-97.37334,25.87848],[-97.37404,25.87976],[-97.36688,25.885],[-97.35663,25.88768],[-97.35883,25.88972],[-97.36343,25.88969],[-97.36696,25.89175],[-97.36598,25.90245],[-97.3745,25.90566],[-97.37512,25.9072],[-97.37257,25.90948],[-97.37058,25.90865],[-97.36837,25.9099],[-97.36939,25.91313],[-97.36764,25.91568],[-97.3632,25.91564],[-97.35544,25.91943],[-97.35161,25.9234],[-97.34827,25.93114],[-97.34251,25.92898],[-97.33654,25.92915],[-97.33834,25.92148],[-97.33734,25.92015],[-97.33194,25.92174],[-97.33124,25.91856],[-97.326,25.91769],[-97.32465,25.91859],[-97.32491,25.92404],[-97.32056,25.9298],[-97.31518,25.93147],[-97.30974,25.9264],[-97.3074,25.92681],[-97.30481,25.92842],[-97.30436,25.93572],[-97.30303,25.937],[-97.30072,25.93722],[-97.29581,25.93344],[-97.29179,25.9363],[-97.27716,25.93544],[-97.27687,25.93821],[-97.28104,25.94346],[-97.27861,25.94753],[-97.28474,25.94949],[-97.28944,25.95377],[-97.28445,25.95916],[-97.28285,25.95923],[-97.28002,25.95429],[-97.27671,25.95215],[-97.26086,25.95093],[-97.24959,25.94828],[-97.24524,25.94922],[-97.2433,25.95332],[-97.23987,25.95497],[-97.22923,25.95875],[-97.22535,25.95909],[-97.22092,25.95727],[-97.20957,25.96357],[-97.20716,25.96365],[-97.20606,25.95865],[-97.19789,25.95793],[-97.19032,25.95386],[-97.18708,25.95558],[-97.18658,25.95878],[-97.1786,25.96146],[-97.17734,25.96496],[-97.17526,25.9655],[-97.17024,25.96125],[-97.16589,25.96028],[-97.16,25.96237],[-97.15819,25.96036],[-97.16029,25.95024],[-97.15895,25.94912],[-97.15661,25.94902],[-97.14937,25.95336],[-97.14724,25.9564],[-97.15321,26.03891],[-97.1525,26.05269],[-97.14966,26.06414],[-97.15856,26.06091],[-97.16498,26.06388],[-97.19568,26.04656],[-97.1983,26.06668],[-97.19005,26.06987],[-97.18969,26.07158],[-97.19397,26.07148],[-97.19965,26.07704],[-97.20805,26.07959],[-97.24698,26.08035],[-97.26942,26.08608],[-97.2798,26.09206],[-97.29059,26.10478],[-97.29643,26.108],[-97.29539,26.11241],[-97.30379,26.11817],[-97.31023,26.11756],[-97.31254,26.12034],[-97.30792,26.12834],[-97.30597,26.12844],[-97.30562,26.12614],[-97.30244,26.12438],[-97.29768,26.12513],[-97.29514,26.1275],[-97.29499,26.13004],[-97.29302,26.13019],[-97.2898,26.12663],[-97.2887,26.11797],[-97.28522,26.11694],[-97.28275,26.11909],[-97.28534,26.12744],[-97.29361,26.13758],[-97.29891,26.14756],[-97.29498,26.15535],[-97.29926,26.15972],[-97.30152,26.1657],[-97.30364,26.16622],[-97.30307,26.17082],[-97.29609,26.18239],[-97.29482,26.19231],[-97.29724,26.20334],[-97.29882,26.20316],[-97.29882,26.20121],[-97.30449,26.20249],[-97.31673,26.22402],[-97.3121,26.22562],[-97.30889,26.22904],[-97.30675,26.23532],[-97.30723,26.2397],[-97.30033,26.25312],[-97.29879,26.26069],[-97.29986,26.26741],[-97.30223,26.27199],[-97.30616,26.27401],[-97.31389,26.27341],[-97.31602,26.27092],[-97.31935,26.27028],[-97.32281,26.27196],[-97.32434,26.27732],[-97.31911,26.27934],[-97.30984,26.28829],[-97.3077,26.28755],[-97.30378,26.28083],[-97.29653,26.277],[-97.28619,26.26751],[-97.27989,26.27092],[-97.2812,26.28051],[-97.28619,26.28435],[-97.29023,26.29341],[-97.297,26.29607],[-97.32339,26.35242],[-97.32909,26.35912],[-97.3298,26.36807],[-97.33492,26.37606],[-97.33503,26.37999],[-97.34874,26.41104],[-97.3865,26.41044],[-97.39387,26.40549],[-97.3943,26.40212],[-97.39844,26.39614],[-97.40108,26.38545],[-97.41184,26.37343],[-97.4178,26.37013],[-97.42129,26.36614],[-97.43088,26.36332],[-97.43728,26.33723],[-97.44699,26.32495],[-97.45563,26.32579],[-97.45904,26.33179],[-97.46571,26.33238],[-97.46622,26.33586],[-97.46455,26.33995],[-97.46661,26.34271],[-97.47489,26.34128],[-97.46791,26.33216],[-97.46974,26.32988],[-97.47934,26.33587],[-97.48547,26.33709],[-97.49264,26.33671],[-97.50376,26.33273],[-97.50766,26.33472],[-97.50904,26.33358],[-97.50375,26.32368],[-97.50133,26.3221],[-97.50082,26.31885],[-97.50569,26.31324],[-97.51257,26.3131],[-97.51469,26.31534],[-97.50787,26.31706],[-97.50659,26.32082],[-97.51321,26.3272],[-97.52131,26.32584],[-97.52401,26.32355],[-97.52709,26.31659],[-97.52585,26.30451],[-97.52758,26.2993],[-97.86188,26.34816],[-97.86179,26.07012],[-97.85901,26.06654],[-97.86217,26.06111]]]]}},{"type":"Feature","id":"TX:471:48003","properties":{"destinationId":"471","locality":"Midland / Odessa","definition":"Midland / Andrews / Ector / Martin","state":"TX","stateName":"Texas","county":"Andrews County","countyGeoid":"48003","countyGeoids":["48003","48135","48317","48329"],"coverage":"complete-counties","sourceType":"gsa_county_defined_rate_area"},"geometry":{"type":"Polygon","coordinates":[[[-103.0647,32.52219],[-103.06434,32.08705],[-102.80156,32.08715],[-102.79909,32.08579],[-102.21125,32.0868],[-102.21104,32.52324],[-103.0647,32.52219]]]}},{"type":"Feature","id":"TX:471:48135","properties":{"destinationId":"471","locality":"Midland / Odessa","definition":"Midland / Andrews / Ector / Martin","state":"TX","stateName":"Texas","county":"Ector County","countyGeoid":"48135","countyGeoids":["48003","48135","48317","48329"],"coverage":"complete-counties","sourceType":"gsa_county_defined_rate_area"},"geometry":{"type":"Polygon","coordinates":[[[-102.79909,32.08579],[-102.79894,31.65178],[-102.28734,31.65128],[-102.28705,32.08699],[-102.79909,32.08579]]]}},{"type":"Feature","id":"TX:471:48317","properties":{"destinationId":"471","locality":"Midland / Odessa","definition":"Midland / Andrews / Ector / Martin","state":"TX","stateName":"Texas","county":"Martin County","countyGeoid":"48317","countyGeoids":["48003","48135","48317","48329"],"coverage":"complete-counties","sourceType":"gsa_county_defined_rate_area"},"geometry":{"type":"Polygon","coordinates":[[[-102.21103,32.17704],[-102.21125,32.0868],[-101.69501,32.08753],[-101.68874,32.52522],[-102.21104,32.52324],[-102.21103,32.17704]]]}},{"type":"Feature","id":"TX:471:48329","properties":{"destinationId":"471","locality":"Midland / Odessa","definition":"Midland / Andrews / Ector / Martin","state":"TX","stateName":"Texas","county":"Midland County","countyGeoid":"48329","countyGeoids":["48003","48135","48317","48329"],"coverage":"complete-counties","sourceType":"gsa_county_defined_rate_area"},"geometry":{"type":"Polygon","coordinates":[[[-102.28743,31.87368],[-102.28734,31.65128],[-101.7758,31.65132],[-101.77608,32.08692],[-102.28705,32.08699],[-102.28743,31.87368]]]}},{"type":"Feature","id":"TX:486:48227","properties":{"destinationId":"486","locality":"Big Spring","definition":"Howard","state":"TX","stateName":"Texas","county":"Howard County","countyGeoid":"48227","countyGeoids":["48227"],"coverage":"complete-counties","sourceType":"gsa_county_defined_rate_area"},"geometry":{"type":"Polygon","coordinates":[[[-101.69345,32.19611],[-101.69501,32.08753],[-101.184,32.08721],[-101.17457,32.52411],[-101.68874,32.52522],[-101.69345,32.19611]]]}},{"type":"Feature","id":"TX:492:48389","properties":{"destinationId":"492","locality":"Pecos","definition":"Reeves","state":"TX","stateName":"Texas","county":"Reeves County","countyGeoid":"48389","countyGeoids":["48389"],"coverage":"complete-counties","sourceType":"gsa_county_defined_rate_area"},"geometry":{"type":"Polygon","coordinates":[[[-104.10103,31.12474],[-104.10235,31.1052],[-103.58508,30.76647],[-103.01104,31.37131],[-103.01042,31.377],[-103.01532,31.37572],[-103.0239,31.37957],[-103.02677,31.37797],[-103.02878,31.3798],[-103.03527,31.37834],[-103.03664,31.38061],[-103.0401,31.38015],[-103.04617,31.38366],[-103.04924,31.38392],[-103.04958,31.3827],[-103.0529,31.38375],[-103.0523,31.38506],[-103.05832,31.38492],[-103.0567,31.38343],[-103.0664,31.37757],[-103.06567,31.37457],[-103.06771,31.37349],[-103.06806,31.37039],[-103.06323,31.36796],[-103.06764,31.36508],[-103.08171,31.36418],[-103.09014,31.36537],[-103.09645,31.36385],[-103.09974,31.36534],[-103.10516,31.36401],[-103.10655,31.36122],[-103.10748,31.36335],[-103.11028,31.36418],[-103.12393,31.36519],[-103.12833,31.36739],[-103.12868,31.36454],[-103.13019,31.36386],[-103.14249,31.36541],[-103.15859,31.37233],[-103.16903,31.37242],[-103.18122,31.37024],[-103.19368,31.37174],[-103.19968,31.37616],[-103.21022,31.37958],[-103.21382,31.38229],[-103.2266,31.38407],[-103.23003,31.38689],[-103.23447,31.38666],[-103.23766,31.38916],[-103.24493,31.38937],[-103.25106,31.40134],[-103.25413,31.40169],[-103.25613,31.40668],[-103.25779,31.4073],[-103.25736,31.41067],[-103.25952,31.41244],[-103.25874,31.41771],[-103.25519,31.42034],[-103.25977,31.42537],[-103.26137,31.42514],[-103.26168,31.42757],[-103.26704,31.4276],[-103.2674,31.42559],[-103.26896,31.42709],[-103.27473,31.42368],[-103.27284,31.42325],[-103.27671,31.42062],[-103.27432,31.42061],[-103.27435,31.41696],[-103.27634,31.41804],[-103.27681,31.41572],[-103.27912,31.41443],[-103.27842,31.41557],[-103.28065,31.41578],[-103.28063,31.41854],[-103.28259,31.41706],[-103.28468,31.41791],[-103.28278,31.4196],[-103.29329,31.4217],[-103.29914,31.41966],[-103.30294,31.42122],[-103.30672,31.42017],[-103.30695,31.41812],[-103.31071,31.41616],[-103.31588,31.41792],[-103.32994,31.412],[-103.33405,31.41478],[-103.33487,31.41299],[-103.33762,31.4178],[-103.34035,31.41671],[-103.34234,31.42018],[-103.3441,31.41975],[-103.34459,31.42225],[-103.34786,31.42098],[-103.34921,31.42354],[-103.35842,31.41755],[-103.35791,31.41526],[-103.36106,31.41501],[-103.36205,31.41618],[-103.35953,31.41751],[-103.36176,31.41903],[-103.36372,31.41497],[-103.36574,31.41602],[-103.36812,31.41413],[-103.37151,31.41641],[-103.36763,31.41799],[-103.37216,31.4187],[-103.37371,31.41722],[-103.38029,31.41927],[-103.381,31.41689],[-103.38464,31.41867],[-103.38425,31.42263],[-103.3887,31.42446],[-103.39103,31.42955],[-103.39381,31.43133],[-103.3993,31.43145],[-103.39905,31.43394],[-103.40121,31.43169],[-103.40735,31.43194],[-103.40745,31.43022],[-103.41009,31.42886],[-103.4122,31.43],[-103.41858,31.42616],[-103.42682,31.4285],[-103.43054,31.43146],[-103.43562,31.43053],[-103.44261,31.43372],[-103.44095,31.43086],[-103.44373,31.43063],[-103.4422,31.42996],[-103.44349,31.42925],[-103.44252,31.42794],[-103.44532,31.4272],[-103.44314,31.42592],[-103.44668,31.42438],[-103.45013,31.42638],[-103.45431,31.42582],[-103.4566,31.42856],[-103.45943,31.42849],[-103.45884,31.43002],[-103.46231,31.42987],[-103.46242,31.43132],[-103.46813,31.43415],[-103.46653,31.43569],[-103.46837,31.43791],[-103.47033,31.43728],[-103.47213,31.44028],[-103.47597,31.44002],[-103.47724,31.4423],[-103.4763,31.44483],[-103.48303,31.4471],[-103.48373,31.45055],[-103.48668,31.45277],[-103.48658,31.45507],[-103.4891,31.45596],[-103.48994,31.45971],[-103.48698,31.46239],[-103.48881,31.46379],[-103.48829,31.46644],[-103.48635,31.46744],[-103.48897,31.46853],[-103.48365,31.46918],[-103.48092,31.47515],[-103.48593,31.47882],[-103.48558,31.48182],[-103.49004,31.48272],[-103.48977,31.48693],[-103.49368,31.48688],[-103.49545,31.48981],[-103.49307,31.49085],[-103.4941,31.49298],[-103.49592,31.49231],[-103.49654,31.49346],[-103.4956,31.4985],[-103.50067,31.5018],[-103.49992,31.50371],[-103.50384,31.50631],[-103.5034,31.51569],[-103.49884,31.5163],[-103.49921,31.51992],[-103.49569,31.5217],[-103.49955,31.52254],[-103.49722,31.52531],[-103.50015,31.52753],[-103.50229,31.52708],[-103.50264,31.52854],[-103.49992,31.52896],[-103.50009,31.53198],[-103.49749,31.53183],[-103.49876,31.53583],[-103.49594,31.53959],[-103.4967,31.54816],[-103.4956,31.55029],[-103.49812,31.5496],[-103.50068,31.55226],[-103.50179,31.55428],[-103.49904,31.55551],[-103.50037,31.55767],[-103.50022,31.55597],[-103.50164,31.55564],[-103.50173,31.55758],[-103.5042,31.55887],[-103.50175,31.55946],[-103.50232,31.56097],[-103.50548,31.5609],[-103.5024,31.56316],[-103.50349,31.56402],[-103.50578,31.56238],[-103.50805,31.56407],[-103.50849,31.56519],[-103.50672,31.56588],[-103.50857,31.56616],[-103.50758,31.5694],[-103.51083,31.56958],[-103.5099,31.56759],[-103.51165,31.56707],[-103.51474,31.57688],[-103.51286,31.57819],[-103.5152,31.57921],[-103.5139,31.58282],[-103.51016,31.57972],[-103.51175,31.58208],[-103.50968,31.58503],[-103.51085,31.58631],[-103.50742,31.58782],[-103.50916,31.58699],[-103.51154,31.58966],[-103.5107,31.59142],[-103.50832,31.58968],[-103.50579,31.59062],[-103.50852,31.59232],[-103.50488,31.59253],[-103.50709,31.5945],[-103.50683,31.59597],[-103.5042,31.59665],[-103.5056,31.59928],[-103.50421,31.59962],[-103.50465,31.601],[-103.50623,31.60267],[-103.50801,31.60227],[-103.50758,31.606],[-103.51107,31.60775],[-103.5123,31.61229],[-103.51414,31.6129],[-103.5103,31.61413],[-103.51033,31.61565],[-103.51315,31.61585],[-103.51102,31.618],[-103.51275,31.61887],[-103.51046,31.62098],[-103.51327,31.62344],[-103.50926,31.62307],[-103.50912,31.62554],[-103.51071,31.62412],[-103.51131,31.62627],[-103.51767,31.62524],[-103.51639,31.62846],[-103.52132,31.62884],[-103.52382,31.63234],[-103.53038,31.63296],[-103.52634,31.63458],[-103.52901,31.63436],[-103.53084,31.63601],[-103.52885,31.63803],[-103.53093,31.64228],[-103.53298,31.64044],[-103.53478,31.64251],[-103.53735,31.64115],[-103.54176,31.6433],[-103.54384,31.64237],[-103.55197,31.64461],[-103.55095,31.64282],[-103.55429,31.63959],[-103.55874,31.6408],[-103.56232,31.63291],[-103.56444,31.63424],[-103.57303,31.63229],[-103.58174,31.6349],[-103.58122,31.63662],[-103.58399,31.63773],[-103.58749,31.638],[-103.59167,31.6414],[-103.5918,31.6448],[-103.59649,31.64274],[-103.59493,31.64639],[-103.59923,31.64655],[-103.60058,31.64946],[-103.60503,31.64826],[-103.60506,31.65045],[-103.61017,31.65054],[-103.61147,31.65436],[-103.61489,31.65062],[-103.61633,31.65097],[-103.61574,31.65559],[-103.61958,31.65478],[-103.61825,31.65749],[-103.62139,31.65928],[-103.61916,31.6643],[-103.62332,31.66518],[-103.62216,31.66859],[-103.62552,31.66828],[-103.62948,31.67053],[-103.62961,31.67328],[-103.63242,31.67362],[-103.63208,31.67651],[-103.63527,31.68367],[-103.63357,31.6872],[-103.63602,31.68996],[-103.63297,31.69073],[-103.62921,31.68843],[-103.62083,31.68908],[-103.62573,31.70503],[-103.6278,31.70652],[-103.63233,31.70459],[-103.63822,31.70821],[-103.64768,31.70942],[-103.65146,31.71166],[-103.65947,31.7104],[-103.66378,31.71398],[-103.66931,31.71542],[-103.67199,31.72108],[-103.67603,31.72275],[-103.67827,31.73047],[-103.68066,31.73092],[-103.68204,31.73577],[-103.68562,31.73692],[-103.68477,31.74092],[-103.68882,31.74273],[-103.69187,31.74774],[-103.7006,31.7484],[-103.70758,31.74633],[-103.70748,31.74496],[-103.71186,31.74596],[-103.71946,31.74298],[-103.72371,31.74554],[-103.72514,31.7435],[-103.72108,31.74222],[-103.72096,31.74062],[-103.72401,31.73925],[-103.72695,31.74177],[-103.73074,31.7388],[-103.74523,31.73887],[-103.74681,31.73951],[-103.74537,31.74348],[-103.74655,31.74405],[-103.75106,31.74051],[-103.75455,31.74122],[-103.75831,31.7448],[-103.75884,31.74706],[-103.7567,31.75122],[-103.76216,31.74865],[-103.76325,31.75027],[-103.76094,31.75322],[-103.76687,31.75466],[-103.76615,31.76082],[-103.77007,31.75752],[-103.77174,31.75893],[-103.77084,31.76267],[-103.77612,31.76216],[-103.78217,31.76483],[-103.78183,31.76703],[-103.77795,31.76869],[-103.7833,31.77234],[-103.78342,31.7748],[-103.78924,31.77213],[-103.79132,31.77554],[-103.79331,31.77129],[-103.79738,31.77044],[-103.79936,31.77511],[-103.79844,31.77691],[-103.80308,31.77975],[-103.80478,31.7895],[-103.80946,31.79432],[-103.80772,31.80902],[-103.80946,31.81638],[-103.80712,31.82176],[-103.8084,31.82681],[-103.8213,31.83727],[-103.81307,31.84632],[-103.81274,31.84861],[-103.81499,31.85214],[-103.81274,31.85334],[-103.81317,31.85459],[-103.81987,31.85593],[-103.82225,31.8586],[-103.82137,31.86063],[-103.82868,31.86255],[-103.82736,31.86538],[-103.82812,31.86841],[-103.83105,31.86994],[-103.83164,31.87333],[-103.82831,31.8851],[-103.83006,31.88855],[-103.83854,31.88972],[-103.8482,31.88181],[-103.85805,31.88193],[-103.86444,31.8744],[-103.87187,31.87408],[-103.8735,31.86792],[-103.87663,31.86519],[-103.88083,31.86484],[-103.88321,31.86626],[-103.88545,31.87096],[-103.88296,31.87528],[-103.88279,31.88342],[-103.88066,31.88976],[-103.88527,31.89292],[-103.9014,31.89652],[-103.91225,31.90242],[-103.91885,31.91875],[-103.91571,31.93086],[-103.92025,31.93342],[-103.92061,31.93966],[-103.9224,31.94253],[-103.93362,31.9477],[-103.9409,31.94455],[-103.94859,31.95448],[-103.94113,31.96136],[-103.94151,31.96434],[-103.94809,31.9705],[-103.9492,31.97614],[-103.94779,31.9816],[-103.95009,31.98684],[-103.95888,31.98479],[-103.96303,31.9807],[-103.97446,31.97921],[-103.98033,31.98526],[-103.98406,31.99342],[-103.98018,32.00012],[-104.02452,32.00001],[-104.10103,31.12474]]]}}]}