{"type":"FeatureCollection","features":[{"type":"Feature","id":"UT:360:49043","properties":{"destinationId":"360","locality":"Park City","definition":"Summit","state":"UT","stateName":"Utah","county":"Summit County","countyGeoid":"49043","countyGeoids":["49043"],"coverage":"complete-counties","sourceType":"gsa_county_defined_rate_area"},"geometry":{"type":"Polygon","coordinates":[[[-111.64798,40.7763],[-111.64913,40.77344],[-111.64783,40.77239],[-111.64146,40.77127],[-111.63736,40.76819],[-111.63741,40.7639],[-111.63036,40.7608],[-111.62539,40.76102],[-111.62133,40.75822],[-111.62348,40.75347],[-111.61745,40.74642],[-111.62091,40.74241],[-111.62418,40.7416],[-111.62469,40.74002],[-111.62166,40.73773],[-111.62347,40.73174],[-111.62264,40.73007],[-111.61334,40.72794],[-111.61632,40.72278],[-111.61464,40.71938],[-111.61179,40.71888],[-111.59396,40.70278],[-111.59273,40.69912],[-111.59917,40.69206],[-111.60111,40.68728],[-111.60302,40.67746],[-111.60238,40.67211],[-111.60454,40.66657],[-111.59674,40.65977],[-111.59387,40.65166],[-111.57949,40.6453],[-111.57735,40.64258],[-111.57605,40.63278],[-111.56897,40.6294],[-111.56742,40.62328],[-111.55758,40.6196],[-111.55902,40.6142],[-111.55327,40.60931],[-111.54659,40.61003],[-111.53996,40.61321],[-111.52794,40.61205],[-111.52489,40.60898],[-111.52049,40.6095],[-111.50871,40.60605],[-111.50049,40.60609],[-111.48926,40.59944],[-111.48561,40.60183],[-111.48262,40.60904],[-111.48666,40.61572],[-111.48688,40.62084],[-111.48031,40.62387],[-111.47795,40.62895],[-111.47416,40.63245],[-111.47612,40.63464],[-111.47369,40.6431],[-111.47166,40.64501],[-111.4663,40.64604],[-111.4638,40.64496],[-111.46041,40.65234],[-111.45081,40.65348],[-111.4479,40.65494],[-111.44516,40.65946],[-111.4348,40.66099],[-111.43037,40.66509],[-111.43619,40.67411],[-111.43664,40.68598],[-111.43424,40.68468],[-111.42756,40.68532],[-111.42342,40.68124],[-111.41219,40.68115],[-111.40386,40.68591],[-111.39931,40.69044],[-111.39361,40.69036],[-111.39266,40.68742],[-111.39415,40.684],[-111.38964,40.67784],[-111.39129,40.67105],[-111.3887,40.67044],[-111.3902,40.66064],[-111.38716,40.65805],[-111.38638,40.65327],[-111.38168,40.65148],[-111.3813,40.64622],[-111.37639,40.64261],[-111.375,40.63268],[-111.3715,40.63181],[-111.36862,40.62894],[-111.36627,40.63054],[-111.35843,40.62993],[-111.35002,40.62501],[-111.32621,40.62293],[-111.32553,40.62063],[-111.32162,40.61826],[-111.31319,40.61575],[-111.30289,40.60594],[-111.29832,40.60843],[-111.2942,40.60816],[-111.29208,40.60198],[-111.28543,40.59731],[-111.27863,40.59572],[-111.26534,40.58725],[-111.257,40.58504],[-111.25272,40.58184],[-111.23834,40.57756],[-111.23095,40.57857],[-111.22151,40.57433],[-111.2123,40.57394],[-111.19822,40.56581],[-111.19352,40.56751],[-111.18179,40.55876],[-111.16759,40.5576],[-111.1623,40.55106],[-111.15153,40.54833],[-111.14722,40.5496],[-111.13746,40.55828],[-111.13598,40.56811],[-111.13287,40.57247],[-111.13331,40.57498],[-111.12829,40.58175],[-111.12588,40.58195],[-111.1231,40.58929],[-111.12087,40.59046],[-111.10669,40.59406],[-111.08853,40.5922],[-111.07911,40.59455],[-111.05559,40.58188],[-111.03117,40.57596],[-111.0249,40.5775],[-111.02117,40.58038],[-111.01809,40.5833],[-111.01616,40.58888],[-111.0105,40.59207],[-110.98174,40.59126],[-110.97576,40.59314],[-110.96256,40.60493],[-110.96082,40.61105],[-110.96293,40.61524],[-110.9607,40.62421],[-110.9525,40.63235],[-110.95049,40.63836],[-110.94504,40.64648],[-110.94581,40.65611],[-110.94882,40.66133],[-110.94648,40.66505],[-110.94615,40.67052],[-110.93352,40.68034],[-110.90195,40.68219],[-110.90066,40.68354],[-110.90178,40.68858],[-110.90495,40.69321],[-110.90284,40.70655],[-110.89998,40.70787],[-110.89582,40.71322],[-110.8876,40.71448],[-110.88516,40.7165],[-110.88807,40.72027],[-110.89115,40.71993],[-110.89446,40.72357],[-110.89198,40.72712],[-110.87526,40.72832],[-110.86142,40.72155],[-110.85436,40.72219],[-110.84748,40.72527],[-110.83937,40.71999],[-110.83181,40.71802],[-110.82341,40.71048],[-110.80671,40.71157],[-110.80119,40.71341],[-110.79374,40.71902],[-110.78322,40.73096],[-110.77462,40.73136],[-110.76522,40.73703],[-110.76635,40.74139],[-110.75801,40.74227],[-110.75073,40.74771],[-110.743,40.74473],[-110.73382,40.74682],[-110.72824,40.74514],[-110.72184,40.74548],[-110.71927,40.74886],[-110.71168,40.7527],[-110.6961,40.74647],[-110.69053,40.74152],[-110.67598,40.73895],[-110.6663,40.74188],[-110.65674,40.74027],[-110.64759,40.74804],[-110.64651,40.75344],[-110.64013,40.75657],[-110.63374,40.76543],[-110.62574,40.76947],[-110.62129,40.76849],[-110.61899,40.76525],[-110.60702,40.75726],[-110.59462,40.75787],[-110.58883,40.76189],[-110.58318,40.76272],[-110.5802,40.75861],[-110.57606,40.75658],[-110.56944,40.75636],[-110.56202,40.7579],[-110.55249,40.76418],[-110.54703,40.77373],[-110.53352,40.77108],[-110.52845,40.76421],[-110.52394,40.76153],[-110.49781,40.76865],[-110.48725,40.78016],[-110.48097,40.775],[-110.47262,40.77184],[-110.46178,40.77582],[-110.46083,40.78001],[-110.45742,40.78307],[-110.45417,40.78144],[-110.44436,40.78125],[-110.4377,40.77778],[-110.43278,40.77828],[-110.42456,40.79195],[-110.416,40.78854],[-110.41119,40.78437],[-110.40026,40.7853],[-110.39597,40.7887],[-110.39192,40.78714],[-110.37896,40.78718],[-110.37622,40.78874],[-110.37437,40.78808],[-110.36678,40.79253],[-110.36533,40.79518],[-110.36061,40.79633],[-110.35517,40.80009],[-110.34894,40.80868],[-110.3513,40.81549],[-110.34274,40.82336],[-110.33113,40.81991],[-110.32032,40.82051],[-110.31216,40.82419],[-110.30142,40.82639],[-110.29673,40.83265],[-110.29305,40.8334],[-110.28981,40.82863],[-110.28588,40.82813],[-110.28033,40.82857],[-110.2711,40.83271],[-110.26157,40.83481],[-110.25562,40.83275],[-110.248,40.83269],[-110.2382,40.82819],[-110.22939,40.83081],[-110.22578,40.82646],[-110.2213,40.82557],[-110.21417,40.82739],[-110.20266,40.8218],[-110.18781,40.82614],[-110.18804,40.8244],[-110.18475,40.8215],[-110.1759,40.8177],[-110.17113,40.81676],[-110.16728,40.81988],[-110.1588,40.82102],[-110.14829,40.81733],[-110.14741,40.81418],[-110.1395,40.81099],[-110.12651,40.81494],[-110.12182,40.81135],[-110.11044,40.81134],[-110.10286,40.80792],[-110.08834,40.81106],[-110.07557,40.81004],[-110.06441,40.81421],[-110.05136,40.81255],[-110.04292,40.8206],[-110.03685,40.81831],[-110.02566,40.82058],[-110.01334,40.81374],[-110.00071,40.81368],[-110.00071,40.99735],[-110.50072,40.99475],[-110.53982,40.99635],[-111.04672,40.99796],[-111.04655,41.25163],[-111.06161,41.25108],[-111.07584,41.24327],[-111.09051,41.22566],[-111.10154,41.20771],[-111.1103,41.21469],[-111.12181,41.20883],[-111.13327,41.20678],[-111.1295,41.19756],[-111.14187,41.19033],[-111.14107,41.18708],[-111.16103,41.17606],[-111.1674,41.17613],[-111.17099,41.17447],[-111.17576,41.17029],[-111.18811,41.16962],[-111.20618,41.16227],[-111.22291,41.15178],[-111.22494,41.14848],[-111.23282,41.14288],[-111.24116,41.142],[-111.24453,41.1452],[-111.26266,41.14107],[-111.26497,41.14404],[-111.27467,41.14257],[-111.29059,41.1432],[-111.307,41.13093],[-111.31846,41.13244],[-111.32412,41.13746],[-111.33239,41.1381],[-111.33787,41.13304],[-111.34096,41.13282],[-111.34636,41.12867],[-111.35275,41.13033],[-111.36429,41.12831],[-111.36692,41.12994],[-111.36868,41.12201],[-111.36756,41.11963],[-111.37032,41.11782],[-111.37048,41.1154],[-111.37543,41.11216],[-111.37554,41.10944],[-111.37769,41.10782],[-111.37852,41.0984],[-111.38163,41.09686],[-111.38065,41.08699],[-111.38628,41.08487],[-111.38949,41.08541],[-111.39225,41.0816],[-111.39601,41.08017],[-111.40029,41.0813],[-111.40844,41.07494],[-111.41318,41.074],[-111.41728,41.07404],[-111.42287,41.07656],[-111.42406,41.08006],[-111.44757,41.08187],[-111.45446,41.07468],[-111.46741,41.07036],[-111.47208,41.06506],[-111.49054,41.06108],[-111.49463,41.06413],[-111.50026,41.06134],[-111.50751,41.06323],[-111.51185,41.05903],[-111.52364,41.05623],[-111.54105,41.04528],[-111.54559,41.03924],[-111.54537,41.03739],[-111.55066,41.03577],[-111.55507,41.0322],[-111.55297,41.02971],[-111.55742,41.02421],[-111.55731,41.02265],[-111.55338,41.02072],[-111.55444,41.01663],[-111.55875,41.011],[-111.56873,41.00288],[-111.56663,41.00048],[-111.57278,41.00069],[-111.57985,40.99591],[-111.58765,40.9963],[-111.59298,40.99302],[-111.59368,40.98634],[-111.58765,40.97872],[-111.58788,40.96565],[-111.58458,40.96201],[-111.57739,40.95842],[-111.57335,40.96104],[-111.56245,40.96018],[-111.55874,40.95928],[-111.55173,40.95407],[-111.54925,40.95403],[-111.54276,40.95467],[-111.53426,40.95815],[-111.52483,40.95342],[-111.52544,40.95013],[-111.52359,40.94592],[-111.5265,40.9385],[-111.52715,40.92361],[-111.5288,40.9191],[-111.52311,40.91922],[-111.51491,40.91689],[-111.51341,40.91324],[-111.50846,40.90942],[-111.51024,40.90497],[-111.50977,40.89778],[-111.50649,40.89706],[-111.50597,40.89462],[-111.50115,40.89202],[-111.49858,40.8845],[-111.49477,40.87953],[-111.48395,40.86999],[-111.47979,40.85987],[-111.48102,40.85455],[-111.48784,40.85432],[-111.49529,40.84413],[-111.49488,40.84221],[-111.49708,40.84054],[-111.50006,40.83202],[-111.51006,40.82107],[-111.51692,40.81939],[-111.51617,40.81279],[-111.51084,40.81038],[-111.51161,40.8079],[-111.51455,40.80546],[-111.51429,40.80043],[-111.51795,40.79818],[-111.51942,40.79169],[-111.5253,40.78902],[-111.52746,40.78575],[-111.54912,40.78077],[-111.55784,40.78069],[-111.55741,40.78254],[-111.55929,40.78469],[-111.57102,40.78558],[-111.57585,40.78846],[-111.58146,40.78927],[-111.58193,40.79158],[-111.5879,40.79369],[-111.58796,40.79751],[-111.59422,40.805],[-111.61323,40.81114],[-111.61661,40.81064],[-111.62432,40.8047],[-111.64648,40.79757],[-111.64874,40.79224],[-111.64304,40.78594],[-111.64581,40.78329],[-111.64534,40.77904],[-111.64798,40.7763]]]}},{"type":"Feature","id":"UT:361:49049","properties":{"destinationId":"361","locality":"Provo","definition":"Utah","state":"UT","stateName":"Utah","county":"Utah County","countyGeoid":"49049","countyGeoids":["49049"],"coverage":"complete-counties","sourceType":"gsa_county_defined_rate_area"},"geometry":{"type":"Polygon","coordinates":[[[-112.21323,40.45511],[-112.21317,40.4448],[-112.20948,40.43307],[-112.2049,40.43107],[-112.19467,40.42106],[-112.19791,40.41493],[-112.19985,40.4035],[-112.19857,40.4],[-112.20005,40.39736],[-112.1994,40.39056],[-112.20158,40.38815],[-112.19917,40.38254],[-112.19441,40.37954],[-112.18873,40.37249],[-112.19373,40.36789],[-112.1945,40.3612],[-112.18808,40.35489],[-112.18534,40.34849],[-112.18137,40.34589],[-112.17553,40.33584],[-112.17994,40.33214],[-112.19106,40.32939],[-112.19628,40.32584],[-112.19268,40.32289],[-112.1937,40.31834],[-112.19678,40.31711],[-112.19837,40.31345],[-112.19735,40.3088],[-112.1986,40.30691],[-112.19208,40.3041],[-112.1865,40.28686],[-112.18844,40.2857],[-112.18923,40.28164],[-112.18905,40.27354],[-112.1929,40.26894],[-112.1922,40.2645],[-112.18384,40.25813],[-112.18391,40.24996],[-112.17933,40.24936],[-112.17969,40.23224],[-112.17693,40.23004],[-112.17669,40.22772],[-112.17054,40.22557],[-112.1687,40.21931],[-112.16153,40.21706],[-112.15715,40.21929],[-112.15385,40.21822],[-112.15474,40.21484],[-112.14949,40.21217],[-112.15858,40.20663],[-112.15724,40.20323],[-112.1604,40.19885],[-112.14856,40.19536],[-112.14871,40.19048],[-112.14684,40.18966],[-112.1505,40.18768],[-112.15337,40.18216],[-112.15268,40.17902],[-112.14671,40.17835],[-112.14438,40.17325],[-112.14594,40.1709],[-112.15229,40.17145],[-112.1559,40.17017],[-112.15508,40.16855],[-112.15868,40.16339],[-112.16441,40.16198],[-112.17399,40.15429],[-112.17127,40.1487],[-112.16777,40.14667],[-112.17224,40.1412],[-112.17339,40.13468],[-112.1761,40.13081],[-112.1721,40.12716],[-112.16876,40.12671],[-112.16361,40.12319],[-112.16417,40.11875],[-112.16169,40.11736],[-112.16086,40.11432],[-112.15741,40.1141],[-112.15488,40.10875],[-112.15089,40.1073],[-112.15496,40.09969],[-112.15691,40.09871],[-112.15795,40.08911],[-112.17141,40.08555],[-112.17455,40.08183],[-112.17406,40.0797],[-112.17596,40.07772],[-112.17218,40.06827],[-112.17321,40.06619],[-112.1802,40.06704],[-112.18359,40.05966],[-112.17892,40.05373],[-112.17761,40.04736],[-112.17198,40.03948],[-112.17487,40.03527],[-112.17408,40.03272],[-112.17708,40.03059],[-112.17805,40.02657],[-112.17689,40.01943],[-112.1798,40.01166],[-112.17436,40.01104],[-112.1704,40.00782],[-112.16424,40.00826],[-112.16003,40.00676],[-112.15059,39.99759],[-112.15086,39.99345],[-112.14199,39.98964],[-112.14207,39.98671],[-112.13624,39.98244],[-112.13273,39.97747],[-112.12434,39.97411],[-112.10987,39.9738],[-112.1098,39.97064],[-112.104,39.96532],[-112.10214,39.95867],[-112.09572,39.95677],[-112.09414,39.95447],[-112.10253,39.94826],[-112.10321,39.94244],[-112.10626,39.9393],[-112.1025,39.93485],[-112.10431,39.9308],[-112.10359,39.92877],[-112.09887,39.92811],[-112.09303,39.93004],[-112.0926,39.92804],[-112.08525,39.92549],[-112.08514,39.92304],[-112.08303,39.92189],[-112.0832,39.91825],[-112.08058,39.91694],[-112.08126,39.91315],[-112.07645,39.91112],[-112.07221,39.91132],[-112.06255,39.90468],[-112.06111,39.89814],[-112.05694,39.89424],[-112.05351,39.8934],[-112.05956,39.88717],[-112.06039,39.88425],[-112.05915,39.88038],[-112.066,39.87613],[-112.07084,39.86971],[-112.08122,39.86508],[-112.07949,39.85696],[-112.08061,39.85326],[-112.07692,39.85284],[-112.07395,39.84707],[-112.07522,39.83969],[-112.07029,39.83789],[-112.06926,39.83382],[-112.06542,39.83004],[-112.06826,39.82753],[-112.07271,39.81214],[-112.07788,39.80849],[-112.07998,39.80196],[-112.07676,39.80013],[-112.08171,39.79413],[-112.08726,39.79063],[-112.08744,39.78603],[-112.08984,39.78193],[-112.0805,39.78128],[-112.07868,39.77884],[-112.06833,39.77736],[-112.06363,39.78192],[-112.06095,39.78215],[-112.05569,39.77731],[-112.04718,39.77685],[-112.04156,39.78343],[-112.03034,39.78122],[-112.0262,39.78269],[-112.02477,39.78652],[-112.01986,39.7871],[-112.01584,39.79198],[-112.00978,39.79532],[-112.00468,39.7955],[-112.00336,39.79978],[-111.995,39.80154],[-111.99047,39.8053],[-111.98916,39.81176],[-111.97575,39.80705],[-111.96939,39.80724],[-111.96272,39.81596],[-111.96417,39.82727],[-111.96144,39.8292],[-111.95717,39.83684],[-111.95042,39.83437],[-111.94891,39.83667],[-111.95005,39.83901],[-111.94801,39.84437],[-111.94828,39.84899],[-111.93709,39.85536],[-111.93812,39.85739],[-111.93363,39.86233],[-111.92788,39.86516],[-111.92518,39.87054],[-111.92662,39.87267],[-111.92168,39.87448],[-111.92106,39.88015],[-111.91533,39.88365],[-111.90946,39.89457],[-111.9028,39.89851],[-111.89649,39.8974],[-111.89113,39.89835],[-111.88986,39.90182],[-111.88471,39.90363],[-111.88155,39.9074],[-111.86596,39.90588],[-111.86188,39.90958],[-111.85849,39.91037],[-111.85843,39.91537],[-111.85597,39.91462],[-111.85074,39.91625],[-111.84597,39.91917],[-111.84477,39.92215],[-111.84071,39.92384],[-111.83381,39.92397],[-111.83177,39.93041],[-111.83271,39.93669],[-111.82711,39.947],[-111.82392,39.9477],[-111.82036,39.94331],[-111.80895,39.9387],[-111.80537,39.9348],[-111.79404,39.93068],[-111.79205,39.92724],[-111.78886,39.92603],[-111.78626,39.92136],[-111.7891,39.91533],[-111.78702,39.90926],[-111.78215,39.90748],[-111.783,39.90391],[-111.78085,39.90082],[-111.76866,39.89832],[-111.75789,39.89041],[-111.75702,39.88878],[-111.761,39.88389],[-111.75832,39.88052],[-111.75735,39.87595],[-111.75194,39.87387],[-111.75098,39.87158],[-111.73806,39.86418],[-111.73458,39.85647],[-111.73415,39.85417],[-111.73762,39.85139],[-111.74646,39.85012],[-111.7501,39.84078],[-111.74873,39.8332],[-111.75848,39.8245],[-111.7664,39.81077],[-111.75466,39.81227],[-111.62131,39.81316],[-111.52836,39.81203],[-111.07905,39.81223],[-111.07905,39.81413],[-110.85778,39.81328],[-110.85765,39.89971],[-111.0831,39.90006],[-111.08306,39.9432],[-111.11842,39.94348],[-111.11981,39.94531],[-111.13107,39.94733],[-111.12916,39.95162],[-111.12014,39.95727],[-111.12086,39.9597],[-111.1181,39.96203],[-111.11927,39.96816],[-111.12436,39.97053],[-111.12901,39.97034],[-111.13503,39.97615],[-111.13377,39.97861],[-111.14304,39.98696],[-111.1522,39.98506],[-111.15956,39.99179],[-111.16574,39.99004],[-111.16788,39.99094],[-111.16987,40.00021],[-111.16826,40.00355],[-111.17166,40.01066],[-111.17507,40.0125],[-111.17733,40.01621],[-111.18663,40.02011],[-111.1897,40.02345],[-111.19125,40.02954],[-111.19486,40.0316],[-111.19771,40.03118],[-111.20031,40.03719],[-111.19899,40.04004],[-111.20394,40.04636],[-111.20392,40.04927],[-111.21435,40.04284],[-111.22346,40.0401],[-111.22366,40.03794],[-111.2267,40.03569],[-111.23823,40.03873],[-111.24082,40.0438],[-111.24621,40.04747],[-111.247,40.05369],[-111.24923,40.05559],[-111.23603,40.07],[-111.24056,40.07328],[-111.23801,40.08055],[-111.24234,40.08596],[-111.24191,40.09015],[-111.2351,40.0986],[-111.2347,40.10419],[-111.23016,40.1067],[-111.22539,40.12006],[-111.22146,40.12492],[-111.22412,40.13313],[-111.22486,40.14251],[-111.22582,40.14462],[-111.23146,40.14793],[-111.22673,40.15581],[-111.22923,40.15859],[-111.22533,40.16669],[-111.23534,40.17604],[-111.2359,40.1812],[-111.23891,40.18266],[-111.24781,40.19364],[-111.25829,40.19827],[-111.25641,40.20073],[-111.26315,40.20552],[-111.26478,40.20949],[-111.26187,40.21098],[-111.267,40.21294],[-111.27351,40.22227],[-111.27184,40.22764],[-111.27354,40.23629],[-111.26774,40.23707],[-111.26484,40.24227],[-111.2719,40.25082],[-111.27611,40.25211],[-111.27902,40.2589],[-111.2899,40.2662],[-111.29374,40.26555],[-111.29421,40.27053],[-111.29791,40.27308],[-111.30797,40.2746],[-111.30898,40.27636],[-111.30704,40.28025],[-111.30789,40.2839],[-111.31525,40.2876],[-111.322,40.28724],[-111.32533,40.28291],[-111.32813,40.28223],[-111.33671,40.28829],[-111.34648,40.28729],[-111.35144,40.28949],[-111.36018,40.28856],[-111.36823,40.29194],[-111.37406,40.29704],[-111.37756,40.29748],[-111.38237,40.29458],[-111.3923,40.29625],[-111.39694,40.29244],[-111.4018,40.29574],[-111.41051,40.2951],[-111.41287,40.28941],[-111.42665,40.28702],[-111.43406,40.2919],[-111.44426,40.29039],[-111.45174,40.29342],[-111.45197,40.29717],[-111.45732,40.30071],[-111.45022,40.30544],[-111.4423,40.3151],[-111.44119,40.32003],[-111.4383,40.32038],[-111.43802,40.32184],[-111.44479,40.32661],[-111.44582,40.32996],[-111.4533,40.33427],[-111.45315,40.34028],[-111.46246,40.34034],[-111.46228,40.34748],[-111.47158,40.34758],[-111.47148,40.35121],[-111.47595,40.35121],[-111.47586,40.35486],[-111.48054,40.35496],[-111.48034,40.36217],[-111.55524,40.3627],[-111.55546,40.3699],[-111.5602,40.36984],[-111.5601,40.38777],[-111.56487,40.38775],[-111.56484,40.39142],[-111.57421,40.39137],[-111.57427,40.41291],[-111.58368,40.41284],[-111.5838,40.42021],[-111.58837,40.4213],[-111.59249,40.43021],[-111.59507,40.43245],[-111.59998,40.43478],[-111.60794,40.43141],[-111.61246,40.4319],[-111.61715,40.43752],[-111.61787,40.43999],[-111.61582,40.44415],[-111.61737,40.44748],[-111.62095,40.44978],[-111.62013,40.4555],[-111.6147,40.45788],[-111.60975,40.46356],[-111.60945,40.46632],[-111.59508,40.46764],[-111.57481,40.48687],[-111.57452,40.493],[-111.57913,40.50036],[-111.57544,40.50319],[-111.57531,40.51657],[-111.57181,40.5197],[-111.56973,40.52662],[-111.5703,40.53433],[-111.57261,40.53757],[-111.57079,40.53968],[-111.57116,40.54356],[-111.56788,40.54748],[-111.57522,40.55432],[-111.58155,40.56625],[-111.59086,40.57205],[-111.59388,40.57706],[-111.59808,40.57791],[-111.60224,40.57533],[-111.6018,40.57027],[-111.60568,40.56445],[-111.63809,40.56776],[-111.6417,40.56243],[-111.64556,40.55994],[-111.64648,40.55607],[-111.65031,40.55116],[-111.65629,40.55183],[-111.6618,40.54972],[-111.66127,40.54759],[-111.6641,40.54122],[-111.67351,40.53702],[-111.67527,40.53321],[-111.67845,40.53175],[-111.68131,40.53292],[-111.68463,40.53131],[-111.69811,40.53573],[-111.70076,40.53387],[-111.71314,40.53269],[-111.71636,40.52764],[-111.72057,40.52515],[-111.73511,40.53269],[-111.73985,40.52398],[-111.74372,40.52252],[-111.76237,40.52924],[-111.76963,40.52262],[-111.7811,40.51871],[-111.78402,40.5147],[-111.78797,40.51367],[-111.79167,40.50521],[-111.78922,40.50197],[-111.78957,40.49785],[-111.80268,40.49364],[-111.80738,40.48929],[-111.8163,40.48916],[-111.82632,40.48635],[-111.82632,40.48272],[-111.83477,40.48181],[-111.8364,40.47488],[-111.8428,40.47463],[-111.84372,40.47672],[-111.8458,40.47666],[-111.8501,40.47485],[-111.85087,40.47204],[-111.85645,40.47141],[-111.85839,40.46931],[-111.86575,40.47042],[-111.87059,40.47674],[-111.87375,40.47682],[-111.8826,40.47251],[-111.89238,40.46408],[-111.90103,40.46331],[-111.90771,40.45341],[-111.9149,40.45201],[-111.91912,40.44319],[-111.93115,40.43361],[-111.94645,40.42459],[-111.95439,40.42155],[-111.95771,40.42176],[-111.96004,40.41839],[-111.96796,40.41973],[-111.97366,40.41726],[-111.97866,40.41709],[-111.9818,40.41429],[-111.9862,40.41837],[-111.99245,40.42036],[-111.99257,40.42402],[-111.99924,40.42413],[-112.00357,40.42707],[-112.00615,40.42643],[-112.00893,40.43298],[-112.00662,40.43522],[-112.01063,40.4372],[-112.01621,40.43498],[-112.02134,40.43879],[-112.02464,40.445],[-112.0204,40.44717],[-112.02464,40.4504],[-112.03116,40.45042],[-112.03042,40.45389],[-112.0327,40.45759],[-112.03323,40.46271],[-112.03817,40.46462],[-112.04577,40.45744],[-112.05938,40.45299],[-112.06679,40.44639],[-112.07879,40.44662],[-112.08143,40.44825],[-112.09355,40.44783],[-112.10117,40.44555],[-112.1119,40.43895],[-112.11442,40.44129],[-112.11342,40.44746],[-112.11478,40.4507],[-112.12128,40.45424],[-112.12425,40.45855],[-112.13182,40.46444],[-112.14368,40.47035],[-112.15364,40.46836],[-112.16017,40.46106],[-112.16541,40.46228],[-112.17286,40.46706],[-112.19027,40.46852],[-112.19569,40.46226],[-112.21222,40.45928],[-112.21323,40.45511]]]}},{"type":"Feature","id":"UT:362:49035","properties":{"destinationId":"362","locality":"Salt Lake City","definition":"Salt Lake / Tooele","state":"UT","stateName":"Utah","county":"Salt Lake County","countyGeoid":"49035","countyGeoids":["49035","49045"],"coverage":"complete-counties","sourceType":"gsa_county_defined_rate_area"},"geometry":{"type":"Polygon","coordinates":[[[-112.26022,40.76909],[-112.22745,40.72531],[-112.21653,40.71791],[-112.20768,40.71572],[-112.20331,40.70914],[-112.19878,40.69752],[-112.19864,40.69319],[-112.20418,40.68339],[-112.2031,40.68176],[-112.20436,40.67865],[-112.20148,40.67118],[-112.20289,40.65419],[-112.19785,40.64784],[-112.19802,40.64393],[-112.19415,40.63561],[-112.19767,40.62546],[-112.1959,40.62123],[-112.18845,40.61418],[-112.18171,40.61206],[-112.17855,40.60547],[-112.17534,40.60398],[-112.17735,40.59521],[-112.17494,40.5854],[-112.18147,40.58038],[-112.18038,40.57735],[-112.18361,40.57304],[-112.18205,40.57088],[-112.18291,40.56219],[-112.17831,40.55642],[-112.18004,40.54586],[-112.18279,40.54098],[-112.1792,40.53161],[-112.17876,40.52202],[-112.18521,40.51778],[-112.18754,40.5141],[-112.18098,40.50345],[-112.17584,40.50014],[-112.18058,40.49757],[-112.18143,40.49392],[-112.17702,40.48538],[-112.17814,40.48207],[-112.17631,40.47693],[-112.17397,40.47612],[-112.17157,40.47118],[-112.17286,40.46706],[-112.16541,40.46228],[-112.16017,40.46106],[-112.15364,40.46836],[-112.15058,40.46805],[-112.14592,40.47046],[-112.1388,40.46847],[-112.12425,40.45855],[-112.11931,40.45269],[-112.11478,40.4507],[-112.11342,40.44746],[-112.11442,40.44129],[-112.1119,40.43895],[-112.10117,40.44555],[-112.09355,40.44783],[-112.08143,40.44825],[-112.07879,40.44662],[-112.06679,40.44639],[-112.05938,40.45299],[-112.04577,40.45744],[-112.03817,40.46462],[-112.03323,40.46271],[-112.0327,40.45759],[-112.03042,40.45389],[-112.03116,40.45042],[-112.02464,40.4504],[-112.0204,40.44717],[-112.02464,40.445],[-112.02134,40.43879],[-112.01621,40.43498],[-112.01063,40.4372],[-112.00662,40.43522],[-112.00893,40.43298],[-112.00615,40.42643],[-112.00357,40.42707],[-111.99924,40.42413],[-111.99257,40.42402],[-111.99245,40.42036],[-111.9862,40.41837],[-111.9818,40.41429],[-111.97866,40.41709],[-111.97366,40.41726],[-111.96796,40.41973],[-111.96004,40.41839],[-111.95771,40.42176],[-111.95439,40.42155],[-111.94645,40.42459],[-111.93115,40.43361],[-111.91912,40.44319],[-111.9149,40.45201],[-111.90771,40.45341],[-111.90103,40.46331],[-111.89238,40.46408],[-111.8826,40.47251],[-111.87375,40.47682],[-111.87059,40.47674],[-111.86575,40.47042],[-111.85839,40.46931],[-111.85645,40.47141],[-111.85087,40.47204],[-111.8501,40.47485],[-111.8458,40.47666],[-111.84372,40.47672],[-111.8428,40.47463],[-111.8364,40.47488],[-111.83477,40.48181],[-111.82632,40.48272],[-111.82632,40.48635],[-111.8163,40.48916],[-111.80738,40.48929],[-111.80268,40.49364],[-111.78957,40.49785],[-111.78922,40.50197],[-111.79167,40.50521],[-111.78797,40.51367],[-111.78402,40.5147],[-111.7811,40.51871],[-111.76963,40.52262],[-111.76237,40.52924],[-111.74372,40.52252],[-111.73985,40.52398],[-111.73511,40.53269],[-111.72057,40.52515],[-111.71636,40.52764],[-111.71314,40.53269],[-111.70076,40.53387],[-111.69811,40.53573],[-111.68463,40.53131],[-111.68131,40.53292],[-111.67845,40.53175],[-111.67527,40.53321],[-111.67351,40.53702],[-111.6641,40.54122],[-111.66127,40.54759],[-111.6618,40.54972],[-111.65629,40.55183],[-111.65031,40.55116],[-111.64648,40.55607],[-111.64556,40.55994],[-111.6417,40.56243],[-111.63809,40.56776],[-111.60568,40.56445],[-111.6018,40.57027],[-111.60224,40.57533],[-111.59946,40.57743],[-111.59388,40.57706],[-111.58671,40.58147],[-111.58266,40.58128],[-111.57784,40.58343],[-111.57249,40.58216],[-111.5639,40.58505],[-111.56002,40.5908],[-111.56088,40.59375],[-111.5584,40.59995],[-111.55926,40.60152],[-111.55327,40.60931],[-111.55902,40.6142],[-111.55758,40.6196],[-111.56742,40.62328],[-111.56897,40.6294],[-111.57605,40.63278],[-111.57735,40.64258],[-111.57949,40.6453],[-111.59387,40.65166],[-111.59674,40.65977],[-111.60454,40.66657],[-111.60238,40.67211],[-111.60302,40.67746],[-111.60111,40.68728],[-111.59917,40.69206],[-111.59273,40.69912],[-111.59396,40.70278],[-111.61179,40.71888],[-111.61464,40.71938],[-111.61632,40.72278],[-111.61334,40.72794],[-111.62264,40.73007],[-111.62347,40.73174],[-111.62166,40.73773],[-111.62469,40.74002],[-111.62418,40.7416],[-111.62091,40.74241],[-111.61745,40.74642],[-111.62348,40.75347],[-111.62133,40.75822],[-111.62539,40.76102],[-111.63521,40.7624],[-111.63741,40.7639],[-111.63736,40.76819],[-111.63993,40.77053],[-111.64913,40.77344],[-111.64534,40.77904],[-111.64581,40.78329],[-111.64304,40.78594],[-111.64874,40.79224],[-111.64648,40.79757],[-111.64105,40.79892],[-111.64082,40.80506],[-111.64248,40.80574],[-111.63905,40.80929],[-111.64227,40.81845],[-111.64559,40.82054],[-111.64565,40.82406],[-111.65176,40.82404],[-111.65246,40.82735],[-111.65673,40.8305],[-111.66569,40.83066],[-111.66599,40.83498],[-111.66399,40.84089],[-111.66048,40.84508],[-111.664,40.85019],[-111.67411,40.85528],[-111.68332,40.8563],[-111.69591,40.86178],[-111.7013,40.86124],[-111.70726,40.85256],[-111.71236,40.85168],[-111.72084,40.85576],[-111.72462,40.85469],[-111.73891,40.86117],[-111.74455,40.86063],[-111.74812,40.85925],[-111.75199,40.85327],[-111.76016,40.85303],[-111.76826,40.84843],[-111.77498,40.84752],[-111.77802,40.84472],[-111.78174,40.8439],[-111.78922,40.84555],[-111.80489,40.83788],[-111.81201,40.83998],[-111.81696,40.83847],[-111.82177,40.83433],[-111.8352,40.83084],[-111.84436,40.83194],[-111.84631,40.8296],[-111.85375,40.82922],[-111.85849,40.82423],[-111.86924,40.82384],[-111.8705,40.82174],[-111.90091,40.82183],[-111.90091,40.81988],[-111.90567,40.81988],[-111.90566,40.82182],[-111.94586,40.82179],[-111.94669,40.82384],[-111.94287,40.83049],[-111.94429,40.83415],[-111.95125,40.84196],[-111.94978,40.84312],[-111.95292,40.84465],[-111.95587,40.84911],[-111.963,40.84817],[-111.9589,40.84925],[-111.95966,40.85215],[-111.96449,40.85344],[-111.9616,40.85423],[-111.96588,40.85463],[-111.96645,40.85787],[-111.96265,40.8636],[-111.96384,40.86453],[-111.96289,40.87],[-111.9645,40.87102],[-111.96357,40.87156],[-111.96954,40.87232],[-111.96891,40.87411],[-111.97107,40.87665],[-111.96756,40.88006],[-111.96915,40.88569],[-111.96629,40.8888],[-111.96615,40.89165],[-111.96174,40.89336],[-111.96153,40.89528],[-111.95927,40.89633],[-111.95867,40.92182],[-112.00657,40.92185],[-112.14827,40.84613],[-112.26022,40.76909]]]}},{"type":"Feature","id":"UT:362:49045","properties":{"destinationId":"362","locality":"Salt Lake City","definition":"Salt Lake / Tooele","state":"UT","stateName":"Utah","county":"Tooele County","countyGeoid":"49045","countyGeoids":["49035","49045"],"coverage":"complete-counties","sourceType":"gsa_county_defined_rate_area"},"geometry":{"type":"Polygon","coordinates":[[[-114.04666,39.98059],[-114.04713,39.9061],[-112.79808,39.90369],[-112.34199,39.90446],[-112.34308,39.91085],[-112.33534,39.92367],[-112.33704,39.92791],[-112.3355,39.9306],[-112.33978,39.94368],[-112.33802,39.94557],[-112.3347,39.94568],[-112.3346,39.94949],[-112.3323,39.95279],[-112.32743,39.94668],[-112.32323,39.94447],[-112.30936,39.94839],[-112.30913,39.94477],[-112.30668,39.94545],[-112.30551,39.93997],[-112.30204,39.93664],[-112.28692,39.94113],[-112.2827,39.93991],[-112.28083,39.94137],[-112.27829,39.93924],[-112.2703,39.93902],[-112.26723,39.94177],[-112.2608,39.94275],[-112.25422,39.95059],[-112.24889,39.95078],[-112.24446,39.95724],[-112.23632,39.96052],[-112.23679,39.96639],[-112.22505,39.98183],[-112.22588,39.98617],[-112.22449,39.98854],[-112.20192,39.99995],[-112.19986,40.00414],[-112.19169,40.00407],[-112.1798,40.01166],[-112.17689,40.01943],[-112.17805,40.02657],[-112.17708,40.03059],[-112.17408,40.03272],[-112.17487,40.03527],[-112.17198,40.03948],[-112.17761,40.04736],[-112.17892,40.05373],[-112.18359,40.05966],[-112.1802,40.06704],[-112.17321,40.06619],[-112.17218,40.06827],[-112.17596,40.07772],[-112.17262,40.08457],[-112.15795,40.08911],[-112.15691,40.09871],[-112.15112,40.10524],[-112.15089,40.1073],[-112.15488,40.10875],[-112.15575,40.11266],[-112.16086,40.11432],[-112.16169,40.11736],[-112.16417,40.11875],[-112.16361,40.12319],[-112.16876,40.12671],[-112.1721,40.12716],[-112.1761,40.13081],[-112.17339,40.13468],[-112.17224,40.1412],[-112.16777,40.14667],[-112.17127,40.1487],[-112.17334,40.1554],[-112.16441,40.16198],[-112.15868,40.16339],[-112.15508,40.16855],[-112.1559,40.17017],[-112.14475,40.17172],[-112.14671,40.17835],[-112.15268,40.17902],[-112.15337,40.18216],[-112.1505,40.18768],[-112.14684,40.18966],[-112.14871,40.19048],[-112.14856,40.19536],[-112.1604,40.19885],[-112.15724,40.20323],[-112.15858,40.20663],[-112.14949,40.21217],[-112.15474,40.21484],[-112.15385,40.21822],[-112.15715,40.21929],[-112.16153,40.21706],[-112.1687,40.21931],[-112.17054,40.22557],[-112.17669,40.22772],[-112.17693,40.23004],[-112.17969,40.23224],[-112.17933,40.24936],[-112.18391,40.24996],[-112.18384,40.25813],[-112.1922,40.2645],[-112.1929,40.26894],[-112.18905,40.27354],[-112.18923,40.28164],[-112.18844,40.2857],[-112.1865,40.28686],[-112.19208,40.3041],[-112.1986,40.30691],[-112.19735,40.3088],[-112.19837,40.31345],[-112.19678,40.31711],[-112.1937,40.31834],[-112.19268,40.32289],[-112.19628,40.32584],[-112.19106,40.32939],[-112.17994,40.33214],[-112.17553,40.33584],[-112.18137,40.34589],[-112.18534,40.34849],[-112.18808,40.35489],[-112.1945,40.3612],[-112.19373,40.36789],[-112.18873,40.37249],[-112.19441,40.37954],[-112.19917,40.38254],[-112.20158,40.38815],[-112.1994,40.39056],[-112.20005,40.39736],[-112.19857,40.4],[-112.19985,40.4035],[-112.19791,40.41493],[-112.19467,40.42106],[-112.2049,40.43107],[-112.20948,40.43307],[-112.21418,40.45231],[-112.21222,40.45928],[-112.19569,40.46226],[-112.19027,40.46852],[-112.17286,40.46706],[-112.17157,40.47118],[-112.17397,40.47612],[-112.17631,40.47693],[-112.17814,40.48207],[-112.17702,40.48538],[-112.18143,40.49392],[-112.18058,40.49757],[-112.17584,40.50014],[-112.18098,40.50345],[-112.18754,40.5141],[-112.18521,40.51778],[-112.17876,40.52202],[-112.1792,40.53161],[-112.18279,40.54098],[-112.18004,40.54586],[-112.17831,40.55642],[-112.18291,40.56219],[-112.18205,40.57088],[-112.18361,40.57304],[-112.18038,40.57735],[-112.18147,40.58038],[-112.17494,40.5854],[-112.17735,40.59521],[-112.17534,40.60398],[-112.17855,40.60547],[-112.18171,40.61206],[-112.18845,40.61418],[-112.1959,40.62123],[-112.19767,40.62546],[-112.19415,40.63561],[-112.19802,40.64393],[-112.19785,40.64784],[-112.20289,40.65419],[-112.20148,40.67118],[-112.20436,40.67865],[-112.2031,40.68176],[-112.20418,40.68339],[-112.19864,40.69319],[-112.2004,40.70298],[-112.20768,40.71572],[-112.21653,40.71791],[-112.22745,40.72531],[-112.49352,41.07689],[-112.79936,40.99994],[-114.04215,40.9999],[-114.04618,40.39831],[-114.04666,39.98059]]]}},{"type":"Feature","id":"UT:474:49019","properties":{"destinationId":"474","locality":"Moab","definition":"Grand","state":"UT","stateName":"Utah","county":"Grand County","countyGeoid":"49019","countyGeoids":["49019"],"coverage":"complete-counties","sourceType":"gsa_county_defined_rate_area"},"geometry":{"type":"Polygon","coordinates":[[[-110.1793,38.9081],[-110.16666,38.90041],[-110.15982,38.89125],[-110.16233,38.86371],[-110.15809,38.86174],[-110.15268,38.86257],[-110.1449,38.8686],[-110.14182,38.86935],[-110.13797,38.86788],[-110.13619,38.86378],[-110.13713,38.85677],[-110.14465,38.84572],[-110.14558,38.83928],[-110.13589,38.8345],[-110.12072,38.83226],[-110.11926,38.8282],[-110.12468,38.82117],[-110.11237,38.81861],[-110.10628,38.81077],[-110.10454,38.80155],[-110.10553,38.80017],[-110.11096,38.79717],[-110.11898,38.7955],[-110.12151,38.79126],[-110.10885,38.77847],[-110.09114,38.77059],[-110.08155,38.75482],[-110.08318,38.75192],[-110.09206,38.75129],[-110.09884,38.74937],[-110.10187,38.74691],[-110.11362,38.73066],[-110.11236,38.72569],[-110.10767,38.71884],[-110.10744,38.71436],[-110.11039,38.71261],[-110.11959,38.71263],[-110.12227,38.71152],[-110.12312,38.70808],[-110.12061,38.70584],[-110.11535,38.70582],[-110.10501,38.71258],[-110.09936,38.71422],[-110.08786,38.71369],[-110.08657,38.70615],[-110.09281,38.69982],[-110.09822,38.69771],[-110.1011,38.69354],[-110.0983,38.68873],[-110.09041,38.68232],[-110.08665,38.67712],[-110.09352,38.6698],[-110.09419,38.6661],[-110.08869,38.66523],[-110.0759,38.67232],[-110.07135,38.67278],[-110.06868,38.67016],[-110.06861,38.66756],[-110.07414,38.66148],[-110.07422,38.65915],[-110.07097,38.65673],[-110.06818,38.65682],[-110.05917,38.66213],[-110.05648,38.66142],[-110.05568,38.65675],[-110.06002,38.65048],[-110.05742,38.64708],[-110.05405,38.64594],[-110.04872,38.64811],[-110.0473,38.65862],[-110.04512,38.65973],[-110.04004,38.65873],[-110.03684,38.65664],[-110.03583,38.65399],[-110.03947,38.64739],[-110.04651,38.64154],[-110.04931,38.6344],[-110.04738,38.62909],[-110.04246,38.62298],[-110.04244,38.61704],[-110.0493,38.61548],[-110.0582,38.61903],[-110.06518,38.61974],[-110.06896,38.61588],[-110.0675,38.61091],[-110.06085,38.60631],[-110.0563,38.60525],[-110.03525,38.60939],[-110.02453,38.60893],[-110.02005,38.61205],[-110.01475,38.62399],[-110.00468,38.62136],[-110.00055,38.6188],[-109.99797,38.61451],[-109.99559,38.5988],[-109.99929,38.58983],[-110.00646,38.58741],[-110.01592,38.58811],[-110.02825,38.60252],[-110.0336,38.60459],[-110.0515,38.59175],[-110.05872,38.582],[-110.05576,38.57827],[-110.04449,38.57847],[-110.0369,38.57112],[-110.03294,38.57196],[-110.0254,38.57756],[-110.02365,38.57721],[-110.02089,38.57445],[-110.0176,38.56333],[-110.01431,38.56116],[-110.01008,38.56176],[-109.99809,38.56877],[-109.99339,38.56872],[-109.98799,38.56381],[-109.9889,38.55945],[-109.99978,38.55144],[-110.00577,38.5423],[-110.00421,38.53746],[-109.99555,38.52941],[-109.99385,38.52551],[-110.00019,38.52201],[-110.01273,38.52448],[-110.01325,38.51654],[-110.01821,38.513],[-110.023,38.51321],[-110.03559,38.51869],[-110.0442,38.51603],[-110.04583,38.51239],[-110.04433,38.50738],[-110.03654,38.50362],[-110.03002,38.50264],[-110.02528,38.49998],[-109.05996,38.50003],[-109.05954,38.71989],[-109.05419,38.87498],[-109.05244,38.99999],[-109.05136,39.4977],[-109.05294,39.49716],[-109.05725,39.49981],[-109.06296,39.49962],[-109.06828,39.49555],[-109.07298,39.49984],[-109.07675,39.48919],[-109.08062,39.49047],[-109.08292,39.48937],[-109.08757,39.49233],[-109.08978,39.48503],[-109.09609,39.47886],[-109.09604,39.47123],[-109.1043,39.46937],[-109.10454,39.4638],[-109.10691,39.4621],[-109.95335,39.4618],[-109.95335,39.46927],[-110.02398,39.46927],[-110.0252,39.46659],[-110.02433,39.46348],[-110.01567,39.45469],[-110.02054,39.45179],[-110.02357,39.44542],[-110.02388,39.43938],[-110.02097,39.4358],[-110.02083,39.42795],[-110.02354,39.42318],[-110.01248,39.41887],[-110.00992,39.4109],[-110.01829,39.40004],[-110.01904,39.39379],[-110.021,39.39094],[-110.0171,39.38507],[-110.01882,39.37889],[-110.02569,39.3767],[-110.02444,39.37005],[-110.01865,39.36271],[-110.02382,39.35819],[-110.02158,39.35312],[-110.02481,39.35073],[-110.03181,39.35106],[-110.0347,39.34757],[-110.03496,39.34108],[-110.03683,39.33781],[-110.0459,39.33091],[-110.04765,39.32639],[-110.05288,39.32654],[-110.05489,39.33047],[-110.05868,39.32973],[-110.05937,39.32578],[-110.05568,39.31871],[-110.06046,39.31489],[-110.06196,39.30988],[-110.06003,39.30744],[-110.05411,39.30801],[-110.0502,39.30571],[-110.04906,39.30141],[-110.06962,39.29237],[-110.07321,39.28835],[-110.07316,39.28261],[-110.07609,39.28137],[-110.07756,39.27686],[-110.0744,39.27146],[-110.0615,39.26593],[-110.06051,39.26428],[-110.06042,39.25704],[-110.06332,39.24946],[-110.05881,39.24354],[-110.05872,39.23954],[-110.05458,39.23324],[-110.05384,39.22932],[-110.06236,39.2233],[-110.0659,39.22382],[-110.0689,39.2279],[-110.0729,39.22888],[-110.07623,39.2277],[-110.07795,39.22586],[-110.07672,39.22195],[-110.07769,39.21785],[-110.07236,39.20682],[-110.07321,39.20125],[-110.08027,39.193],[-110.08999,39.19349],[-110.098,39.1899],[-110.10453,39.18218],[-110.10513,39.17813],[-110.09905,39.16772],[-110.10347,39.16314],[-110.11326,39.15938],[-110.11632,39.15358],[-110.11258,39.15016],[-110.11274,39.14702],[-110.1106,39.1452],[-110.10308,39.14309],[-110.09962,39.13649],[-110.10246,39.1337],[-110.10925,39.13204],[-110.1124,39.12878],[-110.11504,39.1221],[-110.11262,39.11614],[-110.1098,39.11475],[-110.1093,39.11276],[-110.11522,39.10694],[-110.11808,39.10127],[-110.11826,39.09517],[-110.12883,39.09033],[-110.14276,39.08724],[-110.14283,39.08492],[-110.1397,39.08238],[-110.14495,39.07723],[-110.14548,39.07461],[-110.14171,39.07326],[-110.13962,39.07012],[-110.13927,39.0594],[-110.14846,39.04085],[-110.15651,39.03688],[-110.15679,39.03441],[-110.15348,39.03094],[-110.13994,39.02481],[-110.14371,39.01913],[-110.1534,39.01641],[-110.15356,39.01418],[-110.1493,39.01004],[-110.14112,39.00945],[-110.13797,39.00538],[-110.14285,39.00095],[-110.15025,39.00215],[-110.15018,38.99724],[-110.1408,38.9944],[-110.13387,38.99438],[-110.1339,39.00174],[-110.09632,39.00168],[-110.09634,38.98626],[-110.05981,38.98625],[-110.05981,38.99354],[-110.04118,38.99352],[-110.04118,38.97898],[-110.02256,38.97897],[-110.02259,38.96445],[-110.00398,38.96445],[-110.00398,38.94991],[-110.0412,38.94993],[-110.0412,38.95719],[-110.05051,38.95719],[-110.0505,38.96445],[-110.06913,38.96445],[-110.06911,38.97898],[-110.10569,38.9798],[-110.1057,38.98338],[-110.11976,38.9834],[-110.11981,38.97982],[-110.14788,38.97975],[-110.15055,38.97578],[-110.14928,38.97189],[-110.13635,38.96115],[-110.13982,38.95774],[-110.14885,38.95536],[-110.15248,38.95029],[-110.1408,38.94445],[-110.13868,38.94165],[-110.13465,38.93379],[-110.13462,38.93086],[-110.13658,38.92896],[-110.1354,38.92653],[-110.13823,38.92436],[-110.1429,38.92381],[-110.17332,38.92704],[-110.17858,38.91924],[-110.17611,38.91217],[-110.1793,38.9081]]]}}]}