{"type":"FeatureCollection","features":[{"type":"Feature","id":"VA:365:51031","properties":{"destinationId":"365","locality":"Lynchburg","definition":"Campbell / Lynchburg City","state":"VA","stateName":"Virginia","county":"Campbell County","countyGeoid":"51031","countyGeoids":["51031","51680"],"coverage":"complete-counties","sourceType":"gsa_county_defined_rate_area"},"geometry":{"type":"Polygon","coordinates":[[[-79.44286,37.05587],[-79.43267,37.06046],[-79.41753,37.06045],[-79.40524,37.06324],[-79.40293,37.06834],[-79.40301,37.08545],[-79.40473,37.09178],[-79.39746,37.09353],[-79.38755,37.09295],[-79.38585,37.09525],[-79.37551,37.10004],[-79.37111,37.10585],[-79.36972,37.11048],[-79.37178,37.1136],[-79.38199,37.11588],[-79.38349,37.11719],[-79.38274,37.11904],[-79.37583,37.12107],[-79.36254,37.1198],[-79.34465,37.12573],[-79.34128,37.12816],[-79.34095,37.13046],[-79.34484,37.13258],[-79.34293,37.13652],[-79.33739,37.1365],[-79.33604,37.13039],[-79.33216,37.12557],[-79.32797,37.12443],[-79.30788,37.11236],[-79.30102,37.10605],[-79.29503,37.10483],[-79.28282,37.10563],[-79.28027,37.10823],[-79.27207,37.11155],[-79.26964,37.11906],[-79.26442,37.12684],[-79.26079,37.13022],[-79.25327,37.13288],[-79.24417,37.12431],[-79.2387,37.11378],[-79.23668,37.10293],[-79.23183,37.09888],[-79.22627,37.09889],[-79.22206,37.10139],[-79.22114,37.10571],[-79.22247,37.11417],[-79.2201,37.11767],[-79.2159,37.11892],[-79.21303,37.1179],[-79.2052,37.1108],[-79.20084,37.0984],[-79.20222,37.08455],[-79.20587,37.07478],[-79.20074,37.06352],[-79.19312,37.05464],[-79.18858,37.05628],[-79.18619,37.0633],[-79.18092,37.07069],[-79.17626,37.07086],[-79.1736,37.06839],[-79.1671,37.06751],[-79.16054,37.0718],[-79.13989,37.07729],[-79.13603,37.08562],[-79.13238,37.08837],[-79.12404,37.08981],[-79.11729,37.08634],[-79.11038,37.06791],[-79.09649,37.06409],[-79.05873,37.04608],[-79.04658,37.04441],[-79.04028,37.04562],[-79.01862,37.04036],[-79.01387,37.03791],[-79.00935,37.03136],[-79.00483,37.02993],[-79.00161,37.03098],[-78.99527,37.0383],[-78.98556,37.04076],[-78.97292,37.05024],[-78.96836,37.04602],[-78.934,37.03421],[-78.92322,37.02699],[-78.91005,37.02571],[-78.90459,37.02229],[-78.82421,37.20536],[-78.85697,37.21243],[-78.85789,37.21728],[-78.85557,37.21953],[-78.8548,37.22658],[-78.86059,37.23836],[-78.8632,37.24049],[-78.89118,37.24866],[-78.90721,37.24337],[-78.91185,37.24461],[-78.91591,37.24229],[-78.92166,37.24591],[-78.92133,37.26012],[-78.92646,37.27707],[-78.93225,37.28109],[-78.9411,37.28403],[-78.94313,37.29242],[-78.9497,37.2925],[-78.95345,37.31711],[-79.02169,37.42924],[-79.02832,37.42944],[-79.03378,37.43244],[-79.04306,37.43324],[-79.04462,37.43063],[-79.04091,37.42623],[-79.04034,37.42237],[-79.04427,37.41661],[-79.053,37.417],[-79.0669,37.42283],[-79.07168,37.41962],[-79.071,37.41566],[-79.06428,37.40938],[-79.06394,37.40046],[-79.06072,37.39084],[-79.06236,37.38857],[-79.06792,37.38585],[-79.0849,37.39414],[-79.10198,37.37788],[-79.10711,37.37769],[-79.11843,37.36896],[-79.11991,37.36884],[-79.12172,37.37193],[-79.13389,37.37598],[-79.16048,37.35812],[-79.17684,37.3421],[-79.18735,37.34304],[-79.18815,37.34105],[-79.19707,37.34492],[-79.20305,37.34254],[-79.20434,37.34036],[-79.20654,37.34161],[-79.21479,37.33264],[-79.23426,37.34356],[-79.23237,37.34657],[-79.24895,37.34921],[-79.24868,37.35045],[-79.25461,37.35152],[-79.25136,37.356],[-79.25271,37.35748],[-79.25852,37.35495],[-79.44286,37.05587]]]}},{"type":"Feature","id":"VA:365:51680","properties":{"destinationId":"365","locality":"Lynchburg","definition":"Campbell / Lynchburg City","state":"VA","stateName":"Virginia","county":"Lynchburg city","countyGeoid":"51680","countyGeoids":["51031","51680"],"coverage":"complete-counties","sourceType":"gsa_county_defined_rate_area"},"geometry":{"type":"Polygon","coordinates":[[[-79.27139,37.4367],[-79.26838,37.43125],[-79.25457,37.43149],[-79.2509,37.4295],[-79.25017,37.42406],[-79.24144,37.41914],[-79.25438,37.40449],[-79.23273,37.39469],[-79.2576,37.35576],[-79.25271,37.35748],[-79.25136,37.356],[-79.25461,37.35152],[-79.24868,37.35045],[-79.24895,37.34921],[-79.23237,37.34657],[-79.23426,37.34356],[-79.21479,37.33264],[-79.20654,37.34161],[-79.20434,37.34036],[-79.20305,37.34254],[-79.19707,37.34492],[-79.18815,37.34105],[-79.18735,37.34304],[-79.17684,37.3421],[-79.16048,37.35812],[-79.13389,37.37598],[-79.12172,37.37193],[-79.11991,37.36884],[-79.11843,37.36896],[-79.10711,37.37769],[-79.10198,37.37788],[-79.0846,37.39462],[-79.10623,37.40653],[-79.11124,37.40612],[-79.11428,37.39764],[-79.12316,37.39989],[-79.13433,37.4101],[-79.13923,37.41672],[-79.13905,37.42268],[-79.14361,37.43287],[-79.14658,37.43495],[-79.14657,37.42868],[-79.15084,37.43364],[-79.1751,37.44873],[-79.18528,37.45901],[-79.1857,37.46582],[-79.19065,37.46686],[-79.19149,37.46847],[-79.1942,37.4677],[-79.19451,37.46918],[-79.19993,37.46816],[-79.19981,37.46646],[-79.20336,37.46881],[-79.20534,37.46754],[-79.20996,37.46897],[-79.20934,37.46594],[-79.21191,37.46685],[-79.21453,37.46518],[-79.21411,37.46381],[-79.21775,37.46299],[-79.21791,37.46104],[-79.22043,37.46149],[-79.22174,37.4582],[-79.22572,37.45662],[-79.22729,37.46075],[-79.2317,37.45964],[-79.2325,37.45561],[-79.24342,37.45077],[-79.2465,37.44729],[-79.25784,37.44751],[-79.26161,37.45012],[-79.26655,37.44835],[-79.26631,37.43959],[-79.27139,37.4367]]]}},{"type":"Feature","id":"VA:372:51001","properties":{"destinationId":"372","locality":"Wallops Island","definition":"Accomack","state":"VA","stateName":"Virginia","county":"Accomack County","countyGeoid":"51001","countyGeoids":["51001"],"coverage":"complete-counties","sourceType":"gsa_county_defined_rate_area"},"geometry":{"type":"MultiPolygon","coordinates":[[[[-75.74241,37.80835],[-75.74228,37.80631],[-75.73872,37.805],[-75.7405,37.80124],[-75.73515,37.8004],[-75.73313,37.80284],[-75.73872,37.80904],[-75.74151,37.80998],[-75.74241,37.80835]]],[[[-75.85649,37.70286],[-75.85411,37.70014],[-75.85019,37.69995],[-75.849,37.70183],[-75.85078,37.7055],[-75.85649,37.70286]]],[[[-75.8667,37.68321],[-75.86682,37.68067],[-75.85958,37.68217],[-75.85494,37.68885],[-75.86053,37.69308],[-75.86314,37.69083],[-75.8667,37.68321]]],[[[-75.89511,37.8034],[-75.89642,37.80209],[-75.89178,37.79618],[-75.89416,37.80566],[-75.89511,37.8034]]],[[[-75.90366,37.89752],[-75.90058,37.89377],[-75.89867,37.89555],[-75.89879,37.89761],[-75.90105,37.89912],[-75.90366,37.89752]]],[[[-75.94118,37.56384],[-75.94115,37.55844],[-75.93881,37.55503],[-75.9367,37.55514],[-75.93391,37.55228],[-75.92932,37.55493],[-75.9151,37.5531],[-75.90855,37.55396],[-75.90041,37.55726],[-75.89619,37.55592],[-75.89213,37.55196],[-75.88312,37.54932],[-75.8761,37.55148],[-75.86289,37.55057],[-75.85392,37.55406],[-75.84845,37.55262],[-75.83847,37.55542],[-75.78808,37.52886],[-75.79233,37.52126],[-75.79884,37.51751],[-75.79825,37.51593],[-75.80543,37.51392],[-75.8033,37.50526],[-75.79811,37.50586],[-75.79166,37.50381],[-75.79509,37.50014],[-75.79352,37.48884],[-75.80438,37.47986],[-75.81079,37.47782],[-75.81261,37.47542],[-75.81066,37.46792],[-75.80545,37.46328],[-75.79908,37.46245],[-75.78703,37.46458],[-75.78181,37.46188],[-75.77656,37.45459],[-75.76391,37.46331],[-75.75951,37.46162],[-75.73092,37.46048],[-75.70908,37.44856],[-75.68069,37.45644],[-75.6786,37.45992],[-75.6869,37.4654],[-75.68802,37.47015],[-75.69106,37.4736],[-75.68631,37.4786],[-75.68451,37.4827],[-75.68484,37.48735],[-75.68146,37.48882],[-75.67288,37.4837],[-75.66955,37.48436],[-75.66242,37.49067],[-75.64524,37.51564],[-75.60704,37.56343],[-75.60217,37.56711],[-75.60015,37.57135],[-75.603,37.57719],[-75.61286,37.57728],[-75.61477,37.59423],[-75.61453,37.6093],[-75.61203,37.61833],[-75.60383,37.62803],[-75.59932,37.63688],[-75.59076,37.66736],[-75.591,37.67592],[-75.58838,37.68504],[-75.58935,37.6912],[-75.5805,37.69669],[-75.56295,37.73647],[-75.5519,37.74812],[-75.52088,37.79669],[-75.48927,37.83246],[-75.45356,37.86364],[-75.43941,37.8726],[-75.4315,37.87523],[-75.41167,37.89682],[-75.40644,37.89944],[-75.39966,37.89822],[-75.38635,37.89944],[-75.38148,37.89297],[-75.36722,37.89297],[-75.35499,37.89087],[-75.35131,37.89275],[-75.34616,37.89135],[-75.34576,37.88727],[-75.34872,37.88518],[-75.34992,37.87832],[-75.36249,37.86715],[-75.37019,37.86633],[-75.38411,37.87569],[-75.3887,37.87626],[-75.39457,37.87218],[-75.39036,37.86412],[-75.38906,37.85617],[-75.38479,37.85147],[-75.3816,37.85123],[-75.35864,37.865],[-75.34645,37.8783],[-75.29828,37.95676],[-75.24247,38.02703],[-75.62445,37.9942],[-75.62561,37.9898],[-75.63087,37.98782],[-75.63383,37.98452],[-75.62886,37.9778],[-75.62953,37.97597],[-75.63201,37.97602],[-75.63574,37.97954],[-75.63822,37.9794],[-75.64823,37.96678],[-75.64127,37.96323],[-75.63687,37.95564],[-75.63675,37.94561],[-75.64305,37.93633],[-75.65065,37.93512],[-75.66028,37.93643],[-75.66288,37.93816],[-75.66563,37.93699],[-75.6787,37.94271],[-75.69394,37.93036],[-75.70033,37.92902],[-75.70758,37.93052],[-75.71067,37.9338],[-75.70972,37.93671],[-75.71223,37.93814],[-75.71934,37.93446],[-75.72897,37.92134],[-75.74347,37.91206],[-75.74121,37.90708],[-75.73432,37.90624],[-75.73622,37.90221],[-75.74121,37.89996],[-75.74359,37.90193],[-75.75048,37.9008],[-75.75476,37.9024],[-75.7569,37.90155],[-75.75725,37.89921],[-75.75607,37.89799],[-75.74762,37.89818],[-75.74525,37.89986],[-75.7424,37.89865],[-75.74201,37.89681],[-75.72933,37.89836],[-75.7267,37.8973],[-75.7245,37.90018],[-75.72049,37.90193],[-75.70782,37.90033],[-75.69688,37.90183],[-75.68844,37.89902],[-75.68975,37.89536],[-75.69379,37.89349],[-75.697,37.89405],[-75.69819,37.89189],[-75.68848,37.88712],[-75.68571,37.88908],[-75.67894,37.88833],[-75.6793,37.88289],[-75.6812,37.88008],[-75.68013,37.87529],[-75.68857,37.87143],[-75.68799,37.86946],[-75.6929,37.86779],[-75.68928,37.85953],[-75.67228,37.8509],[-75.67264,37.84696],[-75.67716,37.84818],[-75.68132,37.84405],[-75.68179,37.84236],[-75.67906,37.84123],[-75.67822,37.83748],[-75.685,37.83607],[-75.6926,37.83785],[-75.69617,37.84058],[-75.69736,37.84883],[-75.70291,37.84966],[-75.70675,37.84546],[-75.70938,37.84584],[-75.70924,37.84283],[-75.70639,37.84095],[-75.70865,37.83823],[-75.71293,37.83673],[-75.71067,37.83588],[-75.71007,37.8325],[-75.70532,37.82894],[-75.71705,37.82773],[-75.71613,37.81993],[-75.72322,37.82012],[-75.71958,37.81486],[-75.7241,37.80622],[-75.71792,37.80528],[-75.71887,37.79326],[-75.72362,37.7942],[-75.72588,37.79636],[-75.72766,37.79476],[-75.72849,37.78791],[-75.73337,37.78593],[-75.74074,37.78791],[-75.74418,37.78603],[-75.75238,37.78866],[-75.75725,37.79495],[-75.77061,37.8046],[-75.7846,37.80683],[-75.7934,37.80449],[-75.7998,37.79889],[-75.80871,37.7942],[-75.81231,37.79471],[-75.8164,37.78934],[-75.8118,37.7787],[-75.80859,37.78265],[-75.80431,37.78143],[-75.7992,37.77119],[-75.80051,37.76471],[-75.80304,37.76246],[-75.80063,37.76161],[-75.79029,37.76518],[-75.78708,37.76301],[-75.78732,37.7571],[-75.79267,37.75061],[-75.80847,37.74601],[-75.81026,37.74948],[-75.81216,37.7495],[-75.82689,37.73802],[-75.83144,37.73169],[-75.83198,37.72812],[-75.82963,37.72561],[-75.82594,37.72815],[-75.80075,37.73304],[-75.79504,37.72674],[-75.79754,37.72439],[-75.80027,37.7243],[-75.80372,37.72129],[-75.80324,37.71894],[-75.80622,37.7179],[-75.80954,37.71753],[-75.80942,37.72176],[-75.81192,37.7226],[-75.81964,37.71744],[-75.82285,37.71875],[-75.82856,37.71349],[-75.83768,37.71299],[-75.83593,37.70982],[-75.83771,37.70644],[-75.8364,37.70305],[-75.84543,37.69891],[-75.84341,37.69562],[-75.84508,37.69374],[-75.84971,37.69318],[-75.84389,37.68895],[-75.84508,37.68697],[-75.84888,37.68725],[-75.85233,37.68537],[-75.85328,37.68255],[-75.85233,37.67719],[-75.8471,37.67625],[-75.84591,37.66976],[-75.85304,37.66487],[-75.86041,37.66581],[-75.8654,37.66872],[-75.86848,37.66822],[-75.87706,37.66064],[-75.87728,37.6571],[-75.86813,37.65344],[-75.87039,37.65042],[-75.87681,37.65362],[-75.88726,37.65315],[-75.8905,37.64955],[-75.89,37.64553],[-75.89239,37.63748],[-75.89107,37.63462],[-75.88453,37.63198],[-75.88251,37.6268],[-75.88299,37.62059],[-75.87883,37.62022],[-75.87609,37.61494],[-75.87728,37.61165],[-75.88204,37.60722],[-75.89285,37.6044],[-75.89891,37.60977],[-75.90069,37.61551],[-75.89986,37.62031],[-75.90224,37.62539],[-75.90545,37.62614],[-75.90959,37.62267],[-75.91639,37.61007],[-75.92162,37.60511],[-75.92541,37.5963],[-75.91757,37.58585],[-75.932,37.57956],[-75.94118,37.56384]]],[[[-75.99926,37.8297],[-75.99905,37.8186],[-75.99577,37.8126],[-75.98828,37.80744],[-75.98852,37.8095],[-75.99351,37.81401],[-75.97585,37.82807],[-75.97354,37.83354],[-75.97901,37.83504],[-75.98802,37.84108],[-75.99256,37.84889],[-75.99686,37.85042],[-75.99874,37.84536],[-75.99926,37.8297]]],[[[-76.0081,37.87281],[-76.0023,37.86197],[-75.99981,37.86028],[-76.00016,37.86375],[-76.0042,37.87051],[-76.0081,37.87281]]],[[[-76.04653,37.95359],[-76.04283,37.94702],[-76.04188,37.94955],[-76.03712,37.9517],[-76.02892,37.95105],[-76.02512,37.94374],[-76.03237,37.93334],[-76.02843,37.9205],[-76.02607,37.92218],[-76.02477,37.92718],[-76.01641,37.92866],[-76.02072,37.94036],[-76.0168,37.94646],[-76.00349,37.95039],[-76.00313,37.948],[-75.99768,37.94569],[-75.9966,37.95124],[-75.9939,37.95349],[-76.04653,37.95359]]]]}},{"type":"Feature","id":"VA:428:51107","properties":{"destinationId":"428","locality":"Loudoun","definition":"Loudoun","state":"VA","stateName":"Virginia","county":"Loudoun County","countyGeoid":"51107","countyGeoids":["51107"],"coverage":"complete-counties","sourceType":"gsa_county_defined_rate_area"},"geometry":{"type":"Polygon","coordinates":[[[-77.9564,39.02086],[-77.9622,39.01373],[-77.65361,38.94217],[-77.6373,38.94167],[-77.63142,38.93488],[-77.6247,38.93137],[-77.61763,38.93056],[-77.61701,38.92757],[-77.61276,38.92405],[-77.6116,38.91751],[-77.60878,38.91309],[-77.60319,38.91106],[-77.59825,38.90279],[-77.5913,38.89903],[-77.59157,38.89666],[-77.58573,38.89516],[-77.58061,38.891],[-77.57423,38.89126],[-77.56389,38.88618],[-77.55573,38.88853],[-77.55224,38.88659],[-77.54995,38.8798],[-77.552,38.87521],[-77.55154,38.87168],[-77.54922,38.86787],[-77.55279,38.86479],[-77.54822,38.86297],[-77.5525,38.85632],[-77.5474,38.85278],[-77.55044,38.84881],[-77.54875,38.84661],[-77.5459,38.84659],[-77.54555,38.84778],[-77.54766,38.8484],[-77.54408,38.85025],[-77.53599,38.84737],[-77.32828,39.05779],[-77.34029,39.06299],[-77.36753,39.06109],[-77.38011,39.06281],[-77.38568,39.06199],[-77.3992,39.06478],[-77.42318,39.06688],[-77.46145,39.07515],[-77.47701,39.10033],[-77.4858,39.1093],[-77.51993,39.12092],[-77.52456,39.12782],[-77.52728,39.14624],[-77.52487,39.14846],[-77.52122,39.16106],[-77.51643,39.17089],[-77.51063,39.17848],[-77.50516,39.18205],[-77.48597,39.18566],[-77.47736,39.1905],[-77.47501,39.19493],[-77.47593,39.20202],[-77.47361,39.20841],[-77.45988,39.21868],[-77.45794,39.22202],[-77.45812,39.22614],[-77.48081,39.24166],[-77.48681,39.24759],[-77.49661,39.25104],[-77.50843,39.25263],[-77.54058,39.26495],[-77.56085,39.28615],[-77.56277,39.2945],[-77.56183,39.30191],[-77.5666,39.30612],[-77.57849,39.30523],[-77.59274,39.30129],[-77.6059,39.30369],[-77.61594,39.30272],[-77.651,39.31078],[-77.66613,39.31701],[-77.67585,39.32419],[-77.68171,39.32367],[-77.68712,39.31991],[-77.69298,39.31845],[-77.70771,39.32156],[-77.71952,39.32131],[-77.72164,39.31849],[-77.7349,39.31241],[-77.75027,39.28928],[-77.75273,39.28337],[-77.75311,39.27734],[-77.76177,39.26303],[-77.76284,39.25844],[-77.768,39.25766],[-77.77067,39.25526],[-77.77088,39.24976],[-77.76728,39.24938],[-77.77142,39.23678],[-77.78364,39.22408],[-77.79363,39.21012],[-77.79819,39.20066],[-77.79794,39.19283],[-77.80471,39.17942],[-77.8051,39.17422],[-77.82141,39.15241],[-77.82287,39.14775],[-77.82218,39.13999],[-77.83252,39.12752],[-77.83894,39.12182],[-77.8438,39.11975],[-77.85374,39.10102],[-77.85579,39.0928],[-77.86282,39.08098],[-77.87395,39.08015],[-77.8776,39.07804],[-77.89328,39.05542],[-77.89909,39.05292],[-77.90681,39.04578],[-77.91764,39.03907],[-77.92682,39.0353],[-77.92993,39.03024],[-77.94123,39.02347],[-77.9564,39.02086]]]}},{"type":"Feature","id":"VA:459:51121","properties":{"destinationId":"459","locality":"Blacksburg","definition":"Montgomery","state":"VA","stateName":"Virginia","county":"Montgomery County","countyGeoid":"51121","countyGeoids":["51121"],"coverage":"complete-counties","sourceType":"gsa_county_defined_rate_area"},"geometry":{"type":"MultiPolygon","coordinates":[[[[-80.51943,37.13186],[-80.51899,37.13168],[-80.51863,37.13152],[-80.5181,37.13263],[-80.51889,37.13264],[-80.51943,37.13186]]],[[[-80.61581,37.23041],[-80.61363,37.22245],[-80.6146,37.21543],[-80.6125,37.21115],[-80.60168,37.20228],[-80.59516,37.18913],[-80.586,37.18276],[-80.58007,37.18515],[-80.56483,37.19771],[-80.55272,37.20183],[-80.53582,37.20587],[-80.52233,37.20696],[-80.51865,37.20556],[-80.51577,37.20191],[-80.51578,37.19662],[-80.52122,37.19207],[-80.52834,37.1918],[-80.53717,37.19455],[-80.55196,37.19154],[-80.5629,37.18151],[-80.56536,37.17715],[-80.56507,37.17412],[-80.55653,37.16856],[-80.55006,37.15623],[-80.54206,37.15598],[-80.53505,37.15792],[-80.52976,37.15423],[-80.52657,37.14512],[-80.52785,37.13639],[-80.53071,37.13238],[-80.52646,37.13631],[-80.52476,37.14787],[-80.51881,37.15091],[-80.51874,37.14709],[-80.51129,37.14778],[-80.51145,37.13957],[-80.50792,37.13695],[-80.50854,37.13571],[-80.51535,37.13273],[-80.51391,37.12989],[-80.51983,37.12864],[-80.51936,37.12416],[-80.52052,37.12561],[-80.52593,37.12429],[-80.52477,37.12096],[-80.5287,37.12066],[-80.53303,37.11809],[-80.52908,37.11343],[-80.53096,37.1105],[-80.53844,37.11747],[-80.54028,37.11683],[-80.54113,37.11157],[-80.54231,37.11766],[-80.55497,37.11784],[-80.55571,37.11543],[-80.55387,37.11541],[-80.55524,37.11398],[-80.55158,37.1118],[-80.55191,37.10962],[-80.55452,37.10828],[-80.5526,37.10691],[-80.55698,37.10618],[-80.55901,37.10407],[-80.55648,37.09999],[-80.57209,37.09303],[-80.57829,37.09325],[-80.57841,37.09056],[-80.58047,37.08966],[-80.57566,37.07864],[-80.56928,37.07678],[-80.56889,37.07454],[-80.56589,37.07487],[-80.56009,37.08231],[-80.55666,37.06638],[-80.55058,37.06401],[-80.54715,37.06016],[-80.54661,37.05789],[-80.55023,37.05687],[-80.55274,37.05261],[-80.54363,37.04958],[-80.54282,37.04517],[-80.54484,37.03993],[-80.54919,37.04046],[-80.5498,37.04481],[-80.55553,37.04974],[-80.56329,37.05049],[-80.56574,37.04755],[-80.5623,37.04068],[-80.56225,37.03497],[-80.55816,37.03803],[-80.55627,37.03692],[-80.55571,37.01001],[-80.54393,36.98464],[-80.54071,36.9862],[-80.53932,36.98907],[-80.53098,36.98983],[-80.52583,36.99539],[-80.52131,36.99655],[-80.51697,37.00247],[-80.51727,37.00522],[-80.52243,37.0089],[-80.5176,37.01178],[-80.50838,37.00306],[-80.50785,36.99823],[-80.50378,36.99159],[-80.49723,36.9882],[-80.49336,36.98148],[-80.49173,36.98232],[-80.49344,36.98609],[-80.49246,36.98742],[-80.48478,36.98826],[-80.48562,36.99954],[-80.48183,36.99811],[-80.47759,36.9936],[-80.47158,36.99345],[-80.47374,37.00298],[-80.46591,36.99988],[-80.46159,37.00325],[-80.46279,37.01114],[-80.45105,37.01273],[-80.45343,37.01717],[-80.45161,37.02145],[-80.448,37.02135],[-80.44567,37.01862],[-80.44506,37.01009],[-80.44242,37.00714],[-80.4367,37.01134],[-80.43683,37.01476],[-80.43424,37.01666],[-80.42641,37.0143],[-80.42266,37.00904],[-80.42341,37.0036],[-80.41713,37.0017],[-80.41277,37.00303],[-80.41111,37.00953],[-80.41692,37.01582],[-80.414,37.02211],[-80.40476,37.0145],[-80.39548,37.01671],[-80.38964,37.02165],[-80.37692,37.01867],[-80.36843,37.02189],[-80.36244,37.02018],[-80.34786,37.02159],[-80.3455,37.02372],[-80.34541,37.02651],[-80.28368,37.07883],[-80.21601,37.0992],[-80.17812,37.1134],[-80.17767,37.13309],[-80.19076,37.22798],[-80.19123,37.23286],[-80.18994,37.23344],[-80.20257,37.24149],[-80.20332,37.24624],[-80.25834,37.30843],[-80.26218,37.34153],[-80.30973,37.35964],[-80.32484,37.36883],[-80.33749,37.35768],[-80.35152,37.34919],[-80.40014,37.32845],[-80.4144,37.32503],[-80.43829,37.31214],[-80.47919,37.28526],[-80.50082,37.27564],[-80.53137,37.2654],[-80.56671,37.25866],[-80.60349,37.24684],[-80.60696,37.24487],[-80.60729,37.2388],[-80.61459,37.23329],[-80.61581,37.23041]]]]}}]}