{"type":"FeatureCollection","features":[{"type":"Feature","id":"VT:377:50007","properties":{"destinationId":"377","locality":"Burlington","definition":"Chittenden","state":"VT","stateName":"Vermont","county":"Chittenden County","countyGeoid":"50007","countyGeoids":["50007"],"coverage":"complete-counties","sourceType":"gsa_county_defined_rate_area"},"geometry":{"type":"Polygon","coordinates":[[[-73.36263,44.56432],[-73.35679,44.55792],[-73.34293,44.55191],[-73.33875,44.54805],[-73.339,44.5433],[-73.33159,44.53592],[-73.32946,44.5292],[-73.32203,44.52529],[-73.32084,44.51363],[-73.30671,44.50033],[-73.30442,44.48574],[-73.29988,44.47665],[-73.29894,44.4713],[-73.30011,44.45471],[-73.29361,44.44056],[-73.29603,44.42834],[-73.31049,44.4026],[-73.31502,44.38851],[-73.33358,44.37229],[-73.33494,44.36444],[-73.33464,44.35688],[-73.32734,44.34437],[-73.324,44.33384],[-73.32423,44.31002],[-73.32227,44.30152],[-73.3123,44.28002],[-73.31102,44.27424],[-73.31342,44.2642],[-73.27038,44.26011],[-73.1968,44.26663],[-73.07059,44.28383],[-73.07001,44.27992],[-73.01652,44.28536],[-73.02037,44.30374],[-72.97588,44.29504],[-72.9522,44.16141],[-72.89498,44.2781],[-72.90596,44.28055],[-72.86125,44.3669],[-72.83266,44.35874],[-72.82837,44.36043],[-72.82596,44.35902],[-72.80238,44.38858],[-72.83983,44.40345],[-72.80486,44.45188],[-72.8383,44.45929],[-72.80364,44.50628],[-72.83076,44.51643],[-72.80996,44.54671],[-72.82704,44.55069],[-72.85842,44.57974],[-72.90996,44.6312],[-73.03803,44.65116],[-73.22886,44.72281],[-73.22841,44.68826],[-73.23356,44.67159],[-73.23287,44.65142],[-73.23384,44.64838],[-73.23771,44.64589],[-73.24951,44.6424],[-73.25319,44.63847],[-73.25628,44.62968],[-73.2545,44.61068],[-73.25734,44.60269],[-73.26194,44.59753],[-73.27056,44.59255],[-73.29734,44.58172],[-73.36263,44.56432]]]}},{"type":"Feature","id":"VT:378:50003","properties":{"destinationId":"378","locality":"Manchester","definition":"Bennington","state":"VT","stateName":"Vermont","county":"Bennington County","countyGeoid":"50003","countyGeoids":["50003"],"coverage":"complete-counties","sourceType":"gsa_county_defined_rate_area"},"geometry":{"type":"Polygon","coordinates":[[[-73.2893,42.8041],[-73.29094,42.80192],[-73.27642,42.74602],[-72.9301,42.73916],[-72.92379,42.92744],[-73.00813,42.93056],[-73.00312,43.02368],[-73.0006,43.02356],[-73.00178,43.07512],[-72.99832,43.0966],[-72.99714,43.11746],[-72.99597,43.1187],[-72.94842,43.11748],[-72.86824,43.11393],[-72.86214,43.20522],[-72.85163,43.20483],[-72.84811,43.26285],[-72.81962,43.25601],[-72.8199,43.29937],[-72.9753,43.30416],[-72.97589,43.29055],[-72.99233,43.29072],[-72.98759,43.305],[-73.09257,43.30693],[-73.25452,43.31449],[-73.25649,43.25925],[-73.26978,43.03592],[-73.27867,42.83341],[-73.28539,42.83409],[-73.28706,42.82014],[-73.28375,42.81386],[-73.2893,42.8041]]]}},{"type":"Feature","id":"VT:379:50023","properties":{"destinationId":"379","locality":"Montpelier","definition":"Washington","state":"VT","stateName":"Vermont","county":"Washington County","countyGeoid":"50023","countyGeoids":["50023"],"coverage":"complete-counties","sourceType":"gsa_county_defined_rate_area"},"geometry":{"type":"Polygon","coordinates":[[[-72.9522,44.16141],[-72.93408,44.16282],[-72.91678,44.07189],[-72.8969,44.07366],[-72.68287,44.01281],[-72.63448,44.08931],[-72.6291,44.08784],[-72.58656,44.16026],[-72.56398,44.15478],[-72.55971,44.16291],[-72.44338,44.1288],[-72.4192,44.22078],[-72.36888,44.20389],[-72.31665,44.27223],[-72.31683,44.29878],[-72.27013,44.34038],[-72.21708,44.41131],[-72.22204,44.41424],[-72.22265,44.41606],[-72.22016,44.41648],[-72.22112,44.41841],[-72.21946,44.41814],[-72.22193,44.42284],[-72.22822,44.41932],[-72.22819,44.4222],[-72.22314,44.4238],[-72.22381,44.42489],[-72.43412,44.50602],[-72.48474,44.43914],[-72.49356,44.42398],[-72.59728,44.47938],[-72.65434,44.3983],[-72.76556,44.44281],[-72.80486,44.45188],[-72.83983,44.40345],[-72.80238,44.38858],[-72.82596,44.35902],[-72.82837,44.36043],[-72.83266,44.35874],[-72.86125,44.3669],[-72.90596,44.28055],[-72.89498,44.2781],[-72.9522,44.16141]]]}},{"type":"Feature","id":"VT:380:50015","properties":{"destinationId":"380","locality":"Stowe","definition":"Lamoille","state":"VT","stateName":"Vermont","county":"Lamoille County","countyGeoid":"50015","countyGeoids":["50015"],"coverage":"complete-counties","sourceType":"gsa_county_defined_rate_area"},"geometry":{"type":"Polygon","coordinates":[[[-72.92667,44.64754],[-72.92728,44.64574],[-72.92376,44.64194],[-72.92655,44.64032],[-72.92397,44.6374],[-72.92641,44.63512],[-72.92378,44.63321],[-72.90996,44.6312],[-72.85842,44.57974],[-72.82704,44.55069],[-72.80996,44.54671],[-72.83076,44.51643],[-72.80364,44.50628],[-72.8383,44.45929],[-72.76556,44.44281],[-72.65434,44.3983],[-72.59728,44.47938],[-72.49356,44.42398],[-72.48474,44.43914],[-72.36838,44.59285],[-72.48279,44.6341],[-72.41732,44.72289],[-72.57908,44.7809],[-72.5944,44.7903],[-72.5979,44.78706],[-72.61673,44.79584],[-72.6136,44.80042],[-72.7291,44.80404],[-72.74685,44.79009],[-72.74579,44.7759],[-72.75505,44.77703],[-72.75855,44.76364],[-72.76859,44.765],[-72.77439,44.74317],[-72.77939,44.74383],[-72.79322,44.69067],[-72.85079,44.71112],[-72.89186,44.65566],[-72.90008,44.65056],[-72.90297,44.64636],[-72.91784,44.6462],[-72.92264,44.65012],[-72.92667,44.64754]]]}},{"type":"Feature","id":"VT:381:50027","properties":{"destinationId":"381","locality":"White River Junction","definition":"Windsor","state":"VT","stateName":"Vermont","county":"Windsor County","countyGeoid":"50027","countyGeoids":["50027"],"coverage":"complete-counties","sourceType":"gsa_county_defined_rate_area"},"geometry":{"type":"Polygon","coordinates":[[[-72.98015,43.88292],[-72.98023,43.86397],[-72.97289,43.86677],[-72.95974,43.82608],[-72.8745,43.85806],[-72.87387,43.83963],[-72.83834,43.82925],[-72.83066,43.83912],[-72.79692,43.82916],[-72.79541,43.82563],[-72.79106,43.8241],[-72.79424,43.82031],[-72.79212,43.8165],[-72.7844,43.81383],[-72.78435,43.81108],[-72.7887,43.8073],[-72.78286,43.80401],[-72.81926,43.74631],[-72.80393,43.74097],[-72.81998,43.7167],[-72.69979,43.68458],[-72.73044,43.63085],[-72.75795,43.58742],[-72.7715,43.59109],[-72.78188,43.54393],[-72.78993,43.49455],[-72.76914,43.49151],[-72.77137,43.4788],[-72.72422,43.46817],[-72.72737,43.46106],[-72.72256,43.46008],[-72.7384,43.41704],[-72.76236,43.37141],[-72.75849,43.35331],[-72.82193,43.38061],[-72.82198,43.37571],[-72.85238,43.37628],[-72.8547,43.34928],[-72.86497,43.3487],[-72.86865,43.30053],[-72.8199,43.29937],[-72.81962,43.25601],[-72.68544,43.22258],[-72.54914,43.2359],[-72.43379,43.23304],[-72.43894,43.24424],[-72.43869,43.2529],[-72.43522,43.25848],[-72.42158,43.26344],[-72.41545,43.27137],[-72.40784,43.28289],[-72.40167,43.3034],[-72.39546,43.31299],[-72.39762,43.31706],[-72.40253,43.32038],[-72.4087,43.32767],[-72.41035,43.33168],[-72.40098,43.34578],[-72.3901,43.35693],[-72.40395,43.3581],[-72.41338,43.36274],[-72.4151,43.3659],[-72.41598,43.37653],[-72.41315,43.3843],[-72.40381,43.39194],[-72.39592,43.43097],[-72.39566,43.43854],[-72.39057,43.45122],[-72.3925,43.46736],[-72.38295,43.476],[-72.38172,43.48009],[-72.38089,43.49339],[-72.38477,43.50026],[-72.3963,43.50806],[-72.39856,43.51344],[-72.39422,43.5274],[-72.3891,43.52827],[-72.38038,43.54088],[-72.38278,43.56169],[-72.38262,43.56413],[-72.37986,43.5666],[-72.38015,43.57362],[-72.37337,43.57967],[-72.34993,43.58773],[-72.32851,43.6008],[-72.32823,43.60684],[-72.3327,43.61031],[-72.33474,43.61452],[-72.3344,43.61925],[-72.33236,43.62507],[-72.32897,43.62699],[-72.32724,43.63053],[-72.32947,43.63284],[-72.32913,43.63556],[-72.31408,43.64281],[-72.31506,43.64942],[-72.31402,43.65616],[-72.30432,43.66951],[-72.30309,43.67808],[-72.30602,43.68306],[-72.30513,43.69532],[-72.29956,43.70628],[-72.29222,43.71133],[-72.28481,43.72036],[-72.27527,43.72753],[-72.27178,43.73341],[-72.26447,43.7339],[-72.24507,43.74309],[-72.23418,43.74596],[-72.2181,43.76573],[-72.21082,43.7677],[-72.20514,43.77126],[-72.33934,43.81046],[-72.46156,43.83685],[-72.45952,43.83809],[-72.5735,43.87309],[-72.70931,43.91124],[-72.71228,43.90796],[-72.7735,43.92454],[-72.7689,43.93161],[-72.77514,43.93366],[-72.77108,43.93906],[-72.78996,43.94532],[-72.78522,43.95219],[-72.79178,43.95397],[-72.78702,43.96085],[-72.79104,43.96224],[-72.81,43.93609],[-72.81633,43.9378],[-72.86528,43.86166],[-72.87418,43.86406],[-72.87534,43.8677],[-72.87448,43.87237],[-72.87656,43.90276],[-72.95319,43.87486],[-72.98015,43.88292]]]}}]}