{"type":"FeatureCollection","features":[{"type":"Feature","id":"WA:384:53061","properties":{"destinationId":"384","locality":"Everett / Lynnwood","definition":"Snohomish","state":"WA","stateName":"Washington","county":"Snohomish County","countyGeoid":"53061","countyGeoids":["53061"],"coverage":"complete-counties","sourceType":"gsa_county_defined_rate_area"},"geometry":{"type":"MultiPolygon","coordinates":[[[[-122.33164,48.02056],[-122.33452,48.01892],[-122.32612,48.0103],[-122.30663,48.0044],[-122.30346,48.0056],[-122.30885,48.00983],[-122.30971,48.0128],[-122.31488,48.01346],[-122.32029,48.01693],[-122.32236,48.02104],[-122.33164,48.02056]]],[[[-122.40547,48.25198],[-122.39915,48.2421],[-122.39298,48.23743],[-122.39468,48.22987],[-122.39067,48.2299],[-122.38741,48.22602],[-122.38391,48.22749],[-122.37626,48.22417],[-122.37122,48.2197],[-122.36832,48.21461],[-122.37164,48.20525],[-122.36778,48.19711],[-122.37028,48.19094],[-122.36375,48.18446],[-122.35747,48.18228],[-122.37025,48.16481],[-122.36474,48.1513],[-122.3638,48.14276],[-122.364,48.14],[-122.36783,48.13493],[-122.36355,48.13334],[-122.36212,48.12985],[-122.36508,48.12582],[-122.36165,48.12018],[-122.34773,48.11069],[-122.34736,48.10672],[-122.34397,48.10297],[-122.34324,48.09763],[-122.32612,48.09288],[-122.32171,48.08551],[-122.32142,48.08099],[-122.301,48.07133],[-122.29834,48.06846],[-122.29834,48.06532],[-122.29343,48.0619],[-122.29152,48.06504],[-122.28,48.06307],[-122.27693,48.05851],[-122.27348,48.05668],[-122.27398,48.0539],[-122.27215,48.0537],[-122.27377,48.05081],[-122.28254,48.05195],[-122.28948,48.05545],[-122.29098,48.05479],[-122.28986,48.05243],[-122.27439,48.04823],[-122.23824,48.03058],[-122.22742,48.03093],[-122.21898,48.02028],[-122.2235,48.02036],[-122.22586,48.01834],[-122.2311,48.00875],[-122.2292,47.99937],[-122.22968,47.98847],[-122.23016,47.98486],[-122.23368,47.98157],[-122.23081,47.98011],[-122.22826,47.9751],[-122.23005,47.97092],[-122.24901,47.95951],[-122.27805,47.95652],[-122.29684,47.95056],[-122.30705,47.94912],[-122.31115,47.93672],[-122.30975,47.92912],[-122.31075,47.92512],[-122.32195,47.91312],[-122.32255,47.90918],[-122.32855,47.89792],[-122.32777,47.89402],[-122.33354,47.88025],[-122.33014,47.87532],[-122.32954,47.86942],[-122.33504,47.86132],[-122.33595,47.85231],[-122.33994,47.84672],[-122.34654,47.84242],[-122.35324,47.84062],[-122.38148,47.8139],[-122.39564,47.80681],[-122.39134,47.79242],[-122.39214,47.78542],[-122.39681,47.78238],[-122.39704,47.77972],[-122.3952,47.77792],[-121.99178,47.77535],[-121.86455,47.7773],[-121.49986,47.77783],[-121.45554,47.77843],[-121.45554,47.78058],[-121.11918,47.77993],[-121.12031,47.78428],[-121.11171,47.78776],[-121.1094,47.78972],[-121.10935,47.79277],[-121.10516,47.7957],[-121.09257,47.80072],[-121.09238,47.80513],[-121.0847,47.80771],[-121.08174,47.81601],[-121.07068,47.82662],[-121.07087,47.83018],[-121.08022,47.83412],[-121.09581,47.83269],[-121.10693,47.82897],[-121.11189,47.82946],[-121.12124,47.83272],[-121.12128,47.83663],[-121.12372,47.8384],[-121.13341,47.83975],[-121.13434,47.84304],[-121.1469,47.84346],[-121.15351,47.84531],[-121.15323,47.85105],[-121.14723,47.85753],[-121.15232,47.86896],[-121.15826,47.87664],[-121.15728,47.88228],[-121.16294,47.87942],[-121.1668,47.87959],[-121.16954,47.88315],[-121.17536,47.88588],[-121.17666,47.89536],[-121.18078,47.89877],[-121.17735,47.90546],[-121.17137,47.91218],[-121.17368,47.91535],[-121.17876,47.917],[-121.17951,47.91878],[-121.17049,47.9244],[-121.17279,47.9337],[-121.17114,47.93642],[-121.16641,47.93816],[-121.16218,47.94408],[-121.16187,47.94829],[-121.16509,47.95621],[-121.15827,47.9595],[-121.14845,47.9707],[-121.14876,47.97825],[-121.14714,47.98148],[-121.14073,47.98351],[-121.13594,47.98283],[-121.12481,47.99372],[-121.11818,47.9971],[-121.11793,48.00628],[-121.12302,48.00868],[-121.12851,48.01384],[-121.12922,48.01983],[-121.1311,48.02162],[-121.13394,48.02184],[-121.14858,48.03057],[-121.14897,48.03416],[-121.15322,48.04074],[-121.13052,48.04518],[-121.12821,48.04813],[-121.12043,48.05229],[-121.11598,48.05796],[-121.10984,48.05668],[-121.1052,48.05777],[-121.1016,48.06267],[-121.09703,48.0644],[-121.09014,48.06494],[-121.08304,48.06156],[-121.06459,48.07015],[-121.04863,48.07022],[-121.04125,48.0727],[-121.03622,48.07684],[-121.03012,48.07814],[-121.02516,48.07817],[-121.01594,48.0748],[-121.01116,48.07918],[-121.00467,48.08143],[-120.99882,48.08826],[-120.99936,48.08972],[-120.99553,48.08917],[-120.98733,48.09386],[-120.98131,48.09438],[-120.97779,48.10113],[-120.97221,48.10405],[-120.97248,48.10853],[-120.96374,48.10972],[-120.95616,48.10807],[-120.95295,48.11128],[-120.9471,48.11333],[-120.94631,48.11518],[-120.95263,48.11722],[-120.95539,48.12026],[-120.95673,48.12264],[-120.95572,48.12521],[-120.95828,48.1292],[-120.96522,48.13396],[-120.96384,48.13563],[-120.96562,48.14033],[-120.96442,48.14298],[-120.95595,48.1477],[-120.95557,48.15198],[-120.94842,48.15503],[-120.93828,48.15507],[-120.93322,48.15677],[-120.93425,48.1595],[-120.93194,48.16162],[-120.91524,48.15968],[-120.90742,48.16318],[-120.91054,48.17359],[-120.91736,48.17976],[-120.92059,48.18731],[-120.91927,48.19039],[-120.92554,48.19178],[-120.93266,48.19714],[-120.94703,48.20105],[-120.95231,48.20911],[-120.96477,48.21133],[-120.96575,48.21779],[-120.95985,48.22777],[-120.97314,48.2353],[-120.97436,48.23876],[-120.98124,48.24666],[-120.98249,48.25134],[-120.99992,48.26294],[-121.00564,48.27008],[-121.00449,48.2739],[-121.01209,48.27991],[-121.01155,48.2835],[-121.0025,48.28626],[-121.00065,48.29053],[-121.00166,48.29601],[-121.44496,48.29604],[-121.57756,48.29736],[-121.5775,48.29897],[-121.85797,48.29748],[-122.37295,48.29766],[-122.377,48.29563],[-122.37811,48.29267],[-122.37476,48.29163],[-122.37,48.29311],[-122.36759,48.29172],[-122.38711,48.2737],[-122.38727,48.27045],[-122.39161,48.26779],[-122.39703,48.25318],[-122.40547,48.25198]]]]}},{"type":"Feature","id":"WA:385:53027","properties":{"destinationId":"385","locality":"Ocean Shores","definition":"Grays Harbor","state":"WA","stateName":"Washington","county":"Grays Harbor County","countyGeoid":"53027","countyGeoids":["53027"],"coverage":"complete-counties","sourceType":"gsa_county_defined_rate_area"},"geometry":{"type":"MultiPolygon","coordinates":[[[[-123.88454,46.96579],[-123.88583,46.96414],[-123.86053,46.95606],[-123.85673,46.95606],[-123.8534,46.95866],[-123.85459,46.96093],[-123.86481,46.96514],[-123.87717,46.96693],[-123.88454,46.96579]]],[[[-124.35485,47.53354],[-124.34516,47.48903],[-124.34213,47.46672],[-124.34277,47.46414],[-124.34632,47.46293],[-124.34194,47.4612],[-124.33972,47.45352],[-124.3395,47.43772],[-124.33755,47.43298],[-124.33672,47.416],[-124.33784,47.41195],[-124.33636,47.40508],[-124.33016,47.40014],[-124.32432,47.3787],[-124.32409,47.3676],[-124.31963,47.35963],[-124.31938,47.35556],[-124.30751,47.35227],[-124.29994,47.34836],[-124.29329,47.33931],[-124.28637,47.32516],[-124.2781,47.30638],[-124.27944,47.30428],[-124.27441,47.30189],[-124.27119,47.30502],[-124.25745,47.30406],[-124.24299,47.29396],[-124.23635,47.28729],[-124.20902,47.21815],[-124.19589,47.174],[-124.18972,47.14683],[-124.18401,47.13535],[-124.18508,47.13064],[-124.17674,47.093],[-124.1735,47.06637],[-124.16911,46.99451],[-124.17116,46.95844],[-124.1745,46.94162],[-124.17388,46.92724],[-124.15862,46.92944],[-124.15216,46.93204],[-124.15188,46.93696],[-124.13554,46.94355],[-124.10997,46.93585],[-124.10624,46.93755],[-124.10603,46.94462],[-124.10966,46.94724],[-124.11249,46.94756],[-124.11936,46.94438],[-124.12744,46.94551],[-124.13263,46.96143],[-124.1309,46.9649],[-124.13556,46.96516],[-124.13804,46.97096],[-124.13973,46.98837],[-124.13744,46.99915],[-124.13923,47.00293],[-124.14667,47.00988],[-124.15129,47.02111],[-124.14904,47.02929],[-124.14152,47.03514],[-124.12206,47.04165],[-124.10638,47.04264],[-124.06586,47.04114],[-124.06081,47.0434],[-124.05039,47.03892],[-124.04408,47.03416],[-124.02634,47.03019],[-124.017,47.01485],[-124.01815,47.00944],[-124.01059,47.00784],[-124.00525,47.00392],[-124.01007,46.99788],[-124.01973,46.99119],[-124.01222,46.98518],[-123.99161,46.98022],[-123.98335,46.98162],[-123.95918,46.98176],[-123.94688,46.96874],[-123.92162,46.97186],[-123.89824,46.97193],[-123.8894,46.9689],[-123.87574,46.96985],[-123.8591,46.96758],[-123.8446,46.96093],[-123.8389,46.95395],[-123.85055,46.952],[-123.87021,46.94317],[-123.93706,46.92864],[-123.95749,46.92126],[-123.97938,46.92304],[-123.98508,46.92192],[-123.99594,46.91442],[-124.00839,46.9126],[-124.01366,46.90363],[-124.03624,46.89847],[-124.04634,46.89397],[-124.04928,46.89125],[-124.05508,46.87043],[-124.06105,46.86513],[-124.07311,46.86149],[-124.08929,46.86772],[-124.08967,46.87715],[-124.09509,46.8827],[-124.09042,46.8955],[-124.09296,46.90166],[-124.09949,46.90422],[-124.11064,46.91252],[-124.1158,46.91321],[-124.122,46.90568],[-124.13822,46.90553],[-124.13437,46.90383],[-124.1328,46.89639],[-124.10808,46.83639],[-124.09834,46.79407],[-123.88662,46.79289],[-123.85649,46.79092],[-123.7984,46.79258],[-123.53228,46.79403],[-123.36089,46.79186],[-123.35139,46.79351],[-123.20286,46.79443],[-123.16059,46.79338],[-123.16064,46.90968],[-123.15836,46.99587],[-123.2031,46.99697],[-123.20004,47.01479],[-123.20189,47.08506],[-123.3687,47.08245],[-123.48894,47.08265],[-123.48971,47.15486],[-123.49121,47.1626],[-123.48978,47.18383],[-123.4908,47.25821],[-123.50502,47.25854],[-123.50592,47.51772],[-124.04674,47.51852],[-124.0465,47.53367],[-124.35485,47.53354]]]]}},{"type":"Feature","id":"WA:386:53067","properties":{"destinationId":"386","locality":"Olympia / Tumwater","definition":"Thurston","state":"WA","stateName":"Washington","county":"Thurston County","countyGeoid":"53067","countyGeoids":["53067"],"coverage":"complete-counties","sourceType":"gsa_county_defined_rate_area"},"geometry":{"type":"Polygon","coordinates":[[[-123.20089,47.01041],[-123.2031,46.99697],[-123.15836,46.99587],[-123.16064,46.90968],[-123.16091,46.76433],[-122.68709,46.76374],[-122.61579,46.76216],[-122.571,46.76328],[-122.48677,46.76204],[-122.48675,46.76306],[-122.20312,46.76306],[-122.20799,46.76554],[-122.2113,46.77016],[-122.21589,46.76873],[-122.22274,46.7701],[-122.22655,46.76881],[-122.22949,46.76981],[-122.23055,46.77228],[-122.2361,46.77293],[-122.24062,46.77593],[-122.24784,46.77507],[-122.24998,46.77176],[-122.25953,46.77215],[-122.26209,46.76883],[-122.26248,46.7652],[-122.26962,46.7668],[-122.27995,46.77639],[-122.28576,46.7741],[-122.29675,46.78563],[-122.30847,46.78917],[-122.31252,46.79597],[-122.30626,46.80631],[-122.30247,46.80902],[-122.30416,46.81524],[-122.30358,46.82812],[-122.31011,46.82986],[-122.31858,46.82836],[-122.32511,46.83049],[-122.32389,46.83438],[-122.32938,46.83891],[-122.32556,46.8414],[-122.32768,46.84434],[-122.33414,46.8421],[-122.33826,46.83796],[-122.34682,46.83698],[-122.35599,46.83904],[-122.36042,46.8433],[-122.3641,46.84166],[-122.37119,46.84541],[-122.37492,46.8437],[-122.37852,46.83936],[-122.38487,46.84093],[-122.38854,46.84523],[-122.39068,46.84568],[-122.40833,46.84255],[-122.4095,46.84351],[-122.40781,46.84563],[-122.41661,46.8453],[-122.41696,46.84793],[-122.41897,46.84882],[-122.44255,46.85246],[-122.44601,46.85616],[-122.44825,46.85638],[-122.44977,46.85527],[-122.44877,46.85336],[-122.45174,46.85265],[-122.45885,46.85913],[-122.45814,46.86358],[-122.46662,46.86599],[-122.47384,46.86197],[-122.4762,46.86582],[-122.48549,46.86815],[-122.48784,46.86672],[-122.49089,46.86745],[-122.49141,46.87505],[-122.48791,46.87894],[-122.49359,46.88004],[-122.49114,46.88811],[-122.49725,46.89715],[-122.49597,46.90375],[-122.49407,46.90482],[-122.4978,46.90884],[-122.50611,46.91339],[-122.51179,46.91533],[-122.52062,46.91561],[-122.52573,46.92007],[-122.52787,46.92498],[-122.54661,46.93081],[-122.55688,46.93196],[-122.56353,46.93562],[-122.5662,46.93983],[-122.56684,46.94758],[-122.56878,46.94964],[-122.57188,46.96106],[-122.56314,46.9644],[-122.56465,46.96641],[-122.57318,46.9644],[-122.57536,46.96704],[-122.57959,46.96844],[-122.58502,46.96604],[-122.58718,46.96685],[-122.58697,46.97059],[-122.5769,46.97045],[-122.57537,46.9716],[-122.58006,46.9775],[-122.58452,46.97429],[-122.59001,46.97397],[-122.61105,46.9767],[-122.6116,46.96721],[-122.6185,46.97021],[-122.62912,46.97146],[-122.63855,46.97909],[-122.63669,46.98311],[-122.63152,46.98808],[-122.6303,46.99834],[-122.63812,46.99821],[-122.64059,46.99988],[-122.63924,47.00144],[-122.65203,47.00736],[-122.65702,47.00297],[-122.65986,47.00322],[-122.65702,47.00614],[-122.65877,47.00952],[-122.6724,47.01542],[-122.67442,47.01909],[-122.67256,47.02363],[-122.67986,47.02819],[-122.68036,47.03055],[-122.6755,47.0372],[-122.67732,47.04328],[-122.68566,47.05157],[-122.69321,47.05329],[-122.6899,47.05741],[-122.69557,47.05941],[-122.69611,47.06176],[-122.7033,47.065],[-122.70064,47.06783],[-122.70811,47.07761],[-122.70576,47.08274],[-122.70754,47.08533],[-122.69716,47.08961],[-122.69696,47.09426],[-122.69298,47.09641],[-122.6927,47.10132],[-122.69963,47.10091],[-122.70321,47.09574],[-122.71104,47.09572],[-122.71317,47.09348],[-122.72573,47.0939],[-122.72764,47.09716],[-122.72702,47.10051],[-122.75354,47.11182],[-122.756,47.11572],[-122.76337,47.11993],[-122.77722,47.12129],[-122.77687,47.1246],[-122.78626,47.12707],[-122.78924,47.13703],[-122.7871,47.13913],[-122.78781,47.14285],[-122.79137,47.14511],[-122.79328,47.15255],[-122.79684,47.15384],[-122.79874,47.15934],[-122.80468,47.16467],[-122.8092,47.16516],[-122.81519,47.1791],[-122.82151,47.17657],[-122.82774,47.16095],[-122.82862,47.13947],[-122.82708,47.13568],[-122.82913,47.13292],[-122.82988,47.12781],[-122.82821,47.12555],[-122.83059,47.1207],[-122.82988,47.11682],[-122.83226,47.11504],[-122.83677,47.11908],[-122.84294,47.13051],[-122.8478,47.1306],[-122.8453,47.13278],[-122.8466,47.13596],[-122.84446,47.1366],[-122.84299,47.14064],[-122.84414,47.1477],[-122.83844,47.15126],[-122.84083,47.15356],[-122.84176,47.16322],[-122.84414,47.16451],[-122.8477,47.16257],[-122.85835,47.16784],[-122.87995,47.15833],[-122.90352,47.15753],[-122.91134,47.17596],[-122.93482,47.18197],[-122.93722,47.19034],[-122.94705,47.18564],[-122.94924,47.17389],[-122.96122,47.16444],[-122.99112,47.15669],[-123.00567,47.14894],[-123.01046,47.14333],[-123.01539,47.12379],[-123.02136,47.11809],[-123.03411,47.11504],[-123.05539,47.11528],[-123.06058,47.11402],[-123.07365,47.10624],[-123.0751,47.0848],[-123.20189,47.08506],[-123.20089,47.01041]]]}},{"type":"Feature","id":"WA:387:53009","properties":{"destinationId":"387","locality":"Port Angeles / Port Townsend","definition":"Clallam / Jefferson","state":"WA","stateName":"Washington","county":"Clallam County","countyGeoid":"53009","countyGeoids":["53009","53031"],"coverage":"complete-counties","sourceType":"gsa_county_defined_rate_area"},"geometry":{"type":"MultiPolygon","coordinates":[[[[-124.60221,48.38693],[-124.59936,48.37683],[-124.59294,48.37793],[-124.60221,48.38693]]],[[[-124.65224,47.91003],[-124.65164,47.90528],[-124.64594,47.90419],[-124.6457,47.90738],[-124.64881,47.90996],[-124.65224,47.91003]]],[[[-124.73276,48.16533],[-124.7317,48.1604],[-124.72172,48.15318],[-124.71677,48.14264],[-124.70732,48.13156],[-124.7088,48.12714],[-124.71138,48.12558],[-124.6985,48.11978],[-124.69181,48.10821],[-124.69275,48.1047],[-124.69127,48.10025],[-124.6871,48.09866],[-124.6886,48.09247],[-124.69511,48.0871],[-124.69654,48.06927],[-124.69225,48.06414],[-124.69453,48.06184],[-124.69368,48.0587],[-124.68836,48.05493],[-124.68539,48.04924],[-124.68216,48.03599],[-124.68255,48.02791],[-124.68054,48.02437],[-124.68234,48.02083],[-124.67902,48.0157],[-124.67744,48.00926],[-124.67969,48.00066],[-124.67747,47.99606],[-124.67798,47.99232],[-124.67351,47.98936],[-124.67083,47.98237],[-124.67136,47.97646],[-124.6746,47.97315],[-124.67137,47.96916],[-124.67174,47.96751],[-124.67618,47.96703],[-124.67243,47.96441],[-124.66377,47.96343],[-124.66333,47.95978],[-124.66752,47.95812],[-124.66187,47.95436],[-124.66163,47.94655],[-124.65197,47.94318],[-124.64544,47.93534],[-124.63881,47.91916],[-124.64143,47.90785],[-124.63311,47.90387],[-124.62971,47.89697],[-124.63015,47.89247],[-124.62551,47.88796],[-124.61076,47.88061],[-124.43846,47.88313],[-124.29014,47.88118],[-123.50592,47.88108],[-123.50592,47.8669],[-122.94917,47.86682],[-122.94818,47.88139],[-122.95068,47.91042],[-122.9515,47.95429],[-122.94952,47.9693],[-122.9489,48.01248],[-122.94688,48.02675],[-122.94928,48.0429],[-122.94918,48.06515],[-122.92767,48.0653],[-122.92862,48.06759],[-122.92475,48.08056],[-122.92091,48.0882],[-122.91498,48.09408],[-122.9163,48.09542],[-122.93916,48.09634],[-122.94612,48.09855],[-122.97941,48.09594],[-123.00413,48.09052],[-123.01376,48.08586],[-123.02155,48.08408],[-123.02158,48.07867],[-123.00705,48.06984],[-123.00412,48.06371],[-123.01042,48.05437],[-123.008,48.04981],[-123.00297,48.04548],[-122.99612,48.02753],[-122.99708,48.02396],[-122.99982,48.0227],[-123.00707,48.02319],[-123.02063,48.03271],[-123.02019,48.03626],[-123.02694,48.04072],[-123.03829,48.05348],[-123.04676,48.05765],[-123.04463,48.06074],[-123.04086,48.06227],[-123.04625,48.07202],[-123.04603,48.08281],[-123.04058,48.08431],[-123.04691,48.09775],[-123.05892,48.11398],[-123.06621,48.12047],[-123.08515,48.12714],[-123.10651,48.14189],[-123.11176,48.14838],[-123.12482,48.15347],[-123.13142,48.15274],[-123.14214,48.15707],[-123.13926,48.16648],[-123.13242,48.1747],[-123.10079,48.18243],[-123.09997,48.184],[-123.10189,48.18495],[-123.13479,48.176],[-123.14478,48.17594],[-123.1644,48.16589],[-123.19152,48.14382],[-123.21719,48.1272],[-123.23913,48.11822],[-123.24862,48.11574],[-123.2544,48.11722],[-123.26892,48.11609],[-123.28018,48.11731],[-123.28826,48.12104],[-123.31458,48.11372],[-123.3327,48.11297],[-123.3389,48.11361],[-123.34464,48.11757],[-123.35381,48.1178],[-123.37435,48.11408],[-123.39505,48.11424],[-123.40745,48.11859],[-123.4116,48.11638],[-123.42467,48.11806],[-123.44197,48.12426],[-123.45136,48.12598],[-123.46016,48.12979],[-123.46206,48.13471],[-123.44637,48.13614],[-123.43686,48.13947],[-123.40153,48.13775],[-123.39981,48.13982],[-123.40335,48.14137],[-123.44013,48.14201],[-123.45573,48.13936],[-123.47338,48.13408],[-123.50724,48.13181],[-123.52232,48.13554],[-123.53488,48.14578],[-123.55113,48.15138],[-123.56854,48.14771],[-123.56967,48.144],[-123.57421,48.14076],[-123.58355,48.13643],[-123.59084,48.13495],[-123.60719,48.13688],[-123.61298,48.13899],[-123.62012,48.13788],[-123.62882,48.13928],[-123.64111,48.14613],[-123.6415,48.14723],[-123.63697,48.15032],[-123.6427,48.15406],[-123.67244,48.16272],[-123.70946,48.16758],[-123.70623,48.1634],[-123.71835,48.15871],[-123.72535,48.15919],[-123.72829,48.16086],[-123.72874,48.1628],[-123.7266,48.16357],[-123.72997,48.1651],[-123.73495,48.16432],[-123.73575,48.16186],[-123.73893,48.16026],[-123.74757,48.16158],[-123.77812,48.15547],[-123.80716,48.15476],[-123.81544,48.15544],[-123.82671,48.16112],[-123.83157,48.15794],[-123.84024,48.15591],[-123.85882,48.15427],[-123.86668,48.1548],[-123.8721,48.15878],[-123.88007,48.16062],[-123.91559,48.15935],[-123.93492,48.16084],[-123.93967,48.16191],[-123.93992,48.16447],[-123.94614,48.16645],[-123.94947,48.16502],[-123.98103,48.16476],[-123.99736,48.16869],[-123.99854,48.17209],[-124.01312,48.17074],[-124.02364,48.17263],[-124.0248,48.17478],[-124.03212,48.17432],[-124.05073,48.17775],[-124.06137,48.18291],[-124.06067,48.18567],[-124.06195,48.18709],[-124.06609,48.18634],[-124.09215,48.19669],[-124.10775,48.2001],[-124.10999,48.20314],[-124.10453,48.20905],[-124.10597,48.21248],[-124.10283,48.21413],[-124.10177,48.21688],[-124.11764,48.2208],[-124.12635,48.21967],[-124.13069,48.22064],[-124.14129,48.22741],[-124.19269,48.24632],[-124.21787,48.25329],[-124.22285,48.25676],[-124.23191,48.25839],[-124.23858,48.26247],[-124.25088,48.26477],[-124.25227,48.261],[-124.25701,48.25744],[-124.26485,48.25457],[-124.27889,48.25496],[-124.28182,48.25769],[-124.29589,48.25865],[-124.3002,48.2618],[-124.29915,48.26824],[-124.33904,48.27597],[-124.35075,48.28396],[-124.35854,48.28735],[-124.37069,48.28529],[-124.38692,48.28569],[-124.39559,48.28877],[-124.41401,48.30089],[-124.42787,48.30607],[-124.43583,48.30668],[-124.44415,48.31222],[-124.44629,48.31585],[-124.45721,48.31903],[-124.48581,48.33246],[-124.49036,48.33228],[-124.49506,48.33691],[-124.50088,48.33805],[-124.52545,48.34902],[-124.53882,48.34989],[-124.54626,48.35359],[-124.56484,48.36792],[-124.57286,48.36623],[-124.57682,48.36997],[-124.58645,48.37121],[-124.59073,48.3736],[-124.61029,48.36672],[-124.6217,48.36783],[-124.62907,48.37225],[-124.63111,48.37652],[-124.63939,48.38552],[-124.63572,48.38819],[-124.65324,48.39069],[-124.65941,48.39089],[-124.66353,48.38835],[-124.66876,48.38846],[-124.67626,48.39137],[-124.68173,48.38981],[-124.69142,48.39016],[-124.69443,48.38756],[-124.69942,48.38805],[-124.70646,48.38608],[-124.71695,48.38978],[-124.72584,48.38601],[-124.73183,48.38116],[-124.73086,48.3762],[-124.72726,48.37464],[-124.72702,48.3711],[-124.71382,48.36631],[-124.70661,48.35933],[-124.70748,48.35458],[-124.6967,48.34975],[-124.69599,48.34433],[-124.68768,48.33877],[-124.6835,48.33845],[-124.68112,48.34145],[-124.67636,48.34272],[-124.67007,48.34134],[-124.65894,48.33106],[-124.65986,48.32503],[-124.664,48.32028],[-124.66207,48.31045],[-124.66591,48.29932],[-124.66926,48.29635],[-124.67632,48.29514],[-124.68089,48.29765],[-124.68635,48.28739],[-124.68079,48.27723],[-124.68088,48.26535],[-124.68468,48.25523],[-124.69146,48.25031],[-124.69974,48.24724],[-124.69984,48.24391],[-124.70592,48.23989],[-124.69909,48.23203],[-124.6989,48.22803],[-124.69244,48.22392],[-124.69039,48.21974],[-124.6909,48.21262],[-124.69611,48.1986],[-124.70415,48.18442],[-124.70999,48.18137],[-124.71448,48.18111],[-124.72484,48.17245],[-124.73175,48.17],[-124.73276,48.16533]]],[[[-124.74482,48.39324],[-124.74648,48.39135],[-124.7346,48.38914],[-124.73222,48.39088],[-124.73721,48.39561],[-124.73952,48.39383],[-124.74482,48.39324]]],[[[-124.7548,48.15885],[-124.74862,48.15488],[-124.74547,48.15554],[-124.75141,48.16056],[-124.75382,48.16118],[-124.7548,48.15885]]],[[[-124.76266,48.17724],[-124.76235,48.1756],[-124.75521,48.17419],[-124.75567,48.17556],[-124.76266,48.17724]]]]}},{"type":"Feature","id":"WA:387:53031","properties":{"destinationId":"387","locality":"Port Angeles / Port Townsend","definition":"Clallam / Jefferson","state":"WA","stateName":"Washington","county":"Jefferson County","countyGeoid":"53031","countyGeoids":["53009","53031"],"coverage":"complete-counties","sourceType":"gsa_county_defined_rate_area"},"geometry":{"type":"MultiPolygon","coordinates":[[[[-122.94347,48.12291],[-122.94261,48.12104],[-122.93529,48.1213],[-122.91815,48.12689],[-122.9096,48.12655],[-122.92777,48.13277],[-122.93062,48.13247],[-122.94347,48.12291]]],[[[-124.49115,47.67408],[-124.49246,47.67208],[-124.48378,47.67208],[-124.47986,47.67712],[-124.48065,47.6798],[-124.49115,47.67408]]],[[[-124.5093,47.79885],[-124.50436,47.79694],[-124.50715,47.79917],[-124.5093,47.79885]]],[[[-124.61076,47.88061],[-124.60868,47.87524],[-124.61053,47.87167],[-124.60482,47.87279],[-124.60322,47.87135],[-124.59661,47.87861],[-124.58817,47.87788],[-124.57989,47.87456],[-124.57337,47.86667],[-124.56903,47.86566],[-124.56615,47.86762],[-124.56236,47.86622],[-124.55903,47.86308],[-124.558,47.85366],[-124.55277,47.85174],[-124.55005,47.84541],[-124.54469,47.8452],[-124.53956,47.8419],[-124.54102,47.83412],[-124.52259,47.83212],[-124.51939,47.82685],[-124.51278,47.82252],[-124.50668,47.82391],[-124.49799,47.8226],[-124.48974,47.81699],[-124.48456,47.80834],[-124.48144,47.78867],[-124.47187,47.77206],[-124.47358,47.77024],[-124.48,47.76902],[-124.48004,47.7673],[-124.47467,47.76656],[-124.46856,47.76825],[-124.46225,47.76468],[-124.45675,47.76618],[-124.45393,47.76533],[-124.45128,47.76318],[-124.45024,47.75847],[-124.44738,47.75545],[-124.43055,47.74625],[-124.4252,47.73843],[-124.42022,47.72529],[-124.41211,47.6912],[-124.39598,47.66553],[-124.38222,47.6323],[-124.37493,47.60389],[-124.37175,47.59958],[-124.36622,47.58244],[-124.35485,47.53354],[-124.0465,47.53367],[-124.04674,47.51852],[-123.50592,47.51772],[-123.50592,47.60462],[-123.37701,47.60462],[-123.37701,47.60691],[-123.3676,47.60743],[-122.98189,47.60669],[-122.98302,47.60858],[-122.98159,47.61307],[-122.97256,47.61403],[-122.96638,47.61884],[-122.95544,47.62412],[-122.95449,47.62701],[-122.94166,47.63165],[-122.94213,47.63582],[-122.93643,47.6379],[-122.935,47.6443],[-122.92764,47.64735],[-122.9274,47.65103],[-122.92179,47.64986],[-122.91837,47.64622],[-122.90411,47.64558],[-122.90137,47.6539],[-122.90553,47.65887],[-122.90244,47.66127],[-122.90363,47.66448],[-122.90886,47.66496],[-122.90624,47.67104],[-122.90102,47.6736],[-122.89698,47.67936],[-122.88081,47.68624],[-122.8782,47.69008],[-122.88961,47.70592],[-122.88438,47.71343],[-122.88271,47.73118],[-122.87939,47.73214],[-122.87368,47.73022],[-122.87131,47.74349],[-122.8675,47.74445],[-122.86156,47.74477],[-122.85704,47.73614],[-122.853,47.7363],[-122.85114,47.73854],[-122.85253,47.74573],[-122.84849,47.7518],[-122.84982,47.76075],[-122.86346,47.76858],[-122.86632,47.7772],[-122.86465,47.78024],[-122.86845,47.7911],[-122.86798,47.79892],[-122.86465,47.80467],[-122.85277,47.80419],[-122.8473,47.801],[-122.85063,47.79685],[-122.85182,47.78503],[-122.85514,47.78231],[-122.85348,47.78008],[-122.84181,47.77904],[-122.82764,47.78485],[-122.82187,47.78902],[-122.81503,47.80749],[-122.81564,47.8109],[-122.81925,47.81105],[-122.8252,47.82175],[-122.82068,47.82765],[-122.82068,47.83802],[-122.81664,47.84042],[-122.80975,47.84058],[-122.80645,47.83232],[-122.79762,47.8259],[-122.79667,47.81058],[-122.78907,47.80626],[-122.78812,47.80419],[-122.78978,47.79094],[-122.79726,47.77318],[-122.79572,47.77065],[-122.79994,47.7621],[-122.8,47.75819],[-122.80967,47.74741],[-122.81074,47.74312],[-122.80761,47.7371],[-122.80808,47.73246],[-122.81503,47.726],[-122.81236,47.71983],[-122.81355,47.71567],[-122.82496,47.71088],[-122.8276,47.70523],[-122.8271,47.7],[-122.82924,47.69504],[-122.83328,47.69248],[-122.8299,47.68912],[-122.81366,47.68254],[-122.80917,47.68223],[-122.80115,47.68538],[-122.78488,47.68733],[-122.77222,47.69171],[-122.77226,47.69489],[-122.78313,47.70368],[-122.78099,47.71391],[-122.78354,47.72239],[-122.77209,47.73988],[-122.76518,47.74463],[-122.75906,47.74614],[-122.7564,47.75126],[-122.75788,47.75774],[-122.75369,47.76666],[-122.75089,47.76778],[-122.75092,47.77418],[-122.74788,47.77537],[-122.7498,47.7815],[-122.74946,47.78889],[-122.74394,47.79394],[-122.74882,47.8017],[-122.74298,47.80989],[-122.73156,47.80976],[-122.71325,47.81409],[-122.70136,47.82558],[-122.69376,47.82638],[-122.68734,47.831],[-122.68116,47.84377],[-122.6816,47.8504],[-122.6852,47.85254],[-122.69376,47.868],[-122.66571,47.86657],[-122.65008,47.86386],[-122.63814,47.86546],[-122.63388,47.8684],[-122.62864,47.87949],[-122.62269,47.8771],[-122.6196,47.87757],[-122.61775,47.88303],[-122.61034,47.88734],[-122.61887,47.89024],[-122.63742,47.88994],[-122.64777,47.89597],[-122.6475,47.89914],[-122.65508,47.90506],[-122.65335,47.91008],[-122.65399,47.91589],[-122.65106,47.92098],[-122.656,47.92444],[-122.65772,47.93116],[-122.66238,47.9307],[-122.67289,47.91884],[-122.67736,47.9163],[-122.68806,47.91518],[-122.68924,47.91774],[-122.69852,47.91734],[-122.69922,47.9187],[-122.69013,47.92263],[-122.68203,47.9214],[-122.68044,47.93155],[-122.68445,47.93959],[-122.68469,47.94405],[-122.67622,47.95874],[-122.6788,47.96793],[-122.68322,47.97223],[-122.70069,47.97338],[-122.71808,47.98774],[-122.71875,47.9981],[-122.72802,48.01431],[-122.72771,48.01686],[-122.73097,48.01783],[-122.73097,48.02131],[-122.72194,48.02625],[-122.71367,48.02529],[-122.70897,48.01976],[-122.69663,48.01506],[-122.69043,48.0089],[-122.6866,48.0089],[-122.67056,48.01762],[-122.6725,48.0203],[-122.66906,48.03166],[-122.67748,48.03623],[-122.68266,48.04283],[-122.6846,48.04918],[-122.68349,48.05569],[-122.68654,48.06725],[-122.68568,48.07304],[-122.69281,48.08728],[-122.6916,48.09747],[-122.68756,48.10127],[-122.69675,48.10317],[-122.71824,48.09742],[-122.73326,48.09123],[-122.73717,48.08627],[-122.73886,48.08103],[-122.74834,48.0721],[-122.74739,48.0708],[-122.74118,48.07096],[-122.73927,48.06915],[-122.74001,48.05412],[-122.74229,48.04932],[-122.73702,48.04342],[-122.73427,48.03495],[-122.73987,48.03118],[-122.74853,48.03014],[-122.75386,48.03598],[-122.76506,48.04056],[-122.7705,48.0479],[-122.77056,48.05343],[-122.7653,48.05756],[-122.77422,48.06033],[-122.78442,48.06867],[-122.78807,48.07813],[-122.79888,48.08453],[-122.8014,48.08756],[-122.79846,48.09245],[-122.79385,48.0944],[-122.79418,48.09674],[-122.7812,48.10528],[-122.74891,48.11703],[-122.76072,48.1278],[-122.76245,48.13117],[-122.76179,48.13637],[-122.754,48.14322],[-122.75451,48.14434],[-122.76268,48.14276],[-122.78419,48.14285],[-122.83317,48.13441],[-122.83795,48.13648],[-122.84818,48.12692],[-122.86481,48.11645],[-122.88173,48.10832],[-122.88494,48.10511],[-122.8842,48.10242],[-122.88009,48.09911],[-122.8787,48.09174],[-122.88062,48.08707],[-122.89008,48.07818],[-122.88919,48.07707],[-122.88535,48.07759],[-122.87445,48.07485],[-122.85773,48.06577],[-122.85679,48.06104],[-122.85242,48.05846],[-122.84989,48.05432],[-122.82916,48.04836],[-122.82688,48.04614],[-122.82708,48.03607],[-122.83017,48.02192],[-122.83404,48.01439],[-122.83347,48.00957],[-122.83745,48.0069],[-122.83946,48.00177],[-122.84917,47.99639],[-122.86981,47.99294],[-122.87668,47.99361],[-122.88459,47.98975],[-122.88842,47.9923],[-122.88671,47.99486],[-122.86755,48.00294],[-122.86201,48.00861],[-122.86065,48.01553],[-122.85843,48.01768],[-122.8622,48.02102],[-122.86802,48.0378],[-122.87112,48.03819],[-122.87547,48.04456],[-122.87524,48.04635],[-122.89176,48.04953],[-122.9024,48.05382],[-122.91941,48.05793],[-122.92767,48.0653],[-122.94918,48.06515],[-122.94928,48.0429],[-122.94688,48.02675],[-122.9489,48.01248],[-122.94952,47.9693],[-122.9515,47.95429],[-122.95068,47.91042],[-122.94818,47.88139],[-122.94917,47.86682],[-123.50592,47.8669],[-123.50592,47.88108],[-124.29014,47.88118],[-124.43846,47.88313],[-124.61076,47.88061]]]]}},{"type":"Feature","id":"WA:389:53033","properties":{"destinationId":"389","locality":"Seattle","definition":"King","state":"WA","stateName":"Washington","county":"King County","countyGeoid":"53033","countyGeoids":["53033"],"coverage":"complete-counties","sourceType":"gsa_county_defined_rate_area"},"geometry":{"type":"MultiPolygon","coordinates":[[[[-122.43694,47.66172],[-122.42984,47.65892],[-122.42137,47.65295],[-122.41784,47.64842],[-122.41827,47.64444],[-122.41464,47.63977],[-122.3954,47.63059],[-122.39184,47.62995],[-122.38399,47.63188],[-122.38374,47.62632],[-122.37017,47.62518],[-122.3645,47.62034],[-122.34494,47.60912],[-122.33951,47.59911],[-122.34294,47.59122],[-122.35594,47.58733],[-122.36212,47.5838],[-122.36854,47.58488],[-122.37017,47.58309],[-122.37542,47.58518],[-122.38118,47.59036],[-122.38174,47.59392],[-122.38714,47.59572],[-122.40184,47.58392],[-122.42114,47.57602],[-122.40984,47.56892],[-122.40974,47.56652],[-122.39834,47.55012],[-122.39944,47.54582],[-122.39673,47.53548],[-122.4011,47.52991],[-122.39394,47.52482],[-122.39521,47.52012],[-122.3988,47.51744],[-122.39397,47.50968],[-122.38664,47.50222],[-122.36854,47.49234],[-122.36165,47.48528],[-122.36134,47.48142],[-122.36878,47.47274],[-122.37021,47.46776],[-122.36804,47.45922],[-122.38314,47.45052],[-122.36704,47.44762],[-122.3625,47.44545],[-122.36046,47.44253],[-122.35514,47.44192],[-122.35428,47.43642],[-122.35119,47.4308],[-122.35119,47.42308],[-122.34804,47.41592],[-122.33523,47.40842],[-122.33051,47.39638],[-122.32732,47.39563],[-122.32573,47.39152],[-122.32723,47.38772],[-122.326,47.37224],[-122.32386,47.37063],[-122.32506,47.3676],[-122.32483,47.34852],[-122.32742,47.34567],[-122.33693,47.34142],[-122.37432,47.33307],[-122.3771,47.32763],[-122.3811,47.32609],[-122.38408,47.3256],[-122.39102,47.32834],[-122.40285,47.32254],[-122.41764,47.32039],[-122.33483,47.26311],[-122.33492,47.25759],[-122.14398,47.25753],[-122.13683,47.2545],[-122.13833,47.25064],[-122.13758,47.24682],[-122.12297,47.23913],[-122.12296,47.23621],[-122.12587,47.23403],[-122.12546,47.23232],[-122.11591,47.2313],[-122.11486,47.22897],[-122.11757,47.22659],[-122.11318,47.22336],[-122.11565,47.22084],[-122.11388,47.21865],[-122.11589,47.21625],[-122.11137,47.21296],[-122.1103,47.20994],[-122.10048,47.19996],[-122.09483,47.1982],[-122.09502,47.19518],[-122.08781,47.19406],[-122.07818,47.18915],[-122.06338,47.18588],[-122.04807,47.1714],[-122.03744,47.17269],[-122.03236,47.17493],[-122.02325,47.17405],[-122.01188,47.17597],[-122.00401,47.17014],[-121.99393,47.17257],[-121.99145,47.16324],[-121.98025,47.16446],[-121.97317,47.16071],[-121.97,47.15648],[-121.95867,47.15724],[-121.95211,47.15451],[-121.94994,47.15095],[-121.95064,47.14559],[-121.94776,47.14279],[-121.94354,47.13997],[-121.93488,47.13822],[-121.93137,47.1401],[-121.93091,47.1427],[-121.92786,47.14482],[-121.9282,47.14736],[-121.92089,47.14996],[-121.90942,47.15054],[-121.90166,47.15562],[-121.88619,47.15295],[-121.87803,47.15378],[-121.87414,47.15074],[-121.86655,47.15263],[-121.86085,47.15065],[-121.8611,47.14745],[-121.85917,47.14647],[-121.84895,47.14711],[-121.84612,47.14439],[-121.83946,47.1434],[-121.83201,47.14824],[-121.83195,47.15136],[-121.82707,47.15268],[-121.8193,47.1588],[-121.8127,47.16007],[-121.8104,47.16387],[-121.7958,47.17323],[-121.7827,47.17228],[-121.77813,47.1734],[-121.77691,47.17282],[-121.77793,47.171],[-121.77335,47.16649],[-121.76978,47.16544],[-121.76169,47.16734],[-121.74866,47.16203],[-121.74309,47.16454],[-121.73859,47.16067],[-121.72716,47.15697],[-121.71914,47.15112],[-121.70507,47.152],[-121.68455,47.14977],[-121.67499,47.15493],[-121.66865,47.15587],[-121.6622,47.16004],[-121.64871,47.15498],[-121.64382,47.15559],[-121.63755,47.15331],[-121.62897,47.15312],[-121.62079,47.1494],[-121.62105,47.14781],[-121.61745,47.14668],[-121.61761,47.14468],[-121.61147,47.14299],[-121.60965,47.13838],[-121.60606,47.13716],[-121.60606,47.13536],[-121.59544,47.12545],[-121.59446,47.12223],[-121.58196,47.11866],[-121.57604,47.12017],[-121.5599,47.11962],[-121.55123,47.12292],[-121.53537,47.12264],[-121.53151,47.12458],[-121.51593,47.12156],[-121.51252,47.123],[-121.50903,47.12225],[-121.50506,47.11794],[-121.49965,47.11828],[-121.49321,47.1159],[-121.49056,47.11678],[-121.48634,47.1124],[-121.48114,47.11086],[-121.47135,47.09946],[-121.45474,47.08935],[-121.44176,47.0844],[-121.41739,47.08839],[-121.41197,47.0907],[-121.40684,47.08863],[-121.39227,47.08888],[-121.38664,47.08727],[-121.37677,47.0887],[-121.38341,47.09508],[-121.39377,47.09243],[-121.40302,47.099],[-121.39904,47.10397],[-121.40432,47.10864],[-121.40808,47.1181],[-121.39487,47.12867],[-121.39397,47.13276],[-121.36468,47.14176],[-121.3539,47.14054],[-121.34961,47.13755],[-121.3399,47.1357],[-121.33491,47.1327],[-121.32058,47.1353],[-121.31553,47.13384],[-121.30336,47.13894],[-121.30144,47.1448],[-121.29782,47.14885],[-121.30601,47.162],[-121.3119,47.16404],[-121.31777,47.17298],[-121.31012,47.18242],[-121.30996,47.18526],[-121.3063,47.18771],[-121.30647,47.19276],[-121.31162,47.19945],[-121.30914,47.20278],[-121.31139,47.20529],[-121.31126,47.2077],[-121.32499,47.21594],[-121.33523,47.21918],[-121.34624,47.21869],[-121.36514,47.22456],[-121.36565,47.22685],[-121.35837,47.23442],[-121.36075,47.24053],[-121.35189,47.24264],[-121.34542,47.24672],[-121.33977,47.2472],[-121.33777,47.25252],[-121.33416,47.25412],[-121.33196,47.25748],[-121.33209,47.25887],[-121.33585,47.26056],[-121.33534,47.2632],[-121.33873,47.26826],[-121.33837,47.27603],[-121.34105,47.2777],[-121.3412,47.28126],[-121.35133,47.2846],[-121.354,47.28383],[-121.35916,47.28532],[-121.36159,47.2919],[-121.36708,47.29087],[-121.37075,47.28826],[-121.36935,47.28656],[-121.37072,47.28519],[-121.3732,47.285],[-121.39075,47.28607],[-121.39385,47.2887],[-121.40918,47.28916],[-121.41496,47.2932],[-121.41711,47.29329],[-121.4192,47.29044],[-121.41921,47.28695],[-121.42749,47.28908],[-121.43284,47.29417],[-121.43067,47.2963],[-121.43299,47.30514],[-121.44436,47.30825],[-121.44533,47.30982],[-121.43844,47.31774],[-121.43996,47.32197],[-121.43893,47.32418],[-121.43594,47.3287],[-121.4317,47.32974],[-121.43037,47.33408],[-121.4387,47.34377],[-121.44466,47.34376],[-121.44983,47.34796],[-121.4629,47.35306],[-121.46423,47.35442],[-121.46148,47.36171],[-121.46595,47.36798],[-121.45927,47.37307],[-121.45241,47.37186],[-121.44495,47.37378],[-121.43779,47.37197],[-121.44012,47.3749],[-121.4412,47.38441],[-121.44046,47.38583],[-121.42976,47.38712],[-121.42621,47.38959],[-121.42748,47.39586],[-121.43358,47.39902],[-121.42991,47.40335],[-121.42756,47.40254],[-121.4231,47.40557],[-121.4221,47.40878],[-121.4223,47.41271],[-121.42446,47.41587],[-121.42844,47.41636],[-121.42745,47.42062],[-121.4111,47.42338],[-121.40828,47.42809],[-121.4005,47.43218],[-121.38511,47.43449],[-121.38152,47.43865],[-121.38529,47.44491],[-121.37898,47.45072],[-121.37912,47.45441],[-121.36401,47.46472],[-121.34799,47.46532],[-121.3415,47.47472],[-121.33871,47.47638],[-121.33199,47.47369],[-121.32461,47.4794],[-121.31636,47.47975],[-121.31408,47.47794],[-121.31154,47.4796],[-121.3111,47.48298],[-121.30314,47.48602],[-121.30036,47.49581],[-121.29064,47.50485],[-121.28858,47.50872],[-121.29195,47.51355],[-121.28536,47.5136],[-121.28332,47.51512],[-121.28553,47.51703],[-121.27891,47.52298],[-121.26179,47.52384],[-121.2548,47.5339],[-121.2516,47.53204],[-121.24287,47.53588],[-121.24293,47.53836],[-121.24153,47.53906],[-121.24334,47.54304],[-121.23539,47.54465],[-121.23433,47.54666],[-121.23556,47.54812],[-121.23336,47.55057],[-121.23394,47.55635],[-121.23212,47.5587],[-121.23306,47.56044],[-121.2289,47.5656],[-121.21704,47.56975],[-121.20863,47.56597],[-121.1946,47.56615],[-121.18831,47.56873],[-121.18014,47.56492],[-121.17658,47.56693],[-121.17694,47.56974],[-121.17084,47.57599],[-121.1699,47.5792],[-121.17298,47.58338],[-121.17076,47.58601],[-121.17225,47.59005],[-121.15101,47.59539],[-121.14396,47.59224],[-121.14163,47.59212],[-121.14108,47.59396],[-121.1372,47.59572],[-121.11926,47.59187],[-121.11688,47.59731],[-121.11357,47.59729],[-121.1111,47.59978],[-121.1201,47.61159],[-121.11993,47.61575],[-121.11312,47.61878],[-121.1137,47.62156],[-121.11876,47.62697],[-121.12461,47.62733],[-121.12784,47.63242],[-121.12659,47.63844],[-121.1337,47.6456],[-121.131,47.65424],[-121.13188,47.65566],[-121.12564,47.65716],[-121.12318,47.66333],[-121.12929,47.67326],[-121.12882,47.67618],[-121.12368,47.68021],[-121.12158,47.68521],[-121.10551,47.68882],[-121.09412,47.6954],[-121.09106,47.69875],[-121.09029,47.70283],[-121.07937,47.70196],[-121.06712,47.70627],[-121.066,47.7136],[-121.06964,47.71765],[-121.08363,47.72274],[-121.08737,47.7285],[-121.08478,47.72991],[-121.08494,47.7323],[-121.08185,47.73415],[-121.079,47.73919],[-121.08282,47.7434],[-121.08971,47.7461],[-121.09402,47.75818],[-121.09918,47.75899],[-121.10096,47.75732],[-121.10646,47.75681],[-121.11086,47.75842],[-121.1077,47.76668],[-121.11948,47.77584],[-121.11918,47.77993],[-121.45554,47.78058],[-121.45554,47.77843],[-121.49986,47.77783],[-121.86455,47.7773],[-121.99178,47.77535],[-122.3952,47.77792],[-122.39362,47.77388],[-122.39444,47.77222],[-122.38024,47.75852],[-122.38268,47.74783],[-122.37638,47.73844],[-122.37314,47.72922],[-122.37628,47.72259],[-122.37644,47.71652],[-122.38114,47.71206],[-122.38044,47.70912],[-122.38566,47.70454],[-122.40344,47.69772],[-122.40624,47.69302],[-122.40384,47.68942],[-122.40966,47.67622],[-122.40918,47.67174],[-122.41584,47.67062],[-122.42551,47.66471],[-122.43694,47.66172]]],[[[-122.52603,47.35891],[-122.52813,47.34554],[-122.51885,47.33332],[-122.49313,47.33025],[-122.49107,47.33243],[-122.48971,47.35173],[-122.48757,47.3572],[-122.48781,47.36509],[-122.48424,47.38006],[-122.47327,47.38711],[-122.46499,47.3873],[-122.45144,47.38296],[-122.44503,47.38939],[-122.45216,47.39519],[-122.46024,47.39342],[-122.46452,47.39068],[-122.46594,47.39519],[-122.46404,47.39921],[-122.46,47.40162],[-122.44788,47.4021],[-122.44265,47.40452],[-122.43956,47.4042],[-122.43908,47.39454],[-122.43718,47.39068],[-122.43314,47.38811],[-122.44241,47.38473],[-122.45311,47.3725],[-122.45667,47.37169],[-122.4638,47.37507],[-122.46618,47.3725],[-122.46667,47.36861],[-122.4707,47.3659],[-122.4745,47.35913],[-122.47711,47.35108],[-122.47569,47.34706],[-122.4575,47.34257],[-122.454,47.34334],[-122.4484,47.35499],[-122.44455,47.35688],[-122.44492,47.3594],[-122.43781,47.3656],[-122.42126,47.37105],[-122.41796,47.37489],[-122.40438,47.37861],[-122.40036,47.38157],[-122.37848,47.38533],[-122.37363,47.38872],[-122.39505,47.39928],[-122.42733,47.40213],[-122.43765,47.40742],[-122.43752,47.41263],[-122.43993,47.41701],[-122.43065,47.42151],[-122.42994,47.42368],[-122.4364,47.43026],[-122.43988,47.43777],[-122.43861,47.44199],[-122.43954,47.4489],[-122.4431,47.45346],[-122.43339,47.46643],[-122.44499,47.47318],[-122.44743,47.47826],[-122.46003,47.48686],[-122.45905,47.49228],[-122.46044,47.49376],[-122.45858,47.49822],[-122.4524,47.50347],[-122.45725,47.50585],[-122.46856,47.51008],[-122.47662,47.51108],[-122.48274,47.48313],[-122.49786,47.47591],[-122.50245,47.46796],[-122.50896,47.46111],[-122.51395,47.4489],[-122.51324,47.42334],[-122.5147,47.41405],[-122.52204,47.40725],[-122.52673,47.39858],[-122.52774,47.39229],[-122.51633,47.37732],[-122.5178,47.36868],[-122.52394,47.36654],[-122.52603,47.35891]]]]}},{"type":"Feature","id":"WA:390:53063","properties":{"destinationId":"390","locality":"Spokane","definition":"Spokane","state":"WA","stateName":"Washington","county":"Spokane County","countyGeoid":"53063","countyGeoids":["53063"],"coverage":"complete-counties","sourceType":"gsa_county_defined_rate_area"},"geometry":{"type":"Polygon","coordinates":[[[-117.82296,47.40943],[-117.82363,47.26022],[-117.04002,47.25927],[-117.03994,47.47782],[-117.04266,47.76086],[-117.04168,48.04546],[-117.53707,48.04786],[-117.5338,47.79518],[-117.53526,47.79446],[-117.53738,47.79713],[-117.55552,47.8017],[-117.56784,47.80066],[-117.57191,47.79614],[-117.5715,47.79463],[-117.5758,47.79352],[-117.58652,47.79486],[-117.60012,47.80302],[-117.61501,47.81778],[-117.62002,47.82831],[-117.62345,47.8286],[-117.63251,47.83512],[-117.65193,47.83526],[-117.66089,47.84363],[-117.66371,47.84858],[-117.66392,47.85686],[-117.66758,47.86375],[-117.66651,47.88044],[-117.67138,47.88748],[-117.67521,47.8891],[-117.68518,47.8865],[-117.6944,47.881],[-117.70179,47.86512],[-117.70152,47.86244],[-117.69797,47.8592],[-117.69777,47.85628],[-117.7037,47.85506],[-117.71505,47.84589],[-117.73617,47.83746],[-117.74266,47.8305],[-117.75301,47.82682],[-117.76546,47.83181],[-117.77754,47.82824],[-117.78116,47.82645],[-117.78585,47.81739],[-117.79046,47.81136],[-117.79235,47.81102],[-117.806,47.81223],[-117.81802,47.8213],[-117.82095,47.82578],[-117.8194,47.6146],[-117.82177,47.61459],[-117.82296,47.40943]]]}},{"type":"Feature","id":"WA:391:53053","properties":{"destinationId":"391","locality":"Tacoma","definition":"Pierce","state":"WA","stateName":"Washington","county":"Pierce County","countyGeoid":"53053","countyGeoids":["53053"],"coverage":"complete-counties","sourceType":"gsa_county_defined_rate_area"},"geometry":{"type":"MultiPolygon","coordinates":[[[[-122.64064,47.14941],[-122.63912,47.1463],[-122.63039,47.15354],[-122.62885,47.15794],[-122.63113,47.16768],[-122.63588,47.16396],[-122.64064,47.14941]]],[[[-122.66964,47.27647],[-122.67035,47.27357],[-122.66857,47.27045],[-122.64658,47.25357],[-122.64111,47.24663],[-122.6347,47.24341],[-122.62991,47.23714],[-122.62519,47.23469],[-122.62218,47.22901],[-122.61424,47.22087],[-122.60831,47.21758],[-122.60254,47.21751],[-122.59833,47.22259],[-122.59049,47.22775],[-122.58886,47.23714],[-122.6019,47.24308],[-122.6073,47.24963],[-122.62709,47.26051],[-122.62812,47.26748],[-122.63446,47.26696],[-122.64954,47.27521],[-122.65704,47.27518],[-122.66381,47.27759],[-122.66964,47.27647]]],[[[-122.70788,47.07886],[-122.70064,47.06783],[-122.7033,47.065],[-122.69611,47.06176],[-122.69557,47.05941],[-122.6899,47.05741],[-122.69321,47.05329],[-122.68566,47.05157],[-122.67732,47.04328],[-122.6755,47.0372],[-122.68036,47.03055],[-122.67986,47.02819],[-122.67256,47.02363],[-122.67442,47.01909],[-122.6724,47.01542],[-122.65877,47.00952],[-122.65702,47.00614],[-122.65986,47.00322],[-122.65702,47.00297],[-122.65203,47.00736],[-122.63924,47.00144],[-122.64059,46.99988],[-122.63812,46.99821],[-122.6303,46.99834],[-122.63074,46.9903],[-122.63818,46.98082],[-122.6374,46.9771],[-122.62912,46.97146],[-122.6185,46.97021],[-122.6116,46.96721],[-122.61105,46.9767],[-122.59001,46.97397],[-122.58452,46.97429],[-122.58006,46.9775],[-122.57537,46.9716],[-122.5769,46.97045],[-122.58697,46.97059],[-122.58718,46.96685],[-122.58502,46.96604],[-122.57959,46.96844],[-122.57536,46.96704],[-122.57318,46.9644],[-122.56602,46.96678],[-122.56314,46.9644],[-122.57188,46.96106],[-122.56878,46.94964],[-122.56684,46.94758],[-122.5662,46.93983],[-122.56353,46.93562],[-122.55688,46.93196],[-122.54661,46.93081],[-122.52787,46.92498],[-122.52573,46.92007],[-122.52062,46.91561],[-122.51179,46.91533],[-122.4978,46.90884],[-122.49407,46.90482],[-122.49597,46.90375],[-122.49725,46.89715],[-122.49114,46.88811],[-122.49359,46.88004],[-122.48791,46.87894],[-122.49141,46.87505],[-122.49089,46.86745],[-122.48784,46.86672],[-122.48549,46.86815],[-122.4762,46.86582],[-122.47384,46.86197],[-122.46662,46.86599],[-122.45814,46.86358],[-122.45885,46.85913],[-122.45174,46.85265],[-122.44877,46.85336],[-122.44977,46.85527],[-122.44825,46.85638],[-122.44601,46.85616],[-122.44255,46.85246],[-122.41897,46.84882],[-122.41696,46.84793],[-122.41661,46.8453],[-122.40781,46.84563],[-122.4095,46.84351],[-122.40833,46.84255],[-122.39068,46.84568],[-122.38854,46.84523],[-122.38487,46.84093],[-122.37852,46.83936],[-122.37492,46.8437],[-122.37119,46.84541],[-122.3641,46.84166],[-122.36042,46.8433],[-122.35599,46.83904],[-122.34682,46.83698],[-122.33826,46.83796],[-122.33414,46.8421],[-122.32768,46.84434],[-122.32556,46.8414],[-122.32938,46.83891],[-122.32389,46.83438],[-122.32511,46.83049],[-122.31858,46.82836],[-122.31011,46.82986],[-122.30358,46.82812],[-122.30416,46.81524],[-122.30247,46.80902],[-122.30626,46.80631],[-122.31252,46.79597],[-122.30847,46.78917],[-122.29675,46.78563],[-122.28576,46.7741],[-122.27995,46.77639],[-122.26962,46.7668],[-122.26248,46.7652],[-122.26209,46.76883],[-122.25953,46.77215],[-122.24998,46.77176],[-122.24784,46.77507],[-122.24062,46.77593],[-122.2361,46.77293],[-122.23055,46.77228],[-122.22949,46.76981],[-122.22655,46.76881],[-122.22274,46.7701],[-122.21589,46.76873],[-122.2113,46.77016],[-122.20799,46.76554],[-122.20017,46.76076],[-122.19215,46.76223],[-122.17788,46.7552],[-122.17478,46.75635],[-122.16871,46.75554],[-122.16459,46.75745],[-122.15981,46.75642],[-122.1573,46.7538],[-122.14745,46.7528],[-122.13912,46.75473],[-122.13554,46.75261],[-122.12903,46.75466],[-122.11602,46.749],[-122.0823,46.75222],[-122.06488,46.74687],[-122.0603,46.74919],[-122.0413,46.74252],[-122.02861,46.74362],[-122.02388,46.74231],[-122.01993,46.74387],[-122.01748,46.74723],[-122.01237,46.74822],[-122.0081,46.75257],[-122.00247,46.75326],[-121.99972,46.75076],[-121.99419,46.75134],[-121.99477,46.74863],[-121.99338,46.74724],[-121.98753,46.74666],[-121.98452,46.74433],[-121.97916,46.74427],[-121.97397,46.74577],[-121.96953,46.74937],[-121.96402,46.75017],[-121.96215,46.75402],[-121.95424,46.75502],[-121.94676,46.75271],[-121.94684,46.75054],[-121.93925,46.74807],[-121.93,46.73987],[-121.91818,46.73904],[-121.91234,46.73693],[-121.90173,46.7376],[-121.88932,46.7329],[-121.87876,46.73303],[-121.86744,46.72914],[-121.85497,46.72925],[-121.85435,46.73036],[-121.84508,46.72841],[-121.83176,46.73025],[-121.82983,46.7352],[-121.82068,46.74492],[-121.8174,46.74729],[-121.80993,46.74782],[-121.80424,46.75111],[-121.80339,46.75294],[-121.8054,46.75613],[-121.79942,46.76101],[-121.79057,46.76418],[-121.7877,46.76982],[-121.77637,46.77659],[-121.7588,46.78357],[-121.45522,46.7838],[-121.45383,46.78818],[-121.44846,46.79185],[-121.44252,46.79266],[-121.44417,46.79486],[-121.44932,46.79749],[-121.45061,46.80058],[-121.45502,46.80205],[-121.45819,46.80781],[-121.457,46.81071],[-121.45819,46.81198],[-121.46344,46.81327],[-121.47409,46.81998],[-121.47127,46.8219],[-121.47242,46.82317],[-121.47019,46.82627],[-121.4747,46.8314],[-121.4842,46.83427],[-121.48544,46.84101],[-121.49554,46.85491],[-121.49734,46.86287],[-121.50753,46.8648],[-121.51517,46.87097],[-121.52307,46.87278],[-121.52028,46.87918],[-121.51326,46.8848],[-121.51424,46.89099],[-121.51044,46.89661],[-121.50284,46.90127],[-121.49699,46.90834],[-121.4917,46.90911],[-121.48495,46.91284],[-121.47538,46.91327],[-121.46591,46.92017],[-121.45683,46.92315],[-121.45701,46.92798],[-121.44946,46.93435],[-121.45225,46.9413],[-121.45237,46.94528],[-121.45035,46.94835],[-121.45324,46.95164],[-121.45324,46.95699],[-121.4581,46.95964],[-121.45757,46.96424],[-121.4429,46.97228],[-121.44194,46.97375],[-121.44618,46.97834],[-121.44584,46.98022],[-121.42704,46.98808],[-121.42091,46.98858],[-121.41925,46.99191],[-121.4135,46.99518],[-121.40912,46.99519],[-121.40646,46.99874],[-121.4094,47.00406],[-121.40616,47.00902],[-121.40619,47.01218],[-121.39715,47.0183],[-121.39474,47.02327],[-121.3998,47.03346],[-121.38634,47.0461],[-121.38586,47.04922],[-121.38107,47.05037],[-121.37931,47.05387],[-121.37412,47.057],[-121.37663,47.06153],[-121.37539,47.07328],[-121.37887,47.07563],[-121.38262,47.08219],[-121.38331,47.0848],[-121.37996,47.08725],[-121.38231,47.08825],[-121.38664,47.08727],[-121.39227,47.08888],[-121.40684,47.08863],[-121.41197,47.0907],[-121.41739,47.08839],[-121.44176,47.0844],[-121.45474,47.08935],[-121.47135,47.09946],[-121.48114,47.11086],[-121.48634,47.1124],[-121.49056,47.11678],[-121.49321,47.1159],[-121.49965,47.11828],[-121.50506,47.11794],[-121.50903,47.12225],[-121.51252,47.123],[-121.51593,47.12156],[-121.53151,47.12458],[-121.53537,47.12264],[-121.55123,47.12292],[-121.5599,47.11962],[-121.57604,47.12017],[-121.58196,47.11866],[-121.58911,47.12023],[-121.59446,47.12223],[-121.59544,47.12545],[-121.60606,47.13536],[-121.60606,47.13716],[-121.60965,47.13838],[-121.61147,47.14299],[-121.61761,47.14468],[-121.61745,47.14668],[-121.62105,47.14781],[-121.62079,47.1494],[-121.62897,47.15312],[-121.63755,47.15331],[-121.64382,47.15559],[-121.64871,47.15498],[-121.6622,47.16004],[-121.66865,47.15587],[-121.67499,47.15493],[-121.68455,47.14977],[-121.70507,47.152],[-121.71914,47.15112],[-121.72716,47.15697],[-121.73859,47.16067],[-121.74309,47.16454],[-121.74866,47.16203],[-121.76169,47.16734],[-121.76978,47.16544],[-121.77561,47.16793],[-121.77813,47.1734],[-121.7827,47.17228],[-121.7958,47.17323],[-121.8104,47.16387],[-121.8127,47.16007],[-121.8193,47.1588],[-121.82707,47.15268],[-121.83195,47.15136],[-121.83201,47.14824],[-121.83946,47.1434],[-121.84612,47.14439],[-121.84895,47.14711],[-121.85917,47.14647],[-121.8611,47.14745],[-121.86085,47.15065],[-121.86655,47.15263],[-121.87414,47.15074],[-121.87803,47.15378],[-121.88619,47.15295],[-121.90166,47.15562],[-121.90942,47.15054],[-121.92089,47.14996],[-121.9282,47.14736],[-121.92786,47.14482],[-121.93365,47.13831],[-121.94354,47.13997],[-121.95064,47.14559],[-121.94994,47.15095],[-121.95211,47.15451],[-121.95867,47.15724],[-121.97,47.15648],[-121.97317,47.16071],[-121.98025,47.16446],[-121.99145,47.16324],[-121.99393,47.17257],[-122.00401,47.17014],[-122.01188,47.17597],[-122.02325,47.17405],[-122.03236,47.17493],[-122.03744,47.17269],[-122.04807,47.1714],[-122.06338,47.18588],[-122.07818,47.18915],[-122.08781,47.19406],[-122.09502,47.19518],[-122.09483,47.1982],[-122.10048,47.19996],[-122.1103,47.20994],[-122.11137,47.21296],[-122.11589,47.21625],[-122.11388,47.21865],[-122.11565,47.22084],[-122.11318,47.22336],[-122.11757,47.22659],[-122.11486,47.22897],[-122.11591,47.2313],[-122.12546,47.23232],[-122.12587,47.23403],[-122.12296,47.23621],[-122.12297,47.23913],[-122.13758,47.24682],[-122.13833,47.25064],[-122.13683,47.2545],[-122.14398,47.25753],[-122.33492,47.25759],[-122.33483,47.26311],[-122.41764,47.32039],[-122.42997,47.31966],[-122.43462,47.30749],[-122.44435,47.3061],[-122.44464,47.30042],[-122.43248,47.29701],[-122.42424,47.29752],[-122.41374,47.29392],[-122.4092,47.28856],[-122.41382,47.28502],[-122.4118,47.2825],[-122.41846,47.27589],[-122.42131,47.27025],[-122.42606,47.27041],[-122.42963,47.26848],[-122.43319,47.26348],[-122.43676,47.26186],[-122.44032,47.26202],[-122.4442,47.26672],[-122.45313,47.2724],[-122.47165,47.27732],[-122.48667,47.28573],[-122.49928,47.29492],[-122.49927,47.29655],[-122.50703,47.30284],[-122.50782,47.30556],[-122.51238,47.30753],[-122.51497,47.30605],[-122.51973,47.30796],[-122.53334,47.31662],[-122.54134,47.31893],[-122.54741,47.31773],[-122.54775,47.3164],[-122.52887,47.29311],[-122.52969,47.28331],[-122.53302,47.27638],[-122.55227,47.25428],[-122.55346,47.25186],[-122.55227,47.24831],[-122.55631,47.24444],[-122.56225,47.24524],[-122.56392,47.24347],[-122.56486,47.22717],[-122.56724,47.22184],[-122.58052,47.21042],[-122.58398,47.19958],[-122.58269,47.19246],[-122.59083,47.17811],[-122.59291,47.17582],[-122.61375,47.16956],[-122.61692,47.15691],[-122.62619,47.14188],[-122.63284,47.13897],[-122.63617,47.13557],[-122.64505,47.13509],[-122.65063,47.13274],[-122.65804,47.12717],[-122.66968,47.11455],[-122.67648,47.1021],[-122.6847,47.09704],[-122.6927,47.10132],[-122.69298,47.09641],[-122.69696,47.09426],[-122.69716,47.08961],[-122.70754,47.08533],[-122.70576,47.08274],[-122.70788,47.07886]]],[[[-122.72687,47.20739],[-122.72687,47.20442],[-122.71527,47.19901],[-122.70188,47.19788],[-122.69269,47.19304],[-122.67772,47.1911],[-122.65728,47.19352],[-122.6424,47.20085],[-122.6418,47.20501],[-122.64872,47.21564],[-122.65964,47.21929],[-122.6625,47.21742],[-122.66203,47.21419],[-122.66868,47.21581],[-122.6675,47.22339],[-122.67605,47.22614],[-122.67987,47.23119],[-122.68523,47.23238],[-122.70457,47.23098],[-122.70719,47.22485],[-122.7167,47.21678],[-122.71973,47.21096],[-122.72687,47.20739]]],[[[-122.74174,47.15504],[-122.74293,47.15147],[-122.73333,47.14602],[-122.72977,47.14068],[-122.72216,47.13713],[-122.712,47.12768],[-122.70243,47.12387],[-122.69475,47.1259],[-122.69296,47.13065],[-122.69697,47.13567],[-122.69483,47.14376],[-122.68841,47.14343],[-122.68425,47.13986],[-122.6755,47.14196],[-122.67748,47.14505],[-122.67724,47.14844],[-122.67344,47.1499],[-122.67393,47.17468],[-122.68166,47.18122],[-122.69258,47.18434],[-122.69578,47.189],[-122.70671,47.18738],[-122.71765,47.17915],[-122.72389,47.17646],[-122.72984,47.16694],[-122.72977,47.16364],[-122.72715,47.16073],[-122.74174,47.15504]]],[[[-122.83088,47.24562],[-122.8328,47.24341],[-122.82774,47.23879],[-122.82394,47.23104],[-122.81871,47.22782],[-122.81063,47.22572],[-122.8073,47.22217],[-122.80647,47.21059],[-122.78971,47.18761],[-122.78424,47.18519],[-122.77902,47.18535],[-122.77497,47.17243],[-122.77162,47.16711],[-122.7638,47.16612],[-122.75216,47.17242],[-122.75121,47.1755],[-122.74408,47.17856],[-122.7474,47.18099],[-122.74788,47.18341],[-122.74622,47.18551],[-122.74717,47.18923],[-122.73849,47.19923],[-122.74978,47.19924],[-122.7524,47.20812],[-122.75525,47.20974],[-122.74859,47.21975],[-122.74812,47.21087],[-122.74574,47.20651],[-122.74099,47.20618],[-122.73738,47.20822],[-122.73694,47.21038],[-122.71983,47.22088],[-122.71888,47.22652],[-122.72197,47.22911],[-122.72482,47.23589],[-122.72292,47.23734],[-122.72221,47.2446],[-122.71698,47.24799],[-122.71841,47.25154],[-122.72126,47.2517],[-122.72482,47.2488],[-122.73386,47.25009],[-122.7379,47.25541],[-122.7379,47.26122],[-122.73504,47.26589],[-122.74122,47.26606],[-122.74598,47.26041],[-122.74954,47.2596],[-122.75002,47.26686],[-122.74649,47.2725],[-122.74907,47.27381],[-122.75263,47.27218],[-122.75739,47.27396],[-122.75739,47.2767],[-122.75234,47.28082],[-122.75204,47.29062],[-122.74249,47.30798],[-122.73328,47.31784],[-122.72804,47.32882],[-122.73024,47.33332],[-122.72962,47.33869],[-122.72556,47.33832],[-122.71917,47.3421],[-122.71102,47.34434],[-122.7067,47.34967],[-122.69464,47.35412],[-122.68394,47.36516],[-122.67253,47.36741],[-122.66588,47.37127],[-122.65922,47.37192],[-122.63641,47.38077],[-122.62785,47.38238],[-122.62619,47.37562],[-122.63664,47.36628],[-122.63807,47.36258],[-122.64853,47.35855],[-122.65661,47.35276],[-122.65994,47.3526],[-122.66707,47.34551],[-122.67126,47.34377],[-122.67135,47.34132],[-122.66636,47.33794],[-122.6616,47.33714],[-122.65851,47.33311],[-122.66065,47.33005],[-122.66612,47.33359],[-122.678,47.3315],[-122.6795,47.32783],[-122.67824,47.32328],[-122.68062,47.3184],[-122.68941,47.31007],[-122.69021,47.30744],[-122.68418,47.30314],[-122.68674,47.29942],[-122.69122,47.29808],[-122.69738,47.28397],[-122.69583,47.28138],[-122.68632,47.27944],[-122.68089,47.28009],[-122.67848,47.28589],[-122.67135,47.28621],[-122.65994,47.28234],[-122.65447,47.28267],[-122.64853,47.27992],[-122.6307,47.27718],[-122.6143,47.2696],[-122.59244,47.27202],[-122.59434,47.26896],[-122.59885,47.26686],[-122.6001,47.26242],[-122.58583,47.25385],[-122.57818,47.25589],[-122.55791,47.27234],[-122.54752,47.28534],[-122.5556,47.29701],[-122.56629,47.30652],[-122.57374,47.31842],[-122.57598,47.32642],[-122.57134,47.32722],[-122.56796,47.3344],[-122.55584,47.34752],[-122.54823,47.3658],[-122.54398,47.36807],[-122.53848,47.37594],[-122.54156,47.38045],[-122.5468,47.38334],[-122.55132,47.38962],[-122.55227,47.39461],[-122.55088,47.40344],[-122.8012,47.40358],[-122.80106,47.35861],[-122.79738,47.36068],[-122.78917,47.36152],[-122.78621,47.35797],[-122.79131,47.35564],[-122.79131,47.3518],[-122.7953,47.3506],[-122.79681,47.34827],[-122.79534,47.34616],[-122.7801,47.34172],[-122.76906,47.34054],[-122.77004,47.33909],[-122.77858,47.33794],[-122.78905,47.33842],[-122.79493,47.31925],[-122.79256,47.31039],[-122.7933,47.30762],[-122.7885,47.3058],[-122.78706,47.29968],[-122.79559,47.28862],[-122.80337,47.28395],[-122.8114,47.27617],[-122.81528,47.27513],[-122.83088,47.24562]]],[[[-122.84164,47.25803],[-122.83805,47.25528],[-122.83411,47.2568],[-122.83221,47.2618],[-122.82532,47.27051],[-122.83234,47.27289],[-122.84005,47.26809],[-122.84164,47.25803]]]]}},{"type":"Feature","id":"WA:392:53011","properties":{"destinationId":"392","locality":"Vancouver","definition":"Clark / Cowlitz / Skamania","state":"WA","stateName":"Washington","county":"Clark County","countyGeoid":"53011","countyGeoids":["53011","53015","53059"],"coverage":"complete-counties","sourceType":"gsa_county_defined_rate_area"},"geometry":{"type":"Polygon","coordinates":[[[-122.79596,45.82502],[-122.7956,45.81],[-122.76953,45.78058],[-122.76145,45.75916],[-122.76011,45.73441],[-122.77251,45.69964],[-122.77451,45.68044],[-122.76381,45.65714],[-122.73811,45.64414],[-122.71331,45.63744],[-122.69101,45.62474],[-122.67501,45.61804],[-122.64391,45.60974],[-122.60261,45.60764],[-122.54815,45.59677],[-122.52367,45.58963],[-122.47932,45.57976],[-122.45389,45.56731],[-122.43867,45.56358],[-122.41071,45.56763],[-122.3918,45.57454],[-122.3803,45.57594],[-122.3528,45.56944],[-122.3315,45.54824],[-122.2949,45.54354],[-122.2667,45.54384],[-122.24891,45.54777],[-122.25012,45.82276],[-122.2498,45.86663],[-122.24452,45.86656],[-122.24616,45.9539],[-122.24586,46.05385],[-122.25147,46.05402],[-122.25152,46.05569],[-122.26432,46.05897],[-122.27297,46.0594],[-122.27653,46.05824],[-122.28343,46.05141],[-122.28735,46.0496],[-122.29444,46.04919],[-122.29471,46.03797],[-122.30588,46.02957],[-122.31171,46.02879],[-122.31519,46.02158],[-122.31372,46.017],[-122.31747,46.01266],[-122.32543,46.01256],[-122.32877,46.01081],[-122.32396,46.00581],[-122.325,45.99983],[-122.3225,45.99642],[-122.31663,45.99395],[-122.3148,45.99083],[-122.31836,45.98536],[-122.32529,45.98273],[-122.32438,45.97614],[-122.33266,45.96506],[-122.34348,45.95955],[-122.35213,45.95878],[-122.35632,45.95685],[-122.36103,45.958],[-122.36306,45.95978],[-122.36318,45.96271],[-122.37515,45.96013],[-122.37983,45.96165],[-122.38293,45.96484],[-122.38977,45.96666],[-122.39852,45.9725],[-122.41836,45.97401],[-122.41849,45.97672],[-122.4224,45.97739],[-122.43532,45.9751],[-122.44221,45.97585],[-122.44474,45.97777],[-122.44645,45.98318],[-122.45244,45.98496],[-122.4771,45.98809],[-122.4833,45.98635],[-122.48592,45.98329],[-122.49748,45.98698],[-122.49696,45.98075],[-122.5064,45.98033],[-122.51067,45.98494],[-122.51791,45.98283],[-122.523,45.98409],[-122.5345,45.97922],[-122.53484,45.977],[-122.5318,45.97402],[-122.53276,45.97284],[-122.54687,45.96696],[-122.56019,45.95216],[-122.57205,45.95257],[-122.58026,45.95467],[-122.58545,45.9528],[-122.59028,45.94837],[-122.60103,45.94477],[-122.60602,45.93999],[-122.61573,45.9357],[-122.62004,45.93685],[-122.63041,45.93578],[-122.64382,45.93785],[-122.65112,45.93412],[-122.65638,45.92796],[-122.65946,45.9296],[-122.6609,45.93247],[-122.66926,45.93699],[-122.69324,45.94145],[-122.69485,45.94059],[-122.69488,45.9377],[-122.68862,45.93438],[-122.688,45.93211],[-122.69087,45.92817],[-122.69697,45.92916],[-122.69911,45.93098],[-122.70644,45.93048],[-122.71971,45.93326],[-122.72091,45.93189],[-122.71876,45.92477],[-122.72382,45.91765],[-122.73018,45.91431],[-122.74013,45.91475],[-122.73729,45.90578],[-122.73766,45.90189],[-122.74716,45.89972],[-122.74945,45.89627],[-122.74452,45.89264],[-122.73314,45.89525],[-122.7342,45.88576],[-122.72868,45.87739],[-122.71977,45.8709],[-122.72073,45.86713],[-122.74139,45.87051],[-122.75096,45.86409],[-122.77325,45.85743],[-122.77739,45.85298],[-122.78552,45.85054],[-122.7857,45.84422],[-122.79596,45.82502]]]}},{"type":"Feature","id":"WA:392:53015","properties":{"destinationId":"392","locality":"Vancouver","definition":"Clark / Cowlitz / Skamania","state":"WA","stateName":"Washington","county":"Cowlitz County","countyGeoid":"53015","countyGeoids":["53011","53015","53059"],"coverage":"complete-counties","sourceType":"gsa_county_defined_rate_area"},"geometry":{"type":"Polygon","coordinates":[[[-123.21831,46.36974],[-123.21514,46.28352],[-123.21672,46.23141],[-123.21592,46.2134],[-123.21383,46.21344],[-123.21305,46.17254],[-123.16641,46.18897],[-123.1159,46.18527],[-123.10502,46.17768],[-123.05106,46.1536],[-123.0413,46.14635],[-123.00423,46.13382],[-122.96268,46.10482],[-122.90412,46.08373],[-122.88448,46.06028],[-122.87809,46.03128],[-122.85616,46.01447],[-122.83764,45.98082],[-122.814,45.96098],[-122.80619,45.93242],[-122.81151,45.91272],[-122.79809,45.88433],[-122.78503,45.8677],[-122.78552,45.85054],[-122.77739,45.85298],[-122.77325,45.85743],[-122.75096,45.86409],[-122.7432,45.87012],[-122.73586,45.87059],[-122.72073,45.86713],[-122.71977,45.8709],[-122.72868,45.87739],[-122.7342,45.88576],[-122.73314,45.89525],[-122.74452,45.89264],[-122.74945,45.89627],[-122.74716,45.89972],[-122.73766,45.90189],[-122.73729,45.90578],[-122.74013,45.91475],[-122.73018,45.91431],[-122.72382,45.91765],[-122.71876,45.92477],[-122.72091,45.93189],[-122.71971,45.93326],[-122.70644,45.93048],[-122.69911,45.93098],[-122.69697,45.92916],[-122.69087,45.92817],[-122.688,45.93211],[-122.68862,45.93438],[-122.69488,45.9377],[-122.69485,45.94059],[-122.69324,45.94145],[-122.66926,45.93699],[-122.6609,45.93247],[-122.65946,45.9296],[-122.65638,45.92796],[-122.65112,45.93412],[-122.64382,45.93785],[-122.63041,45.93578],[-122.62004,45.93685],[-122.61573,45.9357],[-122.60602,45.93999],[-122.60103,45.94477],[-122.59028,45.94837],[-122.58545,45.9528],[-122.58026,45.95467],[-122.57205,45.95257],[-122.56019,45.95216],[-122.54687,45.96696],[-122.53276,45.97284],[-122.5318,45.97402],[-122.53484,45.977],[-122.5345,45.97922],[-122.523,45.98409],[-122.51791,45.98283],[-122.51067,45.98494],[-122.5064,45.98033],[-122.49696,45.98075],[-122.49748,45.98698],[-122.48592,45.98329],[-122.4833,45.98635],[-122.4771,45.98809],[-122.45244,45.98496],[-122.44645,45.98318],[-122.44474,45.97777],[-122.44221,45.97585],[-122.43532,45.9751],[-122.4224,45.97739],[-122.41849,45.97672],[-122.41836,45.97401],[-122.39852,45.9725],[-122.38977,45.96666],[-122.38293,45.96484],[-122.37983,45.96165],[-122.37515,45.96013],[-122.36318,45.96271],[-122.36306,45.95978],[-122.36103,45.958],[-122.35632,45.95685],[-122.35213,45.95878],[-122.34348,45.95955],[-122.33266,45.96506],[-122.32438,45.97614],[-122.32529,45.98273],[-122.31836,45.98536],[-122.3148,45.99083],[-122.31663,45.99395],[-122.3225,45.99642],[-122.325,45.99983],[-122.32396,46.00581],[-122.32877,46.01081],[-122.32543,46.01256],[-122.31747,46.01266],[-122.31372,46.017],[-122.31519,46.02158],[-122.31171,46.02879],[-122.30588,46.02957],[-122.29471,46.03797],[-122.29444,46.04919],[-122.28735,46.0496],[-122.28343,46.05141],[-122.27653,46.05824],[-122.27297,46.0594],[-122.26432,46.05897],[-122.25152,46.05569],[-122.25147,46.05402],[-122.24586,46.05385],[-122.24668,46.20058],[-122.24546,46.21133],[-122.24201,46.21162],[-122.23948,46.38542],[-122.34567,46.38562],[-122.36365,46.38623],[-122.3637,46.38734],[-123.11423,46.38804],[-123.17651,46.38524],[-123.21795,46.38562],[-123.21831,46.36974]]]}},{"type":"Feature","id":"WA:392:53059","properties":{"destinationId":"392","locality":"Vancouver","definition":"Clark / Cowlitz / Skamania","state":"WA","stateName":"Washington","county":"Skamania County","countyGeoid":"53059","countyGeoids":["53011","53015","53059"],"coverage":"complete-counties","sourceType":"gsa_county_defined_rate_area"},"geometry":{"type":"Polygon","coordinates":[[[-122.25014,45.76582],[-122.24891,45.54777],[-122.2017,45.56414],[-122.1837,45.5777],[-122.14075,45.58451],[-122.11236,45.58141],[-122.10168,45.58352],[-122.04437,45.60952],[-122.02257,45.61515],[-122.00369,45.61593],[-121.98304,45.62281],[-121.96355,45.63278],[-121.95573,45.64356],[-121.95184,45.64495],[-121.93515,45.64417],[-121.90827,45.6544],[-121.90086,45.66201],[-121.90186,45.67072],[-121.86717,45.69328],[-121.8113,45.70676],[-121.7351,45.69404],[-121.70736,45.69481],[-121.66836,45.70508],[-121.63117,45.70466],[-121.53311,45.72654],[-121.52369,45.7249],[-121.52151,45.73194],[-121.52501,45.74403],[-121.52151,45.74764],[-121.52645,45.75081],[-121.53285,45.7591],[-121.53678,45.76064],[-121.53808,45.77093],[-121.53072,45.77414],[-121.52836,45.77738],[-121.51705,45.77884],[-121.51438,45.78211],[-121.60925,45.78252],[-121.60862,45.87036],[-121.6125,45.87042],[-121.61256,45.89886],[-121.61223,46.04409],[-121.52232,46.04401],[-121.52232,46.38863],[-122.11447,46.38832],[-122.11429,46.38648],[-122.24099,46.38586],[-122.23948,46.38542],[-122.24201,46.21162],[-122.24546,46.21133],[-122.24668,46.20058],[-122.24616,45.9539],[-122.24452,45.86656],[-122.2498,45.86663],[-122.25014,45.76582]]]}},{"type":"Feature","id":"WA:475:53005","properties":{"destinationId":"475","locality":"Richland / Pasco","definition":"Benton / Franklin","state":"WA","stateName":"Washington","county":"Benton County","countyGeoid":"53005","countyGeoids":["53005","53021"],"coverage":"complete-counties","sourceType":"gsa_county_defined_rate_area"},"geometry":{"type":"Polygon","coordinates":[[[-119.87508,46.57728],[-119.87672,46.56273],[-119.87422,46.56276],[-119.87356,46.2146],[-119.86654,46.21458],[-119.8656,46.12715],[-119.86827,45.83594],[-119.80266,45.84753],[-119.77293,45.84558],[-119.66988,45.85687],[-119.62339,45.90564],[-119.60055,45.91958],[-119.57158,45.92546],[-119.52463,45.9086],[-119.48783,45.90631],[-119.45026,45.91735],[-119.3644,45.9216],[-119.32251,45.93318],[-119.25715,45.93993],[-119.22574,45.93272],[-119.19553,45.92787],[-119.1695,45.9276],[-119.12612,45.93286],[-119.09322,45.94274],[-119.06146,45.95853],[-119.02706,45.96913],[-119.00856,45.97927],[-118.98726,45.99986],[-118.9617,46.01933],[-118.94166,46.02698],[-118.94121,46.03002],[-118.94774,46.04754],[-118.94195,46.06532],[-118.9423,46.07442],[-118.96784,46.1156],[-118.96901,46.11882],[-118.96663,46.12508],[-118.96805,46.13083],[-118.98104,46.14656],[-119.01421,46.1762],[-119.04564,46.19529],[-119.089,46.21094],[-119.11324,46.22156],[-119.13524,46.22578],[-119.168,46.22741],[-119.18713,46.2328],[-119.20336,46.23534],[-119.21045,46.23893],[-119.23823,46.26208],[-119.24704,46.26636],[-119.25998,46.26935],[-119.26585,46.27399],[-119.2676,46.27775],[-119.26626,46.28748],[-119.25249,46.30704],[-119.25023,46.31475],[-119.25693,46.34541],[-119.26381,46.35275],[-119.26937,46.3703],[-119.26945,46.37422],[-119.2656,46.38122],[-119.26499,46.39225],[-119.26686,46.40328],[-119.25914,46.43365],[-119.26333,46.45213],[-119.26111,46.46827],[-119.26406,46.4787],[-119.2588,46.48636],[-119.25843,46.48946],[-119.25985,46.49655],[-119.26904,46.51917],[-119.27699,46.52634],[-119.30523,46.53936],[-119.31592,46.55317],[-119.32673,46.56325],[-119.36208,46.57908],[-119.39795,46.60834],[-119.40401,46.61408],[-119.40682,46.61968],[-119.40801,46.62677],[-119.40741,46.64247],[-119.41305,46.65263],[-119.41984,46.657],[-119.44293,46.66425],[-119.45599,46.67103],[-119.45746,46.6731],[-119.45699,46.67623],[-119.4505,46.68226],[-119.44993,46.68624],[-119.45229,46.6892],[-119.46487,46.69691],[-119.49153,46.71959],[-119.50502,46.72616],[-119.51139,46.72769],[-119.51846,46.72678],[-119.5293,46.71792],[-119.53468,46.70964],[-119.56243,46.68812],[-119.58168,46.66991],[-119.61848,46.64758],[-119.63233,46.64296],[-119.6478,46.64036],[-119.65919,46.64033],[-119.68112,46.6465],[-119.71106,46.64882],[-119.71905,46.64745],[-119.75097,46.63566],[-119.7827,46.63342],[-119.82243,46.62608],[-119.85398,46.62594],[-119.87434,46.62837],[-119.87508,46.57728]]]}},{"type":"Feature","id":"WA:475:53021","properties":{"destinationId":"475","locality":"Richland / Pasco","definition":"Benton / Franklin","state":"WA","stateName":"Washington","county":"Franklin County","countyGeoid":"53021","countyGeoids":["53005","53021"],"coverage":"complete-counties","sourceType":"gsa_county_defined_rate_area"},"geometry":{"type":"Polygon","coordinates":[[[-119.45699,46.67623],[-119.45746,46.6731],[-119.45599,46.67103],[-119.44794,46.66663],[-119.43326,46.66052],[-119.41984,46.657],[-119.41305,46.65263],[-119.40741,46.64247],[-119.40801,46.62677],[-119.40529,46.61604],[-119.36736,46.58266],[-119.35411,46.57481],[-119.32975,46.56528],[-119.31592,46.55317],[-119.30523,46.53936],[-119.27699,46.52634],[-119.26904,46.51917],[-119.25985,46.49655],[-119.25843,46.48946],[-119.2588,46.48636],[-119.26406,46.4787],[-119.26111,46.46827],[-119.26333,46.45213],[-119.25914,46.43365],[-119.26686,46.40328],[-119.26499,46.39225],[-119.2656,46.38122],[-119.26945,46.37422],[-119.26937,46.3703],[-119.26381,46.35275],[-119.25693,46.34541],[-119.25023,46.31475],[-119.25249,46.30704],[-119.26626,46.28748],[-119.2676,46.27775],[-119.26585,46.27399],[-119.25998,46.26935],[-119.24704,46.26636],[-119.23823,46.26208],[-119.21045,46.23893],[-119.20336,46.23534],[-119.18713,46.2328],[-119.168,46.22741],[-119.13543,46.2258],[-119.11982,46.2233],[-119.1045,46.21849],[-119.089,46.21094],[-119.0415,46.19267],[-119.03196,46.20738],[-119.02345,46.21662],[-118.9903,46.22926],[-118.97649,46.23755],[-118.951,46.23933],[-118.88289,46.24986],[-118.86346,46.25139],[-118.85068,46.25981],[-118.84641,46.26768],[-118.83508,46.27268],[-118.83007,46.28162],[-118.8271,46.28338],[-118.80683,46.28986],[-118.79886,46.29081],[-118.78085,46.28946],[-118.76951,46.294],[-118.7669,46.29792],[-118.76662,46.30358],[-118.77432,46.31314],[-118.77374,46.31805],[-118.76186,46.32551],[-118.7574,46.34333],[-118.7462,46.35951],[-118.74243,46.36085],[-118.72087,46.36128],[-118.7009,46.36004],[-118.6971,46.3633],[-118.69535,46.37599],[-118.69117,46.3811],[-118.67454,46.38525],[-118.66753,46.39098],[-118.66242,46.40038],[-118.65813,46.40437],[-118.63441,46.41259],[-118.63416,46.42197],[-118.63803,46.43342],[-118.63113,46.44794],[-118.63195,46.45432],[-118.61899,46.47436],[-118.61836,46.47861],[-118.62067,46.48855],[-118.6199,46.49503],[-118.61559,46.50454],[-118.58821,46.5287],[-118.5654,46.53496],[-118.56028,46.53922],[-118.54801,46.55593],[-118.52799,46.56766],[-118.49652,46.57553],[-118.48438,46.58523],[-118.47593,46.59514],[-118.46734,46.59858],[-118.46236,46.59865],[-118.45264,46.59697],[-118.42318,46.58374],[-118.40442,46.58084],[-118.38973,46.5806],[-118.36172,46.59801],[-118.32639,46.60631],[-118.31408,46.60672],[-118.30568,46.60548],[-118.28339,46.59371],[-118.27386,46.59382],[-118.25108,46.60116],[-118.24426,46.60073],[-118.22447,46.59102],[-118.21566,46.58892],[-118.21086,46.59663],[-118.21388,46.59959],[-118.20781,46.60501],[-118.20828,46.60972],[-118.20403,46.60998],[-118.20008,46.6076],[-118.19826,46.61172],[-118.19962,46.61779],[-118.1983,46.62196],[-118.1998,46.62419],[-118.21541,46.6321],[-118.21653,46.63546],[-118.21464,46.63869],[-118.21942,46.64064],[-118.22241,46.64529],[-118.22547,46.64658],[-118.228,46.65093],[-118.22752,46.6532],[-118.23073,46.65644],[-118.22721,46.66251],[-118.22372,46.66411],[-118.2249,46.66639],[-118.22367,46.66654],[-118.22399,46.67198],[-118.22264,46.67229],[-118.22368,46.67381],[-118.21796,46.67706],[-118.21752,46.67914],[-118.2492,46.73258],[-118.24912,46.73414],[-118.23988,46.73811],[-118.2335,46.73387],[-118.22724,46.73657],[-118.21024,46.73883],[-118.35888,46.73662],[-118.70306,46.73563],[-119.19558,46.73821],[-119.36943,46.7377],[-119.36916,46.67818],[-119.45319,46.67924],[-119.45699,46.67623]]]}}]}