{"type":"FeatureCollection","features":[{"type":"Feature","id":"WI:396:55025","properties":{"destinationId":"396","locality":"Madison","definition":"Dane","state":"WI","stateName":"Wisconsin","county":"Dane County","countyGeoid":"55025","countyGeoids":["55025"],"coverage":"complete-counties","sourceType":"gsa_county_defined_rate_area"},"geometry":{"type":"Polygon","coordinates":[[[-89.83856,42.94994],[-89.83817,42.8574],[-89.36907,42.85647],[-89.36913,42.84504],[-89.01358,42.84763],[-89.01207,43.11069],[-89.00883,43.19772],[-89.00914,43.28483],[-89.06894,43.28304],[-89.36308,43.2813],[-89.36316,43.29404],[-89.72046,43.29308],[-89.71688,43.28941],[-89.71344,43.28101],[-89.71763,43.27264],[-89.72666,43.26491],[-89.724,43.26357],[-89.72508,43.26012],[-89.72945,43.25691],[-89.73174,43.2522],[-89.74311,43.24783],[-89.74896,43.24875],[-89.75221,43.24733],[-89.75215,43.2452],[-89.75445,43.24297],[-89.76222,43.24059],[-89.77068,43.24129],[-89.77424,43.23928],[-89.80541,43.23886],[-89.81018,43.23602],[-89.81787,43.22493],[-89.83814,43.20606],[-89.83856,42.94994]]]}},{"type":"Feature","id":"WI:397:55079","properties":{"destinationId":"397","locality":"Milwaukee","definition":"Milwaukee","state":"WI","stateName":"Wisconsin","county":"Milwaukee County","countyGeoid":"55079","countyGeoids":["55079"],"coverage":"complete-counties","sourceType":"gsa_county_defined_rate_area"},"geometry":{"type":"Polygon","coordinates":[[[-88.06959,42.86726],[-88.06992,42.84332],[-87.82713,42.84222],[-87.84348,42.87329],[-87.84649,42.88414],[-87.8437,42.88528],[-87.84347,42.89031],[-87.84667,42.89044],[-87.84783,42.89635],[-87.83966,42.9146],[-87.84398,42.92184],[-87.84594,42.93208],[-87.84331,42.94404],[-87.84348,42.95096],[-87.84556,42.9547],[-87.84502,42.96113],[-87.84997,42.97065],[-87.85718,42.97802],[-87.87868,42.99242],[-87.88802,43.00221],[-87.89161,43.00704],[-87.89866,43.02575],[-87.8967,43.03782],[-87.89063,43.04842],[-87.87547,43.05851],[-87.86381,43.07062],[-87.86406,43.07433],[-87.86648,43.07441],[-87.87022,43.08056],[-87.86991,43.08429],[-87.87608,43.09901],[-87.89318,43.11401],[-87.90048,43.12591],[-87.90138,43.13321],[-87.90028,43.13731],[-87.89228,43.14871],[-87.88108,43.17061],[-87.88759,43.18661],[-87.89209,43.19204],[-88.06335,43.19212],[-88.06925,42.95918],[-88.06959,42.86726]]]}},{"type":"Feature","id":"WI:400:55029","properties":{"destinationId":"400","locality":"Sturgeon Bay","definition":"Door","state":"WI","stateName":"Wisconsin","county":"Door County","countyGeoid":"55029","countyGeoids":["55029"],"coverage":"complete-counties","sourceType":"gsa_county_defined_rate_area"},"geometry":{"type":"MultiPolygon","coordinates":[[[[-86.8309,45.42602],[-86.82914,45.41649],[-86.82956,45.40592],[-86.81807,45.40815],[-86.8083,45.40607],[-86.80542,45.40732],[-86.80587,45.4129],[-86.81006,45.42262],[-86.81707,45.42696],[-86.82866,45.42854],[-86.8309,45.42602]]],[[[-86.9562,45.35201],[-86.95613,45.34227],[-86.94809,45.3353],[-86.93175,45.33238],[-86.92717,45.3297],[-86.9182,45.31702],[-86.91059,45.31401],[-86.9067,45.31046],[-86.90304,45.30205],[-86.9049,45.29684],[-86.89989,45.29518],[-86.89707,45.29606],[-86.89735,45.30309],[-86.90038,45.3115],[-86.90867,45.31662],[-86.90914,45.32278],[-86.90317,45.33311],[-86.90044,45.33602],[-86.89148,45.33819],[-86.87512,45.33087],[-86.86904,45.33322],[-86.86646,45.33568],[-86.8655,45.34098],[-86.86859,45.34955],[-86.86774,45.35306],[-86.8636,45.3559],[-86.8642,45.36513],[-86.84934,45.3725],[-86.84349,45.38785],[-86.83785,45.39372],[-86.84291,45.39829],[-86.85167,45.39673],[-86.85641,45.39947],[-86.85314,45.40555],[-86.86147,45.41207],[-86.8775,45.41398],[-86.89289,45.40898],[-86.91427,45.40823],[-86.91898,45.40464],[-86.9235,45.3973],[-86.92659,45.39797],[-86.9292,45.39897],[-86.92968,45.40131],[-86.92706,45.40915],[-86.93051,45.41754],[-86.93428,45.42115],[-86.93739,45.42097],[-86.94304,45.41525],[-86.9552,45.38372],[-86.94751,45.36643],[-86.9463,45.35869],[-86.94827,45.35568],[-86.95463,45.35857],[-86.9562,45.35201]]],[[[-86.96005,45.31177],[-86.95722,45.30476],[-86.94416,45.30063],[-86.94316,45.30462],[-86.9476,45.31232],[-86.95791,45.31507],[-86.96005,45.31177]]],[[[-87.21303,45.17914],[-87.21206,45.17699],[-87.20724,45.17764],[-87.20712,45.18],[-87.21129,45.1805],[-87.21303,45.17914]]],[[[-87.2687,45.15918],[-87.26829,45.15707],[-87.26365,45.15708],[-87.26222,45.1608],[-87.26473,45.1613],[-87.2687,45.15918]]],[[[-87.37755,45.18392],[-87.37697,45.17817],[-87.33263,45.16092],[-87.33798,45.17001],[-87.3386,45.17582],[-87.33603,45.18074],[-87.33508,45.19554],[-87.33757,45.20236],[-87.33234,45.20638],[-87.33507,45.21125],[-87.33704,45.21167],[-87.34393,45.20756],[-87.34572,45.20225],[-87.35273,45.19803],[-87.35971,45.1977],[-87.36457,45.20281],[-87.36925,45.19822],[-87.3752,45.19819],[-87.37437,45.18937],[-87.37755,45.18392]]],[[[-87.73374,44.6789],[-87.73609,44.67703],[-87.64115,44.67576],[-87.37508,44.67539],[-87.35379,44.70192],[-87.34351,44.71923],[-87.33519,44.74974],[-87.31898,44.77134],[-87.32106,44.78129],[-87.3204,44.78496],[-87.31237,44.795],[-87.30596,44.79948],[-87.3073,44.80209],[-87.29188,44.8116],[-87.28256,44.81473],[-87.27603,44.83318],[-87.27138,44.84278],[-87.26744,44.84685],[-87.26148,44.85102],[-87.22536,44.86525],[-87.22425,44.86844],[-87.21433,44.87241],[-87.20994,44.87198],[-87.20454,44.87559],[-87.20695,44.88274],[-87.20628,44.88593],[-87.2172,44.89784],[-87.21598,44.9066],[-87.21239,44.91112],[-87.20424,44.91682],[-87.18673,44.92546],[-87.17492,44.92775],[-87.1717,44.93148],[-87.17524,44.93975],[-87.18838,44.94808],[-87.18941,44.96863],[-87.1819,44.98089],[-87.17516,44.98588],[-87.16353,45.00489],[-87.15408,45.00912],[-87.13938,45.01256],[-87.13019,45.03124],[-87.13052,45.03658],[-87.12516,45.04237],[-87.12355,45.06708],[-87.11524,45.07079],[-87.09825,45.06991],[-87.09607,45.06803],[-87.09671,45.06433],[-87.09174,45.05628],[-87.08719,45.05606],[-87.08575,45.05849],[-87.07974,45.05945],[-87.07981,45.06328],[-87.08212,45.0659],[-87.07975,45.06848],[-87.08,45.07197],[-87.08604,45.07804],[-87.09233,45.07812],[-87.09719,45.08165],[-87.09772,45.08784],[-87.09385,45.09336],[-87.0818,45.09572],[-87.07576,45.08793],[-87.0699,45.08524],[-87.06801,45.07956],[-87.06527,45.07821],[-87.05744,45.08747],[-87.05232,45.08963],[-87.05029,45.08754],[-87.04803,45.08776],[-87.04709,45.09399],[-87.05132,45.09748],[-87.05279,45.10141],[-87.04884,45.10574],[-87.05105,45.11617],[-87.05731,45.12452],[-87.0765,45.12893],[-87.07757,45.13541],[-87.08502,45.14495],[-87.08064,45.14799],[-87.07942,45.1563],[-87.06605,45.1574],[-87.06248,45.15219],[-87.05598,45.14748],[-87.05588,45.14263],[-87.05063,45.13983],[-87.05051,45.13665],[-87.04513,45.1361],[-87.04073,45.13748],[-87.02989,45.14536],[-87.03033,45.14814],[-87.04579,45.1587],[-87.04376,45.16079],[-87.04582,45.16456],[-87.04653,45.17239],[-87.03902,45.19835],[-87.04162,45.21131],[-87.03756,45.21375],[-87.03372,45.21389],[-87.03286,45.21853],[-87.03858,45.22156],[-87.0358,45.22502],[-87.03945,45.22736],[-87.03683,45.23157],[-87.02764,45.23362],[-87.022,45.23316],[-87.02106,45.23098],[-87.01073,45.22673],[-87.00754,45.22213],[-87.00536,45.21369],[-87.00281,45.21177],[-86.99634,45.2139],[-86.9925,45.2179],[-86.98541,45.21579],[-86.97963,45.22505],[-86.9796,45.22722],[-86.98304,45.22844],[-86.98643,45.23332],[-86.985,45.23856],[-86.9734,45.2433],[-86.97354,45.24581],[-86.98241,45.24817],[-86.98498,45.25867],[-86.9844,45.26437],[-86.97453,45.27182],[-86.97036,45.27846],[-86.97246,45.28412],[-86.98336,45.29537],[-86.99088,45.29608],[-86.99411,45.29806],[-86.99766,45.29825],[-87.00242,45.29507],[-87.00753,45.29451],[-87.01704,45.29925],[-87.02236,45.29491],[-87.02356,45.29214],[-87.02214,45.28746],[-87.02546,45.28562],[-87.02998,45.28763],[-87.0383,45.28794],[-87.0439,45.28477],[-87.0517,45.28589],[-87.05763,45.29284],[-87.05971,45.2988],[-87.06744,45.29582],[-87.07371,45.27208],[-87.07832,45.26572],[-87.07728,45.25936],[-87.07466,45.25551],[-87.07751,45.25267],[-87.09201,45.25585],[-87.09966,45.2596],[-87.10874,45.257],[-87.10984,45.24832],[-87.11643,45.24152],[-87.11907,45.23059],[-87.12282,45.223],[-87.12161,45.20978],[-87.1194,45.20544],[-87.11997,45.1911],[-87.12369,45.18989],[-87.13303,45.19284],[-87.14157,45.19111],[-87.14629,45.19191],[-87.14906,45.18888],[-87.1481,45.18604],[-87.15167,45.1847],[-87.15736,45.18672],[-87.16718,45.18359],[-87.17507,45.17305],[-87.17246,45.16522],[-87.1723,45.15671],[-87.16977,45.15286],[-87.17862,45.14837],[-87.1872,45.15026],[-87.19362,45.15809],[-87.19465,45.16236],[-87.19901,45.16394],[-87.20392,45.16323],[-87.21157,45.16593],[-87.22208,45.16447],[-87.22479,45.16628],[-87.22478,45.16785],[-87.22175,45.16937],[-87.22086,45.17352],[-87.22312,45.17462],[-87.23121,45.17289],[-87.23768,45.16817],[-87.23784,45.16653],[-87.23462,45.16509],[-87.23391,45.16275],[-87.23875,45.15966],[-87.2389,45.15621],[-87.24292,45.14938],[-87.23945,45.12808],[-87.24398,45.12763],[-87.24848,45.13139],[-87.2503,45.13119],[-87.25745,45.12164],[-87.2601,45.11324],[-87.26172,45.08628],[-87.26998,45.07725],[-87.27706,45.07729],[-87.2804,45.07544],[-87.28428,45.06369],[-87.28239,45.05757],[-87.28406,45.04649],[-87.29285,45.04632],[-87.29666,45.04918],[-87.29879,45.05371],[-87.30165,45.05421],[-87.30711,45.05086],[-87.30854,45.04451],[-87.32135,45.03822],[-87.32177,45.03174],[-87.32526,45.02837],[-87.33216,45.0156],[-87.34253,45.01229],[-87.34497,45.00332],[-87.35482,44.99488],[-87.36029,44.98764],[-87.3748,44.95663],[-87.38725,44.93942],[-87.3934,44.93439],[-87.39837,44.92523],[-87.39554,44.92313],[-87.39523,44.9207],[-87.405,44.91181],[-87.4062,44.90449],[-87.3934,44.8982],[-87.3854,44.88996],[-87.38363,44.88512],[-87.38626,44.87377],[-87.38458,44.86955],[-87.38341,44.85305],[-87.38745,44.84934],[-87.38697,44.84428],[-87.38069,44.834],[-87.38426,44.83124],[-87.39006,44.83114],[-87.39334,44.83821],[-87.39743,44.84192],[-87.40554,44.86005],[-87.41002,44.86199],[-87.41995,44.87594],[-87.42762,44.88236],[-87.43261,44.88034],[-87.43855,44.88101],[-87.43902,44.88505],[-87.43641,44.88758],[-87.41911,44.88538],[-87.42033,44.8876],[-87.43313,44.89274],[-87.43708,44.89272],[-87.44235,44.88994],[-87.44332,44.88558],[-87.4614,44.87691],[-87.47154,44.86906],[-87.47214,44.86589],[-87.47849,44.86357],[-87.48133,44.85726],[-87.48561,44.85456],[-87.49345,44.85473],[-87.50058,44.85844],[-87.49844,44.86231],[-87.49911,44.86436],[-87.50382,44.86512],[-87.51687,44.87291],[-87.51894,44.87255],[-87.5192,44.87102],[-87.51235,44.86718],[-87.51006,44.86239],[-87.50338,44.85813],[-87.5038,44.85467],[-87.51444,44.84966],[-87.5189,44.84914],[-87.52788,44.85047],[-87.53128,44.85778],[-87.53364,44.85768],[-87.53283,44.84946],[-87.539,44.84256],[-87.54182,44.83089],[-87.54709,44.82949],[-87.55374,44.8245],[-87.55833,44.82412],[-87.55974,44.82532],[-87.557,44.82933],[-87.55819,44.83068],[-87.5651,44.82723],[-87.56614,44.83036],[-87.55804,44.84666],[-87.55324,44.84677],[-87.5507,44.84872],[-87.55029,44.85129],[-87.57425,44.85326],[-87.58131,44.85179],[-87.59344,44.843],[-87.61006,44.83838],[-87.61491,44.83501],[-87.62498,44.82319],[-87.6371,44.81358],[-87.6463,44.79874],[-87.66112,44.78855],[-87.66292,44.77987],[-87.68628,44.76151],[-87.70585,44.73822],[-87.70737,44.7338],[-87.71379,44.731],[-87.72089,44.72455],[-87.72182,44.71897],[-87.71841,44.70781],[-87.71759,44.69799],[-87.71978,44.69325],[-87.73374,44.6789]]]]}}]}