{"type":"FeatureCollection","features":[{"type":"Feature","id":"WV:403:54039","properties":{"destinationId":"403","locality":"Charleston","definition":"Kanawha","state":"WV","stateName":"West Virginia","county":"Kanawha County","countyGeoid":"54039","countyGeoids":["54039"],"coverage":"complete-counties","sourceType":"gsa_county_defined_rate_area"},"geometry":{"type":"Polygon","coordinates":[[[-81.9094,38.35503],[-81.9152,38.3256],[-81.88577,38.31475],[-81.84663,38.31333],[-81.84291,38.31456],[-81.83959,38.31904],[-81.83063,38.32253],[-81.81823,38.31675],[-81.81282,38.31141],[-81.81159,38.30866],[-81.81196,38.3008],[-81.80675,38.29433],[-81.80675,38.28649],[-81.80892,38.28552],[-81.80634,38.27084],[-81.80799,38.26914],[-81.80256,38.2643],[-81.80206,38.26166],[-81.80491,38.25969],[-81.80998,38.25946],[-81.81054,38.25701],[-81.80344,38.25115],[-81.803,38.24918],[-81.80924,38.24417],[-81.82084,38.2427],[-81.81232,38.24048],[-81.81072,38.23593],[-81.80775,38.23379],[-81.81009,38.22791],[-81.80146,38.22246],[-81.80416,38.2199],[-81.80917,38.22009],[-81.81928,38.22875],[-81.82157,38.22888],[-81.82235,38.22578],[-81.81787,38.21894],[-81.8183,38.21747],[-81.83315,38.22287],[-81.83579,38.22124],[-81.83643,38.21861],[-81.83159,38.21374],[-81.83102,38.21074],[-81.83347,38.20957],[-81.82854,38.20581],[-81.82463,38.20007],[-81.82367,38.19376],[-81.82087,38.18671],[-81.81854,38.18469],[-81.81387,38.18425],[-81.80989,38.18015],[-81.80473,38.18014],[-81.80204,38.17839],[-81.80199,38.18095],[-81.80531,38.183],[-81.80473,38.18444],[-81.80685,38.18743],[-81.81004,38.19006],[-81.81277,38.18994],[-81.81447,38.19425],[-81.81211,38.19576],[-81.81422,38.19866],[-81.81104,38.20198],[-81.81127,38.20804],[-81.79974,38.2093],[-81.79442,38.20741],[-81.7896,38.20974],[-81.78935,38.21162],[-81.78546,38.21425],[-81.78912,38.22147],[-81.78441,38.22457],[-81.78564,38.22708],[-81.78389,38.2306],[-81.773,38.23073],[-81.76462,38.22747],[-81.75499,38.21773],[-81.75602,38.21208],[-81.75328,38.20287],[-81.75032,38.20081],[-81.74451,38.2011],[-81.737,38.19817],[-81.73156,38.20484],[-81.72733,38.20381],[-81.72443,38.2056],[-81.72556,38.20811],[-81.72098,38.21463],[-81.72736,38.21403],[-81.7282,38.21754],[-81.72578,38.22121],[-81.72254,38.22264],[-81.70811,38.22308],[-81.70583,38.2271],[-81.70339,38.22649],[-81.69945,38.22837],[-81.69598,38.22729],[-81.6949,38.22398],[-81.69266,38.22408],[-81.68989,38.2195],[-81.68791,38.21968],[-81.68703,38.21814],[-81.68006,38.22106],[-81.67386,38.22165],[-81.66714,38.21956],[-81.66648,38.22153],[-81.65977,38.22349],[-81.65267,38.22089],[-81.64387,38.22076],[-81.64498,38.21439],[-81.64309,38.21068],[-81.64762,38.20939],[-81.64893,38.20486],[-81.65249,38.20347],[-81.64753,38.20109],[-81.64629,38.19551],[-81.64478,38.19499],[-81.64474,38.19195],[-81.64854,38.18504],[-81.64293,38.18356],[-81.6393,38.18028],[-81.64275,38.17728],[-81.64193,38.17634],[-81.63457,38.17753],[-81.63362,38.17168],[-81.62933,38.17231],[-81.62484,38.17876],[-81.62083,38.17757],[-81.61712,38.1785],[-81.61594,38.1768],[-81.60702,38.17442],[-81.60205,38.1762],[-81.60674,38.1701],[-81.59581,38.16711],[-81.5999,38.16401],[-81.59933,38.1618],[-81.59566,38.1601],[-81.59392,38.16109],[-81.5895,38.15722],[-81.5904,38.15417],[-81.58123,38.147],[-81.58134,38.14367],[-81.57425,38.14492],[-81.57251,38.14161],[-81.56928,38.14167],[-81.57059,38.13914],[-81.56947,38.13729],[-81.55574,38.14154],[-81.54518,38.13791],[-81.54317,38.13361],[-81.53905,38.13095],[-81.54643,38.12404],[-81.54529,38.12221],[-81.54637,38.11982],[-81.5412,38.11929],[-81.53401,38.12135],[-81.53192,38.12012],[-81.53136,38.11713],[-81.52654,38.11882],[-81.5214,38.11351],[-81.51964,38.11463],[-81.51592,38.11262],[-81.52155,38.10046],[-81.52588,38.10134],[-81.52883,38.0999],[-81.5306,38.09642],[-81.53408,38.09684],[-81.53673,38.09025],[-81.53662,38.08495],[-81.54038,38.08281],[-81.53963,38.07895],[-81.53747,38.07607],[-81.52905,38.0755],[-81.52092,38.06983],[-81.51795,38.06943],[-81.51665,38.06406],[-81.51177,38.06426],[-81.50528,38.0607],[-81.49908,38.06234],[-81.49355,38.06745],[-81.49067,38.06775],[-81.48697,38.06265],[-81.48769,38.06086],[-81.48451,38.06123],[-81.48363,38.05895],[-81.47812,38.06014],[-81.47662,38.05647],[-81.47441,38.05563],[-81.47374,38.05291],[-81.47747,38.05028],[-81.47619,38.04748],[-81.47147,38.04579],[-81.46975,38.04103],[-81.46431,38.03654],[-81.46041,38.03007],[-81.4599,38.02705],[-81.46698,38.02443],[-81.4653,38.02073],[-81.46796,38.0186],[-81.46841,38.01569],[-81.46471,38.01556],[-81.46345,38.01393],[-81.46633,38.00862],[-81.46545,38.0056],[-81.46198,38.00531],[-81.46166,38.00131],[-81.45923,37.99851],[-81.45583,37.99931],[-81.45593,37.99631],[-81.45373,37.99271],[-81.45913,37.97911],[-81.45243,37.97881],[-81.44933,37.97541],[-81.44393,37.97461],[-81.43853,37.96801],[-81.43613,37.96811],[-81.43243,37.97161],[-81.42923,37.97181],[-81.42353,37.96751],[-81.41853,37.96761],[-81.41433,37.97351],[-81.41143,37.97431],[-81.39933,37.96971],[-81.39763,37.96731],[-81.38663,37.96721],[-81.38083,37.96911],[-81.33262,38.1629],[-81.32675,38.17445],[-81.32904,38.17694],[-81.32891,38.18252],[-81.32154,38.18353],[-81.31489,38.1806],[-81.23149,38.26343],[-81.25445,38.3751],[-81.28387,38.47203],[-81.19411,38.52763],[-81.22056,38.53184],[-81.27425,38.52183],[-81.30349,38.5348],[-81.34934,38.5413],[-81.46537,38.5499],[-81.46644,38.54792],[-81.47165,38.54634],[-81.50755,38.58271],[-81.52217,38.61275],[-81.5782,38.57707],[-81.63284,38.55437],[-81.63336,38.55758],[-81.63578,38.55983],[-81.63517,38.56383],[-81.64366,38.56699],[-81.69635,38.62643],[-81.72878,38.59622],[-81.73897,38.59933],[-81.74115,38.59766],[-81.74176,38.59399],[-81.75055,38.59101],[-81.75153,38.58583],[-81.75565,38.58177],[-81.75131,38.57952],[-81.75053,38.57246],[-81.74888,38.57057],[-81.74985,38.56819],[-81.74775,38.56508],[-81.74985,38.5635],[-81.74796,38.55913],[-81.75015,38.55552],[-81.74716,38.55356],[-81.74909,38.54795],[-81.75149,38.54608],[-81.74915,38.54318],[-81.74928,38.54071],[-81.75391,38.5382],[-81.75205,38.5349],[-81.75513,38.53439],[-81.75076,38.52653],[-81.75407,38.52396],[-81.74224,38.5175],[-81.73985,38.51335],[-81.74382,38.51058],[-81.74242,38.50871],[-81.73723,38.50466],[-81.73173,38.50362],[-81.73451,38.50009],[-81.73291,38.49756],[-81.73401,38.49577],[-81.72924,38.48369],[-81.7275,38.48078],[-81.72532,38.48025],[-81.72694,38.47784],[-81.72638,38.47555],[-81.72199,38.47468],[-81.72307,38.46777],[-81.77711,38.44705],[-81.81344,38.4351],[-81.8147,38.43286],[-81.81928,38.43531],[-81.82284,38.4297],[-81.82649,38.43096],[-81.82867,38.42918],[-81.83604,38.42876],[-81.83756,38.42524],[-81.84612,38.42499],[-81.84656,38.42361],[-81.84955,38.42339],[-81.90022,38.39857],[-81.9094,38.35503]]]}},{"type":"Feature","id":"WV:406:54037","properties":{"destinationId":"406","locality":"Charles Town","definition":"Jefferson","state":"WV","stateName":"West Virginia","county":"Jefferson County","countyGeoid":"54037","countyGeoids":["54037"],"coverage":"complete-counties","sourceType":"gsa_county_defined_rate_area"},"geometry":{"type":"Polygon","coordinates":[[[-78.03545,39.27822],[-78.03454,39.27604],[-78.02602,39.27258],[-78.02796,39.26974],[-78.0335,39.26808],[-78.03319,39.26462],[-77.82816,39.13233],[-77.82218,39.13999],[-77.82287,39.14775],[-77.82141,39.15241],[-77.8051,39.17422],[-77.80471,39.17942],[-77.79794,39.19283],[-77.79819,39.20066],[-77.79363,39.21012],[-77.78364,39.22408],[-77.77142,39.23678],[-77.76728,39.24938],[-77.77088,39.24976],[-77.77028,39.25598],[-77.76284,39.25844],[-77.76177,39.26303],[-77.75311,39.27734],[-77.75273,39.28337],[-77.75027,39.28928],[-77.7349,39.31241],[-77.72164,39.31849],[-77.71952,39.32131],[-77.72738,39.32167],[-77.73501,39.32702],[-77.75579,39.3339],[-77.76112,39.33976],[-77.75932,39.34531],[-77.74593,39.35322],[-77.74387,39.35995],[-77.74414,39.36514],[-77.75327,39.37832],[-77.75339,39.38209],[-77.74971,39.38417],[-77.73808,39.38621],[-77.7359,39.38966],[-77.74001,39.40169],[-77.74748,39.41093],[-77.75309,39.42326],[-77.76332,39.42844],[-77.77485,39.42784],[-77.79275,39.43059],[-77.80325,39.43714],[-77.80086,39.44084],[-77.78856,39.44283],[-77.78558,39.44537],[-77.78611,39.4472],[-77.79814,39.45598],[-77.79847,39.46067],[-77.79316,39.46204],[-77.78047,39.45987],[-77.77782,39.46192],[-77.77852,39.46366],[-77.79563,39.47126],[-77.7982,39.47572],[-77.7967,39.4805],[-77.78852,39.48505],[-77.76912,39.49028],[-77.76555,39.49303],[-77.76599,39.49572],[-77.77095,39.49909],[-77.78161,39.49907],[-77.78654,39.4966],[-77.79176,39.49079],[-77.80183,39.4894],[-77.8255,39.49426],[-77.8319,39.48298],[-77.8338,39.47631],[-77.83859,39.47088],[-77.84095,39.46365],[-77.83948,39.46066],[-77.84363,39.45886],[-77.84714,39.44656],[-77.857,39.44073],[-77.85888,39.43733],[-77.93181,39.3796],[-77.94706,39.38048],[-77.94849,39.37863],[-77.94282,39.37479],[-77.94389,39.37268],[-77.95161,39.37215],[-77.95815,39.36714],[-77.96615,39.36741],[-77.96743,39.36626],[-77.9638,39.36331],[-77.96227,39.35927],[-77.96852,39.35711],[-77.96525,39.35235],[-77.96704,39.34553],[-77.97075,39.34652],[-77.97299,39.3495],[-77.98163,39.34932],[-77.98247,39.34764],[-77.97693,39.34368],[-77.97676,39.34054],[-77.98023,39.33912],[-77.98455,39.3332],[-77.98816,39.33189],[-77.98808,39.32551],[-77.99253,39.32728],[-77.99583,39.32663],[-77.99477,39.32379],[-77.99019,39.32278],[-77.98846,39.31978],[-77.99743,39.31051],[-78.0059,39.30682],[-78.01324,39.29701],[-78.01811,39.29354],[-78.02051,39.28798],[-78.02723,39.28842],[-78.02533,39.28483],[-78.02619,39.2802],[-78.03326,39.27998],[-78.03545,39.27822]]]}}]}