{"type":"FeatureCollection","features":[{"type":"Feature","id":"WY:408:56029","properties":{"destinationId":"408","locality":"Cody","definition":"Park","state":"WY","stateName":"Wyoming","county":"Park County","countyGeoid":"56029","countyGeoids":["56029"],"coverage":"complete-counties","sourceType":"gsa_county_defined_rate_area"},"geometry":{"type":"Polygon","coordinates":[[[-111.05456,45.00096],[-111.05361,44.66627],[-110.66787,44.66629],[-110.6679,44.58279],[-110.37533,44.58302],[-110.37686,44.58021],[-110.37256,44.57462],[-110.37272,44.57087],[-110.37466,44.56847],[-110.3826,44.56651],[-110.3845,44.56384],[-110.37037,44.55956],[-110.36014,44.55355],[-110.33941,44.54844],[-110.33334,44.54776],[-110.33186,44.54889],[-110.33139,44.55345],[-110.31562,44.5561],[-110.30766,44.55386],[-110.29528,44.54721],[-110.28996,44.54247],[-110.28923,44.5397],[-110.29085,44.53798],[-110.29501,44.53753],[-110.29843,44.53019],[-110.29549,44.528],[-110.29064,44.52866],[-110.28674,44.52686],[-110.27652,44.51665],[-110.27986,44.50557],[-110.278,44.49849],[-110.28432,44.48985],[-110.2819,44.47875],[-110.28305,44.47494],[-110.29099,44.47045],[-110.28881,44.45152],[-110.29265,44.44339],[-110.2922,44.43865],[-110.29339,44.4361],[-110.29617,44.43557],[-110.2963,44.43042],[-110.28806,44.42328],[-110.28695,44.41961],[-110.27812,44.414],[-110.26004,44.40945],[-110.255,44.40501],[-110.25357,44.38962],[-110.2431,44.38736],[-110.24094,44.38461],[-110.23549,44.38203],[-110.22841,44.37384],[-110.2295,44.37097],[-110.2268,44.36157],[-110.22817,44.35884],[-110.22686,44.3519],[-110.22392,44.34791],[-110.22592,44.3421],[-110.22503,44.33808],[-110.22019,44.33278],[-110.20251,44.32776],[-110.20149,44.32406],[-110.20278,44.3229],[-110.20032,44.32025],[-110.20146,44.3225],[-110.20195,44.31921],[-110.20284,44.32004],[-110.20519,44.31745],[-110.20632,44.31845],[-110.20318,44.31329],[-110.20495,44.31526],[-110.2098,44.31438],[-110.20337,44.30784],[-110.20384,44.30561],[-110.19826,44.30649],[-110.18927,44.30037],[-110.18598,44.30283],[-110.1861,44.30877],[-110.18212,44.30942],[-110.18132,44.30811],[-110.18409,44.30502],[-110.18344,44.30191],[-110.18008,44.30157],[-110.17885,44.30366],[-110.17486,44.30458],[-110.1725,44.30249],[-110.17577,44.29854],[-110.17196,44.29638],[-110.16904,44.29631],[-110.1662,44.30006],[-110.16221,44.29904],[-110.16154,44.29716],[-110.1511,44.29246],[-110.14479,44.28319],[-110.14541,44.27828],[-110.14073,44.27609],[-110.14214,44.2728],[-110.15047,44.27131],[-110.14777,44.26634],[-110.14018,44.26368],[-110.14197,44.25964],[-110.14473,44.25803],[-110.14338,44.25399],[-110.13711,44.24902],[-110.13198,44.25027],[-110.13442,44.24386],[-110.13327,44.24025],[-110.13712,44.2388],[-110.13803,44.23684],[-110.13115,44.22982],[-110.13306,44.2259],[-110.12888,44.22345],[-110.12371,44.21172],[-110.11882,44.21579],[-110.11494,44.2165],[-110.11346,44.21287],[-110.10974,44.21011],[-110.11037,44.2091],[-110.11637,44.21012],[-110.11852,44.20786],[-110.12123,44.20769],[-110.12352,44.20377],[-110.11909,44.19867],[-110.11386,44.20068],[-110.11128,44.19938],[-110.10892,44.19506],[-110.10885,44.19334],[-110.11184,44.19156],[-110.12146,44.19491],[-110.12339,44.19373],[-110.12316,44.1917],[-110.11447,44.18949],[-110.115,44.18808],[-110.11956,44.18716],[-110.11988,44.18527],[-110.11715,44.18355],[-110.11761,44.1812],[-110.11489,44.18168],[-110.11478,44.18472],[-110.10855,44.18633],[-110.10566,44.18546],[-110.10918,44.17839],[-110.11488,44.17954],[-110.11642,44.17756],[-110.11953,44.17723],[-110.1201,44.17484],[-110.12235,44.17522],[-110.12293,44.17408],[-110.12004,44.17094],[-110.11618,44.16873],[-110.1182,44.16645],[-110.12113,44.16627],[-110.12086,44.16171],[-110.12782,44.15916],[-110.12378,44.15263],[-110.12821,44.15119],[-110.12466,44.14948],[-110.12686,44.14283],[-110.12384,44.14398],[-110.12432,44.14157],[-110.12116,44.14039],[-110.12043,44.13638],[-110.11593,44.13568],[-110.1194,44.13464],[-110.1196,44.13258],[-110.05336,44.13263],[-110.05318,44.00802],[-110.04897,44.00878],[-110.04399,44.0045],[-110.03158,44.00097],[-110.03254,43.99615],[-110.02374,43.98595],[-110.02384,43.98325],[-110.01884,43.97935],[-110.01864,43.96825],[-110.01724,43.96685],[-110.00194,43.96695],[-110.00028,43.9627],[-110.00204,43.95545],[-109.99972,43.95232],[-109.99387,43.94956],[-109.99007,43.94907],[-109.98214,43.95424],[-109.97197,43.95563],[-109.9668,43.96139],[-109.95886,43.96457],[-109.95551,43.96415],[-109.9452,43.95822],[-109.93935,43.95817],[-109.93229,43.95072],[-109.92761,43.94999],[-109.92206,43.94608],[-109.8935,43.94705],[-109.8819,43.94908],[-109.85875,43.95799],[-109.85493,43.95026],[-109.85793,43.94901],[-109.85812,43.94268],[-109.86461,43.94019],[-109.87395,43.9336],[-109.87408,43.93213],[-109.87249,43.92795],[-109.86592,43.92627],[-109.85655,43.92484],[-109.85186,43.92659],[-109.85419,43.92406],[-109.84955,43.92106],[-109.84858,43.91696],[-109.85013,43.9126],[-109.84788,43.90812],[-109.85928,43.90076],[-109.84779,43.90023],[-109.83711,43.89468],[-109.83258,43.89507],[-109.83079,43.88979],[-109.82715,43.88831],[-109.82702,43.88695],[-109.82359,43.88718],[-109.81618,43.88197],[-109.81658,43.88053],[-109.82461,43.87717],[-109.82537,43.87509],[-109.83031,43.87459],[-109.83183,43.87137],[-109.82866,43.86667],[-109.82139,43.86732],[-109.81378,43.86176],[-109.82574,43.85533],[-109.83466,43.85523],[-109.84121,43.85271],[-109.8477,43.8532],[-109.85125,43.84928],[-109.85517,43.84826],[-109.85669,43.84479],[-109.85649,43.8417],[-109.84978,43.83709],[-109.85532,43.83477],[-109.85648,43.82837],[-109.85217,43.8245],[-109.84175,43.81932],[-109.82755,43.82438],[-109.82591,43.81617],[-109.8176,43.8158],[-109.80925,43.80951],[-109.80057,43.80828],[-109.79896,43.80627],[-109.78755,43.80134],[-109.78639,43.8048],[-109.7806,43.80712],[-109.77936,43.81209],[-109.77128,43.81319],[-109.76585,43.81643],[-109.76393,43.8206],[-109.75716,43.81732],[-109.75271,43.81742],[-109.75072,43.821],[-109.74263,43.8275],[-109.73573,43.82723],[-109.73176,43.83318],[-109.72249,43.83297],[-109.72012,43.83745],[-109.71666,43.83812],[-109.70875,43.83578],[-109.70264,43.84103],[-109.68905,43.8397],[-109.6857,43.84424],[-109.67653,43.8427],[-109.67208,43.84511],[-109.66589,43.84573],[-109.66575,43.85713],[-109.66962,43.85996],[-109.67248,43.8681],[-109.66797,43.87444],[-109.66683,43.88058],[-109.66142,43.87858],[-109.6594,43.87929],[-109.65621,43.8813],[-109.65302,43.88677],[-109.65606,43.89597],[-109.65436,43.90712],[-109.64811,43.913],[-109.64446,43.92075],[-109.64181,43.92278],[-109.63649,43.92276],[-109.62881,43.92701],[-109.62019,43.92573],[-109.61371,43.92748],[-109.60639,43.93659],[-109.60529,43.93964],[-109.60733,43.94561],[-109.60547,43.94796],[-109.60083,43.94893],[-109.595,43.94559],[-109.58778,43.93835],[-109.58431,43.93788],[-109.57817,43.94067],[-109.56694,43.95482],[-109.55991,43.95464],[-109.55265,43.96057],[-109.54233,43.96135],[-109.53196,43.94946],[-109.51227,43.93913],[-109.50318,43.93882],[-109.49198,43.94539],[-109.48974,43.94829],[-109.47605,43.94884],[-109.47273,43.94513],[-109.47054,43.93881],[-109.47239,43.93218],[-109.45473,43.92766],[-109.45154,43.92954],[-109.44236,43.93043],[-109.43817,43.9198],[-109.4339,43.91404],[-109.42686,43.91004],[-109.41342,43.90925],[-109.41094,43.90399],[-109.40495,43.90198],[-109.40627,43.89904],[-109.40176,43.89201],[-109.4025,43.8884],[-109.39846,43.88434],[-109.39172,43.88268],[-109.38017,43.8828],[-109.37402,43.87745],[-109.3736,43.87376],[-109.37633,43.87116],[-109.37265,43.85942],[-109.3699,43.85723],[-109.37147,43.85665],[-109.3722,43.85299],[-109.37116,43.85087],[-109.36749,43.84974],[-109.36676,43.84301],[-109.34932,43.83991],[-109.34097,43.84017],[-109.336,43.8421],[-109.3258,43.83775],[-109.32161,43.83403],[-109.32291,43.83246],[-109.3221,43.82909],[-109.31621,43.82419],[-109.31664,43.81847],[-109.31295,43.81329],[-109.27259,43.81355],[-109.27255,43.81612],[-109.13317,43.816],[-109.0936,43.81762],[-109.0924,43.83806],[-109.09288,43.90447],[-108.91278,43.90475],[-108.91598,43.99085],[-108.79178,43.99105],[-108.79228,44.07962],[-108.55076,44.0794],[-108.55056,44.16846],[-108.5738,44.16847],[-108.57342,44.52081],[-108.59249,44.52093],[-108.5923,44.87144],[-108.62046,44.87148],[-108.62131,45.00025],[-109.08285,44.99955],[-109.10323,45.00582],[-109.76111,45.0018],[-109.82566,45.00322],[-110.10578,45.00353],[-110.18322,44.99695],[-110.28477,44.99736],[-110.3252,44.99968],[-110.40712,44.9995],[-110.44574,44.99368],[-110.70448,44.99217],[-110.79012,45.00088],[-111.05456,45.00096]]]}},{"type":"Feature","id":"WY:409:56035","properties":{"destinationId":"409","locality":"Jackson / Pinedale","definition":"Teton / Sublette","state":"WY","stateName":"Wyoming","county":"Sublette County","countyGeoid":"56035","countyGeoids":["56035","56039"],"coverage":"complete-counties","sourceType":"gsa_county_defined_rate_area"},"geometry":{"type":"Polygon","coordinates":[[[-110.62343,42.7792],[-110.62348,42.71018],[-110.59007,42.71009],[-110.59013,42.44849],[-110.54333,42.44854],[-110.54163,42.27749],[-110.42482,42.27994],[-110.42492,42.27614],[-110.20652,42.27654],[-110.20692,42.27064],[-110.05371,42.27074],[-109.49666,42.26332],[-109.04386,42.26368],[-109.0438,42.43364],[-109.06948,42.43348],[-109.07285,42.69351],[-109.13447,42.69429],[-109.1338,42.69844],[-109.1377,42.70512],[-109.12841,42.70839],[-109.13225,42.71023],[-109.13435,42.71782],[-109.13732,42.72131],[-109.14791,42.72756],[-109.14328,42.73323],[-109.13328,42.73309],[-109.13404,42.7357],[-109.13232,42.73748],[-109.14143,42.73876],[-109.14404,42.74226],[-109.16021,42.74378],[-109.16068,42.74807],[-109.17947,42.75104],[-109.17874,42.75472],[-109.18258,42.75607],[-109.18461,42.76033],[-109.19526,42.76854],[-109.2098,42.77042],[-109.21357,42.76685],[-109.2146,42.7618],[-109.21745,42.76005],[-109.22102,42.7627],[-109.22392,42.76209],[-109.23223,42.76802],[-109.2361,42.76846],[-109.23575,42.77375],[-109.23736,42.77674],[-109.22672,42.788],[-109.22737,42.78957],[-109.22595,42.79094],[-109.22249,42.79162],[-109.22011,42.79026],[-109.21034,42.79314],[-109.21414,42.79983],[-109.23156,42.8039],[-109.23688,42.80952],[-109.24013,42.8088],[-109.24376,42.80526],[-109.24797,42.80616],[-109.25977,42.81524],[-109.264,42.82416],[-109.2685,42.82434],[-109.27026,42.82632],[-109.27117,42.83201],[-109.27702,42.83615],[-109.2812,42.84296],[-109.27889,42.84601],[-109.28286,42.84718],[-109.28302,42.84847],[-109.28516,42.84648],[-109.29109,42.84581],[-109.30006,42.84969],[-109.30136,42.85168],[-109.31536,42.85613],[-109.32007,42.86016],[-109.32056,42.86248],[-109.32355,42.86387],[-109.32761,42.87338],[-109.33046,42.87495],[-109.32919,42.87704],[-109.32984,42.8818],[-109.33179,42.88344],[-109.33063,42.88652],[-109.33191,42.89542],[-109.33853,42.89751],[-109.34085,42.90537],[-109.34313,42.908],[-109.34536,42.9189],[-109.35641,42.92474],[-109.35959,42.93345],[-109.37066,42.94573],[-109.38411,42.93929],[-109.39112,42.94034],[-109.39776,42.9392],[-109.40109,42.94413],[-109.40016,42.94574],[-109.40479,42.9506],[-109.41121,42.95546],[-109.42089,42.95728],[-109.42876,42.96066],[-109.42779,42.96238],[-109.43195,42.96533],[-109.43236,42.96815],[-109.44101,42.96786],[-109.44349,42.97035],[-109.45068,42.97116],[-109.45424,42.97027],[-109.4556,42.97508],[-109.4632,42.9813],[-109.45976,42.98297],[-109.46018,42.98806],[-109.46666,42.99195],[-109.47256,42.99048],[-109.47492,42.99387],[-109.49206,42.99535],[-109.49424,42.99863],[-109.49382,43.0007],[-109.50241,43.01051],[-109.50617,43.01063],[-109.51389,43.00717],[-109.51776,43.01104],[-109.52298,43.0094],[-109.52902,43.01386],[-109.53969,43.01309],[-109.54315,43.01037],[-109.55258,43.01254],[-109.55541,43.02167],[-109.55371,43.02484],[-109.55575,43.02701],[-109.55431,43.03195],[-109.54871,43.03671],[-109.55205,43.03996],[-109.56031,43.03951],[-109.55894,43.04405],[-109.55983,43.04776],[-109.56441,43.04659],[-109.57075,43.04934],[-109.56185,43.05198],[-109.55221,43.05983],[-109.55461,43.06213],[-109.55183,43.0679],[-109.553,43.0723],[-109.55858,43.07441],[-109.5616,43.07778],[-109.56045,43.08354],[-109.56529,43.08513],[-109.56941,43.09036],[-109.57008,43.09198],[-109.56834,43.09436],[-109.57037,43.09965],[-109.57729,43.0996],[-109.58119,43.10149],[-109.58493,43.10894],[-109.59568,43.11827],[-109.60395,43.11898],[-109.61201,43.12495],[-109.62063,43.1256],[-109.62488,43.13378],[-109.62366,43.13553],[-109.62672,43.13909],[-109.63095,43.14923],[-109.62948,43.15177],[-109.63074,43.15476],[-109.63028,43.16317],[-109.63492,43.16592],[-109.64368,43.16213],[-109.651,43.16686],[-109.65566,43.17606],[-109.65483,43.18672],[-109.66077,43.19963],[-109.6586,43.2015],[-109.66554,43.20441],[-109.66478,43.20609],[-109.67046,43.20956],[-109.67074,43.21273],[-109.676,43.21511],[-109.67578,43.22406],[-109.67009,43.2287],[-109.67279,43.23317],[-109.67765,43.23587],[-109.67697,43.24437],[-109.67381,43.24797],[-109.67884,43.25062],[-109.68199,43.25466],[-109.68256,43.2589],[-109.69272,43.26503],[-109.68378,43.2687],[-109.68122,43.27236],[-109.6787,43.27315],[-109.68551,43.28192],[-109.68566,43.28574],[-109.68066,43.28723],[-109.68158,43.29324],[-109.67359,43.29668],[-109.67192,43.30088],[-109.67402,43.30434],[-109.6721,43.30874],[-109.67764,43.31349],[-109.67972,43.31815],[-109.6853,43.31831],[-109.69418,43.32481],[-109.70043,43.33499],[-109.70064,43.34283],[-109.69444,43.35066],[-109.69461,43.35723],[-109.69621,43.35933],[-109.69412,43.36536],[-109.7047,43.36869],[-109.70865,43.37435],[-109.726,43.36993],[-109.73584,43.36529],[-109.75446,43.3659],[-109.75472,43.4632],[-110.05751,43.46476],[-110.05731,43.37777],[-110.34422,43.37792],[-110.34396,43.29116],[-110.57838,43.29164],[-110.57858,43.12631],[-110.58799,43.12615],[-110.58901,43.04019],[-110.58766,42.77919],[-110.62343,42.7792]]]}},{"type":"Feature","id":"WY:409:56039","properties":{"destinationId":"409","locality":"Jackson / Pinedale","definition":"Teton / Sublette","state":"WY","stateName":"Wyoming","county":"Teton County","countyGeoid":"56039","countyGeoids":["56035","56039"],"coverage":"complete-counties","sourceType":"gsa_county_defined_rate_area"},"geometry":{"type":"Polygon","coordinates":[[[-111.05361,44.66627],[-111.05243,44.47841],[-111.04897,44.47407],[-111.04908,44.02007],[-111.04692,43.97498],[-111.04462,43.31572],[-110.9279,43.31596],[-110.92788,43.3135],[-110.814,43.31394],[-110.81399,43.23518],[-110.57866,43.23522],[-110.57838,43.29164],[-110.34396,43.29116],[-110.34422,43.37792],[-110.05731,43.37777],[-110.05751,43.46476],[-110.05157,43.46478],[-110.05144,43.81445],[-110.05364,43.81455],[-110.05336,44.13263],[-110.1196,44.13258],[-110.1194,44.13464],[-110.11593,44.13568],[-110.12043,44.13638],[-110.12116,44.14039],[-110.12432,44.14157],[-110.12384,44.14398],[-110.12686,44.14283],[-110.12466,44.14948],[-110.12821,44.15119],[-110.12378,44.15263],[-110.12782,44.15916],[-110.12086,44.16171],[-110.12113,44.16627],[-110.1182,44.16645],[-110.11618,44.16873],[-110.12004,44.17094],[-110.12293,44.17408],[-110.12235,44.17522],[-110.1201,44.17484],[-110.11953,44.17723],[-110.11642,44.17756],[-110.11488,44.17954],[-110.10918,44.17839],[-110.10566,44.18546],[-110.10855,44.18633],[-110.11478,44.18472],[-110.11489,44.18168],[-110.11761,44.1812],[-110.11715,44.18355],[-110.11988,44.18527],[-110.11956,44.18716],[-110.115,44.18808],[-110.11447,44.18949],[-110.12316,44.1917],[-110.12339,44.19373],[-110.12146,44.19491],[-110.11184,44.19156],[-110.10885,44.19334],[-110.10892,44.19506],[-110.11128,44.19938],[-110.11386,44.20068],[-110.11909,44.19867],[-110.12352,44.20377],[-110.12123,44.20769],[-110.11852,44.20786],[-110.11637,44.21012],[-110.11037,44.2091],[-110.10974,44.21011],[-110.11346,44.21287],[-110.11494,44.2165],[-110.11882,44.21579],[-110.12371,44.21172],[-110.12888,44.22345],[-110.13306,44.2259],[-110.13115,44.22982],[-110.13803,44.23684],[-110.13712,44.2388],[-110.13327,44.24025],[-110.13442,44.24386],[-110.13198,44.25027],[-110.13711,44.24902],[-110.14338,44.25399],[-110.14473,44.25803],[-110.14197,44.25964],[-110.14018,44.26368],[-110.14777,44.26634],[-110.15047,44.27131],[-110.14214,44.2728],[-110.14073,44.27609],[-110.14541,44.27828],[-110.14479,44.28319],[-110.1511,44.29246],[-110.16154,44.29716],[-110.16221,44.29904],[-110.1662,44.30006],[-110.16904,44.29631],[-110.17196,44.29638],[-110.17577,44.29854],[-110.1725,44.30249],[-110.17486,44.30458],[-110.17885,44.30366],[-110.18008,44.30157],[-110.18344,44.30191],[-110.18409,44.30502],[-110.18132,44.30811],[-110.18212,44.30942],[-110.1861,44.30877],[-110.18598,44.30283],[-110.18927,44.30037],[-110.19826,44.30649],[-110.20384,44.30561],[-110.20337,44.30784],[-110.2098,44.31438],[-110.20495,44.31526],[-110.20318,44.31329],[-110.20632,44.31845],[-110.20519,44.31745],[-110.20284,44.32004],[-110.20195,44.31921],[-110.20146,44.3225],[-110.20032,44.32025],[-110.20278,44.3229],[-110.20149,44.32406],[-110.20251,44.32776],[-110.22019,44.33278],[-110.22503,44.33808],[-110.22592,44.3421],[-110.22392,44.34791],[-110.22686,44.3519],[-110.22817,44.35884],[-110.2268,44.36157],[-110.2295,44.37097],[-110.22841,44.37384],[-110.23549,44.38203],[-110.24094,44.38461],[-110.2431,44.38736],[-110.25357,44.38962],[-110.255,44.40501],[-110.26004,44.40945],[-110.27812,44.414],[-110.28695,44.41961],[-110.28806,44.42328],[-110.2963,44.43042],[-110.29617,44.43557],[-110.29339,44.4361],[-110.2922,44.43865],[-110.29265,44.44339],[-110.28881,44.45152],[-110.29099,44.47045],[-110.28305,44.47494],[-110.2819,44.47875],[-110.28432,44.48985],[-110.278,44.49849],[-110.27986,44.50557],[-110.27652,44.51665],[-110.28674,44.52686],[-110.29064,44.52866],[-110.29549,44.528],[-110.29843,44.53019],[-110.29501,44.53753],[-110.29085,44.53798],[-110.28923,44.5397],[-110.28996,44.54247],[-110.30088,44.55065],[-110.31192,44.55542],[-110.32848,44.55434],[-110.33139,44.55345],[-110.33186,44.54889],[-110.33334,44.54776],[-110.33941,44.54844],[-110.36014,44.55355],[-110.37037,44.55956],[-110.3845,44.56384],[-110.3826,44.56651],[-110.37466,44.56847],[-110.37272,44.57087],[-110.37256,44.57462],[-110.37686,44.58021],[-110.37533,44.58302],[-110.6679,44.58279],[-110.66787,44.66629],[-111.05361,44.66627]]]}}]}