{"type":"FeatureCollection","features":[{"type":"Feature","id":"cousub:6001037700","properties":{"geoid":"6001037700","name":"Ituau","displayName":"Ituau County","type":"County","state":"AS","stateName":"American Samoa","lsad":"26","sourceType":"county_subdivision","priority":1,"areaLand":12986619,"areaWater":51344770,"county":"Eastern District","countyGeoid":"60010"},"geometry":{"type":"MultiPolygon","coordinates":[[[[-170.70799,-14.32568],[-170.70923,-14.32567],[-170.70543,-14.33025],[-170.69968,-14.32701],[-170.70017,-14.32558],[-170.70799,-14.32568]]],[[[-170.73922,-14.29118],[-170.7404,-14.29151],[-170.73215,-14.2976],[-170.71596,-14.31722],[-170.71018,-14.31588],[-170.71084,-14.31376],[-170.706,-14.3112],[-170.70209,-14.31355],[-170.70351,-14.32201],[-170.69795,-14.31148],[-170.69524,-14.30987],[-170.69472,-14.3073],[-170.68984,-14.30489],[-170.68916,-14.30182],[-170.68458,-14.3015],[-170.68372,-14.29895],[-170.68004,-14.29997],[-170.67792,-14.29837],[-170.68056,-14.29749],[-170.68004,-14.29522],[-170.69082,-14.29434],[-170.69863,-14.291],[-170.7037,-14.29506],[-170.7193,-14.29738],[-170.71158,-14.28495],[-170.71521,-14.27841],[-170.72191,-14.27285],[-170.72401,-14.28165],[-170.72119,-14.28326],[-170.72105,-14.28655],[-170.72344,-14.28861],[-170.72501,-14.28538],[-170.73137,-14.28164],[-170.74029,-14.28759],[-170.73922,-14.29118]]]]}},{"type":"Feature","id":"cousub:6001051300","properties":{"geoid":"6001051300","name":"Ma'oputasi","displayName":"Ma'oputasi County","type":"County","state":"AS","stateName":"American Samoa","lsad":"26","sourceType":"county_subdivision","priority":1,"areaLand":17111106,"areaWater":30945042,"county":"Eastern District","countyGeoid":"60010"},"geometry":{"type":"Polygon","coordinates":[[[-170.72172,-14.27246],[-170.71521,-14.27841],[-170.71158,-14.28495],[-170.7193,-14.29738],[-170.7037,-14.29506],[-170.69863,-14.291],[-170.69082,-14.29434],[-170.68004,-14.29522],[-170.68056,-14.29749],[-170.67792,-14.29837],[-170.67744,-14.29417],[-170.68284,-14.29142],[-170.67526,-14.28542],[-170.68118,-14.28285],[-170.68235,-14.2794],[-170.68074,-14.27626],[-170.68736,-14.2764],[-170.68874,-14.27773],[-170.69958,-14.2738],[-170.69946,-14.27107],[-170.68584,-14.27147],[-170.67848,-14.26763],[-170.66709,-14.26992],[-170.66416,-14.27347],[-170.66564,-14.27617],[-170.66332,-14.28779],[-170.65386,-14.27142],[-170.65626,-14.26537],[-170.65925,-14.26409],[-170.68045,-14.26328],[-170.68604,-14.26464],[-170.6898,-14.2586],[-170.69044,-14.25381],[-170.69421,-14.25101],[-170.69532,-14.25315],[-170.70173,-14.25404],[-170.7046,-14.26202],[-170.70765,-14.26241],[-170.70936,-14.26071],[-170.70942,-14.26188],[-170.71244,-14.26189],[-170.71215,-14.26461],[-170.72172,-14.27246]]]}},{"type":"Feature","id":"cousub:6001067300","properties":{"geoid":"6001067300","name":"Sa'ole","displayName":"Sa'ole County","type":"County","state":"AS","stateName":"American Samoa","lsad":"26","sourceType":"county_subdivision","priority":1,"areaLand":5954577,"areaWater":47875714,"county":"Eastern District","countyGeoid":"60010"},"geometry":{"type":"MultiPolygon","coordinates":[[[[-170.56101,-14.28377],[-170.56171,-14.28571],[-170.55868,-14.28806],[-170.55451,-14.28745],[-170.55058,-14.28918],[-170.54592,-14.28568],[-170.54573,-14.28322],[-170.54896,-14.27964],[-170.55347,-14.27826],[-170.55849,-14.27972],[-170.56101,-14.28377]]],[[[-170.60808,-14.26981],[-170.60374,-14.2752],[-170.6036,-14.27727],[-170.60718,-14.28036],[-170.60228,-14.28409],[-170.59564,-14.28015],[-170.59107,-14.27966],[-170.5849,-14.27387],[-170.57859,-14.27482],[-170.57337,-14.27105],[-170.56596,-14.27073],[-170.56717,-14.26799],[-170.57823,-14.26188],[-170.58014,-14.26516],[-170.59394,-14.27201],[-170.6033,-14.26468],[-170.60808,-14.26981]]]]}},{"type":"Feature","id":"cousub:6001072100","properties":{"geoid":"6001072100","name":"Sua","displayName":"Sua County","type":"County","state":"AS","stateName":"American Samoa","lsad":"26","sourceType":"county_subdivision","priority":1,"areaLand":17200141,"areaWater":63697222,"county":"Eastern District","countyGeoid":"60010"},"geometry":{"type":"Polygon","coordinates":[[[-170.66454,-14.2893],[-170.66326,-14.29105],[-170.65986,-14.28904],[-170.65669,-14.28981],[-170.65228,-14.28797],[-170.65164,-14.28994],[-170.64689,-14.28736],[-170.64516,-14.28817],[-170.643,-14.28638],[-170.64016,-14.28652],[-170.63817,-14.28025],[-170.62947,-14.28044],[-170.62748,-14.27644],[-170.62166,-14.27133],[-170.6171,-14.27064],[-170.61465,-14.26808],[-170.61144,-14.26846],[-170.61102,-14.27022],[-170.60808,-14.26981],[-170.6033,-14.26468],[-170.59626,-14.27085],[-170.59166,-14.2575],[-170.59332,-14.25831],[-170.60418,-14.25392],[-170.60446,-14.25751],[-170.60631,-14.25893],[-170.6085,-14.25419],[-170.61235,-14.25419],[-170.6132,-14.25144],[-170.62057,-14.25702],[-170.62799,-14.25852],[-170.63208,-14.25567],[-170.62978,-14.25293],[-170.62147,-14.25018],[-170.62233,-14.24852],[-170.62438,-14.24976],[-170.62815,-14.24854],[-170.6306,-14.2511],[-170.63327,-14.24765],[-170.63847,-14.24933],[-170.63978,-14.24709],[-170.6413,-14.25295],[-170.64304,-14.25299],[-170.64301,-14.25051],[-170.64542,-14.2492],[-170.64608,-14.25542],[-170.649,-14.25502],[-170.65047,-14.25857],[-170.65242,-14.25898],[-170.65391,-14.25617],[-170.6528,-14.24857],[-170.65696,-14.25792],[-170.66037,-14.26118],[-170.65925,-14.26409],[-170.65626,-14.26537],[-170.65386,-14.27142],[-170.65899,-14.28219],[-170.66454,-14.2893]]]}},{"type":"Feature","id":"cousub:6001086500","properties":{"geoid":"6001086500","name":"Vaifanua","displayName":"Vaifanua County","type":"County","state":"AS","stateName":"American Samoa","lsad":"26","sourceType":"county_subdivision","priority":1,"areaLand":11872422,"areaWater":155861930,"county":"Eastern District","countyGeoid":"60010"},"geometry":{"type":"MultiPolygon","coordinates":[[[[-170.59626,-14.27085],[-170.59394,-14.27201],[-170.58014,-14.26516],[-170.57823,-14.26188],[-170.56717,-14.26799],[-170.56596,-14.27073],[-170.56449,-14.26982],[-170.56181,-14.25807],[-170.56409,-14.25504],[-170.56448,-14.2483],[-170.56148,-14.2461],[-170.57186,-14.24849],[-170.57773,-14.24628],[-170.58054,-14.25069],[-170.58451,-14.25096],[-170.58635,-14.25424],[-170.58478,-14.26009],[-170.59048,-14.26198],[-170.59162,-14.25766],[-170.59626,-14.27085]]],[[[-170.69044,-14.25381],[-170.6898,-14.2586],[-170.68604,-14.26464],[-170.68045,-14.26328],[-170.65925,-14.26409],[-170.66037,-14.26118],[-170.65696,-14.25792],[-170.6528,-14.24857],[-170.65874,-14.25272],[-170.66097,-14.24539],[-170.66259,-14.24707],[-170.66663,-14.24704],[-170.67039,-14.25026],[-170.67512,-14.25037],[-170.6746,-14.24683],[-170.67153,-14.24442],[-170.67067,-14.24129],[-170.66966,-14.23499],[-170.67156,-14.22956],[-170.67305,-14.23994],[-170.67844,-14.24446],[-170.68141,-14.24525],[-170.6827,-14.24404],[-170.68377,-14.24741],[-170.68779,-14.24666],[-170.69028,-14.24821],[-170.68852,-14.252],[-170.6887,-14.25362],[-170.69044,-14.25381]]]]}},{"type":"Feature","id":"cousub:6002031300","properties":{"geoid":"6002031300","name":"Faleasao","displayName":"Faleasao County","type":"County","state":"AS","stateName":"American Samoa","lsad":"26","sourceType":"county_subdivision","priority":1,"areaLand":6931132,"areaWater":25969103,"county":"Manu'a District","countyGeoid":"60020"},"geometry":{"type":"Polygon","coordinates":[[[-169.51801,-14.21973],[-169.51688,-14.22262],[-169.51285,-14.22532],[-169.50682,-14.22488],[-169.50275,-14.22274],[-169.50479,-14.2293],[-169.47237,-14.24166],[-169.48021,-14.21529],[-169.48863,-14.21521],[-169.49861,-14.21743],[-169.50736,-14.2124],[-169.50741,-14.2148],[-169.50975,-14.21533],[-169.51183,-14.22001],[-169.51801,-14.21973]]]}},{"type":"Feature","id":"cousub:6002034500","properties":{"geoid":"6002034500","name":"Fitiuta","displayName":"Fitiuta County","type":"County","state":"AS","stateName":"American Samoa","lsad":"26","sourceType":"county_subdivision","priority":1,"areaLand":22328163,"areaWater":135771810,"county":"Manu'a District","countyGeoid":"60020"},"geometry":{"type":"Polygon","coordinates":[[[-169.48021,-14.21529],[-169.47237,-14.24166],[-169.46708,-14.23483],[-169.45865,-14.23306],[-169.45678,-14.24834],[-169.44799,-14.24922],[-169.43848,-14.25507],[-169.42777,-14.25726],[-169.42379,-14.25659],[-169.42108,-14.24443],[-169.4188,-14.21839],[-169.42446,-14.2136],[-169.42831,-14.21134],[-169.44,-14.21402],[-169.45398,-14.21171],[-169.46425,-14.21356],[-169.46805,-14.21586],[-169.48021,-14.21529]]]}},{"type":"Feature","id":"cousub:6002059300","properties":{"geoid":"6002059300","name":"Ofu","displayName":"Ofu County","type":"County","state":"AS","stateName":"American Samoa","lsad":"26","sourceType":"county_subdivision","priority":1,"areaLand":7310058,"areaWater":110304547,"county":"Manu'a District","countyGeoid":"60020"},"geometry":{"type":"MultiPolygon","coordinates":[[[[-169.68213,-14.16162],[-169.68047,-14.16416],[-169.68148,-14.16668],[-169.67728,-14.17522],[-169.67776,-14.17836],[-169.67329,-14.18416],[-169.66987,-14.18564],[-169.66055,-14.18278],[-169.64601,-14.17172],[-169.63379,-14.1696],[-169.63284,-14.16831],[-169.63538,-14.16652],[-169.65323,-14.16665],[-169.68028,-14.15886],[-169.68213,-14.16162]]],[[[-169.68727,-14.1643],[-169.68442,-14.17232],[-169.68304,-14.16752],[-169.68727,-14.1643]]]]}},{"type":"Feature","id":"cousub:6002060900","properties":{"geoid":"6002060900","name":"Olosega","displayName":"Olosega County","type":"County","state":"AS","stateName":"American Samoa","lsad":"26","sourceType":"county_subdivision","priority":1,"areaLand":5178696,"areaWater":88318478,"county":"Manu'a District","countyGeoid":"60020"},"geometry":{"type":"Polygon","coordinates":[[[-169.63194,-14.16877],[-169.62642,-14.17407],[-169.62523,-14.17748],[-169.61268,-14.19333],[-169.60624,-14.17995],[-169.60974,-14.17223],[-169.61026,-14.1566],[-169.61501,-14.15559],[-169.62072,-14.16434],[-169.63194,-14.16877]]]}},{"type":"Feature","id":"cousub:6002078500","properties":{"geoid":"6002078500","name":"Ta'u","displayName":"Ta'u County","type":"County","state":"AS","stateName":"American Samoa","lsad":"26","sourceType":"county_subdivision","priority":1,"areaLand":15872944,"areaWater":103874106,"county":"Manu'a District","countyGeoid":"60020"},"geometry":{"type":"Polygon","coordinates":[[[-169.5191,-14.22088],[-169.51188,-14.24028],[-169.50453,-14.24495],[-169.49966,-14.25512],[-169.49771,-14.26327],[-169.49053,-14.27184],[-169.48483,-14.27216],[-169.48308,-14.26759],[-169.48117,-14.26774],[-169.4812,-14.26599],[-169.47071,-14.25383],[-169.46154,-14.24885],[-169.45678,-14.24834],[-169.45865,-14.23306],[-169.46708,-14.23483],[-169.47237,-14.24166],[-169.50479,-14.2293],[-169.50275,-14.22274],[-169.5106,-14.22576],[-169.51688,-14.22262],[-169.51835,-14.22009],[-169.5191,-14.22088]]]}},{"type":"Feature","id":"cousub:6003065700","properties":{"geoid":"6003065700","name":"Rose Island","displayName":"Rose Island","type":"Geographic Area","state":"AS","stateName":"American Samoa","lsad":"00","sourceType":"county_subdivision","priority":1,"areaLand":82093,"areaWater":147383994,"county":"Rose Island","countyGeoid":"60030"},"geometry":{"type":"MultiPolygon","coordinates":[[[[-168.14582,-14.54791],[-168.1433,-14.54737],[-168.14488,-14.54538],[-168.14582,-14.54791]]],[[[-168.15229,-14.5361],[-168.15084,-14.53772],[-168.15061,-14.53612],[-168.15229,-14.5361]]]]}},{"type":"Feature","id":"cousub:6004073700","properties":{"geoid":"6004073700","name":"Swains Island","displayName":"Swains Island","type":"Geographic Area","state":"AS","stateName":"American Samoa","lsad":"00","sourceType":"county_subdivision","priority":1,"areaLand":2432605,"areaWater":149170816,"county":"Swains Island","countyGeoid":"60040"},"geometry":{"type":"Polygon","coordinates":[[[-171.08987,-11.05259],[-171.0872,-11.05971],[-171.08086,-11.0646],[-171.07686,-11.06381],[-171.0677,-11.05712],[-171.0658,-11.05386],[-171.06882,-11.04869],[-171.07364,-11.04693],[-171.08694,-11.04931],[-171.08987,-11.05259]]]}},{"type":"Feature","id":"cousub:6005042500","properties":{"geoid":"6005042500","name":"Lealataua","displayName":"Lealataua County","type":"County","state":"AS","stateName":"American Samoa","lsad":"26","sourceType":"county_subdivision","priority":1,"areaLand":23195675,"areaWater":104696103,"county":"Western District","countyGeoid":"60050"},"geometry":{"type":"Polygon","coordinates":[[[-170.847,-14.32085],[-170.84685,-14.32289],[-170.84475,-14.32375],[-170.83927,-14.32372],[-170.83602,-14.32604],[-170.83244,-14.32467],[-170.83011,-14.32665],[-170.82933,-14.33037],[-170.82692,-14.32902],[-170.81832,-14.33236],[-170.81233,-14.32656],[-170.809,-14.32564],[-170.8053,-14.33197],[-170.80153,-14.33188],[-170.79939,-14.33406],[-170.79747,-14.3316],[-170.79498,-14.33154],[-170.79362,-14.33509],[-170.79303,-14.33388],[-170.79032,-14.33457],[-170.78992,-14.3367],[-170.78579,-14.33964],[-170.78815,-14.34588],[-170.78445,-14.34747],[-170.78227,-14.34521],[-170.77855,-14.35146],[-170.77446,-14.35035],[-170.77217,-14.34765],[-170.76436,-14.34939],[-170.76185,-14.34603],[-170.76683,-14.34545],[-170.77113,-14.34125],[-170.77602,-14.34105],[-170.77663,-14.33419],[-170.7749,-14.33419],[-170.77746,-14.32888],[-170.76796,-14.31884],[-170.78382,-14.31417],[-170.79024,-14.31072],[-170.79166,-14.29723],[-170.79456,-14.29081],[-170.79703,-14.29124],[-170.79739,-14.28961],[-170.81119,-14.29504],[-170.81184,-14.29848],[-170.81537,-14.3004],[-170.81623,-14.30381],[-170.82169,-14.30065],[-170.82709,-14.30759],[-170.83322,-14.31102],[-170.83653,-14.31925],[-170.847,-14.32085]]]}},{"type":"Feature","id":"cousub:6005043300","properties":{"geoid":"6005043300","name":"Leasina","displayName":"Leasina County","type":"County","state":"AS","stateName":"American Samoa","lsad":"26","sourceType":"county_subdivision","priority":1,"areaLand":18709311,"areaWater":13616700,"county":"Western District","countyGeoid":"60050"},"geometry":{"type":"Polygon","coordinates":[[[-170.79456,-14.29081],[-170.79166,-14.29723],[-170.79024,-14.31072],[-170.78382,-14.31417],[-170.76796,-14.31884],[-170.77746,-14.32888],[-170.7749,-14.33419],[-170.77663,-14.33419],[-170.77602,-14.34105],[-170.77113,-14.34125],[-170.77088,-14.33892],[-170.76635,-14.341],[-170.76426,-14.3393],[-170.75718,-14.34215],[-170.75565,-14.34115],[-170.75492,-14.33992],[-170.75846,-14.33807],[-170.75946,-14.3319],[-170.76104,-14.33206],[-170.76289,-14.32133],[-170.76085,-14.31699],[-170.75986,-14.31801],[-170.7589,-14.31628],[-170.74956,-14.3144],[-170.74678,-14.31909],[-170.74424,-14.31602],[-170.74392,-14.31116],[-170.73985,-14.30431],[-170.73918,-14.30001],[-170.73215,-14.2976],[-170.74224,-14.29079],[-170.74639,-14.29205],[-170.74854,-14.29116],[-170.75339,-14.29611],[-170.75528,-14.29145],[-170.76142,-14.2913],[-170.76143,-14.28742],[-170.7642,-14.28979],[-170.76685,-14.28896],[-170.77396,-14.29314],[-170.77533,-14.29102],[-170.77801,-14.29197],[-170.77925,-14.29496],[-170.78124,-14.29404],[-170.78291,-14.28741],[-170.78499,-14.28763],[-170.7856,-14.29013],[-170.79456,-14.29081]]]}},{"type":"Feature","id":"cousub:6005080100","properties":{"geoid":"6005080100","name":"Tualatai","displayName":"Tualatai County","type":"County","state":"AS","stateName":"American Samoa","lsad":"26","sourceType":"county_subdivision","priority":1,"areaLand":6712094,"areaWater":27635176,"county":"Western District","countyGeoid":"60050"},"geometry":{"type":"Polygon","coordinates":[[[-170.78815,-14.34588],[-170.78534,-14.35022],[-170.78548,-14.35729],[-170.77024,-14.36354],[-170.76927,-14.36541],[-170.76796,-14.36223],[-170.76023,-14.36258],[-170.75999,-14.36548],[-170.76252,-14.36766],[-170.75977,-14.37374],[-170.75306,-14.36561],[-170.75384,-14.35245],[-170.7558,-14.35213],[-170.75598,-14.35009],[-170.75388,-14.35013],[-170.75392,-14.34672],[-170.75718,-14.34215],[-170.76426,-14.3393],[-170.76635,-14.341],[-170.77088,-14.33892],[-170.77114,-14.34236],[-170.76683,-14.34545],[-170.76185,-14.34603],[-170.76436,-14.34939],[-170.77217,-14.34765],[-170.77446,-14.35035],[-170.77855,-14.35146],[-170.78227,-14.34521],[-170.78445,-14.34747],[-170.78815,-14.34588]]]}},{"type":"Feature","id":"cousub:6005080900","properties":{"geoid":"6005080900","name":"Tualauta","displayName":"Tualauta County","type":"County","state":"AS","stateName":"American Samoa","lsad":"26","sourceType":"county_subdivision","priority":1,"areaLand":23881434,"areaWater":50778240,"county":"Western District","countyGeoid":"60050"},"geometry":{"type":"Polygon","coordinates":[[[-170.76289,-14.32133],[-170.76104,-14.33206],[-170.75946,-14.3319],[-170.75846,-14.33807],[-170.75492,-14.33992],[-170.75718,-14.34215],[-170.75392,-14.34672],[-170.75388,-14.35013],[-170.75598,-14.35009],[-170.7558,-14.35213],[-170.75384,-14.35245],[-170.75266,-14.36073],[-170.74986,-14.35881],[-170.74195,-14.36551],[-170.72751,-14.34824],[-170.72416,-14.34771],[-170.72197,-14.34553],[-170.72185,-14.34005],[-170.70543,-14.33025],[-170.70923,-14.32567],[-170.71283,-14.32445],[-170.71596,-14.31722],[-170.73215,-14.2976],[-170.73918,-14.30001],[-170.73985,-14.30431],[-170.74392,-14.31116],[-170.74424,-14.31602],[-170.74678,-14.31909],[-170.74956,-14.3144],[-170.7589,-14.31628],[-170.75986,-14.31801],[-170.76085,-14.31699],[-170.76289,-14.32133]]]}},{"type":"Feature","id":"place:6000100","properties":{"geoid":"6000100","name":"Aasu","displayName":"Aasu Village","type":"Village","state":"AS","stateName":"American Samoa","lsad":"47","sourceType":"place","priority":5,"areaLand":9307060,"areaWater":2947766},"geometry":{"type":"Polygon","coordinates":[[[-170.77333,-14.31176],[-170.77395,-14.31346],[-170.77107,-14.31429],[-170.76052,-14.31478],[-170.75986,-14.31801],[-170.7589,-14.31628],[-170.74956,-14.3144],[-170.74678,-14.31909],[-170.74424,-14.31602],[-170.74392,-14.31116],[-170.73985,-14.30431],[-170.73918,-14.30001],[-170.73215,-14.2976],[-170.74224,-14.29079],[-170.74639,-14.29205],[-170.74854,-14.29116],[-170.75339,-14.29611],[-170.75528,-14.29145],[-170.76142,-14.2913],[-170.76143,-14.28742],[-170.7642,-14.28979],[-170.76685,-14.28896],[-170.77353,-14.30316],[-170.77333,-14.31176]]]}},{"type":"Feature","id":"place:6002500","properties":{"geoid":"6002500","name":"Afao","displayName":"Afao Village","type":"Village","state":"AS","stateName":"American Samoa","lsad":"47","sourceType":"place","priority":5,"areaLand":1408628,"areaWater":3275257},"geometry":{"type":"Polygon","coordinates":[[[-170.80493,-14.31693],[-170.80427,-14.33236],[-170.80153,-14.33188],[-170.79939,-14.33386],[-170.79669,-14.31605],[-170.80396,-14.31484],[-170.80493,-14.31693]]]}},{"type":"Feature","id":"place:6003300","properties":{"geoid":"6003300","name":"Afono","displayName":"Afono Village","type":"Village","state":"AS","stateName":"American Samoa","lsad":"47","sourceType":"place","priority":5,"areaLand":2675455,"areaWater":1530323},"geometry":{"type":"Polygon","coordinates":[[[-170.66037,-14.26118],[-170.65925,-14.26409],[-170.65626,-14.26537],[-170.65386,-14.27142],[-170.64608,-14.26992],[-170.64476,-14.26198],[-170.63851,-14.25429],[-170.6401,-14.24721],[-170.6413,-14.25295],[-170.64304,-14.25299],[-170.64301,-14.25051],[-170.64542,-14.2492],[-170.64608,-14.25542],[-170.649,-14.25502],[-170.65047,-14.25857],[-170.65242,-14.25898],[-170.65391,-14.25617],[-170.6528,-14.24857],[-170.65696,-14.25792],[-170.66037,-14.26118]]]}},{"type":"Feature","id":"place:6004500","properties":{"geoid":"6004500","name":"Agugulu","displayName":"Agugulu Village","type":"Village","state":"AS","stateName":"American Samoa","lsad":"47","sourceType":"place","priority":5,"areaLand":398931,"areaWater":2449432},"geometry":{"type":"Polygon","coordinates":[[[-170.82196,-14.32234],[-170.82153,-14.33099],[-170.81734,-14.33196],[-170.82071,-14.31891],[-170.82196,-14.32234]]]}},{"type":"Feature","id":"place:6004900","properties":{"geoid":"6004900","name":"Alao","displayName":"Alao Village","type":"Village","state":"AS","stateName":"American Samoa","lsad":"47","sourceType":"place","priority":5,"areaLand":1362715,"areaWater":44929031},"geometry":{"type":"Polygon","coordinates":[[[-170.57606,-14.26021],[-170.57823,-14.26188],[-170.56717,-14.26799],[-170.56596,-14.27073],[-170.56449,-14.26982],[-170.56198,-14.25982],[-170.56283,-14.25705],[-170.57326,-14.25807],[-170.57606,-14.26021]]]}},{"type":"Feature","id":"place:6006500","properties":{"geoid":"6006500","name":"Alega","displayName":"Alega Village","type":"Village","state":"AS","stateName":"American Samoa","lsad":"47","sourceType":"place","priority":5,"areaLand":1006574,"areaWater":5228055},"geometry":{"type":"Polygon","coordinates":[[[-170.64527,-14.26976],[-170.64016,-14.28652],[-170.63817,-14.28025],[-170.63411,-14.28101],[-170.64074,-14.27011],[-170.64527,-14.26976]]]}},{"type":"Feature","id":"place:6007300","properties":{"geoid":"6007300","name":"Alofau","displayName":"Alofau Village","type":"Village","state":"AS","stateName":"American Samoa","lsad":"47","sourceType":"place","priority":5,"areaLand":1296947,"areaWater":8789800},"geometry":{"type":"Polygon","coordinates":[[[-170.60729,-14.27189],[-170.60488,-14.27253],[-170.6036,-14.27727],[-170.60718,-14.28036],[-170.60228,-14.28409],[-170.59635,-14.28124],[-170.59654,-14.2707],[-170.60024,-14.26811],[-170.60729,-14.27189]]]}},{"type":"Feature","id":"place:6008100","properties":{"geoid":"6008100","name":"Amaluia","displayName":"Amaluia Village","type":"Village","state":"AS","stateName":"American Samoa","lsad":"47","sourceType":"place","priority":5,"areaLand":2014091,"areaWater":3028739},"geometry":{"type":"Polygon","coordinates":[[[-170.79435,-14.33138],[-170.79362,-14.33509],[-170.7917,-14.33393],[-170.78936,-14.33691],[-170.78324,-14.31901],[-170.78048,-14.3151],[-170.78942,-14.31048],[-170.79056,-14.32224],[-170.79271,-14.32364],[-170.79435,-14.33138]]]}},{"type":"Feature","id":"place:6008900","properties":{"geoid":"6008900","name":"Amanave","displayName":"Amanave Village","type":"Village","state":"AS","stateName":"American Samoa","lsad":"47","sourceType":"place","priority":5,"areaLand":787323,"areaWater":19697643},"geometry":{"type":"Polygon","coordinates":[[[-170.84689,-14.32239],[-170.84157,-14.32436],[-170.83927,-14.32372],[-170.83602,-14.32604],[-170.83244,-14.32467],[-170.82933,-14.3298],[-170.82658,-14.32654],[-170.82792,-14.32593],[-170.82576,-14.32047],[-170.84689,-14.32239]]]}},{"type":"Feature","id":"place:6009700","properties":{"geoid":"6009700","name":"Amaua","displayName":"Amaua Village","type":"Village","state":"AS","stateName":"American Samoa","lsad":"47","sourceType":"place","priority":5,"areaLand":796618,"areaWater":236330},"geometry":{"type":"Polygon","coordinates":[[[-170.62932,-14.26552],[-170.63158,-14.26638],[-170.62408,-14.27434],[-170.62102,-14.27123],[-170.62438,-14.26226],[-170.62932,-14.26552]]]}},{"type":"Feature","id":"place:6010500","properties":{"geoid":"6010500","name":"Amouli","displayName":"Amouli Village","type":"Village","state":"AS","stateName":"American Samoa","lsad":"47","sourceType":"place","priority":5,"areaLand":1705035,"areaWater":31316720},"geometry":{"type":"Polygon","coordinates":[[[-170.59697,-14.27186],[-170.59635,-14.28124],[-170.59107,-14.27966],[-170.5849,-14.27387],[-170.57665,-14.27396],[-170.58228,-14.26514],[-170.59394,-14.27201],[-170.59654,-14.2707],[-170.59697,-14.27186]]]}},{"type":"Feature","id":"place:6011300","properties":{"geoid":"6011300","name":"Anua","displayName":"Anua Village","type":"Village","state":"AS","stateName":"American Samoa","lsad":"47","sourceType":"place","priority":5,"areaLand":180622,"areaWater":130582},"geometry":{"type":"Polygon","coordinates":[[[-170.68978,-14.26484],[-170.68925,-14.27182],[-170.68584,-14.27147],[-170.68819,-14.26541],[-170.68978,-14.26484]]]}},{"type":"Feature","id":"place:6012100","properties":{"geoid":"6012100","name":"Aoa","displayName":"Aoa Village","type":"Village","state":"AS","stateName":"American Samoa","lsad":"47","sourceType":"place","priority":5,"areaLand":1723147,"areaWater":521515},"geometry":{"type":"Polygon","coordinates":[[[-170.59626,-14.27085],[-170.59394,-14.27201],[-170.58014,-14.26516],[-170.57606,-14.26021],[-170.58635,-14.25424],[-170.58478,-14.26009],[-170.59048,-14.26198],[-170.59162,-14.25766],[-170.59626,-14.27085]]]}},{"type":"Feature","id":"place:6012800","properties":{"geoid":"6012800","name":"Aoloau","displayName":"Aoloau Village","type":"Village","state":"AS","stateName":"American Samoa","lsad":"47","sourceType":"place","priority":5,"areaLand":5811947,"areaWater":10668934},"geometry":{"type":"Polygon","coordinates":[[[-170.79456,-14.29081],[-170.79166,-14.29723],[-170.79024,-14.31072],[-170.78382,-14.31417],[-170.76128,-14.31968],[-170.76052,-14.31478],[-170.7637,-14.31551],[-170.77395,-14.31346],[-170.77353,-14.30316],[-170.76781,-14.28944],[-170.77396,-14.29314],[-170.77533,-14.29102],[-170.77801,-14.29197],[-170.77858,-14.29427],[-170.78067,-14.29506],[-170.78291,-14.28741],[-170.78499,-14.28763],[-170.7856,-14.29013],[-170.79456,-14.29081]]]}},{"type":"Feature","id":"place:6013700","properties":{"geoid":"6013700","name":"Asili","displayName":"Asili Village","type":"Village","state":"AS","stateName":"American Samoa","lsad":"47","sourceType":"place","priority":5,"areaLand":1387610,"areaWater":3480489},"geometry":{"type":"Polygon","coordinates":[[[-170.79939,-14.33386],[-170.79747,-14.3316],[-170.79498,-14.33154],[-170.79459,-14.33366],[-170.79271,-14.32364],[-170.79015,-14.32022],[-170.79024,-14.31072],[-170.7939,-14.31159],[-170.79721,-14.31502],[-170.79939,-14.33386]]]}},{"type":"Feature","id":"place:6014500","properties":{"geoid":"6014500","name":"Atu'u","displayName":"Atu'u Village","type":"Village","state":"AS","stateName":"American Samoa","lsad":"47","sourceType":"place","priority":5,"areaLand":155820,"areaWater":70946},"geometry":{"type":"Polygon","coordinates":[[[-170.68774,-14.26521],[-170.6856,-14.27108],[-170.68422,-14.26972],[-170.6858,-14.2651],[-170.68774,-14.26521]]]}},{"type":"Feature","id":"place:6015300","properties":{"geoid":"6015300","name":"Aua","displayName":"Aua Village","type":"Village","state":"AS","stateName":"American Samoa","lsad":"47","sourceType":"place","priority":5,"areaLand":2612477,"areaWater":1569945},"geometry":{"type":"Polygon","coordinates":[[[-170.67169,-14.26945],[-170.66517,-14.27092],[-170.66416,-14.27347],[-170.66564,-14.27617],[-170.66332,-14.28779],[-170.65386,-14.27142],[-170.65626,-14.26537],[-170.66215,-14.26357],[-170.66992,-14.2641],[-170.67169,-14.26945]]]}},{"type":"Feature","id":"place:6016100","properties":{"geoid":"6016100","name":"Auasi","displayName":"Auasi Village","type":"Village","state":"AS","stateName":"American Samoa","lsad":"47","sourceType":"place","priority":5,"areaLand":664202,"areaWater":287483},"geometry":{"type":"Polygon","coordinates":[[[-170.58014,-14.26516],[-170.58228,-14.26514],[-170.57665,-14.27396],[-170.57249,-14.27134],[-170.57823,-14.26188],[-170.58014,-14.26516]]]}},{"type":"Feature","id":"place:6016900","properties":{"geoid":"6016900","name":"Auma","displayName":"Auma Village","type":"Village","state":"AS","stateName":"American Samoa","lsad":"47","sourceType":"place","priority":5,"areaLand":331534,"areaWater":504},"geometry":{"type":"Polygon","coordinates":[[[-170.78931,-14.33667],[-170.786,-14.3368],[-170.78271,-14.33307],[-170.78419,-14.329],[-170.78544,-14.32962],[-170.78614,-14.32814],[-170.78931,-14.33667]]]}},{"type":"Feature","id":"place:6017700","properties":{"geoid":"6017700","name":"Aumi","displayName":"Aumi Village","type":"Village","state":"AS","stateName":"American Samoa","lsad":"47","sourceType":"place","priority":5,"areaLand":1818923,"areaWater":9969359},"geometry":{"type":"Polygon","coordinates":[[[-170.65386,-14.27142],[-170.65317,-14.27685],[-170.65014,-14.28263],[-170.65087,-14.28952],[-170.64689,-14.28736],[-170.64516,-14.28817],[-170.643,-14.28638],[-170.64016,-14.28652],[-170.64608,-14.26992],[-170.65386,-14.27142]]]}},{"type":"Feature","id":"place:6018500","properties":{"geoid":"6018500","name":"Aunu'u","displayName":"Aunu'u Village","type":"Village","state":"AS","stateName":"American Samoa","lsad":"47","sourceType":"place","priority":5,"areaLand":1507283,"areaWater":5129981},"geometry":{"type":"Polygon","coordinates":[[[-170.56101,-14.28377],[-170.56171,-14.28571],[-170.55868,-14.28806],[-170.55451,-14.28745],[-170.55058,-14.28918],[-170.54592,-14.28568],[-170.54573,-14.28322],[-170.54896,-14.27964],[-170.55347,-14.27826],[-170.55849,-14.27972],[-170.56101,-14.28377]]]}},{"type":"Feature","id":"place:6020100","properties":{"geoid":"6020100","name":"Auto","displayName":"Auto Village","type":"Village","state":"AS","stateName":"American Samoa","lsad":"47","sourceType":"place","priority":5,"areaLand":859621,"areaWater":464953},"geometry":{"type":"Polygon","coordinates":[[[-170.63539,-14.26784],[-170.6324,-14.27762],[-170.62833,-14.27969],[-170.62748,-14.27644],[-170.62408,-14.27434],[-170.63158,-14.26638],[-170.63539,-14.26784]]]}},{"type":"Feature","id":"place:6020900","properties":{"geoid":"6020900","name":"Avaio","displayName":"Avaio Village","type":"Village","state":"AS","stateName":"American Samoa","lsad":"47","sourceType":"place","priority":5,"areaLand":721414,"areaWater":7573571},"geometry":{"type":"Polygon","coordinates":[[[-170.64074,-14.27011],[-170.63411,-14.28101],[-170.62833,-14.27969],[-170.6324,-14.27762],[-170.63539,-14.26784],[-170.64074,-14.27011]]]}},{"type":"Feature","id":"place:6022500","properties":{"geoid":"6022500","name":"Faga'alu","displayName":"Faga'alu Village","type":"Village","state":"AS","stateName":"American Samoa","lsad":"47","sourceType":"place","priority":5,"areaLand":1330168,"areaWater":1117483},"geometry":{"type":"Polygon","coordinates":[[[-170.6941,-14.29133],[-170.69518,-14.29175],[-170.69082,-14.29434],[-170.68174,-14.29605],[-170.67713,-14.29502],[-170.68284,-14.29142],[-170.67556,-14.28566],[-170.68752,-14.2874],[-170.68952,-14.28478],[-170.69274,-14.28728],[-170.6941,-14.29133]]]}},{"type":"Feature","id":"place:6023300","properties":{"geoid":"6023300","name":"Faga'itua","displayName":"Faga'itua Village","type":"Village","state":"AS","stateName":"American Samoa","lsad":"47","sourceType":"place","priority":5,"areaLand":1021668,"areaWater":2755308},"geometry":{"type":"Polygon","coordinates":[[[-170.62041,-14.26222],[-170.61794,-14.27077],[-170.61465,-14.26808],[-170.61144,-14.26846],[-170.61102,-14.27022],[-170.6033,-14.26468],[-170.6096,-14.26219],[-170.62041,-14.26222]]]}},{"type":"Feature","id":"place:6024900","properties":{"geoid":"6024900","name":"Fagali'i","displayName":"Fagali'i Village","type":"Village","state":"AS","stateName":"American Samoa","lsad":"47","sourceType":"place","priority":5,"areaLand":1545662,"areaWater":1611384},"geometry":{"type":"Polygon","coordinates":[[[-170.83232,-14.31088],[-170.82576,-14.32047],[-170.81788,-14.31724],[-170.82367,-14.30253],[-170.82709,-14.30759],[-170.83232,-14.31088]]]}},{"type":"Feature","id":"place:6025700","properties":{"geoid":"6025700","name":"Fagamalo","displayName":"Fagamalo Village","type":"Village","state":"AS","stateName":"American Samoa","lsad":"47","sourceType":"place","priority":5,"areaLand":3596435,"areaWater":28297219},"geometry":{"type":"Polygon","coordinates":[[[-170.81184,-14.29848],[-170.80297,-14.30628],[-170.79721,-14.31502],[-170.7939,-14.31159],[-170.79024,-14.31072],[-170.79166,-14.29723],[-170.79456,-14.29081],[-170.79703,-14.29124],[-170.79836,-14.2894],[-170.80635,-14.29252],[-170.81119,-14.29504],[-170.81184,-14.29848]]]}},{"type":"Feature","id":"place:6026500","properties":{"geoid":"6026500","name":"Faganeanea","displayName":"Faganeanea Village","type":"Village","state":"AS","stateName":"American Samoa","lsad":"47","sourceType":"place","priority":5,"areaLand":1364619,"areaWater":543066},"geometry":{"type":"Polygon","coordinates":[[[-170.7037,-14.29506],[-170.71091,-14.29612],[-170.69098,-14.30545],[-170.68916,-14.30182],[-170.68452,-14.30133],[-170.6874,-14.29902],[-170.7037,-14.29506]]]}},{"type":"Feature","id":"place:6027300","properties":{"geoid":"6027300","name":"Fagasa","displayName":"Fagasa Village","type":"Village","state":"AS","stateName":"American Samoa","lsad":"47","sourceType":"place","priority":5,"areaLand":4360989,"areaWater":22382333},"geometry":{"type":"Polygon","coordinates":[[[-170.73922,-14.29118],[-170.7404,-14.29151],[-170.73215,-14.2976],[-170.72436,-14.29885],[-170.7193,-14.29738],[-170.71158,-14.28495],[-170.71521,-14.27841],[-170.72191,-14.27285],[-170.72401,-14.28165],[-170.72119,-14.28326],[-170.72105,-14.28655],[-170.72344,-14.28861],[-170.72501,-14.28538],[-170.73137,-14.28164],[-170.74029,-14.28759],[-170.73922,-14.29118]]]}},{"type":"Feature","id":"place:6028900","properties":{"geoid":"6028900","name":"Fagatogo","displayName":"Fagatogo Village","type":"Village","state":"AS","stateName":"American Samoa","lsad":"47","sourceType":"place","priority":5,"areaLand":1718845,"areaWater":479468},"geometry":{"type":"Polygon","coordinates":[[[-170.70242,-14.29031],[-170.70367,-14.29496],[-170.69863,-14.291],[-170.6941,-14.29133],[-170.69274,-14.28728],[-170.68557,-14.279],[-170.6813,-14.2779],[-170.68074,-14.27626],[-170.68736,-14.2764],[-170.68874,-14.27773],[-170.69544,-14.27433],[-170.69852,-14.28539],[-170.69638,-14.2878],[-170.70242,-14.29031]]]}},{"type":"Feature","id":"place:6029700","properties":{"geoid":"6029700","name":"Failolo","displayName":"Failolo Village","type":"Village","state":"AS","stateName":"American Samoa","lsad":"47","sourceType":"place","priority":5,"areaLand":638527,"areaWater":5141706},"geometry":{"type":"Polygon","coordinates":[[[-170.82933,-14.3298],[-170.82692,-14.32902],[-170.82153,-14.33099],[-170.82123,-14.31915],[-170.82576,-14.32047],[-170.82792,-14.32593],[-170.82658,-14.32654],[-170.82933,-14.3298]]]}},{"type":"Feature","id":"place:6030500","properties":{"geoid":"6030500","name":"Faleasao","displayName":"Faleasao Village","type":"Village","state":"AS","stateName":"American Samoa","lsad":"47","sourceType":"place","priority":5,"areaLand":6931132,"areaWater":25969103},"geometry":{"type":"Polygon","coordinates":[[[-169.51801,-14.21973],[-169.51688,-14.22262],[-169.51285,-14.22532],[-169.50682,-14.22488],[-169.50275,-14.22274],[-169.50479,-14.2293],[-169.47237,-14.24166],[-169.48021,-14.21529],[-169.48863,-14.21521],[-169.49861,-14.21743],[-169.50736,-14.2124],[-169.50741,-14.2148],[-169.50975,-14.21533],[-169.51183,-14.22001],[-169.51801,-14.21973]]]}},{"type":"Feature","id":"place:6032100","properties":{"geoid":"6032100","name":"Faleniu","displayName":"Faleniu Village","type":"Village","state":"AS","stateName":"American Samoa","lsad":"47","sourceType":"place","priority":5,"areaLand":635024,"areaWater":0},"geometry":{"type":"Polygon","coordinates":[[[-170.74968,-14.32605],[-170.74672,-14.32992],[-170.74119,-14.33176],[-170.74013,-14.3306],[-170.73914,-14.32546],[-170.74285,-14.3235],[-170.74968,-14.32605]]]}},{"type":"Feature","id":"place:6032900","properties":{"geoid":"6032900","name":"Fatumafuti","displayName":"Fatumafuti Village","type":"Village","state":"AS","stateName":"American Samoa","lsad":"47","sourceType":"place","priority":5,"areaLand":101073,"areaWater":439970},"geometry":{"type":"Polygon","coordinates":[[[-170.68004,-14.29522],[-170.68056,-14.29749],[-170.67792,-14.29837],[-170.67713,-14.29502],[-170.68004,-14.29522]]]}},{"type":"Feature","id":"place:6036100","properties":{"geoid":"6036100","name":"Futiga","displayName":"Futiga Village","type":"Village","state":"AS","stateName":"American Samoa","lsad":"47","sourceType":"place","priority":5,"areaLand":3481339,"areaWater":15805847},"geometry":{"type":"Polygon","coordinates":[[[-170.76932,-14.36428],[-170.76494,-14.36138],[-170.76023,-14.36258],[-170.75999,-14.36548],[-170.76252,-14.36766],[-170.75977,-14.37374],[-170.75306,-14.36561],[-170.75384,-14.35245],[-170.7558,-14.35213],[-170.75598,-14.35009],[-170.75388,-14.35013],[-170.75392,-14.34672],[-170.75718,-14.34215],[-170.76142,-14.34006],[-170.76185,-14.34603],[-170.76436,-14.34939],[-170.7667,-14.34973],[-170.76932,-14.36428]]]}},{"type":"Feature","id":"place:6036900","properties":{"geoid":"6036900","name":"Ili'ili","displayName":"Ili'ili Village","type":"Village","state":"AS","stateName":"American Samoa","lsad":"47","sourceType":"place","priority":5,"areaLand":3592015,"areaWater":9042744},"geometry":{"type":"Polygon","coordinates":[[[-170.75718,-14.34215],[-170.75392,-14.34672],[-170.75388,-14.35013],[-170.75598,-14.35009],[-170.7558,-14.35213],[-170.75384,-14.35245],[-170.75034,-14.35165],[-170.75003,-14.34918],[-170.74692,-14.34982],[-170.74676,-14.34831],[-170.74154,-14.34699],[-170.73766,-14.34325],[-170.73096,-14.34586],[-170.72847,-14.34948],[-170.72416,-14.34771],[-170.72116,-14.3442],[-170.72292,-14.33791],[-170.73319,-14.34075],[-170.73771,-14.33808],[-170.73862,-14.33528],[-170.74364,-14.33487],[-170.7469,-14.34002],[-170.75492,-14.33992],[-170.75718,-14.34215]]]}},{"type":"Feature","id":"place:6040800","properties":{"geoid":"6040800","name":"Lauli'i","displayName":"Lauli'i Village","type":"Village","state":"AS","stateName":"American Samoa","lsad":"47","sourceType":"place","priority":5,"areaLand":1344715,"areaWater":12291409},"geometry":{"type":"Polygon","coordinates":[[[-170.66454,-14.2893],[-170.66326,-14.29105],[-170.65986,-14.28904],[-170.65669,-14.28981],[-170.65228,-14.28797],[-170.65087,-14.28952],[-170.65014,-14.28263],[-170.65442,-14.27295],[-170.66454,-14.2893]]]}},{"type":"Feature","id":"place:6044100","properties":{"geoid":"6044100","name":"Leloaloa","displayName":"Leloaloa Village","type":"Village","state":"AS","stateName":"American Samoa","lsad":"47","sourceType":"place","priority":5,"areaLand":873914,"areaWater":1364256},"geometry":{"type":"Polygon","coordinates":[[[-170.68604,-14.26464],[-170.68422,-14.26972],[-170.67848,-14.26763],[-170.67169,-14.26945],[-170.66992,-14.2641],[-170.68045,-14.26328],[-170.68604,-14.26464]]]}},{"type":"Feature","id":"place:6044900","properties":{"geoid":"6044900","name":"Leone","displayName":"Leone Village","type":"Village","state":"AS","stateName":"American Samoa","lsad":"47","sourceType":"place","priority":5,"areaLand":3863225,"areaWater":385248},"geometry":{"type":"Polygon","coordinates":[[[-170.78931,-14.33667],[-170.78558,-14.34027],[-170.78815,-14.34588],[-170.78445,-14.34747],[-170.78227,-14.34521],[-170.77855,-14.35146],[-170.77446,-14.35035],[-170.77455,-14.34785],[-170.77908,-14.34523],[-170.77966,-14.34112],[-170.77573,-14.34006],[-170.77663,-14.33419],[-170.7749,-14.33419],[-170.77746,-14.32888],[-170.76796,-14.31884],[-170.78048,-14.3151],[-170.78614,-14.32814],[-170.78544,-14.32962],[-170.78419,-14.329],[-170.78271,-14.33307],[-170.786,-14.3368],[-170.78931,-14.33667]]]}},{"type":"Feature","id":"place:6045700","properties":{"geoid":"6045700","name":"Leusoali'i","displayName":"Leusoali'i Village","type":"Village","state":"AS","stateName":"American Samoa","lsad":"47","sourceType":"place","priority":5,"areaLand":10965657,"areaWater":84189945},"geometry":{"type":"Polygon","coordinates":[[[-169.45865,-14.23306],[-169.45678,-14.24834],[-169.44799,-14.24922],[-169.43848,-14.25507],[-169.42777,-14.25726],[-169.42379,-14.25659],[-169.42108,-14.24443],[-169.4188,-14.21839],[-169.4207,-14.21711],[-169.42534,-14.21772],[-169.42836,-14.22374],[-169.45089,-14.23518],[-169.45865,-14.23306]]]}},{"type":"Feature","id":"place:6046500","properties":{"geoid":"6046500","name":"Luma","displayName":"Luma Village","type":"Village","state":"AS","stateName":"American Samoa","lsad":"47","sourceType":"place","priority":5,"areaLand":940481,"areaWater":47451053},"geometry":{"type":"Polygon","coordinates":[[[-169.5191,-14.22088],[-169.51692,-14.22452],[-169.51613,-14.2314],[-169.51413,-14.22952],[-169.50807,-14.23097],[-169.50421,-14.22889],[-169.50275,-14.22274],[-169.5106,-14.22576],[-169.51688,-14.22262],[-169.51835,-14.22009],[-169.5191,-14.22088]]]}},{"type":"Feature","id":"place:6047300","properties":{"geoid":"6047300","name":"Maia","displayName":"Maia Village","type":"Village","state":"AS","stateName":"American Samoa","lsad":"47","sourceType":"place","priority":5,"areaLand":11362506,"areaWater":51581865},"geometry":{"type":"Polygon","coordinates":[[[-169.48021,-14.21529],[-169.47237,-14.24166],[-169.46708,-14.23483],[-169.45606,-14.23301],[-169.45089,-14.23518],[-169.42836,-14.22374],[-169.42534,-14.21772],[-169.4207,-14.21711],[-169.42831,-14.21134],[-169.44,-14.21402],[-169.45398,-14.21171],[-169.46425,-14.21356],[-169.46805,-14.21586],[-169.48021,-14.21529]]]}},{"type":"Feature","id":"place:6048100","properties":{"geoid":"6048100","name":"Malaeimi","displayName":"Malaeimi Village","type":"Village","state":"AS","stateName":"American Samoa","lsad":"47","sourceType":"place","priority":5,"areaLand":3880762,"areaWater":0},"geometry":{"type":"Polygon","coordinates":[[[-170.74678,-14.31909],[-170.74416,-14.32422],[-170.74285,-14.3235],[-170.73914,-14.32546],[-170.73885,-14.32433],[-170.73487,-14.3244],[-170.72885,-14.30942],[-170.72539,-14.30558],[-170.73215,-14.2976],[-170.73918,-14.30001],[-170.73985,-14.30431],[-170.74392,-14.31116],[-170.74424,-14.31602],[-170.74678,-14.31909]]]}},{"type":"Feature","id":"place:6048920","properties":{"geoid":"6048920","name":"Malaeloa/Aitulagi","displayName":"Malaeloa/Aitulagi Village","type":"Village","state":"AS","stateName":"American Samoa","lsad":"47","sourceType":"place","priority":5,"areaLand":3590304,"areaWater":0},"geometry":{"type":"Polygon","coordinates":[[[-170.7754,-14.32768],[-170.77746,-14.32888],[-170.7749,-14.33419],[-170.77663,-14.33419],[-170.77602,-14.34105],[-170.77113,-14.34125],[-170.77088,-14.33892],[-170.76635,-14.341],[-170.76426,-14.3393],[-170.75718,-14.34215],[-170.75565,-14.34115],[-170.75492,-14.33992],[-170.75846,-14.33807],[-170.75946,-14.3319],[-170.76104,-14.33206],[-170.76289,-14.32133],[-170.7619,-14.32001],[-170.76796,-14.31884],[-170.7754,-14.32768]]]}},{"type":"Feature","id":"place:6049400","properties":{"geoid":"6049400","name":"Malaeloa/Ituau","displayName":"Malaeloa/Ituau Village","type":"Village","state":"AS","stateName":"American Samoa","lsad":"47","sourceType":"place","priority":5,"areaLand":608538,"areaWater":0},"geometry":{"type":"Polygon","coordinates":[[[-170.77113,-14.34125],[-170.76683,-14.34545],[-170.76185,-14.34603],[-170.76142,-14.34006],[-170.76426,-14.3393],[-170.76635,-14.341],[-170.77088,-14.33892],[-170.77113,-14.34125]]]}},{"type":"Feature","id":"place:6050500","properties":{"geoid":"6050500","name":"Maloata","displayName":"Maloata Village","type":"Village","state":"AS","stateName":"American Samoa","lsad":"47","sourceType":"place","priority":5,"areaLand":3101807,"areaWater":628705},"geometry":{"type":"Polygon","coordinates":[[[-170.82252,-14.30222],[-170.82367,-14.30253],[-170.81788,-14.31724],[-170.80923,-14.31374],[-170.79721,-14.31502],[-170.80297,-14.30628],[-170.81223,-14.29909],[-170.81537,-14.3004],[-170.81623,-14.30381],[-170.81827,-14.30344],[-170.82083,-14.30007],[-170.82252,-14.30222]]]}},{"type":"Feature","id":"place:6052900","properties":{"geoid":"6052900","name":"Mapusagafou","displayName":"Mapusagafou Village","type":"Village","state":"AS","stateName":"American Samoa","lsad":"47","sourceType":"place","priority":5,"areaLand":2064469,"areaWater":0},"geometry":{"type":"Polygon","coordinates":[[[-170.76289,-14.32133],[-170.76104,-14.33206],[-170.75946,-14.3319],[-170.7484,-14.32562],[-170.74836,-14.31974],[-170.74678,-14.31909],[-170.74956,-14.3144],[-170.7589,-14.31628],[-170.75986,-14.31801],[-170.76085,-14.31699],[-170.76289,-14.32133]]]}},{"type":"Feature","id":"place:6053700","properties":{"geoid":"6053700","name":"Masausi","displayName":"Masausi Village","type":"Village","state":"AS","stateName":"American Samoa","lsad":"47","sourceType":"place","priority":5,"areaLand":951537,"areaWater":2500318},"geometry":{"type":"Polygon","coordinates":[[[-170.61381,-14.25234],[-170.61419,-14.2627],[-170.6096,-14.26219],[-170.6033,-14.26468],[-170.60406,-14.25396],[-170.60446,-14.25751],[-170.60631,-14.25893],[-170.6085,-14.25419],[-170.61112,-14.25481],[-170.61263,-14.25184],[-170.61381,-14.25234]]]}},{"type":"Feature","id":"place:6054500","properties":{"geoid":"6054500","name":"Masefau","displayName":"Masefau Village","type":"Village","state":"AS","stateName":"American Samoa","lsad":"47","sourceType":"place","priority":5,"areaLand":4231358,"areaWater":11281445},"geometry":{"type":"Polygon","coordinates":[[[-170.64601,-14.26796],[-170.64608,-14.26992],[-170.64074,-14.27011],[-170.62438,-14.26226],[-170.61419,-14.2627],[-170.6132,-14.25144],[-170.62057,-14.25702],[-170.62799,-14.25852],[-170.63208,-14.25567],[-170.62978,-14.25293],[-170.62147,-14.25018],[-170.62233,-14.24852],[-170.62438,-14.24976],[-170.62815,-14.24854],[-170.6306,-14.2511],[-170.63327,-14.24765],[-170.63847,-14.24933],[-170.6401,-14.24721],[-170.63851,-14.25429],[-170.64476,-14.26198],[-170.64601,-14.26796]]]}},{"type":"Feature","id":"place:6055300","properties":{"geoid":"6055300","name":"Matu'u","displayName":"Matu'u Village","type":"Village","state":"AS","stateName":"American Samoa","lsad":"47","sourceType":"place","priority":5,"areaLand":1202736,"areaWater":8813633},"geometry":{"type":"Polygon","coordinates":[[[-170.70367,-14.29496],[-170.6874,-14.29902],[-170.68452,-14.30133],[-170.68372,-14.29895],[-170.68004,-14.29997],[-170.67792,-14.29837],[-170.68056,-14.29749],[-170.68004,-14.29522],[-170.69082,-14.29434],[-170.69577,-14.29121],[-170.69863,-14.291],[-170.70367,-14.29496]]]}},{"type":"Feature","id":"place:6056100","properties":{"geoid":"6056100","name":"Mesepa","displayName":"Mesepa Village","type":"Village","state":"AS","stateName":"American Samoa","lsad":"47","sourceType":"place","priority":5,"areaLand":280377,"areaWater":0},"geometry":{"type":"Polygon","coordinates":[[[-170.74836,-14.31974],[-170.7484,-14.32562],[-170.74416,-14.32422],[-170.74678,-14.31909],[-170.74836,-14.31974]]]}},{"type":"Feature","id":"place:6056900","properties":{"geoid":"6056900","name":"Nua","displayName":"Nua Village","type":"Village","state":"AS","stateName":"American Samoa","lsad":"47","sourceType":"place","priority":5,"areaLand":956582,"areaWater":3951757},"geometry":{"type":"Polygon","coordinates":[[[-170.80923,-14.31374],[-170.81139,-14.31471],[-170.8093,-14.32564],[-170.80427,-14.33236],[-170.80396,-14.31484],[-170.80923,-14.31374]]]}},{"type":"Feature","id":"place:6057700","properties":{"geoid":"6057700","name":"Nu'uuli","displayName":"Nu'uuli Village","type":"Village","state":"AS","stateName":"American Samoa","lsad":"47","sourceType":"place","priority":5,"areaLand":7619239,"areaWater":19612349},"geometry":{"type":"Polygon","coordinates":[[[-170.73372,-14.32031],[-170.73116,-14.32165],[-170.7278,-14.32054],[-170.72795,-14.32174],[-170.7237,-14.32311],[-170.72308,-14.32022],[-170.71018,-14.31588],[-170.71084,-14.31376],[-170.706,-14.3112],[-170.70209,-14.31355],[-170.70381,-14.32142],[-170.70285,-14.32206],[-170.69795,-14.31148],[-170.69524,-14.30987],[-170.69472,-14.3073],[-170.69098,-14.30545],[-170.71091,-14.29612],[-170.72436,-14.29885],[-170.73215,-14.2976],[-170.72539,-14.30558],[-170.72885,-14.30942],[-170.73372,-14.32031]]]}},{"type":"Feature","id":"place:6058500","properties":{"geoid":"6058500","name":"Ofu","displayName":"Ofu Village","type":"Village","state":"AS","stateName":"American Samoa","lsad":"47","sourceType":"place","priority":5,"areaLand":7310058,"areaWater":110304547},"geometry":{"type":"MultiPolygon","coordinates":[[[[-169.68213,-14.16162],[-169.68047,-14.16416],[-169.68148,-14.16668],[-169.67728,-14.17522],[-169.67776,-14.17836],[-169.67329,-14.18416],[-169.66987,-14.18564],[-169.66055,-14.18278],[-169.64601,-14.17172],[-169.63379,-14.1696],[-169.63284,-14.16831],[-169.63538,-14.16652],[-169.65323,-14.16665],[-169.68028,-14.15886],[-169.68213,-14.16162]]],[[[-169.68727,-14.1643],[-169.68442,-14.17232],[-169.68304,-14.16752],[-169.68727,-14.1643]]]]}},{"type":"Feature","id":"place:6060100","properties":{"geoid":"6060100","name":"Olosega","displayName":"Olosega Village","type":"Village","state":"AS","stateName":"American Samoa","lsad":"47","sourceType":"place","priority":5,"areaLand":3134083,"areaWater":44946122},"geometry":{"type":"Polygon","coordinates":[[[-169.63194,-14.16877],[-169.62642,-14.17407],[-169.62523,-14.17748],[-169.61268,-14.19333],[-169.60624,-14.17995],[-169.60957,-14.17252],[-169.6129,-14.17375],[-169.62862,-14.16728],[-169.63194,-14.16877]]]}},{"type":"Feature","id":"place:6061700","properties":{"geoid":"6061700","name":"Onenoa","displayName":"Onenoa Village","type":"Village","state":"AS","stateName":"American Samoa","lsad":"47","sourceType":"place","priority":5,"areaLand":1014990,"areaWater":5223471},"geometry":{"type":"Polygon","coordinates":[[[-170.58517,-14.2531],[-170.58635,-14.25424],[-170.57606,-14.26021],[-170.57326,-14.25807],[-170.57688,-14.24629],[-170.58231,-14.25181],[-170.58451,-14.25096],[-170.58517,-14.2531]]]}},{"type":"Feature","id":"place:6062230","properties":{"geoid":"6062230","name":"Pagai","displayName":"Pagai Village","type":"Village","state":"AS","stateName":"American Samoa","lsad":"47","sourceType":"place","priority":5,"areaLand":385404,"areaWater":227497},"geometry":{"type":"Polygon","coordinates":[[[-170.6102,-14.26881],[-170.6104,-14.26997],[-170.60736,-14.27018],[-170.60729,-14.27189],[-170.60024,-14.26811],[-170.6033,-14.26468],[-170.6102,-14.26881]]]}},{"type":"Feature","id":"place:6062500","properties":{"geoid":"6062500","name":"Pago Pago","displayName":"Pago Pago Village","type":"Village","state":"AS","stateName":"American Samoa","lsad":"47","sourceType":"place","priority":5,"areaLand":8876018,"areaWater":25123012},"geometry":{"type":"Polygon","coordinates":[[[-170.72172,-14.27246],[-170.71521,-14.27841],[-170.71158,-14.28495],[-170.7193,-14.29738],[-170.7037,-14.29506],[-170.70242,-14.29031],[-170.69638,-14.2878],[-170.69852,-14.28539],[-170.69544,-14.27433],[-170.69958,-14.2738],[-170.69946,-14.27107],[-170.69465,-14.27136],[-170.69418,-14.26545],[-170.68604,-14.26464],[-170.6898,-14.2586],[-170.69044,-14.25381],[-170.69421,-14.25101],[-170.69532,-14.25315],[-170.70173,-14.25404],[-170.7046,-14.26202],[-170.70765,-14.26241],[-170.70936,-14.26071],[-170.70942,-14.26188],[-170.71244,-14.26189],[-170.71215,-14.26461],[-170.72172,-14.27246]]]}},{"type":"Feature","id":"place:6064100","properties":{"geoid":"6064100","name":"Pava'ia'i","displayName":"Pava'ia'i Village","type":"Village","state":"AS","stateName":"American Samoa","lsad":"47","sourceType":"place","priority":5,"areaLand":1898726,"areaWater":0},"geometry":{"type":"Polygon","coordinates":[[[-170.75946,-14.3319],[-170.75846,-14.33807],[-170.75042,-14.34095],[-170.7469,-14.34002],[-170.74669,-14.33787],[-170.74119,-14.33176],[-170.74672,-14.32992],[-170.75017,-14.32666],[-170.75946,-14.3319]]]}},{"type":"Feature","id":"place:6064900","properties":{"geoid":"6064900","name":"Poloa","displayName":"Poloa Village","type":"Village","state":"AS","stateName":"American Samoa","lsad":"47","sourceType":"place","priority":5,"areaLand":822846,"areaWater":25848257},"geometry":{"type":"Polygon","coordinates":[[[-170.847,-14.32085],[-170.84689,-14.32239],[-170.82576,-14.32047],[-170.83232,-14.31088],[-170.83653,-14.31925],[-170.847,-14.32085]]]}},{"type":"Feature","id":"place:6065300","properties":{"geoid":"6065300","name":"Puapua","displayName":"Puapua Village","type":"Village","state":"AS","stateName":"American Samoa","lsad":"47","sourceType":"place","priority":5,"areaLand":968325,"areaWater":0},"geometry":{"type":"Polygon","coordinates":[[[-170.77966,-14.34112],[-170.77908,-14.34523],[-170.77455,-14.34785],[-170.77454,-14.34933],[-170.77217,-14.34765],[-170.76436,-14.34939],[-170.76185,-14.34603],[-170.76683,-14.34545],[-170.77113,-14.34125],[-170.77966,-14.34112]]]}},{"type":"Feature","id":"place:6066500","properties":{"geoid":"6066500","name":"Sa'ilele","displayName":"Sa'ilele Village","type":"Village","state":"AS","stateName":"American Samoa","lsad":"47","sourceType":"place","priority":5,"areaLand":1371428,"areaWater":9621057},"geometry":{"type":"Polygon","coordinates":[[[-170.60406,-14.25396],[-170.6033,-14.26468],[-170.59626,-14.27085],[-170.59166,-14.2575],[-170.59332,-14.25831],[-170.60406,-14.25396]]]}},{"type":"Feature","id":"place:6068100","properties":{"geoid":"6068100","name":"Satala","displayName":"Satala Village","type":"Village","state":"AS","stateName":"American Samoa","lsad":"47","sourceType":"place","priority":5,"areaLand":400381,"areaWater":137563},"geometry":{"type":"Polygon","coordinates":[[[-170.69475,-14.27005],[-170.69465,-14.27136],[-170.68925,-14.27182],[-170.68978,-14.26484],[-170.69418,-14.26545],[-170.69475,-14.27005]]]}},{"type":"Feature","id":"place:6068900","properties":{"geoid":"6068900","name":"Se'etaga","displayName":"Se'etaga Village","type":"Village","state":"AS","stateName":"American Samoa","lsad":"47","sourceType":"place","priority":5,"areaLand":701184,"areaWater":6840906},"geometry":{"type":"Polygon","coordinates":[[[-170.81584,-14.31692],[-170.81384,-14.32831],[-170.80878,-14.32416],[-170.81139,-14.31471],[-170.81584,-14.31692]]]}},{"type":"Feature","id":"place:6069700","properties":{"geoid":"6069700","name":"Sili","displayName":"Sili Village","type":"Village","state":"AS","stateName":"American Samoa","lsad":"47","sourceType":"place","priority":5,"areaLand":2044613,"areaWater":43372356},"geometry":{"type":"Polygon","coordinates":[[[-169.62718,-14.1672],[-169.62862,-14.16728],[-169.62521,-14.16964],[-169.6218,-14.16934],[-169.6129,-14.17375],[-169.60957,-14.17252],[-169.60945,-14.15776],[-169.61311,-14.15508],[-169.61501,-14.15559],[-169.62072,-14.16434],[-169.62718,-14.1672]]]}},{"type":"Feature","id":"place:6071300","properties":{"geoid":"6071300","name":"Si'ufaga","displayName":"Si'ufaga Village","type":"Village","state":"AS","stateName":"American Samoa","lsad":"47","sourceType":"place","priority":5,"areaLand":14932463,"areaWater":56423053},"geometry":{"type":"Polygon","coordinates":[[[-169.51613,-14.2314],[-169.51188,-14.24028],[-169.50453,-14.24495],[-169.49966,-14.25512],[-169.49771,-14.26327],[-169.49053,-14.27184],[-169.48483,-14.27216],[-169.48308,-14.26759],[-169.48117,-14.26774],[-169.4812,-14.26599],[-169.47071,-14.25383],[-169.46154,-14.24885],[-169.45678,-14.24834],[-169.45865,-14.23306],[-169.46708,-14.23483],[-169.47237,-14.24166],[-169.50479,-14.2293],[-169.50807,-14.23097],[-169.51413,-14.22952],[-169.51613,-14.2314]]]}},{"type":"Feature","id":"place:6072900","properties":{"geoid":"6072900","name":"Swains","displayName":"Swains Village","type":"Village","state":"AS","stateName":"American Samoa","lsad":"47","sourceType":"place","priority":5,"areaLand":2432605,"areaWater":149170816},"geometry":{"type":"Polygon","coordinates":[[[-171.08987,-11.05259],[-171.0872,-11.05971],[-171.08086,-11.0646],[-171.07686,-11.06381],[-171.0677,-11.05712],[-171.0658,-11.05386],[-171.06882,-11.04869],[-171.07364,-11.04693],[-171.08694,-11.04931],[-171.08987,-11.05259]]]}},{"type":"Feature","id":"place:6075300","properties":{"geoid":"6075300","name":"Tafuna","displayName":"Tafuna Village","type":"Village","state":"AS","stateName":"American Samoa","lsad":"47","sourceType":"place","priority":5,"areaLand":6417915,"areaWater":19034568},"geometry":{"type":"Polygon","coordinates":[[[-170.74364,-14.33487],[-170.73862,-14.33528],[-170.73771,-14.33808],[-170.73319,-14.34075],[-170.72292,-14.33791],[-170.72162,-14.33989],[-170.69968,-14.32701],[-170.70017,-14.32558],[-170.71118,-14.32564],[-170.71646,-14.31759],[-170.72308,-14.32022],[-170.7237,-14.32311],[-170.72795,-14.32174],[-170.7278,-14.32054],[-170.73116,-14.32165],[-170.73372,-14.32031],[-170.73487,-14.3244],[-170.73885,-14.32433],[-170.74013,-14.3306],[-170.74364,-14.33487]]]}},{"type":"Feature","id":"place:6076900","properties":{"geoid":"6076900","name":"Taputimu","displayName":"Taputimu Village","type":"Village","state":"AS","stateName":"American Samoa","lsad":"47","sourceType":"place","priority":5,"areaLand":1581022,"areaWater":6160214},"geometry":{"type":"Polygon","coordinates":[[[-170.78129,-14.35624],[-170.78122,-14.35881],[-170.76969,-14.3649],[-170.7667,-14.34973],[-170.76436,-14.34901],[-170.77217,-14.34765],[-170.77454,-14.34933],[-170.77467,-14.35458],[-170.7775,-14.35635],[-170.78129,-14.35624]]]}},{"type":"Feature","id":"place:6081700","properties":{"geoid":"6081700","name":"Tula","displayName":"Tula Village","type":"Village","state":"AS","stateName":"American Samoa","lsad":"47","sourceType":"place","priority":5,"areaLand":1307106,"areaWater":42646478},"geometry":{"type":"Polygon","coordinates":[[[-170.57642,-14.2463],[-170.57326,-14.25807],[-170.56283,-14.25705],[-170.56448,-14.2483],[-170.56148,-14.2461],[-170.56227,-14.24532],[-170.57186,-14.24849],[-170.57642,-14.2463]]]}},{"type":"Feature","id":"place:6082500","properties":{"geoid":"6082500","name":"Utulei","displayName":"Utulei Village","type":"Village","state":"AS","stateName":"American Samoa","lsad":"47","sourceType":"place","priority":5,"areaLand":861788,"areaWater":511817},"geometry":{"type":"Polygon","coordinates":[[[-170.68917,-14.28332],[-170.68752,-14.2874],[-170.67526,-14.28542],[-170.68118,-14.28285],[-170.68214,-14.27712],[-170.68917,-14.28332]]]}},{"type":"Feature","id":"place:6083300","properties":{"geoid":"6083300","name":"Utumea East","displayName":"Utumea East Village","type":"Village","state":"AS","stateName":"American Samoa","lsad":"47","sourceType":"place","priority":5,"areaLand":491991,"areaWater":2160516},"geometry":{"type":"Polygon","coordinates":[[[-170.57823,-14.26188],[-170.57249,-14.27134],[-170.56596,-14.27073],[-170.56717,-14.26799],[-170.57823,-14.26188]]]}},{"type":"Feature","id":"place:6084100","properties":{"geoid":"6084100","name":"Utumea West","displayName":"Utumea West Village","type":"Village","state":"AS","stateName":"American Samoa","lsad":"47","sourceType":"place","priority":5,"areaLand":672965,"areaWater":58857},"geometry":{"type":"Polygon","coordinates":[[[-170.82071,-14.31891],[-170.81734,-14.33196],[-170.81384,-14.32831],[-170.81584,-14.31692],[-170.82071,-14.31891]]]}},{"type":"Feature","id":"place:6084900","properties":{"geoid":"6084900","name":"Utusia","displayName":"Utusia Village","type":"Village","state":"AS","stateName":"American Samoa","lsad":"47","sourceType":"place","priority":5,"areaLand":304545,"areaWater":208811},"geometry":{"type":"Polygon","coordinates":[[[-170.62438,-14.26226],[-170.62102,-14.27123],[-170.61794,-14.27077],[-170.62041,-14.26222],[-170.62438,-14.26226]]]}},{"type":"Feature","id":"place:6087300","properties":{"geoid":"6087300","name":"Vailoatai","displayName":"Vailoatai Village","type":"Village","state":"AS","stateName":"American Samoa","lsad":"47","sourceType":"place","priority":5,"areaLand":1041195,"areaWater":5669115},"geometry":{"type":"Polygon","coordinates":[[[-170.78815,-14.34588],[-170.78534,-14.35022],[-170.78548,-14.35729],[-170.78122,-14.35881],[-170.78129,-14.35624],[-170.7775,-14.35635],[-170.77467,-14.35458],[-170.7737,-14.35032],[-170.77855,-14.35146],[-170.78227,-14.34521],[-170.78445,-14.34747],[-170.78815,-14.34588]]]}},{"type":"Feature","id":"place:6088100","properties":{"geoid":"6088100","name":"Vaitogi","displayName":"Vaitogi Village","type":"Village","state":"AS","stateName":"American Samoa","lsad":"47","sourceType":"place","priority":5,"areaLand":3551182,"areaWater":22694317},"geometry":{"type":"Polygon","coordinates":[[[-170.75384,-14.35245],[-170.75266,-14.36073],[-170.74986,-14.35881],[-170.74195,-14.36551],[-170.72847,-14.34948],[-170.73096,-14.34586],[-170.73766,-14.34325],[-170.74154,-14.34699],[-170.74676,-14.34831],[-170.74692,-14.34982],[-170.75003,-14.34918],[-170.75034,-14.35165],[-170.75384,-14.35245]]]}},{"type":"Feature","id":"place:6089700","properties":{"geoid":"6089700","name":"Vatia","displayName":"Vatia Village","type":"Village","state":"AS","stateName":"American Samoa","lsad":"47","sourceType":"place","priority":5,"areaLand":6464464,"areaWater":62541435},"geometry":{"type":"Polygon","coordinates":[[[-170.69044,-14.25381],[-170.6898,-14.2586],[-170.68604,-14.26464],[-170.68045,-14.26328],[-170.65925,-14.26409],[-170.66037,-14.26118],[-170.65696,-14.25792],[-170.6528,-14.24857],[-170.65874,-14.25272],[-170.66097,-14.24539],[-170.66259,-14.24707],[-170.66663,-14.24704],[-170.67039,-14.25026],[-170.67512,-14.25037],[-170.6746,-14.24683],[-170.67153,-14.24442],[-170.67067,-14.24129],[-170.66966,-14.23499],[-170.67156,-14.22956],[-170.67305,-14.23994],[-170.67844,-14.24446],[-170.68141,-14.24525],[-170.6827,-14.24404],[-170.68377,-14.24741],[-170.68779,-14.24666],[-170.69028,-14.24821],[-170.68852,-14.252],[-170.6887,-14.25362],[-170.69044,-14.25381]]]}}]}