{"type":"FeatureCollection","features":[{"type":"Feature","id":"cousub:6601004650","properties":{"geoid":"6601004650","name":"Agana Heights","displayName":"Agana Heights Municipality","type":"Municipality","state":"GU","stateName":"Guam","lsad":"37","sourceType":"county_subdivision","priority":4,"areaLand":2661521,"areaWater":0,"county":"Guam","countyGeoid":"66010"},"geometry":{"type":"Polygon","coordinates":[[[144.73225,13.47544],[144.74172,13.46852],[144.74217,13.46555],[144.73842,13.45943],[144.74039,13.45603],[144.75198,13.45711],[144.75143,13.47028],[144.74383,13.47542],[144.73225,13.47544]]]}},{"type":"Feature","id":"cousub:6601013100","properties":{"geoid":"6601013100","name":"Asan","displayName":"Asan Municipality","type":"Municipality","state":"GU","stateName":"Guam","lsad":"37","sourceType":"county_subdivision","priority":4,"areaLand":14658449,"areaWater":0,"county":"Guam","countyGeoid":"66010"},"geometry":{"type":"Polygon","coordinates":[[[144.70678,13.47614],[144.70676,13.4669],[144.70932,13.46211],[144.70734,13.45972],[144.71112,13.43512],[144.71706,13.44011],[144.72021,13.44024],[144.72463,13.44343],[144.72817,13.44271],[144.72842,13.44447],[144.73307,13.44022],[144.73488,13.43995],[144.73511,13.4413],[144.73776,13.44014],[144.73688,13.43827],[144.74049,13.43504],[144.74349,13.43645],[144.74744,13.43556],[144.74813,13.4443],[144.74314,13.44503],[144.7462,13.44693],[144.73854,13.45859],[144.73875,13.46142],[144.74077,13.46217],[144.74217,13.46555],[144.74172,13.46852],[144.73114,13.47611],[144.73177,13.47803],[144.72864,13.47896],[144.71713,13.47343],[144.70678,13.47614]]]}},{"type":"Feature","id":"cousub:6601017650","properties":{"geoid":"6601017650","name":"Barrigada","displayName":"Barrigada Municipality","type":"Municipality","state":"GU","stateName":"Guam","lsad":"37","sourceType":"county_subdivision","priority":4,"areaLand":22085277,"areaWater":0,"county":"Guam","countyGeoid":"66010"},"geometry":{"type":"Polygon","coordinates":[[[144.77971,13.48171],[144.78025,13.47537],[144.78574,13.46612],[144.78439,13.46171],[144.7905,13.45615],[144.79296,13.45537],[144.79408,13.4576],[144.79915,13.4581],[144.79941,13.45708],[144.82949,13.45689],[144.83298,13.46106],[144.83283,13.48457],[144.83463,13.49975],[144.82508,13.49924],[144.82351,13.50119],[144.82019,13.49848],[144.81587,13.49881],[144.77971,13.48171]]]}},{"type":"Feature","id":"cousub:6601026100","properties":{"geoid":"6601026100","name":"Chalan Pago-Ordot","displayName":"Chalan Pago-Ordot Municipality","type":"Municipality","state":"GU","stateName":"Guam","lsad":"37","sourceType":"county_subdivision","priority":4,"areaLand":14753321,"areaWater":0,"county":"Guam","countyGeoid":"66010"},"geometry":{"type":"Polygon","coordinates":[[[144.74386,13.45638],[144.74039,13.45603],[144.7462,13.44693],[144.74314,13.44503],[144.74813,13.4443],[144.7475,13.43456],[144.75163,13.43472],[144.75409,13.43704],[144.75906,13.43548],[144.76074,13.43203],[144.7623,13.43278],[144.76492,13.42994],[144.76565,13.42648],[144.7691,13.42653],[144.76949,13.42421],[144.77513,13.42369],[144.77875,13.42004],[144.78191,13.42296],[144.78395,13.42163],[144.78588,13.42422],[144.79278,13.42651],[144.79255,13.4379],[144.78959,13.44068],[144.78575,13.44088],[144.78406,13.45887],[144.78132,13.46126],[144.77259,13.46036],[144.76836,13.45698],[144.76656,13.45205],[144.75803,13.45622],[144.74386,13.45638]]]}},{"type":"Feature","id":"cousub:6601028050","properties":{"geoid":"6601028050","name":"Dededo","displayName":"Dededo Municipality","type":"Municipality","state":"GU","stateName":"Guam","lsad":"37","sourceType":"county_subdivision","priority":4,"areaLand":79046376,"areaWater":0,"county":"Guam","countyGeoid":"66010"},"geometry":{"type":"Polygon","coordinates":[[[144.80894,13.54501],[144.8213,13.50513],[144.81975,13.50221],[144.82019,13.49848],[144.82351,13.50119],[144.82508,13.49924],[144.83463,13.49975],[144.83462,13.49793],[144.87083,13.49969],[144.87075,13.51957],[144.87605,13.52126],[144.87489,13.5304],[144.87779,13.54592],[144.87571,13.55864],[144.87586,13.57562],[144.87345,13.57708],[144.85977,13.65438],[144.85166,13.64827],[144.84655,13.63681],[144.8367,13.62414],[144.83653,13.59447],[144.83453,13.58741],[144.831,13.58214],[144.83182,13.57859],[144.82161,13.56929],[144.82177,13.5669],[144.81724,13.55829],[144.81197,13.55473],[144.80894,13.54501]]]}},{"type":"Feature","id":"cousub:6601034653","properties":{"geoid":"6601034653","name":"H\u00e5gat","displayName":"H\u00e5gat Municipality","type":"Municipality","state":"GU","stateName":"Guam","lsad":"37","sourceType":"county_subdivision","priority":4,"areaLand":26918768,"areaWater":295417,"county":"Guam","countyGeoid":"66010"},"geometry":{"type":"Polygon","coordinates":[[[144.6361,13.34162],[144.67154,13.32906],[144.70516,13.34499],[144.70285,13.34658],[144.70438,13.34856],[144.70361,13.35185],[144.66881,13.38206],[144.66604,13.3912],[144.66953,13.39236],[144.66771,13.39377],[144.66791,13.39715],[144.6634,13.40106],[144.65945,13.3893],[144.65589,13.3862],[144.65192,13.37817],[144.65236,13.37281],[144.64309,13.34867],[144.63934,13.3431],[144.6361,13.34162]]]}},{"type":"Feature","id":"cousub:6601034800","properties":{"geoid":"6601034800","name":"Hag\u00e5t\u00f1a","displayName":"Hag\u00e5t\u00f1a Municipality","type":"Municipality","state":"GU","stateName":"Guam","lsad":"37","sourceType":"county_subdivision","priority":4,"areaLand":2453678,"areaWater":137543,"county":"Guam","countyGeoid":"66010"},"geometry":{"type":"Polygon","coordinates":[[[144.72857,13.48001],[144.73177,13.47803],[144.73114,13.47611],[144.73275,13.47488],[144.73824,13.47617],[144.74525,13.47499],[144.74733,13.47196],[144.75143,13.47028],[144.7522,13.46728],[144.75406,13.46751],[144.7581,13.46363],[144.76136,13.46658],[144.75837,13.47438],[144.75896,13.47685],[144.76281,13.47706],[144.7676,13.47998],[144.75461,13.47772],[144.75306,13.48097],[144.75077,13.47773],[144.74382,13.47762],[144.7387,13.47914],[144.73126,13.47863],[144.72927,13.48092],[144.72857,13.48001]]]}},{"type":"Feature","id":"cousub:6601035503","properties":{"geoid":"6601035503","name":"Inal\u00e5han","displayName":"Inal\u00e5han Municipality","type":"Municipality","state":"GU","stateName":"Guam","lsad":"37","sourceType":"county_subdivision","priority":4,"areaLand":48558826,"areaWater":125441,"county":"Guam","countyGeoid":"66010"},"geometry":{"type":"Polygon","coordinates":[[[144.68749,13.2995],[144.69276,13.27886],[144.69411,13.27715],[144.69913,13.27609],[144.70561,13.26942],[144.70941,13.26998],[144.71224,13.26196],[144.71714,13.25792],[144.71853,13.25474],[144.71781,13.25188],[144.72312,13.24706],[144.72601,13.24757],[144.73301,13.25336],[144.73787,13.26264],[144.74208,13.26424],[144.74194,13.26606],[144.73755,13.26816],[144.75017,13.27268],[144.74743,13.2766],[144.74862,13.27917],[144.75443,13.27558],[144.75902,13.27938],[144.7581,13.28316],[144.76138,13.28279],[144.76308,13.28452],[144.76446,13.29043],[144.76907,13.29583],[144.77239,13.30645],[144.77124,13.33643],[144.76175,13.33786],[144.76068,13.33922],[144.75835,13.33538],[144.75442,13.33773],[144.75355,13.3358],[144.74749,13.33241],[144.75051,13.3292],[144.74947,13.32759],[144.74597,13.32859],[144.74283,13.32649],[144.74093,13.32797],[144.73789,13.32689],[144.73859,13.32539],[144.7368,13.32296],[144.73328,13.3224],[144.73413,13.32095],[144.73202,13.32054],[144.72891,13.31282],[144.72751,13.31313],[144.72788,13.31052],[144.72,13.30799],[144.71926,13.30642],[144.71466,13.31014],[144.71064,13.30543],[144.70797,13.30471],[144.707,13.30189],[144.69675,13.30456],[144.68749,13.2995]]]}},{"type":"Feature","id":"cousub:6601035528","properties":{"geoid":"6601035528","name":"Hum\u00e5tak","displayName":"Hum\u00e5tak Municipality","type":"Municipality","state":"GU","stateName":"Guam","lsad":"37","sourceType":"county_subdivision","priority":4,"areaLand":16158193,"areaWater":0,"county":"Guam","countyGeoid":"66010"},"geometry":{"type":"Polygon","coordinates":[[[144.63609,13.34116],[144.64591,13.33641],[144.64961,13.32884],[144.65201,13.32861],[144.65026,13.32222],[144.65197,13.31906],[144.65741,13.31645],[144.65752,13.31495],[144.65317,13.31322],[144.65493,13.3076],[144.65794,13.30676],[144.65681,13.30242],[144.65854,13.29958],[144.66272,13.29891],[144.66292,13.29761],[144.65752,13.29289],[144.65924,13.28683],[144.66244,13.28492],[144.6622,13.2837],[144.66305,13.28565],[144.66854,13.28647],[144.67318,13.28356],[144.67889,13.28683],[144.67882,13.28387],[144.69276,13.27886],[144.68749,13.2995],[144.67461,13.32537],[144.67093,13.32992],[144.63609,13.34116]]]}},{"type":"Feature","id":"cousub:6601044403","properties":{"geoid":"6601044403","name":"Malesso'","displayName":"Malesso' Municipality","type":"Municipality","state":"GU","stateName":"Guam","lsad":"37","sourceType":"county_subdivision","priority":4,"areaLand":16201300,"areaWater":0,"county":"Guam","countyGeoid":"66010"},"geometry":{"type":"MultiPolygon","coordinates":[[[[144.66249,13.27348],[144.66189,13.27142],[144.66461,13.26766],[144.67339,13.26262],[144.67434,13.25794],[144.67732,13.25459],[144.68235,13.25437],[144.68672,13.25646],[144.68905,13.25101],[144.7062,13.24626],[144.71907,13.25112],[144.71781,13.25188],[144.71853,13.25474],[144.71714,13.25792],[144.71224,13.26196],[144.70941,13.26998],[144.70561,13.26942],[144.69913,13.27609],[144.67882,13.28387],[144.67889,13.28683],[144.67318,13.28356],[144.66854,13.28647],[144.66305,13.28565],[144.66205,13.28053],[144.66367,13.27506],[144.66249,13.27348]]],[[[144.64538,13.23627],[144.64516,13.23463],[144.64669,13.23419],[144.65862,13.24016],[144.6585,13.24193],[144.64538,13.23627]]]]}},{"type":"Feature","id":"cousub:6601046250","properties":{"geoid":"6601046250","name":"Mangilao","displayName":"Mangilao Municipality","type":"Municipality","state":"GU","stateName":"Guam","lsad":"37","sourceType":"county_subdivision","priority":4,"areaLand":26406819,"areaWater":0,"county":"Guam","countyGeoid":"66010"},"geometry":{"type":"Polygon","coordinates":[[[144.78132,13.46126],[144.78406,13.45887],[144.78575,13.44088],[144.78959,13.44068],[144.79255,13.4379],[144.79278,13.42651],[144.79675,13.42836],[144.80087,13.42678],[144.8076,13.42744],[144.81397,13.43803],[144.81812,13.44169],[144.82593,13.44276],[144.83006,13.44591],[144.83578,13.45449],[144.84598,13.46279],[144.85063,13.46338],[144.86506,13.47942],[144.86987,13.48267],[144.87087,13.48605],[144.86901,13.49055],[144.87084,13.49229],[144.87083,13.49969],[144.83462,13.49793],[144.83283,13.48457],[144.83298,13.46106],[144.82949,13.45689],[144.79941,13.45708],[144.79915,13.4581],[144.79408,13.4576],[144.79296,13.45537],[144.78439,13.46171],[144.78132,13.46126]]]}},{"type":"Feature","id":"cousub:6601051450","properties":{"geoid":"6601051450","name":"Mongmong-Toto-Maite","displayName":"Mongmong-Toto-Maite Municipality","type":"Municipality","state":"GU","stateName":"Guam","lsad":"37","sourceType":"county_subdivision","priority":4,"areaLand":4669728,"areaWater":0,"county":"Guam","countyGeoid":"66010"},"geometry":{"type":"Polygon","coordinates":[[[144.7587,13.47507],[144.76136,13.46658],[144.7634,13.46736],[144.77259,13.46036],[144.78439,13.46171],[144.78578,13.46443],[144.78025,13.47537],[144.77971,13.48171],[144.76978,13.48166],[144.76281,13.47706],[144.75896,13.47685],[144.7587,13.47507]]]}},{"type":"Feature","id":"cousub:6601059250","properties":{"geoid":"6601059250","name":"Piti","displayName":"Piti Municipality","type":"Municipality","state":"GU","stateName":"Guam","lsad":"37","sourceType":"county_subdivision","priority":4,"areaLand":19503810,"areaWater":9528901,"county":"Guam","countyGeoid":"66010"},"geometry":{"type":"Polygon","coordinates":[[[144.62572,13.45674],[144.62404,13.45478],[144.62742,13.45356],[144.6668,13.44575],[144.66698,13.43643],[144.67635,13.42816],[144.68291,13.4142],[144.68738,13.41328],[144.68875,13.41117],[144.69227,13.41049],[144.69987,13.41542],[144.7012,13.41827],[144.69961,13.4222],[144.70114,13.42375],[144.70067,13.42572],[144.70582,13.4302],[144.70852,13.43652],[144.7109,13.43683],[144.70734,13.45972],[144.70932,13.46211],[144.70676,13.4669],[144.70667,13.47167],[144.70253,13.46828],[144.68983,13.46363],[144.6872,13.465],[144.68625,13.4679],[144.67537,13.4631],[144.66294,13.46592],[144.66164,13.46478],[144.63834,13.46479],[144.62572,13.45674]]]}},{"type":"Feature","id":"cousub:6601062828","properties":{"geoid":"6601062828","name":"S\u00e5nta Rita-Sumai","displayName":"S\u00e5nta Rita-Sumai Municipality","type":"Municipality","state":"GU","stateName":"Guam","lsad":"37","sourceType":"county_subdivision","priority":4,"areaLand":42134955,"areaWater":6311143,"county":"Guam","countyGeoid":"66010"},"geometry":{"type":"Polygon","coordinates":[[[144.61807,13.44781],[144.62076,13.44147],[144.62424,13.43774],[144.63289,13.43443],[144.63852,13.42928],[144.63983,13.42102],[144.64224,13.41894],[144.6478,13.41777],[144.64876,13.41536],[144.65567,13.41461],[144.65845,13.41246],[144.66133,13.40826],[144.66118,13.40453],[144.66791,13.39715],[144.66771,13.39377],[144.66953,13.39236],[144.66604,13.3912],[144.66881,13.38206],[144.6852,13.3671],[144.70361,13.35185],[144.70652,13.35349],[144.7066,13.35798],[144.72074,13.35876],[144.72192,13.35756],[144.72219,13.3879],[144.7012,13.41827],[144.69987,13.41542],[144.69227,13.41049],[144.68291,13.4142],[144.67635,13.42816],[144.66698,13.43643],[144.6668,13.44575],[144.62404,13.45478],[144.61807,13.44781]]]}},{"type":"Feature","id":"cousub:6601065750","properties":{"geoid":"6601065750","name":"Sinajana","displayName":"Sinajana Municipality","type":"Municipality","state":"GU","stateName":"Guam","lsad":"37","sourceType":"county_subdivision","priority":4,"areaLand":2323338,"areaWater":0,"county":"Guam","countyGeoid":"66010"},"geometry":{"type":"Polygon","coordinates":[[[144.75216,13.45809],[144.7533,13.45629],[144.75803,13.45622],[144.76656,13.45205],[144.76836,13.45698],[144.77259,13.46036],[144.7634,13.46736],[144.7581,13.46363],[144.75406,13.46751],[144.7522,13.46728],[144.75216,13.45809]]]}},{"type":"Feature","id":"cousub:6601069650","properties":{"geoid":"6601069650","name":"Talo'fo'fo","displayName":"Talo'fo'fo Municipality","type":"Municipality","state":"GU","stateName":"Guam","lsad":"37","sourceType":"county_subdivision","priority":4,"areaLand":46127342,"areaWater":222744,"county":"Guam","countyGeoid":"66010"},"geometry":{"type":"Polygon","coordinates":[[[144.67154,13.32906],[144.68749,13.2995],[144.69675,13.30456],[144.707,13.30189],[144.70797,13.30471],[144.71064,13.30543],[144.71466,13.31014],[144.71926,13.30642],[144.72,13.30799],[144.72788,13.31052],[144.72751,13.31313],[144.72891,13.31282],[144.73202,13.32054],[144.73413,13.32095],[144.73328,13.3224],[144.7368,13.32296],[144.73859,13.32539],[144.73789,13.32689],[144.74093,13.32797],[144.74283,13.32649],[144.74597,13.32859],[144.74947,13.32759],[144.75051,13.3292],[144.74749,13.33241],[144.75355,13.3358],[144.75323,13.33711],[144.75835,13.33538],[144.76068,13.33922],[144.76175,13.33786],[144.77124,13.33643],[144.77246,13.34348],[144.77168,13.36236],[144.77032,13.36566],[144.76804,13.36571],[144.76504,13.36856],[144.7651,13.37023],[144.76128,13.36982],[144.75779,13.372],[144.7553,13.37201],[144.75254,13.36837],[144.73204,13.37004],[144.72213,13.36808],[144.72192,13.35756],[144.72074,13.35876],[144.7066,13.35798],[144.70652,13.35349],[144.70361,13.35185],[144.70438,13.34856],[144.70285,13.34658],[144.70516,13.34499],[144.67154,13.32906]]]}},{"type":"Feature","id":"cousub:6601071600","properties":{"geoid":"6601071600","name":"Tamuning","displayName":"Tamuning Municipality","type":"Municipality","state":"GU","stateName":"Guam","lsad":"37","sourceType":"county_subdivision","priority":4,"areaLand":14579019,"areaWater":0,"county":"Guam","countyGeoid":"66010"},"geometry":{"type":"Polygon","coordinates":[[[144.76912,13.49966],[144.77005,13.49516],[144.77452,13.49424],[144.77515,13.49094],[144.77055,13.48109],[144.78019,13.48177],[144.7942,13.48913],[144.80058,13.49077],[144.80806,13.49578],[144.81587,13.49881],[144.82012,13.49872],[144.8213,13.50513],[144.81541,13.52114],[144.81087,13.5414],[144.80873,13.54381],[144.80212,13.53579],[144.804,13.525],[144.80322,13.52225],[144.80634,13.51953],[144.80069,13.50895],[144.79767,13.50633],[144.78974,13.50397],[144.78319,13.50808],[144.77519,13.50664],[144.76912,13.49966]]]}},{"type":"Feature","id":"cousub:6601083300","properties":{"geoid":"6601083300","name":"Yigo","displayName":"Yigo Municipality","type":"Municipality","state":"GU","stateName":"Guam","lsad":"37","sourceType":"county_subdivision","priority":4,"areaLand":92207090,"areaWater":0,"county":"Guam","countyGeoid":"66010"},"geometry":{"type":"Polygon","coordinates":[[[144.85977,13.65438],[144.87345,13.57708],[144.87586,13.57562],[144.87571,13.55864],[144.87784,13.5472],[144.87489,13.5304],[144.87605,13.52126],[144.87075,13.51957],[144.87084,13.49229],[144.86901,13.49055],[144.87087,13.48605],[144.87686,13.48969],[144.88675,13.49225],[144.89199,13.49827],[144.89181,13.50625],[144.89597,13.50699],[144.90156,13.51235],[144.9153,13.51625],[144.92669,13.52205],[144.93221,13.53394],[144.93235,13.53888],[144.94017,13.55262],[144.93837,13.56086],[144.94034,13.56805],[144.94875,13.57524],[144.95178,13.58751],[144.95671,13.59817],[144.95113,13.60099],[144.93705,13.60016],[144.93131,13.60178],[144.92827,13.60017],[144.90785,13.60532],[144.90554,13.60696],[144.90442,13.61242],[144.89941,13.62199],[144.88996,13.63129],[144.8788,13.64573],[144.86825,13.6526],[144.85977,13.65438]]]}},{"type":"Feature","id":"cousub:6601084600","properties":{"geoid":"6601084600","name":"Yona","displayName":"Yona Municipality","type":"Municipality","state":"GU","stateName":"Guam","lsad":"37","sourceType":"county_subdivision","priority":4,"areaLand":52108036,"areaWater":19404,"county":"Guam","countyGeoid":"66010"},"geometry":{"type":"Polygon","coordinates":[[[144.70114,13.42375],[144.69961,13.4222],[144.7012,13.41827],[144.72219,13.3879],[144.72213,13.36808],[144.73204,13.37004],[144.75254,13.36837],[144.7553,13.37201],[144.75779,13.372],[144.76128,13.36982],[144.7651,13.37023],[144.76804,13.36571],[144.77032,13.36566],[144.77596,13.38711],[144.77594,13.38903],[144.77156,13.39305],[144.77268,13.39534],[144.77674,13.39576],[144.7808,13.39932],[144.78191,13.40176],[144.78099,13.40469],[144.78358,13.41039],[144.78877,13.41382],[144.78522,13.41653],[144.78267,13.4228],[144.77875,13.42004],[144.77513,13.42369],[144.76949,13.42421],[144.7691,13.42653],[144.76565,13.42648],[144.76492,13.42994],[144.7623,13.43278],[144.76074,13.43203],[144.75906,13.43548],[144.75409,13.43704],[144.75163,13.43472],[144.7475,13.43456],[144.74349,13.43645],[144.74049,13.43504],[144.73688,13.43827],[144.73776,13.44014],[144.73511,13.4413],[144.73488,13.43995],[144.73307,13.44022],[144.72842,13.44447],[144.72817,13.44271],[144.72463,13.44343],[144.72021,13.44024],[144.71706,13.44011],[144.7123,13.43533],[144.71112,13.43512],[144.7109,13.43683],[144.70852,13.43652],[144.70582,13.4302],[144.70067,13.42572],[144.70114,13.42375]]]}},{"type":"Feature","id":"place:6600100","properties":{"geoid":"6600100","name":"Adacao","displayName":"Adacao CDP","type":"CDP","state":"GU","stateName":"Guam","lsad":"57","sourceType":"place","priority":2,"areaLand":3641010,"areaWater":0},"geometry":{"type":"Polygon","coordinates":[[[144.83283,13.48457],[144.84954,13.48398],[144.85705,13.49162],[144.85691,13.49958],[144.8486,13.49764],[144.83462,13.49793],[144.83283,13.48457]]]}},{"type":"Feature","id":"place:6600850","properties":{"geoid":"6600850","name":"Afame","displayName":"Afame CDP","type":"CDP","state":"GU","stateName":"Guam","lsad":"57","sourceType":"place","priority":2,"areaLand":845054,"areaWater":0},"geometry":{"type":"Polygon","coordinates":[[[144.75633,13.46456],[144.76086,13.4564],[144.7598,13.45435],[144.76566,13.45209],[144.76608,13.45998],[144.76077,13.46557],[144.7581,13.46363],[144.75633,13.46456]]]}},{"type":"Feature","id":"place:6604000","properties":{"geoid":"6604000","name":"Agana Heights","displayName":"Agana Heights CDP","type":"CDP","state":"GU","stateName":"Guam","lsad":"57","sourceType":"place","priority":2,"areaLand":2156291,"areaWater":0},"geometry":{"type":"Polygon","coordinates":[[[144.73225,13.47544],[144.74172,13.46852],[144.74217,13.46555],[144.73842,13.45943],[144.74039,13.45603],[144.75198,13.45711],[144.75143,13.47028],[144.74733,13.47196],[144.7379,13.47195],[144.73225,13.47544]]]}},{"type":"Feature","id":"place:6607600","properties":{"geoid":"6607600","name":"Anao","displayName":"Anao CDP","type":"CDP","state":"GU","stateName":"Guam","lsad":"57","sourceType":"place","priority":2,"areaLand":16316641,"areaWater":0},"geometry":{"type":"Polygon","coordinates":[[[144.86901,13.49055],[144.87087,13.48605],[144.87686,13.48969],[144.88675,13.49225],[144.89199,13.49827],[144.89181,13.50625],[144.89597,13.50699],[144.90156,13.51235],[144.9153,13.51625],[144.92669,13.52205],[144.93221,13.53394],[144.93235,13.53888],[144.93775,13.548],[144.91648,13.5568],[144.91301,13.54386],[144.91022,13.5423],[144.90236,13.52768],[144.89536,13.52393],[144.87702,13.49983],[144.87095,13.49623],[144.87084,13.49229],[144.86901,13.49055]]]}},{"type":"Feature","id":"place:6607900","properties":{"geoid":"6607900","name":"Andersen AFB","displayName":"Andersen AFB CDP","type":"CDP","state":"GU","stateName":"Guam","lsad":"57","sourceType":"place","priority":2,"areaLand":8058040,"areaWater":0},"geometry":{"type":"Polygon","coordinates":[[[144.8994,13.56438],[144.93775,13.548],[144.94017,13.55262],[144.93837,13.56086],[144.94034,13.56805],[144.94706,13.573],[144.94181,13.57653],[144.93775,13.57481],[144.93645,13.57766],[144.91863,13.5699],[144.91229,13.57119],[144.8994,13.56438]]]}},{"type":"Feature","id":"place:6609500","properties":{"geoid":"6609500","name":"Apotgan","displayName":"Apotgan CDP","type":"CDP","state":"GU","stateName":"Guam","lsad":"57","sourceType":"place","priority":2,"areaLand":2000763,"areaWater":0},"geometry":{"type":"Polygon","coordinates":[[[144.76978,13.48166],[144.78019,13.48177],[144.78558,13.48441],[144.78172,13.4976],[144.76984,13.49796],[144.77005,13.49516],[144.77452,13.49424],[144.77515,13.49094],[144.76978,13.48166]]]}},{"type":"Feature","id":"place:6609850","properties":{"geoid":"6609850","name":"Apra Harbor","displayName":"Apra Harbor CDP","type":"CDP","state":"GU","stateName":"Guam","lsad":"57","sourceType":"place","priority":2,"areaLand":14892801,"areaWater":5866153},"geometry":{"type":"Polygon","coordinates":[[[144.61807,13.44781],[144.62076,13.44147],[144.62424,13.43774],[144.63289,13.43443],[144.63852,13.42928],[144.63983,13.42102],[144.64224,13.41894],[144.6478,13.41777],[144.64876,13.41536],[144.65567,13.41461],[144.65845,13.41246],[144.6634,13.40106],[144.67437,13.40095],[144.67515,13.39591],[144.68055,13.39933],[144.68108,13.39693],[144.68377,13.39954],[144.68675,13.39834],[144.68788,13.40519],[144.68022,13.40677],[144.67579,13.41055],[144.6784,13.41643],[144.67572,13.42165],[144.67774,13.42424],[144.67635,13.42816],[144.66698,13.43643],[144.6668,13.44575],[144.62404,13.45478],[144.61807,13.44781]]]}},{"type":"Feature","id":"place:6612450","properties":{"geoid":"6612450","name":"Asan","displayName":"Asan CDP","type":"CDP","state":"GU","stateName":"Guam","lsad":"57","sourceType":"place","priority":2,"areaLand":591502,"areaWater":0},"geometry":{"type":"Polygon","coordinates":[[[144.71024,13.47204],[144.7105,13.46902],[144.71777,13.46982],[144.72272,13.47272],[144.72344,13.4761],[144.71024,13.47204]]]}},{"type":"Feature","id":"place:6615800","properties":{"geoid":"6615800","name":"Astumbo","displayName":"Astumbo CDP","type":"CDP","state":"GU","stateName":"Guam","lsad":"57","sourceType":"place","priority":2,"areaLand":3515242,"areaWater":0},"geometry":{"type":"Polygon","coordinates":[[[144.83331,13.54221],[144.85427,13.54153],[144.85498,13.55749],[144.84073,13.55753],[144.83331,13.54221]]]}},{"type":"Feature","id":"place:6617000","properties":{"geoid":"6617000","name":"Barrigada","displayName":"Barrigada CDP","type":"CDP","state":"GU","stateName":"Guam","lsad":"57","sourceType":"place","priority":2,"areaLand":2717323,"areaWater":0},"geometry":{"type":"Polygon","coordinates":[[[144.79009,13.4604],[144.78961,13.45765],[144.79296,13.45537],[144.79408,13.4576],[144.8076,13.4571],[144.80741,13.46925],[144.79195,13.47295],[144.79009,13.4604]]]}},{"type":"Feature","id":"place:6618300","properties":{"geoid":"6618300","name":"Barrigada Heights","displayName":"Barrigada Heights CDP","type":"CDP","state":"GU","stateName":"Guam","lsad":"57","sourceType":"place","priority":2,"areaLand":2938844,"areaWater":0},"geometry":{"type":"Polygon","coordinates":[[[144.81381,13.4834],[144.83284,13.48398],[144.83463,13.49975],[144.82508,13.49924],[144.82351,13.50119],[144.82019,13.49848],[144.82213,13.4947],[144.81487,13.49127],[144.81674,13.48654],[144.81381,13.4834]]]}},{"type":"Feature","id":"place:6624500","properties":{"geoid":"6624500","name":"Chaguian","displayName":"Chaguian CDP","type":"CDP","state":"GU","stateName":"Guam","lsad":"57","sourceType":"place","priority":2,"areaLand":7405902,"areaWater":0},"geometry":{"type":"Polygon","coordinates":[[[144.87276,13.58524],[144.87345,13.57708],[144.87586,13.57562],[144.87623,13.55525],[144.89058,13.55524],[144.89448,13.55152],[144.8994,13.56438],[144.89641,13.57324],[144.88918,13.58246],[144.87841,13.58542],[144.87276,13.58524]]]}},{"type":"Feature","id":"place:6625450","properties":{"geoid":"6625450","name":"Chalan Pago","displayName":"Chalan Pago CDP","type":"CDP","state":"GU","stateName":"Guam","lsad":"57","sourceType":"place","priority":2,"areaLand":6742137,"areaWater":0},"geometry":{"type":"Polygon","coordinates":[[[144.76296,13.43686],[144.7623,13.43278],[144.76565,13.42648],[144.7691,13.42653],[144.76949,13.42421],[144.77513,13.42369],[144.77475,13.4227],[144.77824,13.42188],[144.77788,13.4202],[144.78191,13.42296],[144.78395,13.42163],[144.78588,13.42422],[144.79278,13.42651],[144.79255,13.4379],[144.78959,13.44068],[144.78575,13.44088],[144.78504,13.44714],[144.78291,13.44498],[144.76974,13.44564],[144.76784,13.44162],[144.76247,13.43884],[144.76296,13.43686]]]}},{"type":"Feature","id":"place:6627400","properties":{"geoid":"6627400","name":"Dededo","displayName":"Dededo CDP","type":"CDP","state":"GU","stateName":"Guam","lsad":"57","sourceType":"place","priority":2,"areaLand":3275820,"areaWater":0},"geometry":{"type":"Polygon","coordinates":[[[144.82344,13.52364],[144.83475,13.5155],[144.84365,13.51434],[144.84824,13.52814],[144.83025,13.5315],[144.82812,13.52874],[144.82554,13.52854],[144.82344,13.52364]]]}},{"type":"Feature","id":"place:6629350","properties":{"geoid":"6629350","name":"Finegayan Station","displayName":"Finegayan Station CDP","type":"CDP","state":"GU","stateName":"Guam","lsad":"57","sourceType":"place","priority":2,"areaLand":13000454,"areaWater":0},"geometry":{"type":"MultiPolygon","coordinates":[[[[144.82355,13.57161],[144.83303,13.56543],[144.83255,13.56401],[144.83873,13.56657],[144.8437,13.56317],[144.84984,13.57479],[144.85869,13.5857],[144.86328,13.58851],[144.86717,13.58873],[144.86063,13.59829],[144.83676,13.5981],[144.83596,13.59122],[144.831,13.58214],[144.83182,13.57859],[144.83068,13.57625],[144.82871,13.5762],[144.82355,13.57161]]],[[[144.81215,13.55271],[144.81133,13.55124],[144.83249,13.54014],[144.83732,13.55165],[144.8194,13.56329],[144.81724,13.55829],[144.81197,13.55473],[144.81215,13.55271]]]]}},{"type":"Feature","id":"place:6634650","properties":{"geoid":"6634650","name":"H\u00e5gat","displayName":"H\u00e5gat CDP","type":"CDP","state":"GU","stateName":"Guam","lsad":"57","sourceType":"place","priority":2,"areaLand":4206438,"areaWater":2939},"geometry":{"type":"Polygon","coordinates":[[[144.65192,13.37817],[144.65236,13.37283],[144.65491,13.36928],[144.6687,13.36938],[144.66954,13.3812],[144.66604,13.3912],[144.66953,13.39236],[144.66771,13.39377],[144.66791,13.39715],[144.66422,13.40084],[144.65945,13.3893],[144.65589,13.3862],[144.65192,13.37817]]]}},{"type":"Feature","id":"place:6634750","properties":{"geoid":"6634750","name":"Hag\u00e5t\u00f1a","displayName":"Hag\u00e5t\u00f1a CDP","type":"CDP","state":"GU","stateName":"Guam","lsad":"57","sourceType":"place","priority":2,"areaLand":2453678,"areaWater":137543},"geometry":{"type":"Polygon","coordinates":[[[144.72857,13.48001],[144.73177,13.47803],[144.73114,13.47611],[144.73275,13.47488],[144.73824,13.47617],[144.74525,13.47499],[144.74733,13.47196],[144.75143,13.47028],[144.7522,13.46728],[144.75406,13.46751],[144.7581,13.46363],[144.76136,13.46658],[144.75837,13.47438],[144.75896,13.47685],[144.76281,13.47706],[144.7676,13.47998],[144.75461,13.47772],[144.75306,13.48097],[144.75077,13.47773],[144.74382,13.47762],[144.7387,13.47914],[144.73126,13.47863],[144.72927,13.48092],[144.72857,13.48001]]]}},{"type":"Feature","id":"place:6635000","properties":{"geoid":"6635000","name":"Harmon Industrial Park","displayName":"Harmon Industrial Park CDP","type":"CDP","state":"GU","stateName":"Guam","lsad":"57","sourceType":"place","priority":2,"areaLand":2754287,"areaWater":0},"geometry":{"type":"Polygon","coordinates":[[[144.79539,13.49651],[144.79424,13.49468],[144.79815,13.49158],[144.80043,13.49167],[144.81587,13.49881],[144.82012,13.49872],[144.8213,13.50513],[144.81973,13.50935],[144.80073,13.50251],[144.79539,13.49651]]]}},{"type":"Feature","id":"place:6635500","properties":{"geoid":"6635500","name":"Inal\u00e5han","displayName":"Inal\u00e5han CDP","type":"CDP","state":"GU","stateName":"Guam","lsad":"57","sourceType":"place","priority":2,"areaLand":6261197,"areaWater":0},"geometry":{"type":"Polygon","coordinates":[[[144.72255,13.27629],[144.7275,13.26792],[144.73266,13.26812],[144.73141,13.2658],[144.74111,13.26324],[144.74194,13.26606],[144.73755,13.26816],[144.75017,13.27268],[144.74756,13.27851],[144.74989,13.27911],[144.75443,13.27558],[144.75916,13.28059],[144.75406,13.28727],[144.73981,13.28971],[144.73772,13.28661],[144.73752,13.27887],[144.72623,13.28093],[144.72419,13.28283],[144.72255,13.27629]]]}},{"type":"Feature","id":"place:6635525","properties":{"geoid":"6635525","name":"Hum\u00e5tak","displayName":"Hum\u00e5tak CDP","type":"CDP","state":"GU","stateName":"Guam","lsad":"57","sourceType":"place","priority":2,"areaLand":1652194,"areaWater":0},"geometry":{"type":"Polygon","coordinates":[[[144.65752,13.29289],[144.65924,13.28683],[144.66244,13.28492],[144.6622,13.2837],[144.67154,13.29381],[144.66656,13.29796],[144.66969,13.30138],[144.65833,13.30009],[144.66272,13.29891],[144.66292,13.29761],[144.65752,13.29289]]]}},{"type":"Feature","id":"place:6636600","properties":{"geoid":"6636600","name":"Ipan","displayName":"Ipan CDP","type":"CDP","state":"GU","stateName":"Guam","lsad":"57","sourceType":"place","priority":2,"areaLand":2473553,"areaWater":0},"geometry":{"type":"Polygon","coordinates":[[[144.76115,13.35378],[144.76356,13.34671],[144.76758,13.34127],[144.77223,13.34169],[144.77168,13.36236],[144.77032,13.36566],[144.76866,13.36614],[144.76242,13.36194],[144.76115,13.35378]]]}},{"type":"Feature","id":"place:6641300","properties":{"geoid":"6641300","name":"Liguan","displayName":"Liguan CDP","type":"CDP","state":"GU","stateName":"Guam","lsad":"57","sourceType":"place","priority":2,"areaLand":1922583,"areaWater":0},"geometry":{"type":"Polygon","coordinates":[[[144.81541,13.52114],[144.81975,13.50926],[144.83475,13.5155],[144.82344,13.52364],[144.81541,13.52114]]]}},{"type":"Feature","id":"place:6642470","properties":{"geoid":"6642470","name":"Machananao East","displayName":"Machananao East CDP","type":"CDP","state":"GU","stateName":"Guam","lsad":"57","sourceType":"place","priority":2,"areaLand":5293513,"areaWater":0},"geometry":{"type":"Polygon","coordinates":[[[144.86085,13.57637],[144.86485,13.57417],[144.86419,13.54879],[144.87737,13.54851],[144.87571,13.55864],[144.87586,13.57562],[144.87345,13.57708],[144.87181,13.58583],[144.86717,13.58873],[144.86328,13.58851],[144.86442,13.5845],[144.86254,13.58424],[144.86294,13.57739],[144.86085,13.57637]]]}},{"type":"Feature","id":"place:6642480","properties":{"geoid":"6642480","name":"Machananao West","displayName":"Machananao West CDP","type":"CDP","state":"GU","stateName":"Guam","lsad":"57","sourceType":"place","priority":2,"areaLand":2152342,"areaWater":0},"geometry":{"type":"Polygon","coordinates":[[[144.84984,13.57479],[144.84858,13.57252],[144.85349,13.56895],[144.85929,13.57033],[144.86433,13.56823],[144.86485,13.57417],[144.86085,13.57637],[144.86294,13.57739],[144.86254,13.58424],[144.86442,13.5845],[144.86328,13.58851],[144.85869,13.5857],[144.84984,13.57479]]]}},{"type":"Feature","id":"place:6642490","properties":{"geoid":"6642490","name":"Machanao","displayName":"Machanao CDP","type":"CDP","state":"GU","stateName":"Guam","lsad":"57","sourceType":"place","priority":2,"areaLand":3008054,"areaWater":0},"geometry":{"type":"Polygon","coordinates":[[[144.84073,13.55753],[144.86416,13.55749],[144.86433,13.56823],[144.85929,13.57033],[144.85349,13.56895],[144.84858,13.57252],[144.84073,13.55753]]]}},{"type":"Feature","id":"place:6643300","properties":{"geoid":"6643300","name":"Macheche","displayName":"Macheche CDP","type":"CDP","state":"GU","stateName":"Guam","lsad":"57","sourceType":"place","priority":2,"areaLand":3322880,"areaWater":0},"geometry":{"type":"Polygon","coordinates":[[[144.81975,13.50221],[144.82019,13.49848],[144.82351,13.50119],[144.82508,13.49924],[144.84226,13.49854],[144.8411,13.49958],[144.84049,13.51421],[144.83475,13.5155],[144.81975,13.50926],[144.8213,13.50513],[144.81975,13.50221]]]}},{"type":"Feature","id":"place:6643650","properties":{"geoid":"6643650","name":"Maina","displayName":"Maina CDP","type":"CDP","state":"GU","stateName":"Guam","lsad":"57","sourceType":"place","priority":2,"areaLand":2035263,"areaWater":0},"geometry":{"type":"Polygon","coordinates":[[[144.72291,13.47686],[144.7258,13.46994],[144.73127,13.46907],[144.73152,13.46634],[144.73534,13.46629],[144.73554,13.46107],[144.72881,13.45621],[144.73842,13.45943],[144.74217,13.46555],[144.74172,13.46852],[144.73114,13.47611],[144.73177,13.47803],[144.72864,13.47896],[144.72291,13.47686]]]}},{"type":"Feature","id":"place:6644300","properties":{"geoid":"6644300","name":"Maite","displayName":"Maite CDP","type":"CDP","state":"GU","stateName":"Guam","lsad":"57","sourceType":"place","priority":2,"areaLand":238415,"areaWater":0},"geometry":{"type":"Polygon","coordinates":[[[144.75896,13.47685],[144.75878,13.47519],[144.76859,13.47583],[144.7687,13.47949],[144.75896,13.47685]]]}},{"type":"Feature","id":"place:6644400","properties":{"geoid":"6644400","name":"Malesso'","displayName":"Malesso' CDP","type":"CDP","state":"GU","stateName":"Guam","lsad":"57","sourceType":"place","priority":2,"areaLand":8352393,"areaWater":0},"geometry":{"type":"Polygon","coordinates":[[[144.66249,13.27348],[144.66189,13.27142],[144.66461,13.26766],[144.67339,13.26262],[144.67434,13.25794],[144.67732,13.25459],[144.68235,13.25437],[144.68672,13.25646],[144.68905,13.25101],[144.69444,13.2503],[144.69526,13.25254],[144.69125,13.25954],[144.69169,13.26424],[144.68875,13.26609],[144.68799,13.27588],[144.68924,13.28013],[144.67882,13.28387],[144.67889,13.28683],[144.67318,13.28356],[144.66854,13.28647],[144.66305,13.28565],[144.66205,13.28053],[144.66367,13.27506],[144.66249,13.27348]]]}},{"type":"Feature","id":"place:6644500","properties":{"geoid":"6644500","name":"Malojloj","displayName":"Malojloj CDP","type":"CDP","state":"GU","stateName":"Guam","lsad":"57","sourceType":"place","priority":2,"areaLand":7092818,"areaWater":0},"geometry":{"type":"Polygon","coordinates":[[[144.75211,13.30058],[144.75348,13.29418],[144.76438,13.29019],[144.76907,13.29583],[144.77239,13.30645],[144.77126,13.3356],[144.76772,13.33424],[144.76432,13.32954],[144.76039,13.3273],[144.75545,13.31394],[144.75768,13.30796],[144.75654,13.30266],[144.75211,13.30058]]]}},{"type":"Feature","id":"place:6645600","properties":{"geoid":"6645600","name":"Mangilao","displayName":"Mangilao CDP","type":"CDP","state":"GU","stateName":"Guam","lsad":"57","sourceType":"place","priority":2,"areaLand":6393667,"areaWater":0},"geometry":{"type":"Polygon","coordinates":[[[144.78132,13.46126],[144.78406,13.45887],[144.78575,13.44088],[144.78959,13.44068],[144.79255,13.4379],[144.79732,13.4389],[144.80032,13.44153],[144.80985,13.44164],[144.81657,13.43998],[144.81995,13.44236],[144.82593,13.44276],[144.82168,13.45011],[144.80737,13.44975],[144.8076,13.4571],[144.79408,13.4576],[144.79296,13.45537],[144.78439,13.46171],[144.78132,13.46126]]]}},{"type":"Feature","id":"place:6647800","properties":{"geoid":"6647800","name":"Mataguac","displayName":"Mataguac CDP","type":"CDP","state":"GU","stateName":"Guam","lsad":"57","sourceType":"place","priority":2,"areaLand":4975374,"areaWater":0},"geometry":{"type":"Polygon","coordinates":[[[144.87489,13.5304],[144.87605,13.52126],[144.88042,13.52285],[144.88426,13.52681],[144.89448,13.55152],[144.89058,13.55524],[144.87623,13.55525],[144.87779,13.54592],[144.87489,13.5304]]]}},{"type":"Feature","id":"place:6650500","properties":{"geoid":"6650500","name":"Mogfog","displayName":"Mogfog CDP","type":"CDP","state":"GU","stateName":"Guam","lsad":"57","sourceType":"place","priority":2,"areaLand":1598161,"areaWater":0},"geometry":{"type":"Polygon","coordinates":[[[144.84049,13.51421],[144.8411,13.49958],[144.84226,13.49854],[144.8486,13.49764],[144.85691,13.49958],[144.85706,13.50391],[144.85073,13.50203],[144.85066,13.50384],[144.84583,13.50395],[144.84583,13.51445],[144.84049,13.51421]]]}},{"type":"Feature","id":"place:6650800","properties":{"geoid":"6650800","name":"Mongmong","displayName":"Mongmong CDP","type":"CDP","state":"GU","stateName":"Guam","lsad":"57","sourceType":"place","priority":2,"areaLand":2234238,"areaWater":0},"geometry":{"type":"Polygon","coordinates":[[[144.7587,13.47507],[144.76136,13.46658],[144.7634,13.46736],[144.77259,13.46036],[144.77799,13.46861],[144.77563,13.46866],[144.77669,13.47184],[144.77547,13.47575],[144.7587,13.47507]]]}},{"type":"Feature","id":"place:6652200","properties":{"geoid":"6652200","name":"Naval Hospital","displayName":"Naval Hospital CDP","type":"CDP","state":"GU","stateName":"Guam","lsad":"57","sourceType":"place","priority":2,"areaLand":505230,"areaWater":0},"geometry":{"type":"Polygon","coordinates":[[[144.73305,13.47588],[144.73323,13.47442],[144.7379,13.47195],[144.74733,13.47196],[144.74383,13.47542],[144.73305,13.47588]]]}},{"type":"Feature","id":"place:6652500","properties":{"geoid":"6652500","name":"Nimitz Hill","displayName":"Nimitz Hill CDP","type":"CDP","state":"GU","stateName":"Guam","lsad":"57","sourceType":"place","priority":2,"areaLand":379985,"areaWater":0},"geometry":{"type":"Polygon","coordinates":[[[144.70373,13.46548],[144.70472,13.45673],[144.70797,13.45564],[144.70742,13.46335],[144.70471,13.46609],[144.70373,13.46548]]]}},{"type":"Feature","id":"place:6652750","properties":{"geoid":"6652750","name":"Nimitz Hill Annex","displayName":"Nimitz Hill Annex CDP","type":"CDP","state":"GU","stateName":"Guam","lsad":"57","sourceType":"place","priority":2,"areaLand":3342957,"areaWater":0},"geometry":{"type":"Polygon","coordinates":[[[144.71226,13.45377],[144.71041,13.44936],[144.72644,13.44899],[144.72439,13.45534],[144.73412,13.45929],[144.73554,13.46107],[144.73534,13.46629],[144.73152,13.46634],[144.73127,13.46907],[144.72369,13.46932],[144.71639,13.45976],[144.71659,13.4554],[144.71226,13.45377]]]}},{"type":"Feature","id":"place:6653000","properties":{"geoid":"6653000","name":"North Gayinero","displayName":"North Gayinero CDP","type":"CDP","state":"GU","stateName":"Guam","lsad":"57","sourceType":"place","priority":2,"areaLand":6399008,"areaWater":0},"geometry":{"type":"Polygon","coordinates":[[[144.88819,13.53591],[144.89529,13.53556],[144.89768,13.53122],[144.90399,13.53079],[144.91022,13.5423],[144.91301,13.54386],[144.91648,13.5568],[144.89923,13.5634],[144.88819,13.53591]]]}},{"type":"Feature","id":"place:6654800","properties":{"geoid":"6654800","name":"Oka","displayName":"Oka CDP","type":"CDP","state":"GU","stateName":"Guam","lsad":"57","sourceType":"place","priority":2,"areaLand":1259005,"areaWater":0},"geometry":{"type":"Polygon","coordinates":[[[144.76912,13.49966],[144.76984,13.49796],[144.78172,13.4976],[144.78103,13.50393],[144.78522,13.50238],[144.78136,13.50798],[144.77519,13.50664],[144.76912,13.49966]]]}},{"type":"Feature","id":"place:6655350","properties":{"geoid":"6655350","name":"Ordot","displayName":"Ordot CDP","type":"CDP","state":"GU","stateName":"Guam","lsad":"57","sourceType":"place","priority":2,"areaLand":8011184,"areaWater":0},"geometry":{"type":"Polygon","coordinates":[[[144.74386,13.45638],[144.74039,13.45603],[144.7462,13.44693],[144.74314,13.44503],[144.74813,13.4443],[144.7475,13.43456],[144.75163,13.43472],[144.75409,13.43704],[144.75906,13.43548],[144.76173,13.43151],[144.76247,13.43884],[144.76784,13.44162],[144.76974,13.44564],[144.78291,13.44498],[144.78504,13.44714],[144.78406,13.45887],[144.77909,13.46197],[144.77259,13.46036],[144.76836,13.45698],[144.76656,13.45205],[144.75803,13.45622],[144.74386,13.45638]]]}},{"type":"Feature","id":"place:6656300","properties":{"geoid":"6656300","name":"Pagat","displayName":"Pagat CDP","type":"CDP","state":"GU","stateName":"Guam","lsad":"57","sourceType":"place","priority":2,"areaLand":8869972,"areaWater":0},"geometry":{"type":"Polygon","coordinates":[[[144.82485,13.45101],[144.82168,13.45011],[144.82593,13.44276],[144.83267,13.44811],[144.83449,13.45278],[144.84087,13.45897],[144.84598,13.46279],[144.85063,13.46338],[144.86506,13.47942],[144.86987,13.48267],[144.87087,13.48605],[144.86901,13.49055],[144.87084,13.49229],[144.87095,13.49623],[144.86141,13.49476],[144.85219,13.48716],[144.84954,13.48398],[144.84658,13.47327],[144.833,13.47299],[144.83298,13.46106],[144.82485,13.45101]]]}},{"type":"Feature","id":"place:6658600","properties":{"geoid":"6658600","name":"Piti","displayName":"Piti CDP","type":"CDP","state":"GU","stateName":"Guam","lsad":"57","sourceType":"place","priority":2,"areaLand":1108307,"areaWater":0},"geometry":{"type":"Polygon","coordinates":[[[144.68999,13.46014],[144.68939,13.45859],[144.69116,13.45803],[144.69775,13.45829],[144.69765,13.46085],[144.70064,13.46092],[144.7066,13.47154],[144.70253,13.46828],[144.69259,13.46506],[144.69171,13.46066],[144.68999,13.46014]]]}},{"type":"Feature","id":"place:6662825","properties":{"geoid":"6662825","name":"S\u00e5nta Rita-Sumai","displayName":"S\u00e5nta Rita-Sumai CDP","type":"CDP","state":"GU","stateName":"Guam","lsad":"57","sourceType":"place","priority":2,"areaLand":1042892,"areaWater":0},"geometry":{"type":"Polygon","coordinates":[[[144.66604,13.3912],[144.66954,13.3812],[144.6766,13.38458],[144.6771,13.39208],[144.66604,13.3912]]]}},{"type":"Feature","id":"place:6665100","properties":{"geoid":"6665100","name":"Sinajana","displayName":"Sinajana CDP","type":"CDP","state":"GU","stateName":"Guam","lsad":"57","sourceType":"place","priority":2,"areaLand":765524,"areaWater":0},"geometry":{"type":"Polygon","coordinates":[[[144.75216,13.45809],[144.7533,13.45629],[144.75803,13.45622],[144.7598,13.45435],[144.76086,13.4564],[144.75406,13.46751],[144.7522,13.46728],[144.75216,13.45809]]]}},{"type":"Feature","id":"place:6666800","properties":{"geoid":"6666800","name":"South Gayinero","displayName":"South Gayinero CDP","type":"CDP","state":"GU","stateName":"Guam","lsad":"57","sourceType":"place","priority":2,"areaLand":3183839,"areaWater":0},"geometry":{"type":"Polygon","coordinates":[[[144.88277,13.52476],[144.88283,13.50737],[144.89536,13.52393],[144.9021,13.52743],[144.90399,13.53079],[144.89768,13.53122],[144.89529,13.53556],[144.88819,13.53591],[144.88277,13.52476]]]}},{"type":"Feature","id":"place:6669000","properties":{"geoid":"6669000","name":"Talo'fo'fo","displayName":"Talo'fo'fo CDP","type":"CDP","state":"GU","stateName":"Guam","lsad":"57","sourceType":"place","priority":2,"areaLand":5085706,"areaWater":0},"geometry":{"type":"Polygon","coordinates":[[[144.74291,13.35068],[144.74776,13.34831],[144.75563,13.3374],[144.76707,13.33957],[144.76758,13.34127],[144.76111,13.35232],[144.76242,13.36194],[144.76106,13.3649],[144.75717,13.36759],[144.75779,13.372],[144.7553,13.37201],[144.7537,13.36862],[144.74802,13.36476],[144.7487,13.36358],[144.7472,13.36328],[144.74978,13.3599],[144.74356,13.3604],[144.74877,13.35412],[144.74291,13.35068]]]}},{"type":"Feature","id":"place:6670950","properties":{"geoid":"6670950","name":"Tamuning","displayName":"Tamuning CDP","type":"CDP","state":"GU","stateName":"Guam","lsad":"57","sourceType":"place","priority":2,"areaLand":2682410,"areaWater":0},"geometry":{"type":"Polygon","coordinates":[[[144.78171,13.50439],[144.78186,13.49658],[144.78558,13.48441],[144.80058,13.49077],[144.79424,13.49468],[144.7993,13.50148],[144.79607,13.50333],[144.78844,13.50132],[144.78171,13.50439]]]}},{"type":"Feature","id":"place:6673550","properties":{"geoid":"6673550","name":"Toto","displayName":"Toto CDP","type":"CDP","state":"GU","stateName":"Guam","lsad":"57","sourceType":"place","priority":2,"areaLand":1431423,"areaWater":0},"geometry":{"type":"Polygon","coordinates":[[[144.7741,13.46394],[144.77259,13.46036],[144.78439,13.46171],[144.78574,13.46612],[144.78025,13.47537],[144.77547,13.47575],[144.77669,13.47184],[144.77563,13.46866],[144.77799,13.46861],[144.7741,13.46394]]]}},{"type":"Feature","id":"place:6675500","properties":{"geoid":"6675500","name":"Tumon","displayName":"Tumon CDP","type":"CDP","state":"GU","stateName":"Guam","lsad":"57","sourceType":"place","priority":2,"areaLand":2616173,"areaWater":0},"geometry":{"type":"Polygon","coordinates":[[[144.78225,13.50803],[144.78522,13.50238],[144.78844,13.50132],[144.79607,13.50333],[144.7993,13.50148],[144.8084,13.50527],[144.81112,13.51424],[144.80938,13.51734],[144.81097,13.51956],[144.80932,13.52496],[144.80335,13.52606],[144.80359,13.5212],[144.80634,13.51953],[144.80069,13.50895],[144.79767,13.50633],[144.78974,13.50397],[144.78225,13.50803]]]}},{"type":"Feature","id":"place:6677200","properties":{"geoid":"6677200","name":"Ukudu","displayName":"Ukudu CDP","type":"CDP","state":"GU","stateName":"Guam","lsad":"57","sourceType":"place","priority":2,"areaLand":3173104,"areaWater":0},"geometry":{"type":"Polygon","coordinates":[[[144.82575,13.52945],[144.82812,13.52874],[144.83025,13.5315],[144.84824,13.52814],[144.85427,13.54153],[144.83322,13.54184],[144.82575,13.52945]]]}},{"type":"Feature","id":"place:6679600","properties":{"geoid":"6679600","name":"University of Guam","displayName":"University of Guam CDP","type":"CDP","state":"GU","stateName":"Guam","lsad":"57","sourceType":"place","priority":2,"areaLand":3021496,"areaWater":0},"geometry":{"type":"Polygon","coordinates":[[[144.79255,13.4379],[144.79278,13.42651],[144.79675,13.42836],[144.80514,13.42643],[144.8076,13.42744],[144.81004,13.43305],[144.81657,13.43998],[144.80985,13.44164],[144.80032,13.44153],[144.79732,13.4389],[144.79255,13.4379]]]}},{"type":"Feature","id":"place:6680100","properties":{"geoid":"6680100","name":"Upper Tumon","displayName":"Upper Tumon CDP","type":"CDP","state":"GU","stateName":"Guam","lsad":"57","sourceType":"place","priority":2,"areaLand":1136903,"areaWater":0},"geometry":{"type":"Polygon","coordinates":[[[144.8084,13.50527],[144.81973,13.50935],[144.81541,13.52114],[144.8126,13.51955],[144.8084,13.50527]]]}},{"type":"Feature","id":"place:6681600","properties":{"geoid":"6681600","name":"Windward Hills","displayName":"Windward Hills CDP","type":"CDP","state":"GU","stateName":"Guam","lsad":"57","sourceType":"place","priority":2,"areaLand":10546143,"areaWater":2217},"geometry":{"type":"Polygon","coordinates":[[[144.7348,13.37607],[144.73204,13.37004],[144.75254,13.36837],[144.7553,13.37201],[144.75779,13.372],[144.76128,13.36982],[144.7651,13.37023],[144.76804,13.36571],[144.77032,13.36566],[144.77594,13.38903],[144.77035,13.39393],[144.76456,13.39432],[144.764,13.39177],[144.76243,13.39135],[144.7538,13.40063],[144.75133,13.39732],[144.75425,13.39292],[144.74851,13.38698],[144.73524,13.38784],[144.7348,13.37607]]]}},{"type":"Feature","id":"place:6681850","properties":{"geoid":"6681850","name":"Wusstig","displayName":"Wusstig CDP","type":"CDP","state":"GU","stateName":"Guam","lsad":"57","sourceType":"place","priority":2,"areaLand":3395022,"areaWater":0},"geometry":{"type":"Polygon","coordinates":[[[144.86369,13.51911],[144.86373,13.51727],[144.87605,13.52126],[144.87489,13.5304],[144.87737,13.54851],[144.87026,13.54876],[144.86988,13.53885],[144.8642,13.53893],[144.86634,13.53408],[144.86502,13.53269],[144.86369,13.51911]]]}},{"type":"Feature","id":"place:6683950","properties":{"geoid":"6683950","name":"Yona","displayName":"Yona CDP","type":"CDP","state":"GU","stateName":"Guam","lsad":"57","sourceType":"place","priority":2,"areaLand":6088877,"areaWater":2503},"geometry":{"type":"Polygon","coordinates":[[[144.76344,13.4038],[144.76421,13.40135],[144.76657,13.40356],[144.76812,13.40122],[144.76399,13.39848],[144.76456,13.39432],[144.77156,13.39305],[144.77268,13.39534],[144.77674,13.39576],[144.7808,13.39932],[144.78191,13.40176],[144.78099,13.40469],[144.78358,13.41039],[144.78716,13.41183],[144.78823,13.41544],[144.78522,13.41653],[144.78267,13.4228],[144.77788,13.4202],[144.77824,13.42188],[144.76949,13.42421],[144.7691,13.42653],[144.76649,13.42686],[144.76383,13.4209],[144.76372,13.4145],[144.76958,13.4117],[144.77022,13.40772],[144.7652,13.40725],[144.7654,13.40442],[144.76344,13.4038]]]}},{"type":"Feature","id":"place:6685000","properties":{"geoid":"6685000","name":"Y Papao","displayName":"Y Papao CDP","type":"CDP","state":"GU","stateName":"Guam","lsad":"57","sourceType":"place","priority":2,"areaLand":3408979,"areaWater":0},"geometry":{"type":"Polygon","coordinates":[[[144.84389,13.51558],[144.84365,13.51434],[144.85604,13.51497],[144.86373,13.51727],[144.86502,13.53269],[144.85745,13.53041],[144.84922,13.53036],[144.84389,13.51558]]]}},{"type":"Feature","id":"place:6686000","properties":{"geoid":"6686000","name":"Y Sengsong","displayName":"Y Sengsong CDP","type":"CDP","state":"GU","stateName":"Guam","lsad":"57","sourceType":"place","priority":2,"areaLand":4075955,"areaWater":0},"geometry":{"type":"Polygon","coordinates":[[[144.85427,13.54153],[144.84922,13.53036],[144.85745,13.53041],[144.86502,13.53269],[144.86634,13.53408],[144.8642,13.53893],[144.86988,13.53885],[144.87026,13.54876],[144.86419,13.54879],[144.86416,13.55749],[144.85498,13.55749],[144.85427,13.54153]]]}}]}