{"type":"FeatureCollection","features":[{"type":"Feature","id":"cousub:6908514075","properties":{"geoid":"6908514075","name":"4","displayName":"District 4","type":"Geographic Area","state":"MP","stateName":"Commonwealth of the Northern Mariana Islands","lsad":"28","sourceType":"county_subdivision","priority":1,"areaLand":160067128,"areaWater":345536,"county":"Northern Islands Municipality","countyGeoid":"69085"},"geometry":{"type":"MultiPolygon","coordinates":[[[[146.0513,16.00657],[146.05313,16.00592],[146.05526,16.01166],[146.06383,16.02244],[146.06452,16.02513],[146.06305,16.02765],[146.06177,16.02755],[146.05604,16.0152],[146.05379,16.01349],[146.0513,16.00657]]],[[[145.83238,17.31547],[145.8328,17.30378],[145.83858,17.29905],[145.84492,17.29708],[145.85213,17.30938],[145.85201,17.31095],[145.84795,17.31282],[145.8495,17.31727],[145.84004,17.32158],[145.83624,17.32089],[145.83238,17.31547]]],[[[145.81498,17.60405],[145.81591,17.5918],[145.82235,17.58641],[145.82533,17.58104],[145.83926,17.58031],[145.85048,17.59176],[145.85116,17.60178],[145.84812,17.60867],[145.84527,17.6124],[145.84002,17.61505],[145.83801,17.6192],[145.83231,17.62028],[145.8236,17.61805],[145.81498,17.60405]]],[[[145.7667,16.70526],[145.7669,16.70273],[145.77605,16.69398],[145.78722,16.69195],[145.78626,16.69692],[145.78919,16.70474],[145.78687,16.71202],[145.78146,16.71546],[145.78116,16.71708],[145.77812,16.71701],[145.77397,16.71212],[145.7699,16.71117],[145.7667,16.70526]]],[[[145.70791,18.04758],[145.7087,18.04522],[145.71115,18.04463],[145.729,18.04989],[145.73878,18.05839],[145.74303,18.06442],[145.74306,18.06712],[145.74539,18.06802],[145.74475,18.07209],[145.76065,18.0957],[145.76739,18.10303],[145.7764,18.10796],[145.78477,18.10947],[145.79492,18.10267],[145.79436,18.10803],[145.79892,18.11083],[145.80948,18.13233],[145.80946,18.14318],[145.80644,18.15662],[145.802,18.16242],[145.79499,18.16603],[145.79018,18.16568],[145.77743,18.16874],[145.77071,18.16778],[145.75917,18.15977],[145.75654,18.15591],[145.75562,18.14709],[145.7572,18.14387],[145.7614,18.14207],[145.76244,18.13562],[145.75818,18.12125],[145.75904,18.1081],[145.75653,18.09957],[145.73812,18.08522],[145.72912,18.08528],[145.72296,18.08206],[145.71696,18.0758],[145.7119,18.06208],[145.71295,18.05936],[145.71158,18.05832],[145.71126,18.05144],[145.70791,18.04758]]],[[[145.63631,18.77725],[145.63912,18.77162],[145.63804,18.7655],[145.64177,18.7583],[145.64069,18.75395],[145.64508,18.75059],[145.65124,18.74061],[145.6517,18.73694],[145.65473,18.73391],[145.66748,18.72637],[145.6701,18.7275],[145.67094,18.73223],[145.67644,18.73769],[145.68604,18.73774],[145.69056,18.74082],[145.69283,18.74605],[145.69153,18.74978],[145.69236,18.7567],[145.69569,18.75966],[145.69866,18.75974],[145.69952,18.76244],[145.69664,18.78945],[145.69073,18.79568],[145.68792,18.7953],[145.6779,18.8066],[145.66715,18.80801],[145.66122,18.81278],[145.65372,18.81066],[145.64971,18.80655],[145.64881,18.80119],[145.64178,18.79502],[145.64111,18.78694],[145.63814,18.78367],[145.63801,18.77951],[145.63631,18.77725]]],[[[145.6327,16.36647],[145.6345,16.36053],[145.6336,16.35015],[145.63682,16.34798],[145.63886,16.33977],[145.64396,16.33868],[145.64719,16.33253],[145.65696,16.33578],[145.66015,16.33547],[145.66282,16.33272],[145.66585,16.33508],[145.68068,16.33392],[145.69485,16.33503],[145.70246,16.33348],[145.71428,16.33767],[145.71874,16.34294],[145.72001,16.3487],[145.72384,16.35123],[145.72271,16.35927],[145.71145,16.36735],[145.70352,16.36966],[145.67976,16.36783],[145.66359,16.37039],[145.64836,16.3706],[145.64497,16.36894],[145.63596,16.36934],[145.6327,16.36647]]],[[[145.38957,19.69208],[145.39007,19.68459],[145.39974,19.67635],[145.40504,19.67619],[145.41101,19.67871],[145.41628,19.68441],[145.41807,19.69068],[145.41509,19.70131],[145.40647,19.70662],[145.40157,19.70692],[145.39251,19.69973],[145.38957,19.69208]]],[[[145.22772,20.01283],[145.22949,20.01205],[145.23873,20.02017],[145.23345,20.02826],[145.2306,20.02376],[145.23081,20.01894],[145.22772,20.01283]]],[[[145.21534,20.03311],[145.21535,20.0317],[145.21848,20.0304],[145.22938,20.03082],[145.22972,20.03188],[145.22066,20.03558],[145.21534,20.03311]]],[[[145.20774,20.01971],[145.2073,20.01729],[145.21032,20.0124],[145.21669,20.01079],[145.21776,20.01213],[145.21637,20.01433],[145.21154,20.01759],[145.21059,20.02027],[145.21045,20.02616],[145.21225,20.03009],[145.21071,20.03088],[145.2089,20.02839],[145.20774,20.01971]]],[[[144.88692,20.54417],[144.88751,20.53817],[144.8943,20.5365],[144.89756,20.53771],[144.90291,20.54574],[144.90177,20.54888],[144.89685,20.54911],[144.89338,20.55325],[144.88741,20.55007],[144.88692,20.54417]]]]}},{"type":"Feature","id":"cousub:6910014290","properties":{"geoid":"6910014290","name":"7","displayName":"District 7","type":"Geographic Area","state":"MP","stateName":"Commonwealth of the Northern Mariana Islands","lsad":"28","sourceType":"county_subdivision","priority":1,"areaLand":85096796,"areaWater":19201,"county":"Rota Municipality","countyGeoid":"69100"},"geometry":{"type":"Polygon","coordinates":[[[145.12116,14.12064],[145.12276,14.11744],[145.12819,14.12079],[145.13745,14.13456],[145.14423,14.13958],[145.1518,14.13781],[145.16458,14.13024],[145.16936,14.11902],[145.16714,14.11224],[145.16989,14.11057],[145.17569,14.11106],[145.17894,14.1147],[145.18415,14.11618],[145.19526,14.11519],[145.1986,14.11274],[145.2047,14.11588],[145.21246,14.11529],[145.21876,14.12011],[145.22151,14.12601],[145.23085,14.13132],[145.22888,14.13515],[145.23012,14.14096],[145.24108,14.15137],[145.25248,14.15442],[145.26054,14.15472],[145.26713,14.15177],[145.26988,14.15216],[145.27598,14.15727],[145.28335,14.16068],[145.28434,14.17536],[145.29004,14.18628],[145.29,14.19],[145.28824,14.19235],[145.27559,14.19631],[145.26192,14.19906],[145.24127,14.20024],[145.22112,14.19051],[145.20303,14.17711],[145.19644,14.17409],[145.19054,14.1735],[145.17382,14.16701],[145.15968,14.16808],[145.15758,14.16361],[145.14561,14.15167],[145.14236,14.1442],[145.13292,14.13446],[145.12309,14.12719],[145.12116,14.12064]]]}},{"type":"Feature","id":"cousub:6911013750","properties":{"geoid":"6911013750","name":"1","displayName":"District 1","type":"Geographic Area","state":"MP","stateName":"Commonwealth of the Northern Mariana Islands","lsad":"28","sourceType":"county_subdivision","priority":1,"areaLand":25979969,"areaWater":0,"county":"Saipan Municipality","countyGeoid":"69110"},"geometry":{"type":"Polygon","coordinates":[[[145.69014,15.1202],[145.69668,15.11794],[145.70502,15.11234],[145.70808,15.10603],[145.7155,15.1064],[145.71739,15.10783],[145.74065,15.1051],[145.74516,15.09993],[145.74684,15.0929],[145.74881,15.09192],[145.7511,15.09533],[145.75266,15.10661],[145.7563,15.11274],[145.75684,15.11914],[145.75473,15.12334],[145.74911,15.12476],[145.74566,15.12791],[145.74148,15.13519],[145.74084,15.13924],[145.74823,15.15443],[145.7452,15.15519],[145.74254,15.15814],[145.73732,15.15141],[145.73323,15.14942],[145.71824,15.15455],[145.70997,15.14616],[145.71594,15.14332],[145.72266,15.14289],[145.72024,15.13647],[145.71242,15.13025],[145.70069,15.14197],[145.70114,15.14435],[145.69923,15.14471],[145.69237,15.13046],[145.69355,15.12289],[145.69014,15.1202]]]}},{"type":"Feature","id":"cousub:6911013900","properties":{"geoid":"6911013900","name":"2","displayName":"District 2","type":"Geographic Area","state":"MP","stateName":"Commonwealth of the Northern Mariana Islands","lsad":"28","sourceType":"county_subdivision","priority":1,"areaLand":4100936,"areaWater":185857,"county":"Saipan Municipality","countyGeoid":"69110"},"geometry":{"type":"Polygon","coordinates":[[[145.70011,15.14688],[145.69923,15.14471],[145.70114,15.14435],[145.70069,15.14197],[145.71242,15.13025],[145.72024,15.13647],[145.72266,15.14289],[145.71594,15.14332],[145.70997,15.14616],[145.71218,15.14975],[145.71409,15.14978],[145.71384,15.15288],[145.70539,15.16125],[145.70024,15.15677],[145.70011,15.14688]]]}},{"type":"Feature","id":"cousub:6911014050","properties":{"geoid":"6911014050","name":"3","displayName":"District 3","type":"Geographic Area","state":"MP","stateName":"Commonwealth of the Northern Mariana Islands","lsad":"28","sourceType":"county_subdivision","priority":1,"areaLand":24850893,"areaWater":0,"county":"Saipan Municipality","countyGeoid":"69110"},"geometry":{"type":"MultiPolygon","coordinates":[[[[145.71158,15.24227],[145.71306,15.24001],[145.71373,15.24111],[145.71158,15.24227]]],[[[145.70814,15.16432],[145.70539,15.16125],[145.71245,15.15505],[145.71409,15.14978],[145.71824,15.15455],[145.72137,15.15269],[145.72255,15.15362],[145.72006,15.15669],[145.72255,15.16003],[145.72463,15.15879],[145.72892,15.16762],[145.74117,15.18551],[145.75073,15.18546],[145.75297,15.19338],[145.7583,15.19437],[145.75785,15.20081],[145.75276,15.20703],[145.75405,15.20976],[145.75043,15.2154],[145.75055,15.22176],[145.74888,15.22511],[145.74661,15.22208],[145.74401,15.22566],[145.74924,15.231],[145.74697,15.23636],[145.74482,15.23303],[145.73985,15.23132],[145.74047,15.22898],[145.73846,15.22629],[145.73505,15.22711],[145.73226,15.22498],[145.73051,15.22236],[145.73146,15.21987],[145.72958,15.21862],[145.7219,15.21688],[145.71863,15.21964],[145.71571,15.21683],[145.71703,15.19599],[145.70814,15.16432]]]]}},{"type":"Feature","id":"cousub:6911014150","properties":{"geoid":"6911014150","name":"4","displayName":"District 4","type":"Geographic Area","state":"MP","stateName":"Commonwealth of the Northern Mariana Islands","lsad":"28","sourceType":"county_subdivision","priority":1,"areaLand":39666873,"areaWater":0,"county":"Saipan Municipality","countyGeoid":"69110"},"geometry":{"type":"MultiPolygon","coordinates":[[[[145.81307,15.25791],[145.81434,15.2566],[145.81449,15.25819],[145.81307,15.25791]]],[[[145.74523,15.22586],[145.74401,15.22566],[145.74613,15.2222],[145.74888,15.22511],[145.75055,15.22176],[145.75043,15.2154],[145.75405,15.20976],[145.75276,15.20703],[145.75785,15.20081],[145.7583,15.19437],[145.76323,15.19366],[145.76383,15.19626],[145.76783,15.19765],[145.77198,15.19541],[145.77429,15.19988],[145.7814,15.19979],[145.7817,15.20355],[145.77874,15.2089],[145.78226,15.21582],[145.79268,15.22796],[145.7984,15.22907],[145.80249,15.23642],[145.80642,15.23706],[145.80983,15.24077],[145.80735,15.24412],[145.8083,15.24835],[145.81165,15.25271],[145.8107,15.25869],[145.81484,15.26141],[145.82462,15.25908],[145.82816,15.26153],[145.83042,15.26988],[145.82984,15.2729],[145.82639,15.2749],[145.81888,15.28649],[145.81568,15.2865],[145.8102,15.28968],[145.78652,15.26669],[145.78275,15.26166],[145.78178,15.2571],[145.7775,15.25291],[145.76952,15.25009],[145.7687,15.24797],[145.76258,15.24464],[145.75557,15.24352],[145.74714,15.23724],[145.74924,15.231],[145.74523,15.22586]]]]}},{"type":"Feature","id":"cousub:6911014200","properties":{"geoid":"6911014200","name":"5","displayName":"District 5","type":"Geographic Area","state":"MP","stateName":"Commonwealth of the Northern Mariana Islands","lsad":"28","sourceType":"county_subdivision","priority":1,"areaLand":24292319,"areaWater":0,"county":"Saipan Municipality","countyGeoid":"69110"},"geometry":{"type":"MultiPolygon","coordinates":[[[[145.79001,15.15063],[145.79011,15.14932],[145.7926,15.14952],[145.79094,15.15151],[145.79001,15.15063]]],[[[145.72006,15.15669],[145.72294,15.15317],[145.73323,15.14942],[145.73732,15.15141],[145.74254,15.15814],[145.7452,15.15519],[145.74823,15.15443],[145.74954,15.15899],[145.75178,15.16056],[145.76154,15.16363],[145.76748,15.1619],[145.77035,15.15548],[145.77457,15.1515],[145.78014,15.15056],[145.78293,15.15197],[145.78828,15.15048],[145.78818,15.15426],[145.79128,15.15659],[145.79207,15.16352],[145.79612,15.16686],[145.78676,15.17339],[145.78431,15.17886],[145.78454,15.18199],[145.78163,15.18286],[145.77811,15.18936],[145.77752,15.19418],[145.7814,15.19979],[145.77429,15.19988],[145.77198,15.19541],[145.76783,15.19765],[145.76383,15.19626],[145.76323,15.19366],[145.75297,15.19338],[145.75073,15.18546],[145.74117,15.18551],[145.72892,15.16762],[145.72463,15.15879],[145.72255,15.16003],[145.72006,15.15669]]]]}},{"type":"Feature","id":"cousub:6912014270","properties":{"geoid":"6912014270","name":"6","displayName":"District 6","type":"Geographic Area","state":"MP","stateName":"Commonwealth of the Northern Mariana Islands","lsad":"28","sourceType":"county_subdivision","priority":1,"areaLand":108237606,"areaWater":1336357,"county":"Tinian Municipality","countyGeoid":"69120"},"geometry":{"type":"MultiPolygon","coordinates":[[[[145.58241,15.01778],[145.58401,15.01388],[145.58766,15.01241],[145.58874,15.00952],[145.58489,14.9959],[145.59258,14.99001],[145.59639,14.98979],[145.6031,14.99232],[145.60831,14.99108],[145.60894,14.98594],[145.61301,14.98132],[145.61343,14.97137],[145.6223,14.96454],[145.62593,14.96509],[145.63175,14.9541],[145.63179,14.95058],[145.62854,14.94337],[145.63092,14.92796],[145.63436,14.9232],[145.63908,14.92271],[145.64225,14.92426],[145.65231,14.9377],[145.65136,14.94147],[145.6541,14.94558],[145.65995,14.94877],[145.66483,14.94828],[145.66545,14.94984],[145.66124,14.95842],[145.66152,14.96496],[145.66538,14.97066],[145.66382,14.97699],[145.66774,14.98261],[145.67357,15.00653],[145.66598,15.01803],[145.65934,15.01798],[145.6558,15.02034],[145.64861,15.03361],[145.64695,15.04184],[145.64778,15.0468],[145.6557,15.05318],[145.65882,15.05784],[145.65494,15.06757],[145.6572,15.08181],[145.65442,15.08978],[145.64794,15.09813],[145.64381,15.10072],[145.63264,15.08758],[145.61804,15.07639],[145.60261,15.0574],[145.59682,15.05348],[145.59899,15.05042],[145.59685,15.04063],[145.59202,15.03674],[145.58893,15.03686],[145.58241,15.01778]]],[[[145.53743,14.8456],[145.53939,14.84179],[145.54548,14.84041],[145.55549,14.84396],[145.5625,14.84398],[145.57692,14.85419],[145.57834,14.8631],[145.57724,14.8649],[145.57314,14.8661],[145.54538,14.8553],[145.54072,14.85286],[145.53743,14.8456]]]]}},{"type":"Feature","id":"place:6900300","properties":{"geoid":"6900300","name":"Achugao","displayName":"Achugao Village","type":"Village","state":"MP","stateName":"Commonwealth of the Northern Mariana Islands","lsad":"47","sourceType":"place","priority":5,"areaLand":566774,"areaWater":0},"geometry":{"type":"Polygon","coordinates":[[[145.76133,15.24444],[145.76386,15.23908],[145.77163,15.24411],[145.76827,15.24773],[145.76133,15.24444]]]}},{"type":"Feature","id":"place:6900400","properties":{"geoid":"6900400","name":"Afatung","displayName":"Afatung Village","type":"Village","state":"MP","stateName":"Commonwealth of the Northern Mariana Islands","lsad":"47","sourceType":"place","priority":5,"areaLand":2808955,"areaWater":0},"geometry":{"type":"Polygon","coordinates":[[[145.2042,14.12261],[145.20607,14.11975],[145.21115,14.11965],[145.21632,14.12733],[145.22038,14.12855],[145.2225,14.13138],[145.22422,14.13851],[145.21683,14.13893],[145.21498,14.14204],[145.21006,14.13952],[145.20471,14.14032],[145.20966,14.13745],[145.20977,14.13205],[145.2042,14.12261]]]}},{"type":"Feature","id":"place:6900450","properties":{"geoid":"6900450","name":"Afetnas","displayName":"Afetnas Village","type":"Village","state":"MP","stateName":"Commonwealth of the Northern Mariana Islands","lsad":"47","sourceType":"place","priority":5,"areaLand":676841,"areaWater":0},"geometry":{"type":"Polygon","coordinates":[[[145.69419,15.12581],[145.6965,15.12071],[145.69742,15.12405],[145.70432,15.12634],[145.6974,15.13355],[145.69419,15.12581]]]}},{"type":"Feature","id":"place:6900500","properties":{"geoid":"6900500","name":"Agatasi (Payapai)","displayName":"Agatasi (Payapai) Village","type":"Village","state":"MP","stateName":"Commonwealth of the Northern Mariana Islands","lsad":"47","sourceType":"place","priority":5,"areaLand":1749548,"areaWater":0},"geometry":{"type":"Polygon","coordinates":[[[145.20961,14.11639],[145.21246,14.11529],[145.21512,14.11657],[145.21876,14.12011],[145.22151,14.12601],[145.23085,14.13132],[145.229,14.13425],[145.22967,14.13918],[145.22422,14.13851],[145.2225,14.13138],[145.21218,14.12253],[145.20961,14.11639]]]}},{"type":"Feature","id":"place:6900600","properties":{"geoid":"6900600","name":"Agingan","displayName":"Agingan Village","type":"Village","state":"MP","stateName":"Commonwealth of the Northern Mariana Islands","lsad":"47","sourceType":"place","priority":5,"areaLand":1128147,"areaWater":0},"geometry":{"type":"Polygon","coordinates":[[[145.69014,15.1202],[145.69668,15.11794],[145.70502,15.11234],[145.70793,15.1061],[145.71146,15.11213],[145.70414,15.11737],[145.70217,15.12169],[145.69769,15.12017],[145.69392,15.12459],[145.69014,15.1202]]]}},{"type":"Feature","id":"place:6901100","properties":{"geoid":"6901100","name":"Agrihan","displayName":"Agrihan Village","type":"Village","state":"MP","stateName":"Commonwealth of the Northern Mariana Islands","lsad":"47","sourceType":"place","priority":5,"areaLand":44059451,"areaWater":0},"geometry":{"type":"Polygon","coordinates":[[[145.63631,18.77725],[145.63912,18.77162],[145.63804,18.7655],[145.64177,18.7583],[145.64069,18.75395],[145.64508,18.75059],[145.65124,18.74061],[145.6517,18.73694],[145.65473,18.73391],[145.66748,18.72637],[145.6701,18.7275],[145.67094,18.73223],[145.67644,18.73769],[145.68604,18.73774],[145.69056,18.74082],[145.69283,18.74605],[145.69153,18.74978],[145.69236,18.7567],[145.69569,18.75966],[145.69866,18.75974],[145.69952,18.76244],[145.69664,18.78945],[145.69073,18.79568],[145.68792,18.7953],[145.6779,18.8066],[145.66715,18.80801],[145.66122,18.81278],[145.65372,18.81066],[145.64971,18.80655],[145.64881,18.80119],[145.64178,18.79502],[145.64111,18.78694],[145.63814,18.78367],[145.63801,18.77951],[145.63631,18.77725]]]}},{"type":"Feature","id":"place:6901150","properties":{"geoid":"6901150","name":"Aguijan","displayName":"Aguijan Village","type":"Village","state":"MP","stateName":"Commonwealth of the Northern Mariana Islands","lsad":"47","sourceType":"place","priority":5,"areaLand":7013120,"areaWater":0},"geometry":{"type":"Polygon","coordinates":[[[145.53743,14.8456],[145.53939,14.84179],[145.54548,14.84041],[145.55549,14.84396],[145.5625,14.84398],[145.57692,14.85419],[145.57834,14.8631],[145.57724,14.8649],[145.57314,14.8661],[145.54538,14.8553],[145.54072,14.85286],[145.53743,14.8456]]]}},{"type":"Feature","id":"place:6901170","properties":{"geoid":"6901170","name":"Agusan","displayName":"Agusan Village","type":"Village","state":"MP","stateName":"Commonwealth of the Northern Mariana Islands","lsad":"47","sourceType":"place","priority":5,"areaLand":882719,"areaWater":0},"geometry":{"type":"Polygon","coordinates":[[[145.21985,14.18702],[145.22295,14.1857],[145.22872,14.18744],[145.23287,14.19173],[145.23185,14.1961],[145.22043,14.1901],[145.21985,14.18702]]]}},{"type":"Feature","id":"place:6901200","properties":{"geoid":"6901200","name":"Alaguan","displayName":"Alaguan Village","type":"Village","state":"MP","stateName":"Commonwealth of the Northern Mariana Islands","lsad":"47","sourceType":"place","priority":5,"areaLand":914867,"areaWater":0},"geometry":{"type":"Polygon","coordinates":[[[145.22501,14.13987],[145.22422,14.13851],[145.22931,14.1384],[145.23012,14.14096],[145.23761,14.14813],[145.23187,14.15158],[145.23009,14.151],[145.22872,14.14661],[145.22492,14.14313],[145.22501,14.13987]]]}},{"type":"Feature","id":"place:6901220","properties":{"geoid":"6901220","name":"Alamagan","displayName":"Alamagan Village","type":"Village","state":"MP","stateName":"Commonwealth of the Northern Mariana Islands","lsad":"47","sourceType":"place","priority":5,"areaLand":12960100,"areaWater":0},"geometry":{"type":"Polygon","coordinates":[[[145.81498,17.60405],[145.81591,17.5918],[145.82235,17.58641],[145.82533,17.58104],[145.83926,17.58031],[145.85048,17.59176],[145.85116,17.60178],[145.84812,17.60867],[145.84527,17.6124],[145.84002,17.61505],[145.83801,17.6192],[145.83231,17.62028],[145.8236,17.61805],[145.81498,17.60405]]]}},{"type":"Feature","id":"place:6901250","properties":{"geoid":"6901250","name":"American Memorial Park","displayName":"American Memorial Park Village","type":"Village","state":"MP","stateName":"Commonwealth of the Northern Mariana Islands","lsad":"47","sourceType":"place","priority":5,"areaLand":569205,"areaWater":0},"geometry":{"type":"Polygon","coordinates":[[[145.71709,15.21924],[145.71624,15.21775],[145.72435,15.21254],[145.72937,15.21691],[145.72878,15.21824],[145.7219,15.21688],[145.72026,15.21943],[145.71709,15.21924]]]}},{"type":"Feature","id":"place:6901280","properties":{"geoid":"6901280","name":"Anatahan","displayName":"Anatahan Village","type":"Village","state":"MP","stateName":"Commonwealth of the Northern Mariana Islands","lsad":"47","sourceType":"place","priority":5,"areaLand":33903507,"areaWater":0},"geometry":{"type":"Polygon","coordinates":[[[145.6327,16.36647],[145.6345,16.36053],[145.6336,16.35015],[145.63682,16.34798],[145.63886,16.33977],[145.64396,16.33868],[145.64719,16.33253],[145.65696,16.33578],[145.66015,16.33547],[145.66282,16.33272],[145.66585,16.33508],[145.68068,16.33392],[145.69485,16.33503],[145.70246,16.33348],[145.71428,16.33767],[145.71874,16.34294],[145.72001,16.3487],[145.72384,16.35123],[145.72271,16.35927],[145.71145,16.36735],[145.70352,16.36966],[145.67976,16.36783],[145.66359,16.37039],[145.64836,16.3706],[145.64497,16.36894],[145.63596,16.36934],[145.6327,16.36647]]]}},{"type":"Feature","id":"place:6901300","properties":{"geoid":"6901300","name":"Annex F","displayName":"Annex F Village","type":"Village","state":"MP","stateName":"Commonwealth of the Northern Mariana Islands","lsad":"47","sourceType":"place","priority":5,"areaLand":114357,"areaWater":0},"geometry":{"type":"Polygon","coordinates":[[[145.14591,14.13897],[145.1515,14.13786],[145.14981,14.13832],[145.14891,14.1415],[145.14685,14.14111],[145.14591,14.13897]]]}},{"type":"Feature","id":"place:6901350","properties":{"geoid":"6901350","name":"Apanon","displayName":"Apanon Village","type":"Village","state":"MP","stateName":"Commonwealth of the Northern Mariana Islands","lsad":"47","sourceType":"place","priority":5,"areaLand":543465,"areaWater":0},"geometry":{"type":"Polygon","coordinates":[[[145.16785,14.11135],[145.17569,14.11106],[145.17894,14.1147],[145.18415,14.11618],[145.19015,14.1147],[145.19507,14.11614],[145.18593,14.1179],[145.17376,14.11353],[145.17072,14.11388],[145.16785,14.11135]]]}},{"type":"Feature","id":"place:6901400","properties":{"geoid":"6901400","name":"As Akina","displayName":"As Akina Village","type":"Village","state":"MP","stateName":"Commonwealth of the Northern Mariana Islands","lsad":"47","sourceType":"place","priority":5,"areaLand":4075807,"areaWater":0},"geometry":{"type":"Polygon","coordinates":[[[145.7495,15.22763],[145.75634,15.22465],[145.75864,15.22173],[145.76414,15.22145],[145.78029,15.23544],[145.77163,15.24411],[145.7605,15.23722],[145.7495,15.22763]]]}},{"type":"Feature","id":"place:6901450","properties":{"geoid":"6901450","name":"As Akoddo","displayName":"As Akoddo Village","type":"Village","state":"MP","stateName":"Commonwealth of the Northern Mariana Islands","lsad":"47","sourceType":"place","priority":5,"areaLand":1876734,"areaWater":0},"geometry":{"type":"Polygon","coordinates":[[[145.15576,14.1524],[145.15607,14.14986],[145.1755,14.14994],[145.18392,14.15384],[145.18359,14.16171],[145.18001,14.15857],[145.1653,14.15439],[145.15977,14.15486],[145.15576,14.1524]]]}},{"type":"Feature","id":"place:6901500","properties":{"geoid":"6901500","name":"As Dudo","displayName":"As Dudo Village","type":"Village","state":"MP","stateName":"Commonwealth of the Northern Mariana Islands","lsad":"47","sourceType":"place","priority":5,"areaLand":1625708,"areaWater":0},"geometry":{"type":"Polygon","coordinates":[[[145.27513,14.18107],[145.27434,14.17218],[145.28415,14.16518],[145.28434,14.17536],[145.28706,14.18145],[145.27667,14.18256],[145.27513,14.18107]]]}},{"type":"Feature","id":"place:6901600","properties":{"geoid":"6901600","name":"As Falipe","displayName":"As Falipe Village","type":"Village","state":"MP","stateName":"Commonwealth of the Northern Mariana Islands","lsad":"47","sourceType":"place","priority":5,"areaLand":2205247,"areaWater":0},"geometry":{"type":"Polygon","coordinates":[[[145.72852,15.19315],[145.72852,15.18533],[145.74166,15.1855],[145.74221,15.19968],[145.73318,15.20062],[145.72852,15.19315]]]}},{"type":"Feature","id":"place:6901650","properties":{"geoid":"6901650","name":"As Gonna","displayName":"As Gonna Village","type":"Village","state":"MP","stateName":"Commonwealth of the Northern Mariana Islands","lsad":"47","sourceType":"place","priority":5,"areaLand":1452186,"areaWater":0},"geometry":{"type":"Polygon","coordinates":[[[145.70645,15.11741],[145.70555,15.11628],[145.71146,15.11213],[145.71419,15.11331],[145.72008,15.12089],[145.71769,15.12831],[145.70991,15.12506],[145.70889,15.12218],[145.71065,15.11852],[145.70645,15.11741]]]}},{"type":"Feature","id":"place:6901700","properties":{"geoid":"6901700","name":"As Lito","displayName":"As Lito Village","type":"Village","state":"MP","stateName":"Commonwealth of the Northern Mariana Islands","lsad":"47","sourceType":"place","priority":5,"areaLand":1515535,"areaWater":0},"geometry":{"type":"Polygon","coordinates":[[[145.71242,15.13025],[145.71769,15.12831],[145.71952,15.12405],[145.71898,15.12111],[145.72142,15.12096],[145.72606,15.12893],[145.72804,15.12966],[145.72846,15.13523],[145.72267,15.13558],[145.72077,15.138],[145.71242,15.13025]]]}},{"type":"Feature","id":"place:6901750","properties":{"geoid":"6901750","name":"As Mahetog","displayName":"As Mahetog Village","type":"Village","state":"MP","stateName":"Commonwealth of the Northern Mariana Islands","lsad":"47","sourceType":"place","priority":5,"areaLand":793173,"areaWater":0},"geometry":{"type":"Polygon","coordinates":[[[145.74853,15.22968],[145.7495,15.22763],[145.76386,15.23908],[145.76184,15.24257],[145.75619,15.23954],[145.74853,15.22968]]]}},{"type":"Feature","id":"place:6901800","properties":{"geoid":"6901800","name":"As Matuis","displayName":"As Matuis Village","type":"Village","state":"MP","stateName":"Commonwealth of the Northern Mariana Islands","lsad":"47","sourceType":"place","priority":5,"areaLand":534858,"areaWater":0},"geometry":{"type":"Polygon","coordinates":[[[145.78048,15.25334],[145.78294,15.24872],[145.78086,15.24662],[145.78462,15.24678],[145.79083,15.25339],[145.78048,15.25334]]]}},{"type":"Feature","id":"place:6901850","properties":{"geoid":"6901850","name":"As Niebes (Nieves)","displayName":"As Niebes (Nieves) Village","type":"Village","state":"MP","stateName":"Commonwealth of the Northern Mariana Islands","lsad":"47","sourceType":"place","priority":5,"areaLand":3663191,"areaWater":0},"geometry":{"type":"Polygon","coordinates":[[[145.2506,14.16931],[145.25585,14.16785],[145.25565,14.16171],[145.27044,14.16227],[145.27451,14.15629],[145.28188,14.15963],[145.28406,14.16226],[145.28345,14.1659],[145.27434,14.17218],[145.25283,14.17159],[145.2506,14.16931]]]}},{"type":"Feature","id":"place:6901900","properties":{"geoid":"6901900","name":"As Palacios","displayName":"As Palacios Village","type":"Village","state":"MP","stateName":"Commonwealth of the Northern Mariana Islands","lsad":"47","sourceType":"place","priority":5,"areaLand":483044,"areaWater":0},"geometry":{"type":"Polygon","coordinates":[[[145.72435,15.21254],[145.72671,15.20945],[145.73623,15.21934],[145.73439,15.22124],[145.72435,15.21254]]]}},{"type":"Feature","id":"place:6901950","properties":{"geoid":"6901950","name":"As Perdido","displayName":"As Perdido Village","type":"Village","state":"MP","stateName":"Commonwealth of the Northern Mariana Islands","lsad":"47","sourceType":"place","priority":5,"areaLand":568707,"areaWater":0},"geometry":{"type":"Polygon","coordinates":[[[145.70154,15.12909],[145.70432,15.12634],[145.71242,15.13025],[145.70769,15.1351],[145.70154,15.12909]]]}},{"type":"Feature","id":"place:6902000","properties":{"geoid":"6902000","name":"As Rabagau","displayName":"As Rabagau Village","type":"Village","state":"MP","stateName":"Commonwealth of the Northern Mariana Islands","lsad":"47","sourceType":"place","priority":5,"areaLand":1799212,"areaWater":0},"geometry":{"type":"Polygon","coordinates":[[[145.73503,15.2169],[145.73425,15.2139],[145.73659,15.21213],[145.7438,15.21158],[145.74572,15.21208],[145.74915,15.21856],[145.74401,15.22566],[145.74152,15.22601],[145.73439,15.22124],[145.73623,15.21934],[145.73503,15.2169]]]}},{"type":"Feature","id":"place:6902500","properties":{"geoid":"6902500","name":"As Teo","displayName":"As Teo Village","type":"Village","state":"MP","stateName":"Commonwealth of the Northern Mariana Islands","lsad":"47","sourceType":"place","priority":5,"areaLand":2410649,"areaWater":0},"geometry":{"type":"Polygon","coordinates":[[[145.75667,15.19092],[145.75686,15.18765],[145.75892,15.18919],[145.76686,15.18837],[145.76905,15.19311],[145.7742,15.19831],[145.7733,15.2032],[145.76294,15.20221],[145.76124,15.20416],[145.75915,15.20292],[145.75647,15.20366],[145.75838,15.19299],[145.75667,15.19092]]]}},{"type":"Feature","id":"place:6903000","properties":{"geoid":"6903000","name":"As Terlaje","displayName":"As Terlaje Village","type":"Village","state":"MP","stateName":"Commonwealth of the Northern Mariana Islands","lsad":"47","sourceType":"place","priority":5,"areaLand":377866,"areaWater":0},"geometry":{"type":"Polygon","coordinates":[[[145.72006,15.15669],[145.72545,15.15241],[145.72785,15.15578],[145.72255,15.16003],[145.72006,15.15669]]]}},{"type":"Feature","id":"place:6903100","properties":{"geoid":"6903100","name":"Asuncion","displayName":"Asuncion Village","type":"Village","state":"MP","stateName":"Commonwealth of the Northern Mariana Islands","lsad":"47","sourceType":"place","priority":5,"areaLand":7869839,"areaWater":552},"geometry":{"type":"Polygon","coordinates":[[[145.38957,19.69208],[145.39007,19.68459],[145.39974,19.67635],[145.40504,19.67619],[145.41101,19.67871],[145.41628,19.68441],[145.41807,19.69068],[145.41509,19.70131],[145.40647,19.70662],[145.40157,19.70692],[145.39251,19.69973],[145.38957,19.69208]]]}},{"type":"Feature","id":"place:6903500","properties":{"geoid":"6903500","name":"Banaderu","displayName":"Banaderu Village","type":"Village","state":"MP","stateName":"Commonwealth of the Northern Mariana Islands","lsad":"47","sourceType":"place","priority":5,"areaLand":2239233,"areaWater":0},"geometry":{"type":"Polygon","coordinates":[[[145.80569,15.28241],[145.81612,15.27328],[145.82442,15.2706],[145.82795,15.27353],[145.81888,15.28649],[145.81247,15.28669],[145.80569,15.28241]]]}},{"type":"Feature","id":"place:6904000","properties":{"geoid":"6904000","name":"Bird Island","displayName":"Bird Island Village","type":"Village","state":"MP","stateName":"Commonwealth of the Northern Mariana Islands","lsad":"47","sourceType":"place","priority":5,"areaLand":12282,"areaWater":0},"geometry":{"type":"Polygon","coordinates":[[[145.81307,15.25791],[145.81434,15.2566],[145.81449,15.25819],[145.81307,15.25791]]]}},{"type":"Feature","id":"place:6906000","properties":{"geoid":"6906000","name":"Capitol Hill","displayName":"Capitol Hill Village","type":"Village","state":"MP","stateName":"Commonwealth of the Northern Mariana Islands","lsad":"47","sourceType":"place","priority":5,"areaLand":3822550,"areaWater":0},"geometry":{"type":"Polygon","coordinates":[[[145.7463,15.20824],[145.74518,15.20724],[145.74806,15.20568],[145.74994,15.20769],[145.74905,15.20068],[145.76124,15.20416],[145.76414,15.22145],[145.75864,15.22173],[145.75634,15.22465],[145.7495,15.22763],[145.74661,15.22208],[145.74915,15.21856],[145.74644,15.21321],[145.7463,15.20824]]]}},{"type":"Feature","id":"place:6906500","properties":{"geoid":"6906500","name":"Carolinas","displayName":"Carolinas Village","type":"Village","state":"MP","stateName":"Commonwealth of the Northern Mariana Islands","lsad":"47","sourceType":"place","priority":5,"areaLand":9558860,"areaWater":0},"geometry":{"type":"Polygon","coordinates":[[[145.62854,14.94337],[145.63092,14.92796],[145.63436,14.9232],[145.63908,14.92271],[145.64705,14.9294],[145.65231,14.9377],[145.65136,14.94147],[145.6541,14.94558],[145.65995,14.94877],[145.66483,14.94828],[145.66545,14.94984],[145.66134,14.95885],[145.6496,14.9592],[145.6493,14.9576],[145.64527,14.95564],[145.6453,14.95775],[145.64166,14.95558],[145.63251,14.95711],[145.63179,14.95058],[145.62854,14.94337]]]}},{"type":"Feature","id":"place:6907000","properties":{"geoid":"6907000","name":"Carolinas Heights","displayName":"Carolinas Heights Village","type":"Village","state":"MP","stateName":"Commonwealth of the Northern Mariana Islands","lsad":"47","sourceType":"place","priority":5,"areaLand":4877462,"areaWater":0},"geometry":{"type":"Polygon","coordinates":[[[145.63757,14.96815],[145.63654,14.95677],[145.64166,14.95558],[145.6453,14.95775],[145.64527,14.95564],[145.6493,14.9576],[145.6496,14.9592],[145.66134,14.95885],[145.66152,14.96496],[145.66554,14.97283],[145.66417,14.97495],[145.65315,14.97482],[145.65122,14.97706],[145.65112,14.97587],[145.64785,14.97609],[145.64762,14.97432],[145.63757,14.96815]]]}},{"type":"Feature","id":"place:6907500","properties":{"geoid":"6907500","name":"Chacha","displayName":"Chacha Village","type":"Village","state":"MP","stateName":"Commonwealth of the Northern Mariana Islands","lsad":"47","sourceType":"place","priority":5,"areaLand":1166516,"areaWater":0},"geometry":{"type":"Polygon","coordinates":[[[145.75686,15.18765],[145.76467,15.17734],[145.7726,15.18346],[145.76686,15.18837],[145.75892,15.18919],[145.75686,15.18765]]]}},{"type":"Feature","id":"place:6908000","properties":{"geoid":"6908000","name":"Chalan Galaide","displayName":"Chalan Galaide Village","type":"Village","state":"MP","stateName":"Commonwealth of the Northern Mariana Islands","lsad":"47","sourceType":"place","priority":5,"areaLand":990270,"areaWater":0},"geometry":{"type":"Polygon","coordinates":[[[145.734,15.21039],[145.73131,15.20908],[145.73582,15.20993],[145.73703,15.20673],[145.7356,15.20513],[145.7376,15.20163],[145.74221,15.19968],[145.74141,15.20556],[145.7463,15.20824],[145.74696,15.21272],[145.7438,15.21158],[145.7377,15.21254],[145.734,15.21039]]]}},{"type":"Feature","id":"place:6911820","properties":{"geoid":"6911820","name":"Chalan Kanoa I","displayName":"Chalan Kanoa I Village","type":"Village","state":"MP","stateName":"Commonwealth of the Northern Mariana Islands","lsad":"47","sourceType":"place","priority":5,"areaLand":932907,"areaWater":0},"geometry":{"type":"Polygon","coordinates":[[[145.70328,15.1402],[145.70657,15.13662],[145.71175,15.14523],[145.70997,15.14616],[145.71218,15.14975],[145.70991,15.15282],[145.70564,15.15195],[145.70482,15.14279],[145.70328,15.1402]]]}},{"type":"Feature","id":"place:6911850","properties":{"geoid":"6911850","name":"Chalan Kanoa II","displayName":"Chalan Kanoa II Village","type":"Village","state":"MP","stateName":"Commonwealth of the Northern Mariana Islands","lsad":"47","sourceType":"place","priority":5,"areaLand":310599,"areaWater":0},"geometry":{"type":"Polygon","coordinates":[[[145.7001,15.15142],[145.70135,15.14556],[145.70514,15.14659],[145.70564,15.15195],[145.7001,15.15142]]]}},{"type":"Feature","id":"place:6911860","properties":{"geoid":"6911860","name":"Chalan Kanoa III","displayName":"Chalan Kanoa III Village","type":"Village","state":"MP","stateName":"Commonwealth of the Northern Mariana Islands","lsad":"47","sourceType":"place","priority":5,"areaLand":100699,"areaWater":0},"geometry":{"type":"Polygon","coordinates":[[[145.7024,15.14683],[145.70349,15.14174],[145.70514,15.14659],[145.7024,15.14683]]]}},{"type":"Feature","id":"place:6911870","properties":{"geoid":"6911870","name":"Chalan Kanoa IV","displayName":"Chalan Kanoa IV Village","type":"Village","state":"MP","stateName":"Commonwealth of the Northern Mariana Islands","lsad":"47","sourceType":"place","priority":5,"areaLand":176750,"areaWater":0},"geometry":{"type":"Polygon","coordinates":[[[145.70011,15.14688],[145.69923,15.14471],[145.70114,15.14435],[145.70069,15.14197],[145.70328,15.13974],[145.70267,15.14572],[145.70011,15.14688]]]}},{"type":"Feature","id":"place:6912000","properties":{"geoid":"6912000","name":"Chalan Kiya","displayName":"Chalan Kiya Village","type":"Village","state":"MP","stateName":"Commonwealth of the Northern Mariana Islands","lsad":"47","sourceType":"place","priority":5,"areaLand":1859556,"areaWater":0},"geometry":{"type":"Polygon","coordinates":[[[145.71384,15.16669],[145.71611,15.16229],[145.7143,15.16016],[145.72137,15.15269],[145.72255,15.15362],[145.72006,15.15669],[145.72255,15.16003],[145.72463,15.15879],[145.73141,15.17068],[145.72413,15.16739],[145.72087,15.16925],[145.71998,15.17384],[145.7182,15.1736],[145.71384,15.16669]]]}},{"type":"Feature","id":"place:6913000","properties":{"geoid":"6913000","name":"Chalan Laulau","displayName":"Chalan Laulau Village","type":"Village","state":"MP","stateName":"Commonwealth of the Northern Mariana Islands","lsad":"47","sourceType":"place","priority":5,"areaLand":1134167,"areaWater":0},"geometry":{"type":"Polygon","coordinates":[[[145.71075,15.17079],[145.71384,15.16669],[145.71791,15.17256],[145.7191,15.18448],[145.71452,15.18466],[145.71075,15.17079]]]}},{"type":"Feature","id":"place:6913500","properties":{"geoid":"6913500","name":"Chalan Piao","displayName":"Chalan Piao Village","type":"Village","state":"MP","stateName":"Commonwealth of the Northern Mariana Islands","lsad":"47","sourceType":"place","priority":5,"areaLand":1057617,"areaWater":0},"geometry":{"type":"Polygon","coordinates":[[[145.69719,15.13864],[145.69632,15.13706],[145.69857,15.13634],[145.6974,15.13355],[145.70154,15.12909],[145.70769,15.1351],[145.70069,15.14197],[145.70114,15.14435],[145.69923,15.14471],[145.69719,15.13864]]]}},{"type":"Feature","id":"place:6913600","properties":{"geoid":"6913600","name":"Chalan Rueda","displayName":"Chalan Rueda Village","type":"Village","state":"MP","stateName":"Commonwealth of the Northern Mariana Islands","lsad":"47","sourceType":"place","priority":5,"areaLand":2507156,"areaWater":0},"geometry":{"type":"Polygon","coordinates":[[[145.7191,15.18448],[145.7182,15.1736],[145.71998,15.17384],[145.72087,15.16925],[145.72413,15.16739],[145.73141,15.17068],[145.74117,15.18551],[145.72852,15.18533],[145.73007,15.17663],[145.72224,15.17757],[145.72216,15.18439],[145.7191,15.18448]]]}},{"type":"Feature","id":"place:6913610","properties":{"geoid":"6913610","name":"China Town","displayName":"China Town Village","type":"Village","state":"MP","stateName":"Commonwealth of the Northern Mariana Islands","lsad":"47","sourceType":"place","priority":5,"areaLand":299285,"areaWater":0},"geometry":{"type":"Polygon","coordinates":[[[145.71985,15.20204],[145.7253,15.20103],[145.72428,15.20551],[145.72083,15.207],[145.71985,15.20204]]]}},{"type":"Feature","id":"place:6913620","properties":{"geoid":"6913620","name":"Dagu","displayName":"Dagu Village","type":"Village","state":"MP","stateName":"Commonwealth of the Northern Mariana Islands","lsad":"47","sourceType":"place","priority":5,"areaLand":1210790,"areaWater":0},"geometry":{"type":"Polygon","coordinates":[[[145.72186,15.14175],[145.72077,15.138],[145.72267,15.13558],[145.72846,15.13523],[145.7319,15.14476],[145.73126,15.15074],[145.7298,15.1515],[145.72186,15.14175]]]}},{"type":"Feature","id":"place:6913690","properties":{"geoid":"6913690","name":"Dandan","displayName":"Dandan Village","type":"Village","state":"MP","stateName":"Commonwealth of the Northern Mariana Islands","lsad":"47","sourceType":"place","priority":5,"areaLand":2716330,"areaWater":0},"geometry":{"type":"Polygon","coordinates":[[[145.72846,15.13523],[145.72856,15.13169],[145.73176,15.13164],[145.73455,15.12804],[145.73838,15.13029],[145.74372,15.12415],[145.74808,15.1257],[145.74148,15.13519],[145.74084,15.13924],[145.74281,15.14382],[145.73743,15.14594],[145.73546,15.14527],[145.73144,15.14886],[145.7319,15.14476],[145.72846,15.13523]]]}},{"type":"Feature","id":"place:6914550","properties":{"geoid":"6914550","name":"Duge","displayName":"Duge Village","type":"Village","state":"MP","stateName":"Commonwealth of the Northern Mariana Islands","lsad":"47","sourceType":"place","priority":5,"areaLand":5115617,"areaWater":0},"geometry":{"type":"Polygon","coordinates":[[[145.25474,14.1851],[145.26112,14.18055],[145.26103,14.17796],[145.2676,14.17759],[145.27016,14.18369],[145.28672,14.18083],[145.29043,14.18864],[145.28824,14.19235],[145.2847,14.19388],[145.26159,14.19907],[145.26136,14.18651],[145.25474,14.1851]]]}},{"type":"Feature","id":"place:6914650","properties":{"geoid":"6914650","name":"Eastern Tinian (Marpo Valley)","displayName":"Eastern Tinian (Marpo Valley) Village","type":"Village","state":"MP","stateName":"Commonwealth of the Northern Mariana Islands","lsad":"47","sourceType":"place","priority":5,"areaLand":18576239,"areaWater":0},"geometry":{"type":"Polygon","coordinates":[[[145.63555,15.01475],[145.63334,14.99097],[145.64584,14.98994],[145.64904,14.98832],[145.64785,14.97609],[145.65112,14.97587],[145.65122,14.97706],[145.65315,14.97482],[145.66417,14.97495],[145.66382,14.97699],[145.66774,14.98261],[145.67357,15.00653],[145.66809,15.01629],[145.6645,15.01852],[145.65727,15.01887],[145.65012,15.03161],[145.64601,15.03201],[145.6458,15.03391],[145.63738,15.0349],[145.63555,15.01475]]]}},{"type":"Feature","id":"place:6914700","properties":{"geoid":"6914700","name":"Fananganan","displayName":"Fananganan Village","type":"Village","state":"MP","stateName":"Commonwealth of the Northern Mariana Islands","lsad":"47","sourceType":"place","priority":5,"areaLand":858409,"areaWater":0},"geometry":{"type":"Polygon","coordinates":[[[145.72224,15.20985],[145.72083,15.207],[145.72428,15.20551],[145.7253,15.20103],[145.73317,15.20066],[145.73238,15.20605],[145.72548,15.21025],[145.72435,15.21254],[145.72224,15.20985]]]}},{"type":"Feature","id":"place:6914750","properties":{"geoid":"6914750","name":"Fanlagon","displayName":"Fanlagon Village","type":"Village","state":"MP","stateName":"Commonwealth of the Northern Mariana Islands","lsad":"47","sourceType":"place","priority":5,"areaLand":4466805,"areaWater":0},"geometry":{"type":"Polygon","coordinates":[[[145.17708,14.13862],[145.17508,14.12938],[145.19815,14.12582],[145.20188,14.12405],[145.20309,14.12062],[145.20098,14.12068],[145.20171,14.11827],[145.2049,14.11824],[145.20437,14.11955],[145.20607,14.11975],[145.2042,14.12261],[145.20977,14.13205],[145.20966,14.13745],[145.20728,14.13779],[145.20569,14.14033],[145.20349,14.13929],[145.20154,14.14112],[145.19197,14.14148],[145.19163,14.13494],[145.18658,14.13319],[145.18035,14.13429],[145.17708,14.13862]]]}},{"type":"Feature","id":"place:6914800","properties":{"geoid":"6914800","name":"Fanonchuluyan","displayName":"Fanonchuluyan Village","type":"Village","state":"MP","stateName":"Commonwealth of the Northern Mariana Islands","lsad":"47","sourceType":"place","priority":5,"areaLand":3262736,"areaWater":0},"geometry":{"type":"Polygon","coordinates":[[[145.78935,15.25076],[145.79239,15.25248],[145.79738,15.25206],[145.80158,15.24608],[145.81121,15.25361],[145.8077,15.25831],[145.80911,15.26101],[145.81515,15.26521],[145.81311,15.26524],[145.81326,15.26676],[145.81003,15.26528],[145.80802,15.26603],[145.80934,15.26793],[145.80378,15.27035],[145.79835,15.26579],[145.7964,15.25844],[145.79074,15.25396],[145.78935,15.25076]]]}},{"type":"Feature","id":"place:6914850","properties":{"geoid":"6914850","name":"Farallon de Medinilla","displayName":"Farallon de Medinilla Village","type":"Village","state":"MP","stateName":"Commonwealth of the Northern Mariana Islands","lsad":"47","sourceType":"place","priority":5,"areaLand":738440,"areaWater":0},"geometry":{"type":"Polygon","coordinates":[[[146.0513,16.00657],[146.05313,16.00592],[146.05526,16.01166],[146.06383,16.02244],[146.06452,16.02513],[146.06305,16.02765],[146.06177,16.02755],[146.05604,16.0152],[146.05379,16.01349],[146.0513,16.00657]]]}},{"type":"Feature","id":"place:6914900","properties":{"geoid":"6914900","name":"Finasisu","displayName":"Finasisu Village","type":"Village","state":"MP","stateName":"Commonwealth of the Northern Mariana Islands","lsad":"47","sourceType":"place","priority":5,"areaLand":3237354,"areaWater":0},"geometry":{"type":"Polygon","coordinates":[[[145.70657,15.13662],[145.71242,15.13025],[145.72024,15.13647],[145.72186,15.14175],[145.7298,15.1515],[145.72255,15.15362],[145.72137,15.15269],[145.71824,15.15455],[145.71409,15.14978],[145.71218,15.14975],[145.70997,15.14616],[145.71175,15.14523],[145.70657,15.13662]]]}},{"type":"Feature","id":"place:6914950","properties":{"geoid":"6914950","name":"Finata","displayName":"Finata Village","type":"Village","state":"MP","stateName":"Commonwealth of the Northern Mariana Islands","lsad":"47","sourceType":"place","priority":5,"areaLand":1419437,"areaWater":0},"geometry":{"type":"Polygon","coordinates":[[[145.21302,14.14191],[145.21625,14.14176],[145.21683,14.13893],[145.22422,14.13851],[145.22492,14.14313],[145.22872,14.14661],[145.23009,14.151],[145.21773,14.14854],[145.21302,14.14191]]]}},{"type":"Feature","id":"place:6915000","properties":{"geoid":"6915000","name":"Forbidden Island","displayName":"Forbidden Island Village","type":"Village","state":"MP","stateName":"Commonwealth of the Northern Mariana Islands","lsad":"47","sourceType":"place","priority":5,"areaLand":28859,"areaWater":0},"geometry":{"type":"Polygon","coordinates":[[[145.79001,15.15063],[145.79011,15.14932],[145.7926,15.14952],[145.79094,15.15151],[145.79001,15.15063]]]}},{"type":"Feature","id":"place:6915500","properties":{"geoid":"6915500","name":"Gagani","displayName":"Gagani Village","type":"Village","state":"MP","stateName":"Commonwealth of the Northern Mariana Islands","lsad":"47","sourceType":"place","priority":5,"areaLand":531461,"areaWater":0},"geometry":{"type":"Polygon","coordinates":[[[145.16349,14.13088],[145.16663,14.12752],[145.16901,14.12129],[145.16785,14.11135],[145.17072,14.11388],[145.17231,14.12046],[145.167,14.1293],[145.16349,14.13088]]]}},{"type":"Feature","id":"place:6915550","properties":{"geoid":"6915550","name":"Gampapa","displayName":"Gampapa Village","type":"Village","state":"MP","stateName":"Commonwealth of the Northern Mariana Islands","lsad":"47","sourceType":"place","priority":5,"areaLand":1814864,"areaWater":0},"geometry":{"type":"Polygon","coordinates":[[[145.2592,14.17818],[145.25283,14.17159],[145.27434,14.17218],[145.27513,14.18107],[145.27667,14.18256],[145.27016,14.18369],[145.2676,14.17759],[145.2592,14.17818]]]}},{"type":"Feature","id":"place:6916000","properties":{"geoid":"6916000","name":"Gaonan","displayName":"Gaonan Village","type":"Village","state":"MP","stateName":"Commonwealth of the Northern Mariana Islands","lsad":"47","sourceType":"place","priority":5,"areaLand":587061,"areaWater":0},"geometry":{"type":"Polygon","coordinates":[[[145.19507,14.11614],[145.1986,14.11274],[145.2047,14.11588],[145.21008,14.11622],[145.21115,14.11965],[145.19933,14.11833],[145.1983,14.11759],[145.19992,14.11541],[145.19815,14.11444],[145.19507,14.11614]]]}},{"type":"Feature","id":"place:6917750","properties":{"geoid":"6917750","name":"Garapan","displayName":"Garapan Village","type":"Village","state":"MP","stateName":"Commonwealth of the Northern Mariana Islands","lsad":"47","sourceType":"place","priority":5,"areaLand":1249576,"areaWater":0},"geometry":{"type":"Polygon","coordinates":[[[145.71571,15.21683],[145.71681,15.195],[145.71896,15.19372],[145.72083,15.207],[145.72435,15.21254],[145.71624,15.21775],[145.71571,15.21683]]]}},{"type":"Feature","id":"place:6917800","properties":{"geoid":"6917800","name":"Gayaugan (Kaan)","displayName":"Gayaugan (Kaan) Village","type":"Village","state":"MP","stateName":"Commonwealth of the Northern Mariana Islands","lsad":"47","sourceType":"place","priority":5,"areaLand":1863258,"areaWater":0},"geometry":{"type":"Polygon","coordinates":[[[145.1503,14.14198],[145.15285,14.14162],[145.1609,14.13487],[145.16658,14.14126],[145.16376,14.14335],[145.16499,14.1462],[145.16285,14.14907],[145.15607,14.14986],[145.15576,14.1524],[145.15278,14.14949],[145.1503,14.14198]]]}},{"type":"Feature","id":"place:6917850","properties":{"geoid":"6917850","name":"Ginalangan (Chudan)","displayName":"Ginalangan (Chudan) Village","type":"Village","state":"MP","stateName":"Commonwealth of the Northern Mariana Islands","lsad":"47","sourceType":"place","priority":5,"areaLand":7608247,"areaWater":0},"geometry":{"type":"Polygon","coordinates":[[[145.19842,14.16016],[145.19697,14.15952],[145.19904,14.14119],[145.20349,14.13929],[145.20603,14.14076],[145.21299,14.14032],[145.21773,14.14854],[145.23117,14.15073],[145.23406,14.15285],[145.23558,14.15777],[145.24283,14.15775],[145.24328,14.16141],[145.24126,14.16262],[145.23876,14.16006],[145.23576,14.15988],[145.23572,14.16201],[145.2078,14.16284],[145.19842,14.16016]]]}},{"type":"Feature","id":"place:6917900","properties":{"geoid":"6917900","name":"Gualo Rai","displayName":"Gualo Rai Village","type":"Village","state":"MP","stateName":"Commonwealth of the Northern Mariana Islands","lsad":"47","sourceType":"place","priority":5,"areaLand":2604216,"areaWater":0},"geometry":{"type":"Polygon","coordinates":[[[145.71986,15.19405],[145.7191,15.18448],[145.72216,15.18439],[145.72224,15.17757],[145.73007,15.17663],[145.72852,15.19315],[145.73317,15.20066],[145.71984,15.20108],[145.71986,15.19405]]]}},{"type":"Feature","id":"place:6917950","properties":{"geoid":"6917950","name":"Guguan","displayName":"Guguan Village","type":"Village","state":"MP","stateName":"Commonwealth of the Northern Mariana Islands","lsad":"47","sourceType":"place","priority":5,"areaLand":4237432,"areaWater":0},"geometry":{"type":"Polygon","coordinates":[[[145.83238,17.31547],[145.8328,17.30378],[145.83858,17.29905],[145.84492,17.29708],[145.85213,17.30938],[145.85201,17.31095],[145.84795,17.31282],[145.8495,17.31727],[145.84004,17.32158],[145.83624,17.32089],[145.83238,17.31547]]]}},{"type":"Feature","id":"place:6918000","properties":{"geoid":"6918000","name":"Hilaihai","displayName":"Hilaihai Village","type":"Village","state":"MP","stateName":"Commonwealth of the Northern Mariana Islands","lsad":"47","sourceType":"place","priority":5,"areaLand":1024443,"areaWater":0},"geometry":{"type":"Polygon","coordinates":[[[145.76861,15.19088],[145.76686,15.18837],[145.77066,15.18486],[145.77647,15.1838],[145.77969,15.1867],[145.77228,15.19514],[145.76905,15.19311],[145.76861,15.19088]]]}},{"type":"Feature","id":"place:6918020","properties":{"geoid":"6918020","name":"I Akgak","displayName":"I Akgak Village","type":"Village","state":"MP","stateName":"Commonwealth of the Northern Mariana Islands","lsad":"47","sourceType":"place","priority":5,"areaLand":2017781,"areaWater":0},"geometry":{"type":"Polygon","coordinates":[[[145.74701,15.18988],[145.74601,15.18545],[145.7584,15.18407],[145.75871,15.18617],[145.75613,15.18901],[145.75838,15.19299],[145.75702,15.20245],[145.74905,15.20068],[145.74701,15.18988]]]}},{"type":"Feature","id":"place:6918050","properties":{"geoid":"6918050","name":"I Chenchon","displayName":"I Chenchon Village","type":"Village","state":"MP","stateName":"Commonwealth of the Northern Mariana Islands","lsad":"47","sourceType":"place","priority":5,"areaLand":3874598,"areaWater":0},"geometry":{"type":"Polygon","coordinates":[[[145.2422,14.16462],[145.24283,14.15775],[145.24556,14.15197],[145.25248,14.15442],[145.26054,14.15472],[145.26713,14.15177],[145.26988,14.15216],[145.27451,14.15629],[145.27044,14.16227],[145.25565,14.16171],[145.25585,14.16785],[145.2506,14.16931],[145.24345,14.16848],[145.24337,14.16394],[145.2422,14.16462]]]}},{"type":"Feature","id":"place:6918100","properties":{"geoid":"6918100","name":"I Denni","displayName":"I Denni Village","type":"Village","state":"MP","stateName":"Commonwealth of the Northern Mariana Islands","lsad":"47","sourceType":"place","priority":5,"areaLand":750369,"areaWater":0},"geometry":{"type":"Polygon","coordinates":[[[145.76132,15.20912],[145.76124,15.20416],[145.76294,15.20221],[145.7733,15.2032],[145.7747,15.20555],[145.77288,15.20723],[145.76132,15.20912]]]}},{"type":"Feature","id":"place:6918150","properties":{"geoid":"6918150","name":"I Fadang","displayName":"I Fadang Village","type":"Village","state":"MP","stateName":"Commonwealth of the Northern Mariana Islands","lsad":"47","sourceType":"place","priority":5,"areaLand":4508851,"areaWater":0},"geometry":{"type":"Polygon","coordinates":[[[145.71419,15.11331],[145.72644,15.11387],[145.73478,15.11134],[145.7395,15.11311],[145.74554,15.11882],[145.74365,15.12465],[145.73838,15.13029],[145.73455,15.12804],[145.73176,15.13164],[145.72856,15.13169],[145.71419,15.11331]]]}},{"type":"Feature","id":"place:6918200","properties":{"geoid":"6918200","name":"I Koridot","displayName":"I Koridot Village","type":"Village","state":"MP","stateName":"Commonwealth of the Northern Mariana Islands","lsad":"47","sourceType":"place","priority":5,"areaLand":910974,"areaWater":0},"geometry":{"type":"Polygon","coordinates":[[[145.23406,14.15285],[145.23187,14.15158],[145.23761,14.14813],[145.24226,14.15206],[145.24556,14.15197],[145.24283,14.15775],[145.23558,14.15777],[145.23406,14.15285]]]}},{"type":"Feature","id":"place:6918250","properties":{"geoid":"6918250","name":"I Liyang","displayName":"I Liyang Village","type":"Village","state":"MP","stateName":"Commonwealth of the Northern Mariana Islands","lsad":"47","sourceType":"place","priority":5,"areaLand":485699,"areaWater":0},"geometry":{"type":"Polygon","coordinates":[[[145.71681,15.195],[145.71452,15.18466],[145.7191,15.18448],[145.71986,15.19405],[145.71681,15.195]]]}},{"type":"Feature","id":"place:6918300","properties":{"geoid":"6918300","name":"I Maddok","displayName":"I Maddok Village","type":"Village","state":"MP","stateName":"Commonwealth of the Northern Mariana Islands","lsad":"47","sourceType":"place","priority":5,"areaLand":2808345,"areaWater":0},"geometry":{"type":"Polygon","coordinates":[[[145.80911,15.26101],[145.8077,15.25831],[145.81023,15.25615],[145.8107,15.25869],[145.81484,15.26141],[145.82639,15.25956],[145.82943,15.26418],[145.82984,15.2729],[145.82795,15.27353],[145.82442,15.2706],[145.81612,15.27328],[145.81367,15.27587],[145.81013,15.27105],[145.81355,15.26888],[145.81311,15.26524],[145.81515,15.26521],[145.80911,15.26101]]]}},{"type":"Feature","id":"place:6918350","properties":{"geoid":"6918350","name":"I Naftan","displayName":"I Naftan Village","type":"Village","state":"MP","stateName":"Commonwealth of the Northern Mariana Islands","lsad":"47","sourceType":"place","priority":5,"areaLand":4429917,"areaWater":0},"geometry":{"type":"Polygon","coordinates":[[[145.73644,15.11168],[145.7378,15.1098],[145.73709,15.10604],[145.74242,15.10382],[145.74516,15.09993],[145.74684,15.0929],[145.74881,15.09192],[145.7511,15.09533],[145.75266,15.10661],[145.7563,15.11274],[145.75659,15.12085],[145.75473,15.12334],[145.74808,15.1257],[145.74372,15.12415],[145.74554,15.11882],[145.73644,15.11168]]]}},{"type":"Feature","id":"place:6918400","properties":{"geoid":"6918400","name":"I Pitot","displayName":"I Pitot Village","type":"Village","state":"MP","stateName":"Commonwealth of the Northern Mariana Islands","lsad":"47","sourceType":"place","priority":5,"areaLand":1204078,"areaWater":0},"geometry":{"type":"Polygon","coordinates":[[[145.77198,15.19541],[145.7786,15.18858],[145.77752,15.19418],[145.78128,15.19828],[145.7817,15.20355],[145.78045,15.20541],[145.77329,15.20693],[145.7747,15.20555],[145.77258,15.20246],[145.7742,15.19831],[145.77198,15.19541]]]}},{"type":"Feature","id":"place:6919510","properties":{"geoid":"6919510","name":"Kagman","displayName":"Kagman Village","type":"Village","state":"MP","stateName":"Commonwealth of the Northern Mariana Islands","lsad":"47","sourceType":"place","priority":5,"areaLand":1426218,"areaWater":0},"geometry":{"type":"Polygon","coordinates":[[[145.761,15.17532],[145.76474,15.16675],[145.76781,15.16815],[145.77014,15.16368],[145.77197,15.16476],[145.76939,15.16896],[145.77522,15.17168],[145.77368,15.17579],[145.77138,15.1763],[145.7707,15.18154],[145.76513,15.17653],[145.761,15.17532]]]}},{"type":"Feature","id":"place:6919520","properties":{"geoid":"6919520","name":"Kagman I","displayName":"Kagman I Village","type":"Village","state":"MP","stateName":"Commonwealth of the Northern Mariana Islands","lsad":"47","sourceType":"place","priority":5,"areaLand":386482,"areaWater":0},"geometry":{"type":"Polygon","coordinates":[[[145.76981,15.18124],[145.7752,15.17983],[145.78103,15.18405],[145.77969,15.1867],[145.77647,15.1838],[145.77196,15.18448],[145.7726,15.18346],[145.76981,15.18124]]]}},{"type":"Feature","id":"place:6919530","properties":{"geoid":"6919530","name":"Kagman II","displayName":"Kagman II Village","type":"Village","state":"MP","stateName":"Commonwealth of the Northern Mariana Islands","lsad":"47","sourceType":"place","priority":5,"areaLand":656011,"areaWater":0},"geometry":{"type":"Polygon","coordinates":[[[145.77154,15.18044],[145.77138,15.1763],[145.77368,15.17579],[145.77522,15.17168],[145.7803,15.17341],[145.77792,15.18108],[145.77154,15.18044]]]}},{"type":"Feature","id":"place:6919540","properties":{"geoid":"6919540","name":"Kagman III","displayName":"Kagman III Village","type":"Village","state":"MP","stateName":"Commonwealth of the Northern Mariana Islands","lsad":"47","sourceType":"place","priority":5,"areaLand":5426569,"areaWater":0},"geometry":{"type":"Polygon","coordinates":[[[145.76767,15.16159],[145.77035,15.15548],[145.77457,15.1515],[145.78014,15.15056],[145.78293,15.15197],[145.78828,15.15048],[145.78818,15.15426],[145.79128,15.15659],[145.79207,15.16352],[145.79612,15.16686],[145.78628,15.17429],[145.7803,15.17341],[145.76939,15.16896],[145.77197,15.16476],[145.76767,15.16159]]]}},{"type":"Feature","id":"place:6919550","properties":{"geoid":"6919550","name":"Kagman IV","displayName":"Kagman IV Village","type":"Village","state":"MP","stateName":"Commonwealth of the Northern Mariana Islands","lsad":"47","sourceType":"place","priority":5,"areaLand":630909,"areaWater":0},"geometry":{"type":"Polygon","coordinates":[[[145.77925,15.18181],[145.77792,15.18108],[145.7803,15.17341],[145.78628,15.17429],[145.78454,15.18199],[145.78103,15.18405],[145.77925,15.18181]]]}},{"type":"Feature","id":"place:6919560","properties":{"geoid":"6919560","name":"Kalabera","displayName":"Kalabera Village","type":"Village","state":"MP","stateName":"Commonwealth of the Northern Mariana Islands","lsad":"47","sourceType":"place","priority":5,"areaLand":2407043,"areaWater":0},"geometry":{"type":"Polygon","coordinates":[[[145.79169,15.22963],[145.79392,15.22776],[145.7984,15.22907],[145.80249,15.23642],[145.80642,15.23706],[145.80983,15.24077],[145.80735,15.24412],[145.81121,15.25361],[145.79772,15.24375],[145.79223,15.23547],[145.79444,15.23099],[145.79169,15.22963]]]}},{"type":"Feature","id":"place:6919570","properties":{"geoid":"6919570","name":"Kannat Tabla","displayName":"Kannat Tabla Village","type":"Village","state":"MP","stateName":"Commonwealth of the Northern Mariana Islands","lsad":"47","sourceType":"place","priority":5,"areaLand":2354698,"areaWater":0},"geometry":{"type":"Polygon","coordinates":[[[145.72714,15.16252],[145.72463,15.15879],[145.72785,15.15578],[145.72545,15.15241],[145.73002,15.15143],[145.73391,15.15403],[145.73385,15.15602],[145.73977,15.16343],[145.73675,15.16505],[145.73862,15.18219],[145.72892,15.16762],[145.72714,15.16252]]]}},{"type":"Feature","id":"place:6919580","properties":{"geoid":"6919580","name":"Koblerville","displayName":"Koblerville Village","type":"Village","state":"MP","stateName":"Commonwealth of the Northern Mariana Islands","lsad":"47","sourceType":"place","priority":5,"areaLand":1062903,"areaWater":0},"geometry":{"type":"Polygon","coordinates":[[[145.69713,15.12362],[145.6965,15.12071],[145.70217,15.12169],[145.70555,15.11628],[145.71065,15.11852],[145.70889,15.12218],[145.70916,15.1282],[145.69713,15.12362]]]}},{"type":"Feature","id":"place:6919650","properties":{"geoid":"6919650","name":"Laulau Bay","displayName":"Laulau Bay Village","type":"Village","state":"MP","stateName":"Commonwealth of the Northern Mariana Islands","lsad":"47","sourceType":"place","priority":5,"areaLand":3375400,"areaWater":0},"geometry":{"type":"Polygon","coordinates":[[[145.74105,15.1672],[145.7431,15.16315],[145.74906,15.15792],[145.75178,15.16056],[145.76154,15.16363],[145.76767,15.16159],[145.77014,15.16368],[145.76781,15.16815],[145.76474,15.16675],[145.761,15.17532],[145.75121,15.17305],[145.74916,15.1751],[145.74105,15.1672]]]}},{"type":"Feature","id":"place:6919700","properties":{"geoid":"6919700","name":"Lempanai","displayName":"Lempanai Village","type":"Village","state":"MP","stateName":"Commonwealth of the Northern Mariana Islands","lsad":"47","sourceType":"place","priority":5,"areaLand":2127175,"areaWater":0},"geometry":{"type":"Polygon","coordinates":[[[145.15823,14.13372],[145.167,14.1293],[145.17264,14.12028],[145.17708,14.13862],[145.16658,14.14126],[145.15823,14.13372]]]}},{"type":"Feature","id":"place:6919750","properties":{"geoid":"6919750","name":"Liyu","displayName":"Liyu Village","type":"Village","state":"MP","stateName":"Commonwealth of the Northern Mariana Islands","lsad":"47","sourceType":"place","priority":5,"areaLand":339403,"areaWater":0},"geometry":{"type":"Polygon","coordinates":[[[145.1317,14.13358],[145.13056,14.13277],[145.13456,14.1293],[145.13821,14.13504],[145.13716,14.13662],[145.13459,14.13652],[145.1317,14.13358]]]}},{"type":"Feature","id":"place:6919800","properties":{"geoid":"6919800","name":"Lower Base","displayName":"Lower Base Village","type":"Village","state":"MP","stateName":"Commonwealth of the Northern Mariana Islands","lsad":"47","sourceType":"place","priority":5,"areaLand":769111,"areaWater":0},"geometry":{"type":"Polygon","coordinates":[[[145.73773,15.22601],[145.74523,15.22586],[145.74797,15.22892],[145.74924,15.231],[145.74697,15.23636],[145.74482,15.23303],[145.73985,15.23132],[145.74047,15.22898],[145.73773,15.22601]]]}},{"type":"Feature","id":"place:6919850","properties":{"geoid":"6919850","name":"Makmak","displayName":"Makmak Village","type":"Village","state":"MP","stateName":"Commonwealth of the Northern Mariana Islands","lsad":"47","sourceType":"place","priority":5,"areaLand":755934,"areaWater":0},"geometry":{"type":"Polygon","coordinates":[[[145.18969,14.16779],[145.19064,14.16489],[145.19589,14.16142],[145.2017,14.16097],[145.19959,14.16895],[145.18969,14.16779]]]}},{"type":"Feature","id":"place:6919900","properties":{"geoid":"6919900","name":"Managaha","displayName":"Managaha Village","type":"Village","state":"MP","stateName":"Commonwealth of the Northern Mariana Islands","lsad":"47","sourceType":"place","priority":5,"areaLand":73765,"areaWater":0},"geometry":{"type":"Polygon","coordinates":[[[145.71158,15.24227],[145.71306,15.24001],[145.71373,15.24111],[145.71158,15.24227]]]}},{"type":"Feature","id":"place:6919950","properties":{"geoid":"6919950","name":"Mananana","displayName":"Mananana Village","type":"Village","state":"MP","stateName":"Commonwealth of the Northern Mariana Islands","lsad":"47","sourceType":"place","priority":5,"areaLand":3771632,"areaWater":0},"geometry":{"type":"Polygon","coordinates":[[[145.17613,14.1504],[145.17641,14.14587],[145.191,14.14649],[145.19197,14.14148],[145.19904,14.14119],[145.19697,14.15952],[145.19959,14.16056],[145.19064,14.16489],[145.18857,14.16413],[145.18359,14.16171],[145.18392,14.15384],[145.17613,14.1504]]]}},{"type":"Feature","id":"place:6922430","properties":{"geoid":"6922430","name":"Marpi","displayName":"Marpi Village","type":"Village","state":"MP","stateName":"Commonwealth of the Northern Mariana Islands","lsad":"47","sourceType":"place","priority":5,"areaLand":2387905,"areaWater":0},"geometry":{"type":"Polygon","coordinates":[[[145.78275,15.26166],[145.78553,15.25994],[145.78931,15.26381],[145.78918,15.25488],[145.79157,15.2544],[145.7964,15.25844],[145.79835,15.26579],[145.80378,15.27035],[145.79573,15.27621],[145.78275,15.26166]]]}},{"type":"Feature","id":"place:6922440","properties":{"geoid":"6922440","name":"Marpo Heights","displayName":"Marpo Heights Village","type":"Village","state":"MP","stateName":"Commonwealth of the Northern Mariana Islands","lsad":"47","sourceType":"place","priority":5,"areaLand":3626672,"areaWater":0},"geometry":{"type":"Polygon","coordinates":[[[145.6324,14.98088],[145.63144,14.97077],[145.64142,14.96998],[145.64762,14.97432],[145.64904,14.98832],[145.64584,14.98994],[145.63334,14.99097],[145.6324,14.98088]]]}},{"type":"Feature","id":"place:6922450","properties":{"geoid":"6922450","name":"Matansa","displayName":"Matansa Village","type":"Village","state":"MP","stateName":"Commonwealth of the Northern Mariana Islands","lsad":"47","sourceType":"place","priority":5,"areaLand":781374,"areaWater":0},"geometry":{"type":"Polygon","coordinates":[[[145.78046,15.25581],[145.78048,15.25334],[145.79157,15.2544],[145.78918,15.25488],[145.78931,15.26381],[145.78553,15.25994],[145.7827,15.26155],[145.78046,15.25581]]]}},{"type":"Feature","id":"place:6922460","properties":{"geoid":"6922460","name":"Matpo","displayName":"Matpo Village","type":"Village","state":"MP","stateName":"Commonwealth of the Northern Mariana Islands","lsad":"47","sourceType":"place","priority":5,"areaLand":575399,"areaWater":0},"geometry":{"type":"Polygon","coordinates":[[[145.1448,14.14729],[145.14637,14.14503],[145.14464,14.1434],[145.1498,14.14049],[145.1529,14.14859],[145.1481,14.14971],[145.1448,14.14729]]]}},{"type":"Feature","id":"place:6922470","properties":{"geoid":"6922470","name":"Maturana Hill","displayName":"Maturana Hill Village","type":"Village","state":"MP","stateName":"Commonwealth of the Northern Mariana Islands","lsad":"47","sourceType":"place","priority":5,"areaLand":603638,"areaWater":0},"geometry":{"type":"Polygon","coordinates":[[[145.7303,15.20862],[145.73238,15.20605],[145.73318,15.20062],[145.74182,15.19987],[145.7376,15.20163],[145.7356,15.20513],[145.73703,15.20673],[145.73582,15.20993],[145.7303,15.20862]]]}},{"type":"Feature","id":"place:6922500","properties":{"geoid":"6922500","name":"Maug","displayName":"Maug Village","type":"Village","state":"MP","stateName":"Commonwealth of the Northern Mariana Islands","lsad":"47","sourceType":"place","priority":5,"areaLand":2129701,"areaWater":12100},"geometry":{"type":"MultiPolygon","coordinates":[[[[145.22772,20.01283],[145.22949,20.01205],[145.23873,20.02017],[145.23345,20.02826],[145.2306,20.02376],[145.23081,20.01894],[145.22772,20.01283]]],[[[145.21534,20.03311],[145.21535,20.0317],[145.21848,20.0304],[145.22938,20.03082],[145.22972,20.03188],[145.22066,20.03558],[145.21534,20.03311]]],[[[145.20774,20.01971],[145.2073,20.01729],[145.21032,20.0124],[145.21669,20.01079],[145.21776,20.01213],[145.21637,20.01433],[145.21154,20.01759],[145.21059,20.02027],[145.21045,20.02616],[145.21225,20.03009],[145.21071,20.03088],[145.2089,20.02839],[145.20774,20.01971]]]]}},{"type":"Feature","id":"place:6922530","properties":{"geoid":"6922530","name":"Mochong","displayName":"Mochong Village","type":"Village","state":"MP","stateName":"Commonwealth of the Northern Mariana Islands","lsad":"47","sourceType":"place","priority":5,"areaLand":1737343,"areaWater":0},"geometry":{"type":"Polygon","coordinates":[[[145.25068,14.19354],[145.25028,14.18651],[145.25386,14.18508],[145.26136,14.18651],[145.26159,14.19907],[145.25059,14.19999],[145.25068,14.19354]]]}},{"type":"Feature","id":"place:6922550","properties":{"geoid":"6922550","name":"Mount Sabana (Minachage)","displayName":"Mount Sabana (Minachage) Village","type":"Village","state":"MP","stateName":"Commonwealth of the Northern Mariana Islands","lsad":"47","sourceType":"place","priority":5,"areaLand":2107156,"areaWater":0},"geometry":{"type":"Polygon","coordinates":[[[145.17688,14.14088],[145.17708,14.13862],[145.18196,14.13339],[145.19163,14.13494],[145.191,14.14649],[145.17989,14.14589],[145.17688,14.14088]]]}},{"type":"Feature","id":"place:6922575","properties":{"geoid":"6922575","name":"Mount Taipingot","displayName":"Mount Taipingot Village","type":"Village","state":"MP","stateName":"Commonwealth of the Northern Mariana Islands","lsad":"47","sourceType":"place","priority":5,"areaLand":1230344,"areaWater":19201},"geometry":{"type":"Polygon","coordinates":[[[145.12116,14.12064],[145.12222,14.11748],[145.12717,14.12003],[145.13456,14.1293],[145.13056,14.13277],[145.12643,14.13051],[145.12309,14.12719],[145.12116,14.12064]]]}},{"type":"Feature","id":"place:6922600","properties":{"geoid":"6922600","name":"Nanasu","displayName":"Nanasu Village","type":"Village","state":"MP","stateName":"Commonwealth of the Northern Mariana Islands","lsad":"47","sourceType":"place","priority":5,"areaLand":2775947,"areaWater":0},"geometry":{"type":"Polygon","coordinates":[[[145.77697,15.24534],[145.77359,15.24211],[145.79046,15.22536],[145.79271,15.22795],[145.79169,15.22963],[145.79444,15.23099],[145.79223,15.23547],[145.78527,15.24094],[145.79577,15.25258],[145.79239,15.25248],[145.78462,15.24678],[145.77697,15.24534]]]}},{"type":"Feature","id":"place:6922650","properties":{"geoid":"6922650","name":"Navy Hill","displayName":"Navy Hill Village","type":"Village","state":"MP","stateName":"Commonwealth of the Northern Mariana Islands","lsad":"47","sourceType":"place","priority":5,"areaLand":502967,"areaWater":0},"geometry":{"type":"Polygon","coordinates":[[[145.72755,15.21092],[145.72671,15.20945],[145.72936,15.20836],[145.73659,15.21213],[145.73425,15.2139],[145.73623,15.21934],[145.72755,15.21092]]]}},{"type":"Feature","id":"place:6923100","properties":{"geoid":"6923100","name":"Northern Tinian","displayName":"Northern Tinian Village","type":"Village","state":"MP","stateName":"Commonwealth of the Northern Mariana Islands","lsad":"47","sourceType":"place","priority":5,"areaLand":30210262,"areaWater":38187},"geometry":{"type":"Polygon","coordinates":[[[145.59685,15.04063],[145.59513,15.0385],[145.6458,15.03391],[145.64601,15.03201],[145.65012,15.03161],[145.64692,15.04449],[145.65882,15.05784],[145.65494,15.06757],[145.6572,15.08181],[145.65442,15.08978],[145.64526,15.10078],[145.6418,15.09915],[145.63264,15.08758],[145.61804,15.07639],[145.60261,15.0574],[145.59682,15.05348],[145.59899,15.05042],[145.59685,15.04063]]]}},{"type":"Feature","id":"place:6923900","properties":{"geoid":"6923900","name":"Opyan","displayName":"Opyan Village","type":"Village","state":"MP","stateName":"Commonwealth of the Northern Mariana Islands","lsad":"47","sourceType":"place","priority":5,"areaLand":2053801,"areaWater":0},"geometry":{"type":"Polygon","coordinates":[[[145.70793,15.1061],[145.7155,15.1064],[145.71739,15.10783],[145.73179,15.1053],[145.73259,15.10647],[145.73709,15.10604],[145.7378,15.1098],[145.73644,15.11168],[145.72644,15.11387],[145.71419,15.11331],[145.71146,15.11213],[145.70793,15.1061]]]}},{"type":"Feature","id":"place:6923950","properties":{"geoid":"6923950","name":"Pagan","displayName":"Pagan Village","type":"Village","state":"MP","stateName":"Commonwealth of the Northern Mariana Islands","lsad":"47","sourceType":"place","priority":5,"areaLand":47448615,"areaWater":332884},"geometry":{"type":"Polygon","coordinates":[[[145.70791,18.04758],[145.7087,18.04522],[145.71115,18.04463],[145.729,18.04989],[145.73878,18.05839],[145.74303,18.06442],[145.74306,18.06712],[145.74539,18.06802],[145.74475,18.07209],[145.76065,18.0957],[145.76739,18.10303],[145.7764,18.10796],[145.78477,18.10947],[145.79492,18.10267],[145.79436,18.10803],[145.79892,18.11083],[145.80948,18.13233],[145.80946,18.14318],[145.80644,18.15662],[145.802,18.16242],[145.79499,18.16603],[145.79018,18.16568],[145.77743,18.16874],[145.77071,18.16778],[145.75917,18.15977],[145.75654,18.15591],[145.75562,18.14709],[145.7572,18.14387],[145.7614,18.14207],[145.76244,18.13562],[145.75818,18.12125],[145.75904,18.1081],[145.75653,18.09957],[145.73812,18.08522],[145.72912,18.08528],[145.72296,18.08206],[145.71696,18.0758],[145.7119,18.06208],[145.71295,18.05936],[145.71158,18.05832],[145.71126,18.05144],[145.70791,18.04758]]]}},{"type":"Feature","id":"place:6923980","properties":{"geoid":"6923980","name":"Papago","displayName":"Papago Village","type":"Village","state":"MP","stateName":"Commonwealth of the Northern Mariana Islands","lsad":"47","sourceType":"place","priority":5,"areaLand":3831133,"areaWater":0},"geometry":{"type":"Polygon","coordinates":[[[145.7371,15.17],[145.73675,15.16505],[145.74535,15.16158],[145.74105,15.1672],[145.74916,15.1751],[145.75121,15.17305],[145.76513,15.17653],[145.7584,15.18407],[145.74117,15.18551],[145.73862,15.18219],[145.7371,15.17]]]}},{"type":"Feature","id":"place:6923990","properties":{"geoid":"6923990","name":"Pekngasu","displayName":"Pekngasu Village","type":"Village","state":"MP","stateName":"Commonwealth of the Northern Mariana Islands","lsad":"47","sourceType":"place","priority":5,"areaLand":2441503,"areaWater":0},"geometry":{"type":"Polygon","coordinates":[[[145.22874,14.18792],[145.24065,14.18911],[145.25028,14.18651],[145.25059,14.19999],[145.24127,14.20024],[145.23567,14.19827],[145.23185,14.1961],[145.23287,14.19173],[145.22874,14.18792]]]}},{"type":"Feature","id":"place:6924000","properties":{"geoid":"6924000","name":"Pidos Kahalo","displayName":"Pidos Kahalo Village","type":"Village","state":"MP","stateName":"Commonwealth of the Northern Mariana Islands","lsad":"47","sourceType":"place","priority":5,"areaLand":1620226,"areaWater":0},"geometry":{"type":"Polygon","coordinates":[[[145.80035,15.27727],[145.79744,15.27523],[145.80934,15.26793],[145.80802,15.26603],[145.81003,15.26528],[145.81326,15.26676],[145.81355,15.26888],[145.81013,15.27105],[145.81275,15.27307],[145.81297,15.27726],[145.80601,15.281],[145.80335,15.28061],[145.80035,15.27727]]]}},{"type":"Feature","id":"place:6924100","properties":{"geoid":"6924100","name":"Puerto Rico","displayName":"Puerto Rico Village","type":"Village","state":"MP","stateName":"Commonwealth of the Northern Mariana Islands","lsad":"47","sourceType":"place","priority":5,"areaLand":448042,"areaWater":0},"geometry":{"type":"Polygon","coordinates":[[[145.72878,15.21824],[145.72937,15.21691],[145.73924,15.22505],[145.73505,15.22711],[145.73051,15.22236],[145.73146,15.21987],[145.72878,15.21824]]]}},{"type":"Feature","id":"place:6925100","properties":{"geoid":"6925100","name":"Sabaneta","displayName":"Sabaneta Village","type":"Village","state":"MP","stateName":"Commonwealth of the Northern Mariana Islands","lsad":"47","sourceType":"place","priority":5,"areaLand":575954,"areaWater":0},"geometry":{"type":"Polygon","coordinates":[[[145.79573,15.27621],[145.79744,15.27523],[145.80335,15.28061],[145.80601,15.281],[145.80569,15.28241],[145.8097,15.28561],[145.81582,15.28647],[145.8102,15.28968],[145.79891,15.2776],[145.79573,15.27621]]]}},{"type":"Feature","id":"place:6925200","properties":{"geoid":"6925200","name":"Sadog Tasi","displayName":"Sadog Tasi Village","type":"Village","state":"MP","stateName":"Commonwealth of the Northern Mariana Islands","lsad":"47","sourceType":"place","priority":5,"areaLand":227361,"areaWater":0},"geometry":{"type":"Polygon","coordinates":[[[145.74523,15.22586],[145.74401,15.22566],[145.74661,15.22208],[145.7495,15.22763],[145.74797,15.22892],[145.74523,15.22586]]]}},{"type":"Feature","id":"place:6925300","properties":{"geoid":"6925300","name":"Sailigai Papa","displayName":"Sailigai Papa Village","type":"Village","state":"MP","stateName":"Commonwealth of the Northern Mariana Islands","lsad":"47","sourceType":"place","priority":5,"areaLand":558785,"areaWater":0},"geometry":{"type":"Polygon","coordinates":[[[145.14988,14.15031],[145.1481,14.14971],[145.1529,14.14859],[145.15426,14.1516],[145.15977,14.15486],[145.16225,14.15425],[145.16402,14.15842],[145.15557,14.15631],[145.14988,14.15031]]]}},{"type":"Feature","id":"place:6942000","properties":{"geoid":"6942000","name":"San Antonio","displayName":"San Antonio Village","type":"Village","state":"MP","stateName":"Commonwealth of the Northern Mariana Islands","lsad":"47","sourceType":"place","priority":5,"areaLand":382115,"areaWater":0},"geometry":{"type":"Polygon","coordinates":[[[145.69237,15.13046],[145.69419,15.12461],[145.69857,15.13634],[145.69632,15.13706],[145.69237,15.13046]]]}},{"type":"Feature","id":"place:6947205","properties":{"geoid":"6947205","name":"San Jose (Oleai)","displayName":"San Jose (Oleai) Village","type":"Village","state":"MP","stateName":"Commonwealth of the Northern Mariana Islands","lsad":"47","sourceType":"place","priority":5,"areaLand":368808,"areaWater":0},"geometry":{"type":"Polygon","coordinates":[[[145.71072,15.17071],[145.70891,15.16622],[145.71202,15.16481],[145.7143,15.16016],[145.71611,15.16229],[145.71072,15.17071]]]}},{"type":"Feature","id":"place:6947210","properties":{"geoid":"6947210","name":"San Jose (Tinian Municipality)","displayName":"San Jose (Tinian Municipality) Village","type":"Village","state":"MP","stateName":"Commonwealth of the Northern Mariana Islands","lsad":"47","sourceType":"place","priority":5,"areaLand":4866063,"areaWater":1297074},"geometry":{"type":"Polygon","coordinates":[[[145.61246,14.97836],[145.61343,14.97137],[145.6223,14.96454],[145.62593,14.96509],[145.63136,14.95485],[145.63251,14.95711],[145.63654,14.95677],[145.63757,14.96815],[145.64142,14.96998],[145.63144,14.97077],[145.6324,14.98088],[145.61781,14.98219],[145.61299,14.98134],[145.61246,14.97836]]]}},{"type":"Feature","id":"place:6953100","properties":{"geoid":"6953100","name":"San Roque","displayName":"San Roque Village","type":"Village","state":"MP","stateName":"Commonwealth of the Northern Mariana Islands","lsad":"47","sourceType":"place","priority":5,"areaLand":1128430,"areaWater":0},"geometry":{"type":"Polygon","coordinates":[[[145.7687,15.24797],[145.77359,15.24211],[145.78294,15.24872],[145.77978,15.25412],[145.78046,15.25581],[145.7775,15.25291],[145.76952,15.25009],[145.7687,15.24797]]]}},{"type":"Feature","id":"place:6959000","properties":{"geoid":"6959000","name":"San Vicente","displayName":"San Vicente Village","type":"Village","state":"MP","stateName":"Commonwealth of the Northern Mariana Islands","lsad":"47","sourceType":"place","priority":5,"areaLand":2696186,"areaWater":0},"geometry":{"type":"Polygon","coordinates":[[[145.73002,15.15143],[145.73546,15.14527],[145.73743,15.14594],[145.74281,15.14382],[145.74906,15.15792],[145.74535,15.16158],[145.73977,15.16343],[145.73385,15.15602],[145.73391,15.15403],[145.73002,15.15143]]]}},{"type":"Feature","id":"place:6960500","properties":{"geoid":"6960500","name":"Sarigan","displayName":"Sarigan Village","type":"Village","state":"MP","stateName":"Commonwealth of the Northern Mariana Islands","lsad":"47","sourceType":"place","priority":5,"areaLand":4471768,"areaWater":0},"geometry":{"type":"Polygon","coordinates":[[[145.7667,16.70526],[145.7669,16.70273],[145.77605,16.69398],[145.78722,16.69195],[145.78626,16.69692],[145.78919,16.70474],[145.78687,16.71202],[145.78146,16.71546],[145.78116,16.71708],[145.77812,16.71701],[145.77397,16.71212],[145.7699,16.71117],[145.7667,16.70526]]]}},{"type":"Feature","id":"place:6961000","properties":{"geoid":"6961000","name":"Sayan Gigani","displayName":"Sayan Gigani Village","type":"Village","state":"MP","stateName":"Commonwealth of the Northern Mariana Islands","lsad":"47","sourceType":"place","priority":5,"areaLand":915670,"areaWater":0},"geometry":{"type":"Polygon","coordinates":[[[145.20892,14.18264],[145.20793,14.1818],[145.21115,14.17726],[145.22295,14.1857],[145.22006,14.1865],[145.22043,14.1901],[145.20892,14.18264]]]}},{"type":"Feature","id":"place:6962000","properties":{"geoid":"6962000","name":"Sinapalo","displayName":"Sinapalo Village","type":"Village","state":"MP","stateName":"Commonwealth of the Northern Mariana Islands","lsad":"47","sourceType":"place","priority":5,"areaLand":11369125,"areaWater":0},"geometry":{"type":"Polygon","coordinates":[[[145.20638,14.17101],[145.20716,14.16973],[145.21804,14.16789],[145.21464,14.1628],[145.23572,14.16201],[145.23576,14.15988],[145.23876,14.16006],[145.24181,14.16232],[145.2422,14.16462],[145.24337,14.16394],[145.24345,14.16848],[145.24911,14.16829],[145.26166,14.17966],[145.25474,14.1851],[145.24802,14.18787],[145.24065,14.18911],[145.23126,14.18834],[145.22295,14.1857],[145.21462,14.17605],[145.21085,14.17553],[145.20638,14.17101]]]}},{"type":"Feature","id":"place:6964900","properties":{"geoid":"6964900","name":"Songsong","displayName":"Songsong Village","type":"Village","state":"MP","stateName":"Commonwealth of the Northern Mariana Islands","lsad":"47","sourceType":"place","priority":5,"areaLand":617800,"areaWater":0},"geometry":{"type":"Polygon","coordinates":[[[145.13487,14.1368],[145.13821,14.13504],[145.14423,14.13958],[145.14591,14.13897],[145.14685,14.14111],[145.14464,14.1434],[145.14637,14.14503],[145.14362,14.14646],[145.13487,14.1368]]]}},{"type":"Feature","id":"place:6970800","properties":{"geoid":"6970800","name":"Susupe","displayName":"Susupe Village","type":"Village","state":"MP","stateName":"Commonwealth of the Northern Mariana Islands","lsad":"47","sourceType":"place","priority":5,"areaLand":1844666,"areaWater":185857},"geometry":{"type":"Polygon","coordinates":[[[145.70024,15.15677],[145.7001,15.15142],[145.70991,15.15282],[145.71078,15.15045],[145.71325,15.14932],[145.71824,15.15455],[145.71234,15.16214],[145.71202,15.16481],[145.70891,15.16622],[145.70024,15.15677]]]}},{"type":"Feature","id":"place:6970900","properties":{"geoid":"6970900","name":"Tagolo Ogso","displayName":"Tagolo Ogso Village","type":"Village","state":"MP","stateName":"Commonwealth of the Northern Mariana Islands","lsad":"47","sourceType":"place","priority":5,"areaLand":1547744,"areaWater":0},"geometry":{"type":"Polygon","coordinates":[[[145.16285,14.14907],[145.16499,14.1462],[145.16458,14.14215],[145.17708,14.13862],[145.17769,14.14308],[145.17989,14.14589],[145.17641,14.14587],[145.1755,14.14994],[145.16689,14.15039],[145.16285,14.14907]]]}},{"type":"Feature","id":"place:6971000","properties":{"geoid":"6971000","name":"Taimama","displayName":"Taimama Village","type":"Village","state":"MP","stateName":"Commonwealth of the Northern Mariana Islands","lsad":"47","sourceType":"place","priority":5,"areaLand":1172920,"areaWater":0},"geometry":{"type":"Polygon","coordinates":[[[145.14362,14.14646],[145.14988,14.15031],[145.15557,14.15631],[145.16402,14.15842],[145.16339,14.16301],[145.15924,14.16503],[145.1457,14.15114],[145.14362,14.14646]]]}},{"type":"Feature","id":"place:6972000","properties":{"geoid":"6972000","name":"Talafofo","displayName":"Talafofo Village","type":"Village","state":"MP","stateName":"Commonwealth of the Northern Mariana Islands","lsad":"47","sourceType":"place","priority":5,"areaLand":5716663,"areaWater":0},"geometry":{"type":"Polygon","coordinates":[[[145.76169,15.21108],[145.76132,15.20912],[145.78045,15.20541],[145.77909,15.21024],[145.79046,15.22536],[145.78029,15.23544],[145.76414,15.22145],[145.7634,15.21125],[145.76169,15.21108]]]}},{"type":"Feature","id":"place:6973000","properties":{"geoid":"6973000","name":"Talakhaya","displayName":"Talakhaya Village","type":"Village","state":"MP","stateName":"Commonwealth of the Northern Mariana Islands","lsad":"47","sourceType":"place","priority":5,"areaLand":3993849,"areaWater":0},"geometry":{"type":"Polygon","coordinates":[[[145.17036,14.11504],[145.17151,14.1134],[145.17376,14.11353],[145.18593,14.1179],[145.19815,14.11444],[145.19992,14.11541],[145.1983,14.11759],[145.20171,14.11827],[145.20098,14.12068],[145.20309,14.12062],[145.20287,14.12189],[145.20188,14.12405],[145.19815,14.12582],[145.17508,14.12938],[145.17223,14.11736],[145.17136,14.11832],[145.17036,14.11504]]]}},{"type":"Feature","id":"place:6974000","properties":{"geoid":"6974000","name":"Talo","displayName":"Talo Village","type":"Village","state":"MP","stateName":"Commonwealth of the Northern Mariana Islands","lsad":"47","sourceType":"place","priority":5,"areaLand":1399070,"areaWater":0},"geometry":{"type":"Polygon","coordinates":[[[145.19802,14.16893],[145.20036,14.16799],[145.2017,14.16097],[145.21464,14.1628],[145.21801,14.16625],[145.21604,14.16922],[145.19802,14.16893]]]}},{"type":"Feature","id":"place:6976700","properties":{"geoid":"6976700","name":"Tanapag","displayName":"Tanapag Village","type":"Village","state":"MP","stateName":"Commonwealth of the Northern Mariana Islands","lsad":"47","sourceType":"place","priority":5,"areaLand":786688,"areaWater":0},"geometry":{"type":"Polygon","coordinates":[[[145.74714,15.23724],[145.74924,15.231],[145.75619,15.23954],[145.76184,15.24257],[145.76133,15.24444],[145.75557,15.24352],[145.74714,15.23724]]]}},{"type":"Feature","id":"place:6976900","properties":{"geoid":"6976900","name":"Tangke","displayName":"Tangke Village","type":"Village","state":"MP","stateName":"Commonwealth of the Northern Mariana Islands","lsad":"47","sourceType":"place","priority":5,"areaLand":1545140,"areaWater":0},"geometry":{"type":"Polygon","coordinates":[[[145.78566,15.2421],[145.78621,15.23992],[145.79283,15.23556],[145.79772,15.24375],[145.80158,15.24608],[145.79577,15.25258],[145.78566,15.2421]]]}},{"type":"Feature","id":"place:6977000","properties":{"geoid":"6977000","name":"Tapochao","displayName":"Tapochao Village","type":"Village","state":"MP","stateName":"Commonwealth of the Northern Mariana Islands","lsad":"47","sourceType":"place","priority":5,"areaLand":1615168,"areaWater":0},"geometry":{"type":"Polygon","coordinates":[[[145.74141,15.20556],[145.74166,15.1855],[145.74601,15.18545],[145.74994,15.20769],[145.74806,15.20568],[145.74518,15.20724],[145.7463,15.20824],[145.74141,15.20556]]]}},{"type":"Feature","id":"place:6977100","properties":{"geoid":"6977100","name":"Tatachok","displayName":"Tatachok Village","type":"Village","state":"MP","stateName":"Commonwealth of the Northern Mariana Islands","lsad":"47","sourceType":"place","priority":5,"areaLand":3643712,"areaWater":0},"geometry":{"type":"Polygon","coordinates":[[[145.15789,14.16586],[145.16339,14.16301],[145.16439,14.16009],[145.16225,14.15425],[145.1653,14.15439],[145.18001,14.15857],[145.19064,14.16489],[145.19069,14.17353],[145.17382,14.16701],[145.16114,14.16848],[145.15789,14.16586]]]}},{"type":"Feature","id":"place:6977200","properties":{"geoid":"6977200","name":"Tatgua","displayName":"Tatgua Village","type":"Village","state":"MP","stateName":"Commonwealth of the Northern Mariana Islands","lsad":"47","sourceType":"place","priority":5,"areaLand":1852597,"areaWater":0},"geometry":{"type":"Polygon","coordinates":[[[145.19069,14.17353],[145.19085,14.1678],[145.20716,14.16973],[145.20638,14.17101],[145.21085,14.17553],[145.21462,14.17605],[145.21875,14.18209],[145.21115,14.17726],[145.20793,14.1818],[145.20303,14.17711],[145.19644,14.17409],[145.19069,14.17353]]]}},{"type":"Feature","id":"place:6977300","properties":{"geoid":"6977300","name":"Tenetu","displayName":"Tenetu Village","type":"Village","state":"MP","stateName":"Commonwealth of the Northern Mariana Islands","lsad":"47","sourceType":"place","priority":5,"areaLand":437194,"areaWater":0},"geometry":{"type":"Polygon","coordinates":[[[145.1498,14.14049],[145.14981,14.13832],[145.15823,14.13372],[145.1609,14.13487],[145.15285,14.14162],[145.1503,14.14198],[145.1498,14.14049]]]}},{"type":"Feature","id":"place:6989000","properties":{"geoid":"6989000","name":"Tottotville","displayName":"Tottotville Village","type":"Village","state":"MP","stateName":"Commonwealth of the Northern Mariana Islands","lsad":"47","sourceType":"place","priority":5,"areaLand":265078,"areaWater":0},"geometry":{"type":"Polygon","coordinates":[[[145.70921,15.12773],[145.70991,15.12506],[145.71769,15.12831],[145.71242,15.13025],[145.70921,15.12773]]]}},{"type":"Feature","id":"place:6989100","properties":{"geoid":"6989100","name":"Ugis","displayName":"Ugis Village","type":"Village","state":"MP","stateName":"Commonwealth of the Northern Mariana Islands","lsad":"47","sourceType":"place","priority":5,"areaLand":130575,"areaWater":0},"geometry":{"type":"Polygon","coordinates":[[[145.14303,14.14598],[145.1457,14.15114],[145.15924,14.16503],[145.14561,14.15167],[145.14303,14.14598]]]}},{"type":"Feature","id":"place:6989200","properties":{"geoid":"6989200","name":"Uracus (Farallon de Pajaros)","displayName":"Uracus (Farallon de Pajaros) Village","type":"Village","state":"MP","stateName":"Commonwealth of the Northern Mariana Islands","lsad":"47","sourceType":"place","priority":5,"areaLand":2248275,"areaWater":0},"geometry":{"type":"Polygon","coordinates":[[[144.88692,20.54417],[144.88751,20.53817],[144.8943,20.5365],[144.89756,20.53771],[144.90291,20.54574],[144.90177,20.54888],[144.89685,20.54911],[144.89338,20.55325],[144.88741,20.55007],[144.88692,20.54417]]]}},{"type":"Feature","id":"place:6989300","properties":{"geoid":"6989300","name":"Western Tinian","displayName":"Western Tinian Village","type":"Village","state":"MP","stateName":"Commonwealth of the Northern Mariana Islands","lsad":"47","sourceType":"place","priority":5,"areaLand":29508928,"areaWater":1096},"geometry":{"type":"Polygon","coordinates":[[[145.58241,15.01778],[145.58401,15.01388],[145.58766,15.01241],[145.58874,15.00952],[145.58494,14.99772],[145.58582,14.99459],[145.59258,14.99001],[145.59639,14.98979],[145.6031,14.99232],[145.60831,14.99108],[145.60894,14.98594],[145.61299,14.98134],[145.6324,14.98088],[145.63738,15.0349],[145.59513,15.0385],[145.58982,15.03719],[145.58241,15.01778]]]}}]}