{"type":"FeatureCollection","features":[{"type":"Feature","id":"cousub:4400105140","properties":{"geoid":"4400105140","name":"Barrington","displayName":"Barrington Town","type":"Town","state":"RI","stateName":"Rhode Island","lsad":"43","sourceType":"county_subdivision","priority":4,"areaLand":21198328,"areaWater":18699186,"county":"Bristol County","countyGeoid":"44001"},"geometry":{"type":"Polygon","coordinates":[[[-71.3539,41.7513],[-71.35582,41.74506],[-71.35229,41.74506],[-71.34825,41.74205],[-71.34445,41.73619],[-71.34112,41.73477],[-71.33946,41.72484],[-71.32419,41.72538],[-71.30713,41.72165],[-71.30576,41.71866],[-71.30798,41.71276],[-71.3038,41.70657],[-71.30145,41.70644],[-71.2988,41.71101],[-71.29534,41.70721],[-71.28929,41.716],[-71.28729,41.7285],[-71.2898,41.73381],[-71.289,41.73896],[-71.28659,41.7424],[-71.2844,41.76201],[-71.31792,41.77616],[-71.3539,41.7513]]]}},{"type":"Feature","id":"cousub:4400109280","properties":{"geoid":"4400109280","name":"Bristol","displayName":"Bristol Town","type":"Town","state":"RI","stateName":"Rhode Island","lsad":"43","sourceType":"county_subdivision","priority":4,"areaLand":25352631,"areaWater":27927480,"county":"Bristol County","countyGeoid":"44001"},"geometry":{"type":"Polygon","coordinates":[[[-71.3061,41.67258],[-71.30375,41.65479],[-71.3014,41.64998],[-71.29916,41.64953],[-71.29786,41.65828],[-71.29055,41.66239],[-71.28764,41.67246],[-71.28907,41.67959],[-71.2855,41.68243],[-71.27885,41.67835],[-71.28037,41.67258],[-71.27766,41.66628],[-71.2691,41.66006],[-71.26768,41.6574],[-71.27008,41.65244],[-71.26706,41.64494],[-71.25956,41.6426],[-71.25674,41.65029],[-71.2546,41.65225],[-71.25342,41.66059],[-71.25033,41.66503],[-71.24438,41.66912],[-71.23844,41.66556],[-71.23464,41.67746],[-71.24248,41.68793],[-71.24581,41.69716],[-71.24369,41.69839],[-71.24443,41.70121],[-71.25153,41.71541],[-71.29138,41.70955],[-71.29404,41.71028],[-71.29534,41.70721],[-71.29122,41.70267],[-71.29312,41.68835],[-71.29894,41.68152],[-71.30263,41.68175],[-71.3061,41.67258]]]}},{"type":"Feature","id":"cousub:4400173760","properties":{"geoid":"4400173760","name":"Warren","displayName":"Warren Town","type":"Town","state":"RI","stateName":"Rhode Island","lsad":"43","sourceType":"county_subdivision","priority":4,"areaLand":15949813,"areaWater":6732451,"county":"Bristol County","countyGeoid":"44001"},"geometry":{"type":"Polygon","coordinates":[[[-71.29285,41.71176],[-71.29404,41.71028],[-71.29138,41.70955],[-71.25153,41.71541],[-71.24369,41.69839],[-71.24099,41.69774],[-71.22788,41.7055],[-71.2248,41.7105],[-71.26139,41.7523],[-71.2844,41.76201],[-71.28659,41.7424],[-71.289,41.73896],[-71.2898,41.73381],[-71.28729,41.7285],[-71.2876,41.72295],[-71.28929,41.716],[-71.29285,41.71176]]]}},{"type":"Feature","id":"cousub:4400318640","properties":{"geoid":"4400318640","name":"Coventry","displayName":"Coventry Town","type":"Town","state":"RI","stateName":"Rhode Island","lsad":"43","sourceType":"county_subdivision","priority":4,"areaLand":152969602,"areaWater":8666762,"county":"Kent County","countyGeoid":"44003"},"geometry":{"type":"Polygon","coordinates":[[[-71.78969,41.7252],[-71.787,41.65612],[-71.53338,41.66216],[-71.53429,41.73017],[-71.54735,41.7312],[-71.54743,41.73002],[-71.78969,41.7252]]]}},{"type":"Feature","id":"cousub:4400322240","properties":{"geoid":"4400322240","name":"East Greenwich","displayName":"East Greenwich Town","type":"Town","state":"RI","stateName":"Rhode Island","lsad":"43","sourceType":"county_subdivision","priority":4,"areaLand":42413278,"areaWater":629589,"county":"Kent County","countyGeoid":"44003"},"geometry":{"type":"Polygon","coordinates":[[[-71.54711,41.66185],[-71.54481,41.60199],[-71.48443,41.60259],[-71.48545,41.61297],[-71.4875,41.61349],[-71.48804,41.61605],[-71.48607,41.61983],[-71.48248,41.62358],[-71.47132,41.62908],[-71.47253,41.63208],[-71.46967,41.63454],[-71.46784,41.63417],[-71.46869,41.63859],[-71.46483,41.6389],[-71.46565,41.6431],[-71.45865,41.64927],[-71.45517,41.64738],[-71.45216,41.64849],[-71.44602,41.65538],[-71.44238,41.66361],[-71.54711,41.66185]]]}},{"type":"Feature","id":"cousub:4400374300","properties":{"geoid":"4400374300","name":"Warwick","displayName":"Warwick City","type":"City","state":"RI","stateName":"Rhode Island","lsad":"25","sourceType":"county_subdivision","priority":4,"areaLand":90651869,"areaWater":38201407,"county":"Kent County","countyGeoid":"44003"},"geometry":{"type":"MultiPolygon","coordinates":[[[[-71.46869,41.63859],[-71.46784,41.63417],[-71.46235,41.63838],[-71.45912,41.63795],[-71.45558,41.63511],[-71.4544,41.6312],[-71.45137,41.62946],[-71.44845,41.63338],[-71.44929,41.63673],[-71.44199,41.64328],[-71.44251,41.64582],[-71.4328,41.65132],[-71.42894,41.65057],[-71.42388,41.65389],[-71.41758,41.65495],[-71.40888,41.65384],[-71.40862,41.66317],[-71.41765,41.6653],[-71.42428,41.67027],[-71.43475,41.66626],[-71.44015,41.66684],[-71.44602,41.65538],[-71.45216,41.64849],[-71.45517,41.64738],[-71.45865,41.64927],[-71.46565,41.6431],[-71.46483,41.6389],[-71.46869,41.63859]]],[[[-71.51891,41.6959],[-71.50168,41.69647],[-71.49922,41.66295],[-71.44493,41.66403],[-71.44702,41.67122],[-71.44427,41.67365],[-71.4477,41.67787],[-71.4502,41.68646],[-71.44592,41.69114],[-71.4419,41.69002],[-71.44308,41.6883],[-71.44134,41.68645],[-71.43382,41.68696],[-71.41807,41.68421],[-71.39055,41.6841],[-71.38943,41.68342],[-71.39078,41.68063],[-71.38988,41.6719],[-71.38628,41.67098],[-71.38205,41.66732],[-71.37791,41.66665],[-71.37299,41.67258],[-71.37344,41.67861],[-71.37154,41.68536],[-71.36489,41.68838],[-71.36275,41.69193],[-71.3656,41.6937],[-71.36441,41.7047],[-71.36572,41.71162],[-71.35728,41.71659],[-71.35728,41.71819],[-71.36988,41.71828],[-71.37653,41.72165],[-71.38105,41.72732],[-71.38081,41.73885],[-71.37606,41.74417],[-71.38057,41.74595],[-71.38105,41.7557],[-71.3838,41.75851],[-71.38566,41.75842],[-71.38852,41.76378],[-71.39412,41.76404],[-71.39563,41.76668],[-71.39958,41.76832],[-71.40139,41.76655],[-71.4052,41.76761],[-71.4107,41.76655],[-71.41438,41.76295],[-71.42009,41.76175],[-71.41872,41.76408],[-71.42199,41.76458],[-71.42622,41.76102],[-71.43297,41.75934],[-71.43378,41.76144],[-71.44057,41.75791],[-71.43912,41.75639],[-71.44116,41.75471],[-71.44062,41.75215],[-71.44654,41.74889],[-71.44436,41.74421],[-71.44468,41.74016],[-71.45128,41.7397],[-71.45374,41.73743],[-71.45285,41.73434],[-71.45534,41.73236],[-71.48391,41.7316],[-71.48551,41.72633],[-71.49028,41.72123],[-71.49054,41.71752],[-71.49289,41.71783],[-71.49712,41.71317],[-71.50488,41.71139],[-71.51276,41.70667],[-71.51891,41.6959]]]]}},{"type":"Feature","id":"cousub:4400377720","properties":{"geoid":"4400377720","name":"West Greenwich","displayName":"West Greenwich Town","type":"Town","state":"RI","stateName":"Rhode Island","lsad":"43","sourceType":"county_subdivision","priority":4,"areaLand":130269420,"areaWater":2598306,"county":"Kent County","countyGeoid":"44003"},"geometry":{"type":"Polygon","coordinates":[[[-71.78936,41.59691],[-71.65357,41.5987],[-71.64398,41.60098],[-71.54481,41.60199],[-71.54711,41.66185],[-71.787,41.65612],[-71.78936,41.59691]]]}},{"type":"Feature","id":"cousub:4400378440","properties":{"geoid":"4400378440","name":"West Warwick","displayName":"West Warwick Town","type":"Town","state":"RI","stateName":"Rhode Island","lsad":"43","sourceType":"county_subdivision","priority":4,"areaLand":20284599,"areaWater":590046,"county":"Kent County","countyGeoid":"44003"},"geometry":{"type":"Polygon","coordinates":[[[-71.53429,41.73017],[-71.53338,41.66216],[-71.49922,41.66295],[-71.50168,41.69647],[-71.51891,41.6959],[-71.51276,41.70667],[-71.50488,41.71139],[-71.49712,41.71317],[-71.49289,41.71783],[-71.49054,41.71752],[-71.49028,41.72123],[-71.48551,41.72633],[-71.48391,41.7316],[-71.53429,41.73017]]]}},{"type":"Feature","id":"cousub:4400536820","properties":{"geoid":"4400536820","name":"Jamestown","displayName":"Jamestown Town","type":"Town","state":"RI","stateName":"Rhode Island","lsad":"43","sourceType":"county_subdivision","priority":4,"areaLand":24469391,"areaWater":66991102,"county":"Newport County","countyGeoid":"44005"},"geometry":{"type":"MultiPolygon","coordinates":[[[[-71.34591,41.53695],[-71.34591,41.52958],[-71.34257,41.52902],[-71.34313,41.53584],[-71.34498,41.53792],[-71.34591,41.53695]]],[[[-71.40056,41.46094],[-71.39957,41.4486],[-71.39028,41.45504],[-71.38903,41.46555],[-71.3845,41.46411],[-71.38159,41.46806],[-71.38624,41.48769],[-71.38066,41.4888],[-71.37676,41.47488],[-71.37509,41.47376],[-71.37174,41.47752],[-71.36424,41.47648],[-71.35432,41.47889],[-71.35409,41.48045],[-71.35948,41.48309],[-71.36654,41.49479],[-71.36598,41.49882],[-71.35892,41.50328],[-71.35762,41.5087],[-71.35985,41.51065],[-71.36338,41.5101],[-71.36561,41.51399],[-71.36134,41.52638],[-71.36468,41.5414],[-71.3604,41.54779],[-71.35987,41.55631],[-71.36356,41.57086],[-71.37019,41.57396],[-71.37362,41.57321],[-71.37902,41.56777],[-71.38132,41.56312],[-71.38141,41.55879],[-71.38448,41.55674],[-71.38661,41.54583],[-71.38568,41.53904],[-71.38884,41.53445],[-71.39214,41.52447],[-71.39256,41.51761],[-71.39101,41.51458],[-71.37891,41.50495],[-71.38345,41.50105],[-71.38494,41.49701],[-71.38401,41.49381],[-71.39237,41.49186],[-71.39944,41.49298],[-71.40055,41.49033],[-71.39751,41.48698],[-71.39665,41.47892],[-71.39758,41.47376],[-71.39442,41.46722],[-71.40056,41.46094]]],[[[-71.4051,41.49821],[-71.40324,41.49758],[-71.39628,41.5037],[-71.39739,41.5062],[-71.40141,41.50627],[-71.40363,41.50457],[-71.4051,41.49821]]]]}},{"type":"Feature","id":"cousub:4400542400","properties":{"geoid":"4400542400","name":"Little Compton","displayName":"Little Compton Town","type":"Town","state":"RI","stateName":"Rhode Island","lsad":"43","sourceType":"county_subdivision","priority":4,"areaLand":53215173,"areaWater":21426417,"county":"Newport County","countyGeoid":"44005"},"geometry":{"type":"Polygon","coordinates":[[[-71.21172,41.54545],[-71.20683,41.54347],[-71.20493,41.5408],[-71.20826,41.52888],[-71.2048,41.52334],[-71.20477,41.5191],[-71.20079,41.51437],[-71.20638,41.49922],[-71.20226,41.49838],[-71.19969,41.49551],[-71.19939,41.49177],[-71.19017,41.48428],[-71.19235,41.46656],[-71.19661,41.46476],[-71.19686,41.46112],[-71.19398,41.4564],[-71.18628,41.46028],[-71.17554,41.45985],[-71.17362,41.46142],[-71.16865,41.46145],[-71.17023,41.46838],[-71.16734,41.4714],[-71.1631,41.47174],[-71.15927,41.47598],[-71.15086,41.47582],[-71.14646,41.4785],[-71.14575,41.48118],[-71.14244,41.48122],[-71.13909,41.48345],[-71.14109,41.48994],[-71.13687,41.49394],[-71.12057,41.49745],[-71.12762,41.56323],[-71.21172,41.54545]]]}},{"type":"Feature","id":"cousub:4400545460","properties":{"geoid":"4400545460","name":"Middletown","displayName":"Middletown Town","type":"Town","state":"RI","stateName":"Rhode Island","lsad":"43","sourceType":"county_subdivision","priority":4,"areaLand":32891675,"areaWater":5406459,"county":"Newport County","countyGeoid":"44005"},"geometry":{"type":"Polygon","coordinates":[[[-71.3127,41.53651],[-71.31415,41.53145],[-71.31135,41.52422],[-71.31267,41.52143],[-71.30152,41.50595],[-71.28567,41.48897],[-71.28231,41.48829],[-71.27664,41.48004],[-71.27486,41.47985],[-71.26886,41.4847],[-71.26764,41.48821],[-71.26479,41.4889],[-71.25208,41.48592],[-71.24586,41.48164],[-71.24737,41.473],[-71.24043,41.47615],[-71.23744,41.48571],[-71.24426,41.48574],[-71.24799,41.49029],[-71.24667,41.49426],[-71.24074,41.5017],[-71.24074,41.50555],[-71.23345,41.51407],[-71.26566,41.53827],[-71.30161,41.56203],[-71.31053,41.54692],[-71.31113,41.54405],[-71.30808,41.54294],[-71.30808,41.53938],[-71.3127,41.53651]]]}},{"type":"Feature","id":"cousub:4400549960","properties":{"geoid":"4400549960","name":"Newport","displayName":"Newport City","type":"City","state":"RI","stateName":"Rhode Island","lsad":"25","sourceType":"county_subdivision","priority":4,"areaLand":19828477,"areaWater":9630691,"county":"Newport County","countyGeoid":"44005"},"geometry":{"type":"MultiPolygon","coordinates":[[[[-71.32757,41.45287],[-71.32565,41.45211],[-71.3243,41.45392],[-71.32635,41.45471],[-71.32757,41.45287]]],[[[-71.32883,41.49233],[-71.32782,41.48298],[-71.32537,41.4876],[-71.32696,41.49312],[-71.32883,41.49233]]],[[[-71.34313,41.49729],[-71.34313,41.49493],[-71.33867,41.49493],[-71.34127,41.50049],[-71.34313,41.49729]]],[[[-71.36291,41.46175],[-71.3588,41.45966],[-71.35616,41.45054],[-71.35361,41.44975],[-71.34418,41.45403],[-71.33793,41.45169],[-71.33804,41.44953],[-71.33476,41.44952],[-71.32691,41.45894],[-71.32375,41.46013],[-71.32033,41.45978],[-71.31691,41.45479],[-71.31256,41.4565],[-71.31098,41.45511],[-71.31205,41.45138],[-71.31017,41.45112],[-71.30439,41.4545],[-71.30276,41.45975],[-71.30398,41.46372],[-71.30141,41.46728],[-71.29818,41.46749],[-71.29685,41.46913],[-71.29739,41.48479],[-71.28567,41.48897],[-71.30242,41.507],[-71.31267,41.52143],[-71.31458,41.51981],[-71.3209,41.51949],[-71.32399,41.52241],[-71.32713,41.52159],[-71.32803,41.51885],[-71.32545,41.51728],[-71.32604,41.51431],[-71.32931,41.51383],[-71.33069,41.5077],[-71.3278,41.50426],[-71.32312,41.50309],[-71.32282,41.49115],[-71.32115,41.48812],[-71.31806,41.48776],[-71.31652,41.47756],[-71.32353,41.47583],[-71.33599,41.46965],[-71.33438,41.4782],[-71.33644,41.48198],[-71.3479,41.47059],[-71.35277,41.46924],[-71.35827,41.46443],[-71.36119,41.46462],[-71.36291,41.46175]]]]}},{"type":"Feature","id":"cousub:4400557880","properties":{"geoid":"4400557880","name":"Portsmouth","displayName":"Portsmouth Town","type":"Town","state":"RI","stateName":"Rhode Island","lsad":"43","sourceType":"county_subdivision","priority":4,"areaLand":59635471,"areaWater":94130616,"county":"Newport County","countyGeoid":"44005"},"geometry":{"type":"MultiPolygon","coordinates":[[[[-71.28802,41.64558],[-71.28816,41.64295],[-71.28534,41.64038],[-71.28535,41.63685],[-71.27704,41.63803],[-71.27213,41.63706],[-71.27635,41.64053],[-71.27817,41.64731],[-71.28647,41.64757],[-71.28802,41.64558]]],[[[-71.30151,41.58566],[-71.30081,41.58061],[-71.29716,41.57977],[-71.29856,41.58492],[-71.30151,41.58566]]],[[[-71.30119,41.56246],[-71.23345,41.51407],[-71.22944,41.52154],[-71.22799,41.5283],[-71.22894,41.5303],[-71.23478,41.53254],[-71.23664,41.53585],[-71.23488,41.54169],[-71.23652,41.54489],[-71.23369,41.55236],[-71.23384,41.55379],[-71.23702,41.55485],[-71.2382,41.55876],[-71.23488,41.57655],[-71.23779,41.5776],[-71.2436,41.58751],[-71.24071,41.61922],[-71.21674,41.62559],[-71.21393,41.6391],[-71.21658,41.6391],[-71.22033,41.65557],[-71.22537,41.6471],[-71.23226,41.64337],[-71.23323,41.64023],[-71.23654,41.63839],[-71.24628,41.63981],[-71.25108,41.63878],[-71.25888,41.63323],[-71.26102,41.62738],[-71.27186,41.62399],[-71.27523,41.61944],[-71.27241,41.61504],[-71.27344,41.60699],[-71.28065,41.59285],[-71.28526,41.59237],[-71.28907,41.58271],[-71.28574,41.58277],[-71.28408,41.57939],[-71.28514,41.57713],[-71.28838,41.57327],[-71.29436,41.57142],[-71.30119,41.56246]]],[[[-71.35382,41.64747],[-71.35073,41.63391],[-71.34735,41.63128],[-71.34496,41.63233],[-71.33737,41.63128],[-71.32556,41.62414],[-71.32661,41.61611],[-71.33006,41.6111],[-71.32956,41.6091],[-71.33375,41.60586],[-71.33705,41.59469],[-71.33595,41.5859],[-71.3312,41.58032],[-71.3261,41.57858],[-71.3167,41.58313],[-71.30489,41.60448],[-71.30264,41.60553],[-71.30433,41.60795],[-71.30405,41.61878],[-71.30812,41.62624],[-71.31403,41.62792],[-71.31712,41.63139],[-71.32682,41.6317],[-71.3347,41.63444],[-71.3406,41.63969],[-71.34367,41.6399],[-71.34468,41.64253],[-71.33709,41.64673],[-71.33498,41.64421],[-71.33652,41.6419],[-71.33343,41.64179],[-71.33245,41.64379],[-71.33807,41.65083],[-71.33934,41.65503],[-71.33765,41.65797],[-71.34402,41.6615],[-71.34482,41.66701],[-71.3489,41.66532],[-71.34693,41.66333],[-71.35157,41.6586],[-71.34327,41.65377],[-71.34763,41.65282],[-71.3503,41.64904],[-71.35284,41.64925],[-71.35382,41.64747]]],[[[-71.36704,41.6607],[-71.36254,41.65114],[-71.36001,41.64988],[-71.35635,41.65209],[-71.3534,41.65787],[-71.35466,41.65976],[-71.36071,41.66112],[-71.36704,41.6607]]],[[[-71.37224,41.59985],[-71.37336,41.59744],[-71.37168,41.59733],[-71.36479,41.60143],[-71.36338,41.60669],[-71.36732,41.60595],[-71.37224,41.59985]]]]}},{"type":"Feature","id":"cousub:4400570880","properties":{"geoid":"4400570880","name":"Tiverton","displayName":"Tiverton Town","type":"Town","state":"RI","stateName":"Rhode Island","lsad":"43","sourceType":"county_subdivision","priority":4,"areaLand":75254506,"areaWater":18875638,"county":"Newport County","countyGeoid":"44005"},"geometry":{"type":"Polygon","coordinates":[[[-71.221,41.56088],[-71.21378,41.5568],[-71.216,41.54718],[-71.21172,41.54545],[-71.12762,41.56323],[-71.13162,41.59392],[-71.14059,41.6051],[-71.14151,41.61608],[-71.14047,41.62389],[-71.13569,41.6284],[-71.13289,41.6601],[-71.17609,41.6681],[-71.17599,41.6714],[-71.19564,41.67509],[-71.20802,41.65314],[-71.21182,41.6391],[-71.21393,41.6391],[-71.21674,41.62559],[-71.21184,41.62353],[-71.21266,41.61007],[-71.20374,41.5961],[-71.2054,41.59432],[-71.20921,41.59397],[-71.20944,41.59059],[-71.21467,41.58597],[-71.21444,41.58366],[-71.20835,41.58117],[-71.20982,41.55871],[-71.21142,41.55822],[-71.21871,41.56268],[-71.221,41.56088]]]}},{"type":"Feature","id":"cousub:4400711800","properties":{"geoid":"4400711800","name":"Burrillville","displayName":"Burrillville Town","type":"Town","state":"RI","stateName":"Rhode Island","lsad":"43","sourceType":"county_subdivision","priority":4,"areaLand":142233932,"areaWater":5391503,"county":"Providence County","countyGeoid":"44007"},"geometry":{"type":"Polygon","coordinates":[[[-71.79924,42.00806],[-71.79765,41.92865],[-71.59031,41.93366],[-71.60673,42.01341],[-71.79924,42.00806]]]}},{"type":"Feature","id":"cousub:4400714140","properties":{"geoid":"4400714140","name":"Central Falls","displayName":"Central Falls City","type":"City","state":"RI","stateName":"Rhode Island","lsad":"25","sourceType":"county_subdivision","priority":4,"areaLand":3092443,"areaWater":208466,"county":"Providence County","countyGeoid":"44007"},"geometry":{"type":"Polygon","coordinates":[[[-71.40706,41.89191],[-71.40371,41.88106],[-71.38101,41.88407],[-71.38022,41.88793],[-71.38309,41.88987],[-71.3817,41.89706],[-71.38635,41.89964],[-71.40469,41.89478],[-71.40706,41.89191]]]}},{"type":"Feature","id":"cousub:4400719180","properties":{"geoid":"4400719180","name":"Cranston","displayName":"Cranston City","type":"City","state":"RI","stateName":"Rhode Island","lsad":"25","sourceType":"county_subdivision","priority":4,"areaLand":73413567,"areaWater":4331474,"county":"Providence County","countyGeoid":"44007"},"geometry":{"type":"Polygon","coordinates":[[[-71.55524,41.78954],[-71.55929,41.78934],[-71.54878,41.73661],[-71.54581,41.7301],[-71.45534,41.73236],[-71.45285,41.73434],[-71.45374,41.73743],[-71.45128,41.7397],[-71.44468,41.74016],[-71.44436,41.74421],[-71.44654,41.74889],[-71.44062,41.75215],[-71.44116,41.75471],[-71.43912,41.75639],[-71.44057,41.75791],[-71.43378,41.76144],[-71.43297,41.75934],[-71.42622,41.76102],[-71.4198,41.76479],[-71.41872,41.76408],[-71.42009,41.76175],[-71.41908,41.76188],[-71.41438,41.76295],[-71.4107,41.76655],[-71.4052,41.76761],[-71.40139,41.76655],[-71.39958,41.76832],[-71.39563,41.76668],[-71.39412,41.76404],[-71.38852,41.76378],[-71.38566,41.75842],[-71.3838,41.75851],[-71.38557,41.76031],[-71.3855,41.76866],[-71.39174,41.78105],[-71.39056,41.78371],[-71.38247,41.7851],[-71.40426,41.78585],[-71.40305,41.78298],[-71.40511,41.77933],[-71.40879,41.77813],[-71.41004,41.77376],[-71.41195,41.77238],[-71.41496,41.77319],[-71.42381,41.77727],[-71.42061,41.78618],[-71.43405,41.78631],[-71.43648,41.78841],[-71.43934,41.79724],[-71.43927,41.80203],[-71.44222,41.8072],[-71.46367,41.80505],[-71.46603,41.80375],[-71.46758,41.79811],[-71.4716,41.79831],[-71.47231,41.79646],[-71.48135,41.7965],[-71.48941,41.79168],[-71.50307,41.78914],[-71.51894,41.78888],[-71.53423,41.79321],[-71.54731,41.79213],[-71.55524,41.78954]]]}},{"type":"Feature","id":"cousub:4400720080","properties":{"geoid":"4400720080","name":"Cumberland","displayName":"Cumberland Town","type":"Town","state":"RI","stateName":"Rhode Island","lsad":"43","sourceType":"county_subdivision","priority":4,"areaLand":68601209,"areaWater":4683753,"county":"Providence County","countyGeoid":"44007"},"geometry":{"type":"Polygon","coordinates":[[[-71.48736,41.97908],[-71.47866,41.97714],[-71.47414,41.97262],[-71.46536,41.96939],[-71.46178,41.95742],[-71.45522,41.95563],[-71.45099,41.94991],[-71.44255,41.94741],[-71.43096,41.93464],[-71.43094,41.92699],[-71.42833,41.92354],[-71.4217,41.92214],[-71.40539,41.911],[-71.39905,41.91205],[-71.39705,41.91062],[-71.40048,41.90137],[-71.3943,41.89765],[-71.38827,41.8998],[-71.3817,41.89706],[-71.3814,42.0188],[-71.45812,42.01776],[-71.45989,42.00757],[-71.48736,41.97908]]]}},{"type":"Feature","id":"cousub:4400722960","properties":{"geoid":"4400722960","name":"East Providence","displayName":"East Providence City","type":"City","state":"RI","stateName":"Rhode Island","lsad":"25","sourceType":"county_subdivision","priority":4,"areaLand":34406029,"areaWater":8602869,"county":"Providence County","countyGeoid":"44007"},"geometry":{"type":"Polygon","coordinates":[[[-71.39526,41.81167],[-71.3935,41.8071],[-71.3852,41.8021],[-71.3808,41.7963],[-71.37331,41.79112],[-71.37271,41.78852],[-71.372,41.78982],[-71.36969,41.78306],[-71.37169,41.78338],[-71.37058,41.78087],[-71.36798,41.7807],[-71.36513,41.7775],[-71.36608,41.77112],[-71.36964,41.76456],[-71.36465,41.76474],[-71.3618,41.76066],[-71.36085,41.75517],[-71.36235,41.75089],[-71.36013,41.74949],[-71.3599,41.74506],[-71.35582,41.74506],[-71.3539,41.7513],[-71.31792,41.77616],[-71.3279,41.7805],[-71.3322,41.7923],[-71.3407,41.7983],[-71.3389,41.8083],[-71.3472,41.8231],[-71.3449,41.828],[-71.3352,41.8355],[-71.3422,41.8448],[-71.33465,41.86131],[-71.37502,41.85745],[-71.37233,41.85055],[-71.37359,41.83249],[-71.38708,41.81637],[-71.39353,41.81476],[-71.39526,41.81167]]]}},{"type":"Feature","id":"cousub:4400727460","properties":{"geoid":"4400727460","name":"Foster","displayName":"Foster Town","type":"Town","state":"RI","stateName":"Rhode Island","lsad":"43","sourceType":"county_subdivision","priority":4,"areaLand":131446006,"areaWater":2835602,"county":"Providence County","countyGeoid":"44007"},"geometry":{"type":"Polygon","coordinates":[[[-71.79469,41.85441],[-71.78969,41.7252],[-71.66843,41.72747],[-71.69101,41.85646],[-71.79469,41.85441]]]}},{"type":"Feature","id":"cousub:4400730340","properties":{"geoid":"4400730340","name":"Glocester","displayName":"Glocester Town","type":"Town","state":"RI","stateName":"Rhode Island","lsad":"43","sourceType":"county_subdivision","priority":4,"areaLand":140463701,"areaWater":6914230,"county":"Providence County","countyGeoid":"44007"},"geometry":{"type":"Polygon","coordinates":[[[-71.79765,41.92865],[-71.79469,41.85441],[-71.57464,41.85875],[-71.59031,41.93366],[-71.79765,41.92865]]]}},{"type":"Feature","id":"cousub:4400737720","properties":{"geoid":"4400737720","name":"Johnston","displayName":"Johnston Town","type":"Town","state":"RI","stateName":"Rhode Island","lsad":"43","sourceType":"county_subdivision","priority":4,"areaLand":60806167,"areaWater":2281434,"county":"Providence County","countyGeoid":"44007"},"geometry":{"type":"Polygon","coordinates":[[[-71.57361,41.85881],[-71.57464,41.85875],[-71.57188,41.84428],[-71.55929,41.78934],[-71.53423,41.79321],[-71.51894,41.78888],[-71.50307,41.78914],[-71.48941,41.79168],[-71.48135,41.7965],[-71.47231,41.79646],[-71.4716,41.79831],[-71.46758,41.79811],[-71.46603,41.80375],[-71.46367,41.80505],[-71.46916,41.80486],[-71.4668,41.8078],[-71.4687,41.8106],[-71.46655,41.81074],[-71.47131,41.82414],[-71.46242,41.82469],[-71.46243,41.82741],[-71.46477,41.83105],[-71.47243,41.83418],[-71.47331,41.83898],[-71.47722,41.83791],[-71.48097,41.85082],[-71.48564,41.85352],[-71.48822,41.86192],[-71.49555,41.86898],[-71.57361,41.85881]]]}},{"type":"Feature","id":"cousub:4400741500","properties":{"geoid":"4400741500","name":"Lincoln","displayName":"Lincoln Town","type":"Town","state":"RI","stateName":"Rhode Island","lsad":"43","sourceType":"county_subdivision","priority":4,"areaLand":46812461,"areaWater":2117796,"county":"Providence County","countyGeoid":"44007"},"geometry":{"type":"Polygon","coordinates":[[[-71.49079,41.94324],[-71.46676,41.87277],[-71.40371,41.88106],[-71.40728,41.89163],[-71.40469,41.89478],[-71.3943,41.89765],[-71.40048,41.90137],[-71.39705,41.91062],[-71.39905,41.91205],[-71.40539,41.911],[-71.4217,41.92214],[-71.42833,41.92354],[-71.43094,41.92699],[-71.43096,41.93464],[-71.44255,41.94741],[-71.45099,41.94991],[-71.45522,41.95563],[-71.46178,41.95742],[-71.46536,41.96939],[-71.47414,41.97262],[-71.47866,41.97714],[-71.48736,41.97908],[-71.4891,41.97474],[-71.48668,41.96949],[-71.48826,41.96835],[-71.48644,41.96591],[-71.48729,41.95846],[-71.4852,41.95631],[-71.48813,41.95487],[-71.48706,41.94644],[-71.48435,41.94593],[-71.48397,41.94446],[-71.48456,41.94278],[-71.4881,41.9444],[-71.49079,41.94324]]]}},{"type":"Feature","id":"cousub:4400751760","properties":{"geoid":"4400751760","name":"North Providence","displayName":"North Providence Town","type":"Town","state":"RI","stateName":"Rhode Island","lsad":"43","sourceType":"county_subdivision","priority":4,"areaLand":14598074,"areaWater":318957,"county":"Providence County","countyGeoid":"44007"},"geometry":{"type":"Polygon","coordinates":[[[-71.49555,41.86898],[-71.48822,41.86192],[-71.48564,41.85352],[-71.48097,41.85082],[-71.47722,41.83791],[-71.47331,41.83898],[-71.47246,41.83698],[-71.435,41.86182],[-71.41742,41.85967],[-71.4219,41.8787],[-71.49555,41.86898]]]}},{"type":"Feature","id":"cousub:4400752480","properties":{"geoid":"4400752480","name":"North Smithfield","displayName":"North Smithfield Town","type":"Town","state":"RI","stateName":"Rhode Island","lsad":"43","sourceType":"county_subdivision","priority":4,"areaLand":61899990,"areaWater":2495010,"county":"Providence County","countyGeoid":"44007"},"geometry":{"type":"Polygon","coordinates":[[[-71.60673,42.01341],[-71.59031,41.93366],[-71.4881,41.9444],[-71.48456,41.94278],[-71.48435,41.94593],[-71.48706,41.94644],[-71.48813,41.95487],[-71.4852,41.95631],[-71.48729,41.95846],[-71.48644,41.96591],[-71.48826,41.96835],[-71.48668,41.96949],[-71.4891,41.97474],[-71.48736,41.97908],[-71.51807,41.9837],[-71.53166,41.98956],[-71.54012,42.0098],[-71.52971,42.00988],[-71.52893,42.01497],[-71.60673,42.01341]]]}},{"type":"Feature","id":"cousub:4400754640","properties":{"geoid":"4400754640","name":"Pawtucket","displayName":"Pawtucket City","type":"City","state":"RI","stateName":"Rhode Island","lsad":"25","sourceType":"county_subdivision","priority":4,"areaLand":22447898,"areaWater":770317,"county":"Providence County","countyGeoid":"44007"},"geometry":{"type":"Polygon","coordinates":[[[-71.4219,41.8787],[-71.41742,41.85967],[-71.41106,41.85891],[-71.40927,41.8566],[-71.37502,41.85745],[-71.334,41.8623],[-71.3408,41.8816],[-71.3387,41.8984],[-71.38153,41.89323],[-71.38309,41.88987],[-71.38022,41.88793],[-71.38101,41.88407],[-71.4219,41.8787]]]}},{"type":"Feature","id":"cousub:4400759000","properties":{"geoid":"4400759000","name":"Providence","displayName":"Providence City","type":"City","state":"RI","stateName":"Rhode Island","lsad":"25","sourceType":"county_subdivision","priority":4,"areaLand":47670951,"areaWater":5643961,"county":"Providence County","countyGeoid":"44007"},"geometry":{"type":"Polygon","coordinates":[[[-71.47246,41.83698],[-71.47243,41.83418],[-71.46477,41.83105],[-71.46243,41.82741],[-71.46242,41.82469],[-71.47131,41.82414],[-71.46655,41.81074],[-71.4687,41.8106],[-71.4668,41.8078],[-71.46916,41.80486],[-71.44222,41.8072],[-71.43927,41.80203],[-71.43934,41.79724],[-71.43648,41.78841],[-71.43405,41.78631],[-71.42061,41.78618],[-71.42381,41.77727],[-71.41195,41.77238],[-71.41004,41.77376],[-71.40879,41.77813],[-71.40377,41.78096],[-71.40426,41.78585],[-71.38941,41.78634],[-71.36969,41.78306],[-71.372,41.78982],[-71.37271,41.78852],[-71.37331,41.79112],[-71.3808,41.7963],[-71.3852,41.8021],[-71.3935,41.8071],[-71.39526,41.81167],[-71.39353,41.81476],[-71.38708,41.81637],[-71.37359,41.83249],[-71.37233,41.85055],[-71.37502,41.85745],[-71.40927,41.8566],[-71.41106,41.85891],[-71.435,41.86182],[-71.47246,41.83698]]]}},{"type":"Feature","id":"cousub:4400764220","properties":{"geoid":"4400764220","name":"Scituate","displayName":"Scituate Town","type":"Town","state":"RI","stateName":"Rhode Island","lsad":"43","sourceType":"county_subdivision","priority":4,"areaLand":124665548,"areaWater":17111431,"county":"Providence County","countyGeoid":"44007"},"geometry":{"type":"Polygon","coordinates":[[[-71.69101,41.85646],[-71.66843,41.72747],[-71.54743,41.73002],[-71.57464,41.85875],[-71.69101,41.85646]]]}},{"type":"Feature","id":"cousub:4400766200","properties":{"geoid":"4400766200","name":"Smithfield","displayName":"Smithfield Town","type":"Town","state":"RI","stateName":"Rhode Island","lsad":"43","sourceType":"county_subdivision","priority":4,"areaLand":67938931,"areaWater":3673454,"county":"Providence County","countyGeoid":"44007"},"geometry":{"type":"Polygon","coordinates":[[[-71.59031,41.93366],[-71.57464,41.85875],[-71.46676,41.87277],[-71.49079,41.94324],[-71.59031,41.93366]]]}},{"type":"Feature","id":"cousub:4400780780","properties":{"geoid":"4400780780","name":"Woonsocket","displayName":"Woonsocket City","type":"City","state":"RI","stateName":"Rhode Island","lsad":"25","sourceType":"county_subdivision","priority":4,"areaLand":20061557,"areaWater":483938,"county":"Providence County","countyGeoid":"44007"},"geometry":{"type":"Polygon","coordinates":[[[-71.54012,42.0098],[-71.53166,41.98956],[-71.51807,41.9837],[-71.48736,41.97908],[-71.45989,42.00757],[-71.45812,42.01776],[-71.4999,42.0172],[-71.52893,42.01497],[-71.52971,42.00988],[-71.54012,42.0098]]]}},{"type":"Feature","id":"cousub:4400914500","properties":{"geoid":"4400914500","name":"Charlestown","displayName":"Charlestown Town","type":"Town","state":"RI","stateName":"Rhode Island","lsad":"43","sourceType":"county_subdivision","priority":4,"areaLand":94641260,"areaWater":59366507,"county":"Washington County","countyGeoid":"44009"},"geometry":{"type":"Polygon","coordinates":[[[-71.73125,41.39851],[-71.72988,41.3317],[-71.71604,41.33109],[-71.70517,41.33428],[-71.69669,41.34098],[-71.64285,41.35566],[-71.63832,41.35543],[-71.62562,41.36076],[-71.59514,41.44622],[-71.59952,41.44991],[-71.6028,41.44933],[-71.60973,41.45238],[-71.62128,41.44599],[-71.6268,41.44523],[-71.62725,41.44707],[-71.63182,41.4471],[-71.63277,41.44898],[-71.63978,41.44595],[-71.64938,41.44888],[-71.65083,41.45143],[-71.65011,41.45352],[-71.65548,41.45918],[-71.66434,41.45842],[-71.67172,41.46109],[-71.67444,41.45797],[-71.67694,41.44884],[-71.68113,41.44605],[-71.68129,41.44298],[-71.68647,41.43697],[-71.68534,41.43474],[-71.69706,41.43295],[-71.69992,41.43036],[-71.70751,41.43539],[-71.71682,41.43412],[-71.71688,41.43042],[-71.71947,41.42788],[-71.7218,41.4287],[-71.72607,41.42721],[-71.72595,41.42236],[-71.73003,41.41452],[-71.72741,41.41022],[-71.72331,41.40763],[-71.72356,41.40436],[-71.72746,41.4017],[-71.72836,41.39669],[-71.73125,41.39851]]]}},{"type":"Feature","id":"cousub:4400925300","properties":{"geoid":"4400925300","name":"Exeter","displayName":"Exeter Town","type":"Town","state":"RI","stateName":"Rhode Island","lsad":"43","sourceType":"county_subdivision","priority":4,"areaLand":148804442,"areaWater":2411410,"county":"Washington County","countyGeoid":"44009"},"geometry":{"type":"Polygon","coordinates":[[[-71.79051,41.57197],[-71.7917,41.54611],[-71.62072,41.56423],[-71.61304,41.52512],[-71.53053,41.50375],[-71.50789,41.50006],[-71.51222,41.51532],[-71.51957,41.52992],[-71.51812,41.59221],[-71.52243,41.60257],[-71.64398,41.60098],[-71.65357,41.5987],[-71.78936,41.59685],[-71.79051,41.57197]]]}},{"type":"Feature","id":"cousub:4400935380","properties":{"geoid":"4400935380","name":"Hopkinton","displayName":"Hopkinton Town","type":"Town","state":"RI","stateName":"Rhode Island","lsad":"43","sourceType":"county_subdivision","priority":4,"areaLand":111385172,"areaWater":3313033,"county":"Washington County","countyGeoid":"44009"},"geometry":{"type":"Polygon","coordinates":[[[-71.80348,41.40407],[-71.79976,41.39859],[-71.79471,41.39793],[-71.79807,41.39669],[-71.79722,41.39321],[-71.79003,41.39262],[-71.78264,41.38675],[-71.78204,41.38858],[-71.77922,41.38728],[-71.77877,41.38964],[-71.78078,41.39349],[-71.77901,41.39455],[-71.77623,41.39352],[-71.77153,41.39706],[-71.77267,41.4004],[-71.7711,41.40139],[-71.76718,41.39921],[-71.77055,41.39817],[-71.76807,41.39482],[-71.76566,41.39625],[-71.76332,41.4013],[-71.75819,41.40414],[-71.75515,41.40798],[-71.74786,41.40671],[-71.74687,41.40337],[-71.7421,41.4013],[-71.73094,41.40051],[-71.73508,41.39966],[-71.72913,41.39823],[-71.72836,41.39669],[-71.72746,41.4017],[-71.72356,41.40436],[-71.72331,41.40763],[-71.72741,41.41022],[-71.73003,41.41452],[-71.72918,41.41773],[-71.72595,41.42236],[-71.72607,41.42721],[-71.71901,41.42832],[-71.72253,41.43777],[-71.71804,41.44353],[-71.71578,41.44366],[-71.71701,41.4499],[-71.71446,41.45119],[-71.71422,41.45363],[-71.71123,41.45619],[-71.71288,41.45795],[-71.71233,41.45981],[-71.72121,41.4606],[-71.71984,41.46508],[-71.7209,41.46589],[-71.7174,41.46819],[-71.71656,41.47104],[-71.71846,41.47125],[-71.71757,41.475],[-71.71586,41.47516],[-71.71687,41.47697],[-71.71372,41.4778],[-71.71499,41.48279],[-71.71217,41.48427],[-71.71727,41.4846],[-71.71784,41.48683],[-71.71534,41.49177],[-71.71635,41.49838],[-71.71493,41.49869],[-71.71649,41.50312],[-71.71546,41.50479],[-71.71219,41.50487],[-71.7113,41.50624],[-71.71247,41.50782],[-71.70811,41.50956],[-71.70467,41.51412],[-71.7055,41.51511],[-71.68933,41.52391],[-71.68722,41.52841],[-71.69547,41.52864],[-71.69662,41.53041],[-71.69461,41.53286],[-71.69854,41.5388],[-71.69606,41.53995],[-71.69829,41.54401],[-71.69704,41.54482],[-71.70084,41.54885],[-71.70924,41.54756],[-71.71103,41.5502],[-71.71478,41.55172],[-71.71502,41.5542],[-71.7917,41.54611],[-71.79767,41.41691],[-71.796,41.41467],[-71.79864,41.41008],[-71.79598,41.40729],[-71.80348,41.40407]]]}},{"type":"Feature","id":"cousub:4400948340","properties":{"geoid":"4400948340","name":"Narragansett","displayName":"Narragansett Town","type":"Town","state":"RI","stateName":"Rhode Island","lsad":"43","sourceType":"county_subdivision","priority":4,"areaLand":35911189,"areaWater":61848426,"county":"Washington County","countyGeoid":"44009"},"geometry":{"type":"Polygon","coordinates":[[[-71.5228,41.37669],[-71.50293,41.3742],[-71.48896,41.36435],[-71.48922,41.36237],[-71.48088,41.36025],[-71.48044,41.36242],[-71.48294,41.36593],[-71.4842,41.37184],[-71.46898,41.39362],[-71.46374,41.39575],[-71.46233,41.40128],[-71.45621,41.40512],[-71.45297,41.40968],[-71.45264,41.41778],[-71.45482,41.42182],[-71.45584,41.43299],[-71.44279,41.4414],[-71.4406,41.43837],[-71.43833,41.43958],[-71.43813,41.44165],[-71.43114,41.4473],[-71.43209,41.44939],[-71.43026,41.45304],[-71.42582,41.456],[-71.42668,41.45882],[-71.43001,41.46114],[-71.43074,41.47064],[-71.42763,41.47254],[-71.42299,41.47268],[-71.42116,41.46989],[-71.4184,41.47265],[-71.41796,41.48207],[-71.42027,41.48358],[-71.42076,41.48998],[-71.4186,41.49213],[-71.42086,41.49322],[-71.42142,41.49863],[-71.41958,41.50365],[-71.4501,41.5018],[-71.44666,41.48908],[-71.4496,41.4724],[-71.4484,41.46873],[-71.45114,41.4616],[-71.45162,41.45316],[-71.46428,41.44354],[-71.48333,41.43542],[-71.4948,41.4273],[-71.4971,41.4175],[-71.5032,41.4176],[-71.50483,41.40751],[-71.51464,41.38479],[-71.5228,41.37669]]]}},{"type":"Feature","id":"cousub:4400950500","properties":{"geoid":"4400950500","name":"New Shoreham","displayName":"New Shoreham Town","type":"Town","state":"RI","stateName":"Rhode Island","lsad":"43","sourceType":"county_subdivision","priority":4,"areaLand":23521380,"areaWater":260101284,"county":"Washington County","countyGeoid":"44009"},"geometry":{"type":"Polygon","coordinates":[[[-71.61313,41.16028],[-71.61157,41.1539],[-71.59999,41.14693],[-71.56589,41.14901],[-71.54705,41.15368],[-71.54387,41.16132],[-71.54559,41.16345],[-71.54445,41.16491],[-71.55023,41.16679],[-71.55463,41.17342],[-71.55791,41.17302],[-71.5613,41.17576],[-71.56634,41.18428],[-71.56412,41.19537],[-71.55556,41.20832],[-71.55407,41.21296],[-71.56255,41.22422],[-71.5703,41.22534],[-71.57769,41.23123],[-71.57632,41.22491],[-71.57692,41.21102],[-71.58063,41.20337],[-71.58955,41.19656],[-71.59294,41.19891],[-71.59499,41.18839],[-71.59746,41.18519],[-71.60556,41.18214],[-71.61057,41.16837],[-71.61053,41.16264],[-71.61313,41.16028]]]}},{"type":"Feature","id":"cousub:4400951580","properties":{"geoid":"4400951580","name":"North Kingstown","displayName":"North Kingstown Town","type":"Town","state":"RI","stateName":"Rhode Island","lsad":"43","sourceType":"county_subdivision","priority":4,"areaLand":111808796,"areaWater":39629489,"county":"Washington County","countyGeoid":"44009"},"geometry":{"type":"Polygon","coordinates":[[[-71.52243,41.60257],[-71.51812,41.59221],[-71.51957,41.52992],[-71.51222,41.51532],[-71.50789,41.50006],[-71.49186,41.49722],[-71.45797,41.49906],[-71.44815,41.50279],[-71.41958,41.50365],[-71.41494,41.5163],[-71.41551,41.52986],[-71.41813,41.53217],[-71.41765,41.53626],[-71.42312,41.53875],[-71.42667,41.54356],[-71.42336,41.54818],[-71.42478,41.54943],[-71.42865,41.54699],[-71.43104,41.5501],[-71.42787,41.55548],[-71.42841,41.55708],[-71.43478,41.5581],[-71.43437,41.56163],[-71.44216,41.56382],[-71.44383,41.56607],[-71.44409,41.56804],[-71.43809,41.57059],[-71.44641,41.5745],[-71.44705,41.57843],[-71.44427,41.57895],[-71.44641,41.58322],[-71.44094,41.58499],[-71.43881,41.58144],[-71.43952,41.57735],[-71.43025,41.58339],[-71.411,41.58659],[-71.40377,41.58932],[-71.40361,41.60296],[-71.41433,41.60259],[-71.41694,41.6049],[-71.41195,41.61112],[-71.40434,41.61183],[-71.40244,41.61556],[-71.40791,41.61965],[-71.40862,41.62196],[-71.40339,41.62551],[-71.40315,41.62747],[-71.40753,41.63333],[-71.40888,41.65384],[-71.41758,41.65495],[-71.42388,41.65389],[-71.42894,41.65057],[-71.4328,41.65132],[-71.4393,41.64802],[-71.44251,41.64582],[-71.44199,41.64328],[-71.44929,41.63673],[-71.44845,41.63338],[-71.45137,41.62946],[-71.4544,41.6312],[-71.45558,41.63511],[-71.45912,41.63795],[-71.46235,41.63838],[-71.46784,41.63417],[-71.46967,41.63454],[-71.47253,41.63208],[-71.47132,41.62908],[-71.48248,41.62358],[-71.48804,41.61605],[-71.4875,41.61349],[-71.48545,41.61297],[-71.48443,41.60259],[-71.52243,41.60257]]]}},{"type":"Feature","id":"cousub:4400961160","properties":{"geoid":"4400961160","name":"Richmond","displayName":"Richmond Town","type":"Town","state":"RI","stateName":"Rhode Island","lsad":"43","sourceType":"county_subdivision","priority":4,"areaLand":104433010,"areaWater":1119929,"county":"Washington County","countyGeoid":"44009"},"geometry":{"type":"Polygon","coordinates":[[[-71.72253,41.43777],[-71.71901,41.42832],[-71.71688,41.43042],[-71.71682,41.43412],[-71.70751,41.43539],[-71.69992,41.43036],[-71.69706,41.43295],[-71.68534,41.43474],[-71.68647,41.43697],[-71.68129,41.44298],[-71.68113,41.44605],[-71.67694,41.44884],[-71.67444,41.45797],[-71.67172,41.46109],[-71.66434,41.45842],[-71.65548,41.45918],[-71.65011,41.45352],[-71.65083,41.45143],[-71.64938,41.44888],[-71.63978,41.44595],[-71.63277,41.44898],[-71.63182,41.4471],[-71.62725,41.44707],[-71.6268,41.44523],[-71.61838,41.44668],[-71.61229,41.45204],[-71.60732,41.45252],[-71.59863,41.45804],[-71.59692,41.46139],[-71.6059,41.47567],[-71.60118,41.47779],[-71.60099,41.48066],[-71.60427,41.48645],[-71.60891,41.48774],[-71.60769,41.4938],[-71.60952,41.49802],[-71.60772,41.50248],[-71.62072,41.56423],[-71.71502,41.5542],[-71.71478,41.55172],[-71.71103,41.5502],[-71.70924,41.54756],[-71.70084,41.54885],[-71.69704,41.54482],[-71.69829,41.54401],[-71.69606,41.53995],[-71.69854,41.5388],[-71.69461,41.53286],[-71.69662,41.53041],[-71.69547,41.52864],[-71.68722,41.52841],[-71.68933,41.52391],[-71.7055,41.51511],[-71.70467,41.51412],[-71.70811,41.50956],[-71.71247,41.50782],[-71.7113,41.50624],[-71.71219,41.50487],[-71.71546,41.50479],[-71.71649,41.50312],[-71.71493,41.49869],[-71.71635,41.49838],[-71.71534,41.49177],[-71.71784,41.48683],[-71.71727,41.4846],[-71.71217,41.48427],[-71.71499,41.48279],[-71.71372,41.4778],[-71.71687,41.47697],[-71.71586,41.47516],[-71.71757,41.475],[-71.71846,41.47125],[-71.71656,41.47104],[-71.7174,41.46819],[-71.7209,41.46589],[-71.71984,41.46508],[-71.72121,41.4606],[-71.71233,41.45981],[-71.71288,41.45795],[-71.71123,41.45619],[-71.71422,41.45363],[-71.71446,41.45119],[-71.71701,41.4499],[-71.71578,41.44366],[-71.71804,41.44353],[-71.72253,41.43777]]]}},{"type":"Feature","id":"cousub:4400967460","properties":{"geoid":"4400967460","name":"South Kingstown","displayName":"South Kingstown Town","type":"Town","state":"RI","stateName":"Rhode Island","lsad":"43","sourceType":"county_subdivision","priority":4,"areaLand":145998457,"areaWater":60361219,"county":"Washington County","countyGeoid":"44009"},"geometry":{"type":"Polygon","coordinates":[[[-71.62562,41.36076],[-71.59476,41.36516],[-71.58609,41.36809],[-71.55157,41.37442],[-71.5409,41.37301],[-71.53155,41.37649],[-71.5228,41.37669],[-71.51464,41.38479],[-71.50483,41.40751],[-71.5032,41.4176],[-71.4971,41.4175],[-71.4948,41.4273],[-71.48333,41.43542],[-71.46428,41.44354],[-71.45162,41.45316],[-71.45114,41.4616],[-71.4484,41.46873],[-71.4496,41.4724],[-71.44666,41.48908],[-71.4501,41.5018],[-71.45797,41.49906],[-71.49186,41.49722],[-71.53053,41.50375],[-71.61304,41.52512],[-71.60749,41.50093],[-71.60952,41.49802],[-71.60769,41.4938],[-71.60891,41.48774],[-71.60427,41.48645],[-71.60099,41.48066],[-71.60118,41.47779],[-71.6059,41.47567],[-71.59692,41.46139],[-71.59863,41.45804],[-71.60891,41.45223],[-71.6028,41.44933],[-71.59952,41.44991],[-71.59514,41.44622],[-71.62562,41.36076]]]}},{"type":"Feature","id":"cousub:4400977000","properties":{"geoid":"4400977000","name":"Westerly","displayName":"Westerly Town","type":"Town","state":"RI","stateName":"Rhode Island","lsad":"43","sourceType":"county_subdivision","priority":4,"areaLand":76323894,"areaWater":116618434,"county":"Washington County","countyGeoid":"44009"},"geometry":{"type":"Polygon","coordinates":[[[-71.86267,41.31086],[-71.85743,41.30632],[-71.84528,41.31187],[-71.81534,41.32024],[-71.7664,41.32886],[-71.75166,41.3254],[-71.74676,41.32809],[-71.72988,41.3317],[-71.73125,41.39851],[-71.73508,41.39966],[-71.73094,41.40051],[-71.7421,41.4013],[-71.74687,41.40337],[-71.74786,41.40671],[-71.75515,41.40798],[-71.75819,41.40414],[-71.76332,41.4013],[-71.76566,41.39625],[-71.76807,41.39482],[-71.77055,41.39817],[-71.76718,41.39921],[-71.7711,41.40139],[-71.77267,41.4004],[-71.77153,41.39706],[-71.77623,41.39352],[-71.77901,41.39455],[-71.78078,41.39349],[-71.77877,41.38964],[-71.77922,41.38728],[-71.78204,41.38858],[-71.78264,41.38675],[-71.79003,41.39262],[-71.79722,41.39321],[-71.79807,41.39669],[-71.79471,41.39793],[-71.79976,41.39859],[-71.80348,41.40407],[-71.79598,41.40729],[-71.79864,41.41008],[-71.796,41.41467],[-71.79767,41.41691],[-71.80144,41.41554],[-71.80368,41.41743],[-71.80681,41.41667],[-71.8169,41.41993],[-71.82033,41.41938],[-71.82457,41.41524],[-71.83411,41.41158],[-71.83965,41.41212],[-71.84256,41.40986],[-71.84347,41.40583],[-71.84115,41.39923],[-71.84213,41.39536],[-71.83817,41.39059],[-71.83266,41.38716],[-71.83353,41.38237],[-71.83064,41.37877],[-71.83267,41.37562],[-71.83161,41.3709],[-71.83763,41.3655],[-71.83787,41.36015],[-71.8357,41.35357],[-71.8313,41.3513],[-71.82938,41.34241],[-71.83616,41.33601],[-71.84771,41.3296],[-71.85192,41.32466],[-71.86051,41.32025],[-71.86267,41.31086]]]}},{"type":"Feature","id":"place:4403520","properties":{"geoid":"4403520","name":"Ashaway","displayName":"Ashaway CDP","type":"CDP","state":"RI","stateName":"Rhode Island","lsad":"57","sourceType":"place","priority":2,"areaLand":6148840,"areaWater":108207},"geometry":{"type":"Polygon","coordinates":[[[-71.79864,41.41008],[-71.79837,41.40892],[-71.76845,41.4138],[-71.78064,41.42147],[-71.77865,41.42364],[-71.77062,41.4245],[-71.77902,41.44494],[-71.78684,41.44341],[-71.78676,41.44058],[-71.79451,41.43411],[-71.79674,41.43713],[-71.79767,41.41691],[-71.796,41.41467],[-71.79864,41.41008]]]}},{"type":"Feature","id":"place:4408020","properties":{"geoid":"4408020","name":"Bradford","displayName":"Bradford CDP","type":"CDP","state":"RI","stateName":"Rhode Island","lsad":"57","sourceType":"place","priority":2,"areaLand":4706844,"areaWater":39515},"geometry":{"type":"Polygon","coordinates":[[[-71.77617,41.38548],[-71.7748,41.38069],[-71.76286,41.3784],[-71.75877,41.38856],[-71.75103,41.39376],[-71.74895,41.39272],[-71.73816,41.39354],[-71.73088,41.3903],[-71.73125,41.39851],[-71.73508,41.39966],[-71.73094,41.40051],[-71.7421,41.4013],[-71.74687,41.40337],[-71.74786,41.40671],[-71.75515,41.40798],[-71.75819,41.40414],[-71.76332,41.4013],[-71.766,41.39676],[-71.76416,41.39195],[-71.771,41.38673],[-71.77617,41.38548]]]}},{"type":"Feature","id":"place:4412340","properties":{"geoid":"4412340","name":"Carolina","displayName":"Carolina CDP","type":"CDP","state":"RI","stateName":"Rhode Island","lsad":"57","sourceType":"place","priority":2,"areaLand":6374410,"areaWater":53734},"geometry":{"type":"Polygon","coordinates":[[[-71.67658,41.45205],[-71.67694,41.44884],[-71.67176,41.445],[-71.66823,41.44519],[-71.6577,41.4506],[-71.64916,41.45013],[-71.65083,41.45143],[-71.65132,41.45526],[-71.64958,41.45607],[-71.64565,41.46393],[-71.64315,41.47149],[-71.64214,41.48247],[-71.64912,41.4808],[-71.65118,41.47782],[-71.66379,41.47478],[-71.66438,41.47082],[-71.66613,41.46966],[-71.66515,41.4651],[-71.66862,41.46599],[-71.66948,41.46078],[-71.67172,41.46109],[-71.67444,41.45797],[-71.67658,41.45205]]]}},{"type":"Feature","id":"place:4414320","properties":{"geoid":"4414320","name":"Charlestown","displayName":"Charlestown CDP","type":"CDP","state":"RI","stateName":"Rhode Island","lsad":"57","sourceType":"place","priority":2,"areaLand":5861532,"areaWater":1489579},"geometry":{"type":"Polygon","coordinates":[[[-71.65352,41.3856],[-71.65545,41.38488],[-71.65343,41.38127],[-71.64554,41.37963],[-71.64633,41.36688],[-71.64224,41.36626],[-71.6377,41.37032],[-71.63549,41.36741],[-71.63037,41.36696],[-71.62846,41.36433],[-71.62576,41.36418],[-71.61506,41.36912],[-71.60938,41.37823],[-71.61188,41.38306],[-71.60986,41.38572],[-71.61061,41.39438],[-71.63667,41.38409],[-71.65352,41.3856]]]}},{"type":"Feature","id":"place:4414860","properties":{"geoid":"4414860","name":"Chepachet","displayName":"Chepachet CDP","type":"CDP","state":"RI","stateName":"Rhode Island","lsad":"57","sourceType":"place","priority":2,"areaLand":14265495,"areaWater":306019},"geometry":{"type":"Polygon","coordinates":[[[-71.70048,41.93092],[-71.69617,41.91635],[-71.68909,41.91369],[-71.68247,41.90872],[-71.68224,41.90542],[-71.68521,41.90254],[-71.68288,41.90147],[-71.67417,41.90301],[-71.67323,41.89996],[-71.67018,41.89995],[-71.66527,41.89348],[-71.65507,41.89256],[-71.64762,41.88764],[-71.6434,41.88909],[-71.63834,41.88794],[-71.63377,41.89047],[-71.62845,41.89069],[-71.62913,41.89219],[-71.62402,41.89476],[-71.63093,41.89878],[-71.6358,41.90587],[-71.63777,41.90589],[-71.63787,41.9046],[-71.64474,41.90502],[-71.64622,41.90966],[-71.65662,41.91462],[-71.6576,41.92287],[-71.66244,41.92382],[-71.66679,41.92968],[-71.66266,41.93186],[-71.70048,41.93092]]]}},{"type":"Feature","id":"place:4415940","properties":{"geoid":"4415940","name":"Clayville","displayName":"Clayville CDP","type":"CDP","state":"RI","stateName":"Rhode Island","lsad":"57","sourceType":"place","priority":2,"areaLand":4465397,"areaWater":49693},"geometry":{"type":"Polygon","coordinates":[[[-71.70893,41.76826],[-71.70544,41.76718],[-71.70185,41.76936],[-71.69603,41.7641],[-71.6966,41.76273],[-71.69315,41.76149],[-71.6865,41.7621],[-71.68557,41.76302],[-71.68814,41.76492],[-71.68687,41.76666],[-71.68504,41.76356],[-71.68344,41.76387],[-71.68436,41.76657],[-71.68134,41.76585],[-71.68015,41.76848],[-71.6846,41.77136],[-71.68336,41.77306],[-71.68179,41.77298],[-71.6825,41.77063],[-71.67805,41.77235],[-71.67687,41.77198],[-71.67757,41.77058],[-71.67196,41.76826],[-71.67149,41.76985],[-71.67004,41.76959],[-71.67057,41.77145],[-71.66872,41.77183],[-71.66544,41.77822],[-71.66901,41.78367],[-71.6674,41.78543],[-71.67053,41.78545],[-71.67223,41.78313],[-71.68085,41.78207],[-71.6828,41.78003],[-71.69003,41.78129],[-71.6915,41.77937],[-71.69489,41.77954],[-71.69604,41.77566],[-71.69875,41.77786],[-71.69922,41.77468],[-71.70394,41.77326],[-71.70893,41.76826]]]}},{"type":"Feature","id":"place:4420260","properties":{"geoid":"4420260","name":"Cumberland Hill","displayName":"Cumberland Hill CDP","type":"CDP","state":"RI","stateName":"Rhode Island","lsad":"57","sourceType":"place","priority":2,"areaLand":8238052,"areaWater":515431},"geometry":{"type":"Polygon","coordinates":[[[-71.48736,41.97908],[-71.47866,41.97714],[-71.47414,41.97262],[-71.46536,41.96939],[-71.46178,41.95742],[-71.45522,41.95563],[-71.44862,41.9506],[-71.44027,41.94876],[-71.44501,41.96396],[-71.44784,41.96768],[-71.44228,41.97163],[-71.44628,41.97645],[-71.44545,41.97873],[-71.44692,41.98194],[-71.47273,41.99426],[-71.48736,41.97908]]]}},{"type":"Feature","id":"place:4427640","properties":{"geoid":"4427640","name":"Foster Center","displayName":"Foster Center CDP","type":"CDP","state":"RI","stateName":"Rhode Island","lsad":"57","sourceType":"place","priority":2,"areaLand":5614385,"areaWater":37467},"geometry":{"type":"Polygon","coordinates":[[[-71.75686,41.79787],[-71.75485,41.79763],[-71.74818,41.79134],[-71.7429,41.7766],[-71.73257,41.78081],[-71.72767,41.77951],[-71.72527,41.78228],[-71.72182,41.78071],[-71.72138,41.783],[-71.71925,41.78288],[-71.71862,41.78474],[-71.71452,41.78295],[-71.71293,41.78647],[-71.71352,41.78944],[-71.71115,41.78954],[-71.70933,41.79194],[-71.71305,41.79106],[-71.71847,41.79351],[-71.72115,41.79632],[-71.7224,41.80087],[-71.75686,41.79787]]]}},{"type":"Feature","id":"place:4431240","properties":{"geoid":"4431240","name":"Greene","displayName":"Greene CDP","type":"CDP","state":"RI","stateName":"Rhode Island","lsad":"57","sourceType":"place","priority":2,"areaLand":15732648,"areaWater":44570},"geometry":{"type":"Polygon","coordinates":[[[-71.76679,41.70036],[-71.76685,41.69543],[-71.76261,41.692],[-71.7639,41.68503],[-71.7606,41.68506],[-71.75697,41.67991],[-71.74986,41.67755],[-71.74529,41.67882],[-71.74502,41.67676],[-71.74164,41.67693],[-71.74401,41.67965],[-71.74418,41.68248],[-71.74162,41.68931],[-71.69332,41.69103],[-71.6942,41.70009],[-71.69874,41.70965],[-71.71177,41.70785],[-71.72864,41.71053],[-71.73158,41.71175],[-71.73126,41.7139],[-71.73464,41.71746],[-71.7455,41.7146],[-71.74693,41.71552],[-71.75829,41.71382],[-71.7583,41.70899],[-71.76153,41.70718],[-71.7644,41.70057],[-71.76679,41.70036]]]}},{"type":"Feature","id":"place:4431600","properties":{"geoid":"4431600","name":"Greenville","displayName":"Greenville CDP","type":"CDP","state":"RI","stateName":"Rhode Island","lsad":"57","sourceType":"place","priority":2,"areaLand":14395778,"areaWater":1483563},"geometry":{"type":"Polygon","coordinates":[[[-71.57991,41.88472],[-71.57464,41.85875],[-71.53146,41.86427],[-71.53131,41.87256],[-71.53689,41.8772],[-71.53232,41.87952],[-71.53266,41.88218],[-71.53637,41.88608],[-71.53822,41.89463],[-71.54329,41.89873],[-71.54412,41.90458],[-71.55241,41.9148],[-71.55463,41.91397],[-71.55523,41.91183],[-71.55792,41.91345],[-71.56009,41.90782],[-71.56261,41.90638],[-71.56159,41.90278],[-71.55874,41.90089],[-71.56623,41.90019],[-71.56868,41.89195],[-71.57174,41.88877],[-71.57076,41.88505],[-71.57991,41.88472]]]}},{"type":"Feature","id":"place:4433040","properties":{"geoid":"4433040","name":"Harmony","displayName":"Harmony CDP","type":"CDP","state":"RI","stateName":"Rhode Island","lsad":"57","sourceType":"place","priority":2,"areaLand":7623135,"areaWater":60016},"geometry":{"type":"Polygon","coordinates":[[[-71.63027,41.91458],[-71.6283,41.90465],[-71.62216,41.89852],[-71.62211,41.89582],[-71.62402,41.89476],[-71.61808,41.89601],[-71.61412,41.89155],[-71.61237,41.8922],[-71.60901,41.88856],[-71.60019,41.88497],[-71.60223,41.88294],[-71.60129,41.87863],[-71.59036,41.87657],[-71.58739,41.87788],[-71.58675,41.87974],[-71.58887,41.8792],[-71.59619,41.88471],[-71.57935,41.88162],[-71.58189,41.89467],[-71.59418,41.90199],[-71.60162,41.89706],[-71.61134,41.90466],[-71.62321,41.92222],[-71.62466,41.91727],[-71.63027,41.91458]]]}},{"type":"Feature","id":"place:4433400","properties":{"geoid":"4433400","name":"Harrisville","displayName":"Harrisville CDP","type":"CDP","state":"RI","stateName":"Rhode Island","lsad":"57","sourceType":"place","priority":2,"areaLand":2103497,"areaWater":111893},"geometry":{"type":"Polygon","coordinates":[[[-71.69544,41.97308],[-71.69318,41.96577],[-71.69021,41.96696],[-71.6689,41.96211],[-71.6678,41.96446],[-71.66414,41.96353],[-71.66258,41.96602],[-71.66464,41.96686],[-71.66416,41.97078],[-71.66705,41.9747],[-71.66673,41.97994],[-71.66833,41.97926],[-71.66997,41.97389],[-71.672,41.97375],[-71.67186,41.97491],[-71.674,41.97357],[-71.67398,41.9716],[-71.67646,41.96976],[-71.68142,41.9715],[-71.68493,41.97011],[-71.69544,41.97308]]]}},{"type":"Feature","id":"place:4434660","properties":{"geoid":"4434660","name":"Hope Valley","displayName":"Hope Valley CDP","type":"CDP","state":"RI","stateName":"Rhode Island","lsad":"57","sourceType":"place","priority":2,"areaLand":8602919,"areaWater":527609},"geometry":{"type":"Polygon","coordinates":[[[-71.74159,41.52311],[-71.7384,41.52241],[-71.73393,41.51199],[-71.73126,41.51023],[-71.72834,41.48809],[-71.71616,41.4952],[-71.71635,41.49838],[-71.71493,41.49869],[-71.71649,41.50312],[-71.71546,41.50479],[-71.71219,41.50487],[-71.7113,41.50624],[-71.71247,41.50782],[-71.70811,41.50956],[-71.70467,41.51412],[-71.7055,41.51511],[-71.69161,41.5224],[-71.697,41.52247],[-71.70205,41.52456],[-71.7115,41.53093],[-71.71578,41.53019],[-71.7212,41.5319],[-71.73638,41.53023],[-71.73732,41.52506],[-71.73606,41.52386],[-71.74159,41.52311]]]}},{"type":"Feature","id":"place:4435200","properties":{"geoid":"4435200","name":"Hopkinton","displayName":"Hopkinton CDP","type":"CDP","state":"RI","stateName":"Rhode Island","lsad":"57","sourceType":"place","priority":2,"areaLand":8552003,"areaWater":13185},"geometry":{"type":"Polygon","coordinates":[[[-71.79568,41.45998],[-71.79649,41.44261],[-71.78054,41.45207],[-71.75684,41.45219],[-71.75924,41.47179],[-71.76474,41.4753],[-71.79498,41.4751],[-71.79568,41.45998]]]}},{"type":"Feature","id":"place:4438980","properties":{"geoid":"4438980","name":"Kingston","displayName":"Kingston CDP","type":"CDP","state":"RI","stateName":"Rhode Island","lsad":"57","sourceType":"place","priority":2,"areaLand":4031319,"areaWater":17479},"geometry":{"type":"Polygon","coordinates":[[[-71.53617,41.49173],[-71.53688,41.48904],[-71.5337,41.48862],[-71.5364,41.48217],[-71.52936,41.48091],[-71.53162,41.47474],[-71.52589,41.47062],[-71.52686,41.46075],[-71.52875,41.45742],[-71.52819,41.45402],[-71.51832,41.45971],[-71.50942,41.46226],[-71.5209,41.48008],[-71.5226,41.47994],[-71.51942,41.48895],[-71.53617,41.49173]]]}},{"type":"Feature","id":"place:4445010","properties":{"geoid":"4445010","name":"Melville","displayName":"Melville CDP","type":"CDP","state":"RI","stateName":"Rhode Island","lsad":"57","sourceType":"place","priority":2,"areaLand":5433585,"areaWater":7852820},"geometry":{"type":"MultiPolygon","coordinates":[[[[-71.30151,41.58566],[-71.30081,41.58061],[-71.29716,41.57977],[-71.29856,41.58492],[-71.30151,41.58566]]],[[[-71.31053,41.54692],[-71.31113,41.54405],[-71.30808,41.54294],[-71.30808,41.53938],[-71.30726,41.54303],[-71.30931,41.54629],[-71.30739,41.54862],[-71.30221,41.54603],[-71.30065,41.55006],[-71.30292,41.55261],[-71.29976,41.55279],[-71.29736,41.55596],[-71.2951,41.55615],[-71.30067,41.56051],[-71.29774,41.56392],[-71.29067,41.56199],[-71.2875,41.5654],[-71.293,41.56824],[-71.29113,41.57013],[-71.28708,41.56815],[-71.28455,41.56994],[-71.28669,41.57313],[-71.28158,41.58014],[-71.27535,41.5769],[-71.27099,41.57788],[-71.26827,41.58924],[-71.27379,41.58886],[-71.27801,41.59227],[-71.28526,41.59237],[-71.28907,41.58271],[-71.28574,41.58277],[-71.28408,41.57939],[-71.28514,41.57713],[-71.28838,41.57327],[-71.29436,41.57142],[-71.30365,41.55992],[-71.31053,41.54692]]],[[[-71.3127,41.53651],[-71.31415,41.53145],[-71.31135,41.52422],[-71.31267,41.52143],[-71.31114,41.5194],[-71.30394,41.51866],[-71.30064,41.52616],[-71.30513,41.52567],[-71.30752,41.52822],[-71.30682,41.53022],[-71.30178,41.53096],[-71.30168,41.53385],[-71.30883,41.53864],[-71.30808,41.53938],[-71.3127,41.53651]]]]}},{"type":"Feature","id":"place:4446000","properties":{"geoid":"4446000","name":"Misquamicut","displayName":"Misquamicut CDP","type":"CDP","state":"RI","stateName":"Rhode Island","lsad":"57","sourceType":"place","priority":2,"areaLand":3037352,"areaWater":193344},"geometry":{"type":"Polygon","coordinates":[[[-71.84245,41.32308],[-71.83739,41.31911],[-71.83612,41.31486],[-71.7966,41.32375],[-71.79714,41.32628],[-71.79915,41.32548],[-71.79799,41.32656],[-71.79904,41.32738],[-71.80983,41.32309],[-71.80675,41.32956],[-71.80803,41.33229],[-71.81349,41.33187],[-71.82064,41.32731],[-71.82483,41.32679],[-71.83176,41.3294],[-71.84245,41.32308]]]}},{"type":"Feature","id":"place:4448700","properties":{"geoid":"4448700","name":"Narragansett Pier","displayName":"Narragansett Pier CDP","type":"CDP","state":"RI","stateName":"Rhode Island","lsad":"57","sourceType":"place","priority":2,"areaLand":9237826,"areaWater":1352033},"geometry":{"type":"Polygon","coordinates":[[[-71.4955,41.4241],[-71.4958,41.4226],[-71.48136,41.42283],[-71.47825,41.41269],[-71.45982,41.40899],[-71.46135,41.40573],[-71.45924,41.40312],[-71.45297,41.40968],[-71.45264,41.41778],[-71.45482,41.42182],[-71.45584,41.43299],[-71.44279,41.4414],[-71.4406,41.43837],[-71.43906,41.43919],[-71.44123,41.44243],[-71.44609,41.44338],[-71.4526,41.4522],[-71.46602,41.44256],[-71.48999,41.43171],[-71.4948,41.4273],[-71.4955,41.4241]]]}},{"type":"Feature","id":"place:4450140","properties":{"geoid":"4450140","name":"Newport East","displayName":"Newport East CDP","type":"CDP","state":"RI","stateName":"Rhode Island","lsad":"57","sourceType":"place","priority":2,"areaLand":14901338,"areaWater":526815},"geometry":{"type":"Polygon","coordinates":[[[-71.31052,41.51945],[-71.30152,41.50595],[-71.28567,41.48897],[-71.28231,41.48829],[-71.27664,41.48004],[-71.27486,41.47985],[-71.26886,41.4847],[-71.26692,41.49653],[-71.26916,41.50952],[-71.27794,41.50819],[-71.27589,41.52615],[-71.27135,41.53189],[-71.27582,41.5354],[-71.28667,41.53978],[-71.29155,41.53887],[-71.29208,41.54832],[-71.30292,41.55261],[-71.30065,41.55006],[-71.30221,41.54603],[-71.30739,41.54862],[-71.30931,41.54629],[-71.30726,41.54303],[-71.30883,41.53864],[-71.30168,41.53385],[-71.30178,41.53096],[-71.30682,41.53022],[-71.30752,41.52822],[-71.30513,41.52567],[-71.30064,41.52616],[-71.30394,41.51866],[-71.31052,41.51945]]]}},{"type":"Feature","id":"place:4454460","properties":{"geoid":"4454460","name":"Pascoag","displayName":"Pascoag CDP","type":"CDP","state":"RI","stateName":"Rhode Island","lsad":"57","sourceType":"place","priority":2,"areaLand":13134866,"areaWater":1270220},"geometry":{"type":"Polygon","coordinates":[[[-71.73012,41.96678],[-71.73059,41.96518],[-71.72142,41.96279],[-71.71566,41.95691],[-71.72024,41.94764],[-71.72405,41.94554],[-71.72089,41.93797],[-71.72292,41.93737],[-71.72242,41.9303],[-71.67847,41.93152],[-71.68337,41.93975],[-71.69118,41.94705],[-71.68574,41.94793],[-71.68569,41.95782],[-71.68033,41.95974],[-71.68044,41.96238],[-71.68666,41.96165],[-71.69021,41.96696],[-71.69318,41.96577],[-71.69544,41.97308],[-71.702,41.97392],[-71.70612,41.97708],[-71.70987,41.97539],[-71.71992,41.97648],[-71.72496,41.9718],[-71.72228,41.96636],[-71.7272,41.96728],[-71.72904,41.96572],[-71.73012,41.96678]]]}},{"type":"Feature","id":"place:4460260","properties":{"geoid":"4460260","name":"Quonochontaug","displayName":"Quonochontaug CDP","type":"CDP","state":"RI","stateName":"Rhode Island","lsad":"57","sourceType":"place","priority":2,"areaLand":3480361,"areaWater":520422},"geometry":{"type":"Polygon","coordinates":[[[-71.72296,41.33853],[-71.71799,41.33129],[-71.71604,41.33109],[-71.70517,41.33428],[-71.69669,41.34098],[-71.69099,41.3422],[-71.69176,41.34418],[-71.69505,41.34364],[-71.69832,41.34908],[-71.69856,41.35093],[-71.69577,41.35419],[-71.69655,41.35846],[-71.71402,41.35488],[-71.7139,41.35158],[-71.70874,41.35109],[-71.70899,41.34708],[-71.71208,41.34494],[-71.71278,41.34228],[-71.71214,41.33732],[-71.71362,41.33615],[-71.71415,41.34007],[-71.71744,41.33474],[-71.71833,41.33674],[-71.71701,41.3386],[-71.71883,41.337],[-71.72005,41.33877],[-71.72089,41.33618],[-71.72296,41.33853]]]}},{"type":"Feature","id":"place:4470700","properties":{"geoid":"4470700","name":"Tiverton","displayName":"Tiverton CDP","type":"CDP","state":"RI","stateName":"Rhode Island","lsad":"57","sourceType":"place","priority":2,"areaLand":10824865,"areaWater":6327790},"geometry":{"type":"Polygon","coordinates":[[[-71.21674,41.62559],[-71.21184,41.62353],[-71.21205,41.61983],[-71.20718,41.61755],[-71.203,41.61955],[-71.20146,41.6229],[-71.19712,41.62305],[-71.19204,41.62935],[-71.18652,41.62963],[-71.18822,41.63211],[-71.18726,41.64276],[-71.18442,41.65221],[-71.17642,41.6657],[-71.17599,41.6714],[-71.19564,41.67509],[-71.20802,41.65314],[-71.21182,41.6391],[-71.21393,41.6391],[-71.21674,41.62559]]]}},{"type":"Feature","id":"place:4472500","properties":{"geoid":"4472500","name":"Valley Falls","displayName":"Valley Falls CDP","type":"CDP","state":"RI","stateName":"Rhode Island","lsad":"57","sourceType":"place","priority":2,"areaLand":9189162,"areaWater":322855},"geometry":{"type":"Polygon","coordinates":[[[-71.41188,41.92432],[-71.40666,41.91817],[-71.40952,41.91718],[-71.40416,41.91469],[-71.40302,41.91139],[-71.39905,41.91205],[-71.39705,41.91062],[-71.40048,41.90137],[-71.3943,41.89765],[-71.38827,41.8998],[-71.3817,41.89706],[-71.38148,41.94777],[-71.38448,41.94944],[-71.39277,41.94588],[-71.39803,41.94512],[-71.40366,41.94648],[-71.39932,41.93676],[-71.40245,41.9314],[-71.39985,41.92754],[-71.41188,41.92432]]]}},{"type":"Feature","id":"place:4473132","properties":{"geoid":"4473132","name":"Wakefield-Peace Dale","displayName":"Wakefield-Peace Dale CDP","type":"CDP","state":"RI","stateName":"Rhode Island","lsad":"57","sourceType":"place","priority":2,"areaLand":12769240,"areaWater":689659},"geometry":{"type":"Polygon","coordinates":[[[-71.52819,41.45402],[-71.51588,41.43288],[-71.51878,41.42722],[-71.50456,41.42703],[-71.49161,41.42998],[-71.4727,41.44002],[-71.47187,41.44108],[-71.47325,41.44218],[-71.4704,41.44516],[-71.4746,41.44726],[-71.4691,41.45426],[-71.48588,41.45249],[-71.48678,41.4637],[-71.49174,41.46477],[-71.51832,41.45971],[-71.52819,41.45402]]]}},{"type":"Feature","id":"place:4475200","properties":{"geoid":"4475200","name":"Watch Hill","displayName":"Watch Hill CDP","type":"CDP","state":"RI","stateName":"Rhode Island","lsad":"57","sourceType":"place","priority":2,"areaLand":2076242,"areaWater":37519},"geometry":{"type":"Polygon","coordinates":[[[-71.86267,41.31086],[-71.85743,41.30632],[-71.83612,41.31486],[-71.83739,41.31911],[-71.84125,41.3214],[-71.84192,41.32396],[-71.84561,41.32424],[-71.85171,41.32079],[-71.84981,41.31988],[-71.85337,41.31887],[-71.85571,41.32016],[-71.85962,41.31725],[-71.8554,41.31691],[-71.8554,41.3147],[-71.85885,41.31526],[-71.85957,41.31339],[-71.85687,41.31193],[-71.85864,41.3101],[-71.86267,41.31086]]]}},{"type":"Feature","id":"place:4475920","properties":{"geoid":"4475920","name":"Weekapaug","displayName":"Weekapaug CDP","type":"CDP","state":"RI","stateName":"Rhode Island","lsad":"57","sourceType":"place","priority":2,"areaLand":3011187,"areaWater":93017},"geometry":{"type":"Polygon","coordinates":[[[-71.78564,41.33962],[-71.78397,41.33521],[-71.77939,41.3369],[-71.77888,41.33926],[-71.77758,41.33534],[-71.77308,41.33399],[-71.77061,41.33426],[-71.77069,41.33589],[-71.769,41.33494],[-71.7684,41.33675],[-71.76541,41.33021],[-71.76343,41.3307],[-71.76302,41.32863],[-71.75166,41.3254],[-71.74892,41.32691],[-71.75112,41.3283],[-71.74959,41.33014],[-71.75245,41.34151],[-71.74555,41.34668],[-71.75268,41.34262],[-71.77974,41.34137],[-71.78564,41.33962]]]}},{"type":"Feature","id":"place:4476820","properties":{"geoid":"4476820","name":"Westerly","displayName":"Westerly CDP","type":"CDP","state":"RI","stateName":"Rhode Island","lsad":"57","sourceType":"place","priority":2,"areaLand":41010350,"areaWater":1779827},"geometry":{"type":"Polygon","coordinates":[[[-71.84347,41.40583],[-71.84115,41.39923],[-71.84213,41.39536],[-71.83817,41.39059],[-71.83266,41.38716],[-71.83353,41.38237],[-71.83064,41.37877],[-71.83267,41.37562],[-71.83161,41.3709],[-71.83763,41.3655],[-71.83787,41.36015],[-71.8357,41.35357],[-71.8313,41.3513],[-71.82938,41.34241],[-71.83062,41.34125],[-71.8268,41.33568],[-71.83299,41.33277],[-71.83176,41.3294],[-71.82483,41.32679],[-71.82064,41.32731],[-71.81349,41.33187],[-71.80477,41.33299],[-71.77974,41.34137],[-71.76849,41.34205],[-71.76895,41.35486],[-71.77232,41.35894],[-71.77319,41.36436],[-71.76411,41.37238],[-71.76261,41.37891],[-71.7748,41.38069],[-71.7762,41.38604],[-71.78042,41.38708],[-71.78046,41.38871],[-71.78412,41.38694],[-71.7852,41.38953],[-71.79003,41.39262],[-71.79722,41.39321],[-71.79807,41.39669],[-71.79471,41.39793],[-71.79976,41.39859],[-71.80348,41.40407],[-71.79598,41.40729],[-71.79864,41.41008],[-71.79698,41.41144],[-71.79619,41.41594],[-71.79767,41.41691],[-71.80144,41.41554],[-71.80368,41.41743],[-71.80681,41.41667],[-71.8129,41.4194],[-71.82033,41.41938],[-71.82457,41.41524],[-71.83411,41.41158],[-71.83965,41.41212],[-71.84256,41.40986],[-71.84347,41.40583]]]}},{"type":"Feature","id":"place:4480960","properties":{"geoid":"4480960","name":"Wyoming","displayName":"Wyoming CDP","type":"CDP","state":"RI","stateName":"Rhode Island","lsad":"57","sourceType":"place","priority":2,"areaLand":2233184,"areaWater":115607},"geometry":{"type":"Polygon","coordinates":[[[-71.7055,41.51511],[-71.70319,41.51391],[-71.7028,41.51063],[-71.69716,41.50748],[-71.69061,41.51221],[-71.68363,41.50964],[-71.68114,41.50717],[-71.67654,41.50722],[-71.67645,41.5117],[-71.67491,41.51315],[-71.67807,41.51521],[-71.68492,41.51556],[-71.68517,41.52155],[-71.69161,41.5224],[-71.7055,41.51511]]]}}]}