{"type":"FeatureCollection","features":[{"type":"Feature","id":"cousub:7801004600","properties":{"geoid":"7801004600","name":"Anna's Hope Village","displayName":"Anna's Hope Village Subdistrict","type":"Subdistrict","state":"VI","stateName":"United States Virgin Islands","lsad":"24","sourceType":"county_subdivision","priority":1,"areaLand":25608150,"areaWater":46086,"county":"St. Croix Island","countyGeoid":"78010"},"geometry":{"type":"Polygon","coordinates":[[[-64.73477,17.72511],[-64.72845,17.70385],[-64.71874,17.69903],[-64.70714,17.70539],[-64.70112,17.70378],[-64.69823,17.70619],[-64.69209,17.70554],[-64.68626,17.70707],[-64.68432,17.71079],[-64.67512,17.71381],[-64.66665,17.71338],[-64.66479,17.71452],[-64.66827,17.72628],[-64.6669,17.72841],[-64.67002,17.73971],[-64.67834,17.74446],[-64.68507,17.74584],[-64.69674,17.74412],[-64.69567,17.74162],[-64.69851,17.74092],[-64.69909,17.74252],[-64.70121,17.74257],[-64.7085,17.73925],[-64.72026,17.7396],[-64.72009,17.73618],[-64.72301,17.73501],[-64.72596,17.7299],[-64.73477,17.72511]]]}},{"type":"Feature","id":"cousub:7801020800","properties":{"geoid":"7801020800","name":"Christiansted","displayName":"Christiansted Subdistrict","type":"Subdistrict","state":"VI","stateName":"United States Virgin Islands","lsad":"24","sourceType":"county_subdivision","priority":1,"areaLand":1970068,"areaWater":0,"county":"St. Croix Island","countyGeoid":"78010"},"geometry":{"type":"MultiPolygon","coordinates":[[[[-64.70362,17.75062],[-64.70383,17.74926],[-64.70194,17.74891],[-64.70163,17.7503],[-64.70362,17.75062]]],[[[-64.71962,17.74055],[-64.72026,17.7396],[-64.7085,17.73925],[-64.70121,17.74257],[-64.69909,17.74252],[-64.69851,17.74092],[-64.69567,17.74162],[-64.69674,17.74412],[-64.693,17.7451],[-64.69601,17.74994],[-64.69947,17.74544],[-64.7019,17.74738],[-64.70859,17.74683],[-64.71154,17.7487],[-64.71561,17.74543],[-64.71909,17.7453],[-64.71962,17.74055]]]]}},{"type":"Feature","id":"cousub:7801031600","properties":{"geoid":"7801031600","name":"East End","displayName":"East End Subdistrict","type":"Subdistrict","state":"VI","stateName":"United States Virgin Islands","lsad":"24","sourceType":"county_subdivision","priority":1,"areaLand":33371867,"areaWater":1160625,"county":"St. Croix Island","countyGeoid":"78010"},"geometry":{"type":"MultiPolygon","coordinates":[[[[-64.62765,17.78857],[-64.62673,17.78608],[-64.62258,17.78384],[-64.61214,17.78722],[-64.62438,17.79017],[-64.62765,17.78857]]],[[[-64.66726,17.76532],[-64.66537,17.7646],[-64.66485,17.76858],[-64.66726,17.76532]]],[[[-64.69595,17.74978],[-64.693,17.7451],[-64.68507,17.74584],[-64.67834,17.74446],[-64.67002,17.73971],[-64.6669,17.72841],[-64.66827,17.72628],[-64.66479,17.71452],[-64.66341,17.71802],[-64.65754,17.72139],[-64.64989,17.72366],[-64.63783,17.72208],[-64.63444,17.72389],[-64.63073,17.72882],[-64.62126,17.73164],[-64.61696,17.73487],[-64.61233,17.73491],[-64.60963,17.73318],[-64.60909,17.73688],[-64.60239,17.74579],[-64.58872,17.74686],[-64.58577,17.74502],[-64.58,17.74735],[-64.57721,17.74584],[-64.57035,17.75177],[-64.56798,17.75187],[-64.56559,17.75521],[-64.56635,17.75685],[-64.5715,17.75761],[-64.57441,17.75981],[-64.5795,17.75909],[-64.5832,17.76208],[-64.58511,17.75887],[-64.59254,17.75597],[-64.59928,17.75651],[-64.60178,17.75436],[-64.60841,17.75607],[-64.61066,17.75733],[-64.61171,17.76047],[-64.61501,17.76106],[-64.61976,17.75914],[-64.62641,17.7589],[-64.63035,17.76055],[-64.63261,17.75868],[-64.6393,17.75872],[-64.65562,17.76346],[-64.65934,17.75959],[-64.67077,17.76133],[-64.67367,17.75927],[-64.67996,17.76057],[-64.68505,17.75442],[-64.69347,17.7549],[-64.69595,17.74978]]]]}},{"type":"Feature","id":"cousub:7801038800","properties":{"geoid":"7801038800","name":"Frederiksted","displayName":"Frederiksted Subdistrict","type":"Subdistrict","state":"VI","stateName":"United States Virgin Islands","lsad":"24","sourceType":"county_subdivision","priority":1,"areaLand":3575426,"areaWater":47112,"county":"St. Croix Island","countyGeoid":"78010"},"geometry":{"type":"Polygon","coordinates":[[[-64.88576,17.70182],[-64.88465,17.70197],[-64.88517,17.69398],[-64.86476,17.70056],[-64.86716,17.70664],[-64.8735,17.71141],[-64.87698,17.71853],[-64.88189,17.71912],[-64.88427,17.7183],[-64.88364,17.708],[-64.88576,17.70182]]]}},{"type":"Feature","id":"cousub:7801059500","properties":{"geoid":"7801059500","name":"Northcentral","displayName":"Northcentral Subdistrict","type":"Subdistrict","state":"VI","stateName":"United States Virgin Islands","lsad":"24","sourceType":"county_subdivision","priority":1,"areaLand":32801440,"areaWater":62635,"county":"St. Croix Island","countyGeoid":"78010"},"geometry":{"type":"Polygon","coordinates":[[[-64.82272,17.76623],[-64.82164,17.75767],[-64.8169,17.75219],[-64.81903,17.74945],[-64.8128,17.74249],[-64.81572,17.73775],[-64.81529,17.72964],[-64.81776,17.72869],[-64.81355,17.71632],[-64.77382,17.72854],[-64.77649,17.73722],[-64.77181,17.74905],[-64.76463,17.75769],[-64.76384,17.76335],[-64.75949,17.76812],[-64.76085,17.77541],[-64.75883,17.77907],[-64.76123,17.78111],[-64.76701,17.78009],[-64.78212,17.78364],[-64.79812,17.77817],[-64.80476,17.77904],[-64.80829,17.77748],[-64.81062,17.77253],[-64.82272,17.76623]]]}},{"type":"Feature","id":"cousub:7801062200","properties":{"geoid":"7801062200","name":"Northwest","displayName":"Northwest Subdistrict","type":"Subdistrict","state":"VI","stateName":"United States Virgin Islands","lsad":"24","sourceType":"county_subdivision","priority":1,"areaLand":47213113,"areaWater":36159,"county":"St. Croix Island","countyGeoid":"78010"},"geometry":{"type":"Polygon","coordinates":[[[-64.89403,17.74736],[-64.88427,17.7183],[-64.87698,17.71853],[-64.8735,17.71141],[-64.86716,17.70664],[-64.86476,17.70056],[-64.81355,17.71632],[-64.81776,17.72869],[-64.81529,17.72964],[-64.81572,17.73775],[-64.8128,17.74249],[-64.81903,17.74945],[-64.8169,17.75219],[-64.82164,17.75767],[-64.82272,17.76623],[-64.83342,17.76198],[-64.83988,17.76164],[-64.86392,17.76664],[-64.87078,17.77077],[-64.878,17.76955],[-64.88149,17.7673],[-64.88234,17.76362],[-64.88892,17.75999],[-64.89117,17.75047],[-64.89403,17.74736]]]}},{"type":"Feature","id":"cousub:7801071200","properties":{"geoid":"7801071200","name":"Sion Farm","displayName":"Sion Farm Subdistrict","type":"Subdistrict","state":"VI","stateName":"United States Virgin Islands","lsad":"24","sourceType":"county_subdivision","priority":1,"areaLand":24342858,"areaWater":0,"county":"St. Croix Island","countyGeoid":"78010"},"geometry":{"type":"Polygon","coordinates":[[[-64.77649,17.73722],[-64.77382,17.72854],[-64.7625,17.73204],[-64.76093,17.72764],[-64.7554,17.72908],[-64.75484,17.72788],[-64.74907,17.72864],[-64.74832,17.72728],[-64.73695,17.73074],[-64.73477,17.72511],[-64.72596,17.7299],[-64.72301,17.73501],[-64.72009,17.73618],[-64.71909,17.7453],[-64.71561,17.74543],[-64.71154,17.7487],[-64.71613,17.75285],[-64.72006,17.75411],[-64.72455,17.75935],[-64.73136,17.76233],[-64.73628,17.76722],[-64.73985,17.77467],[-64.74135,17.77447],[-64.74902,17.78344],[-64.75347,17.78098],[-64.75186,17.77743],[-64.75199,17.77129],[-64.75354,17.77095],[-64.7551,17.77498],[-64.75685,17.77464],[-64.7589,17.76808],[-64.76384,17.76335],[-64.76463,17.75769],[-64.77181,17.74905],[-64.77649,17.73722]]]}},{"type":"Feature","id":"cousub:7801073900","properties":{"geoid":"7801073900","name":"Southcentral","displayName":"Southcentral Subdistrict","type":"Subdistrict","state":"VI","stateName":"United States Virgin Islands","lsad":"24","sourceType":"county_subdivision","priority":1,"areaLand":32745210,"areaWater":92156,"county":"St. Croix Island","countyGeoid":"78010"},"geometry":{"type":"MultiPolygon","coordinates":[[[[-64.76289,17.6845],[-64.76195,17.68246],[-64.75936,17.68359],[-64.76046,17.68505],[-64.76289,17.6845]]],[[[-64.83066,17.71111],[-64.82229,17.68712],[-64.80361,17.69391],[-64.79499,17.6935],[-64.78463,17.69648],[-64.77712,17.69535],[-64.76529,17.69036],[-64.76567,17.6948],[-64.77235,17.70267],[-64.77115,17.70902],[-64.76332,17.69663],[-64.74588,17.7018],[-64.7419,17.69578],[-64.73808,17.70243],[-64.733,17.70446],[-64.72845,17.70385],[-64.73695,17.73074],[-64.74832,17.72728],[-64.74907,17.72864],[-64.75484,17.72788],[-64.7554,17.72908],[-64.76093,17.72764],[-64.7625,17.73204],[-64.83066,17.71111]]]]}},{"type":"Feature","id":"cousub:7801075700","properties":{"geoid":"7801075700","name":"Southwest","displayName":"Southwest Subdistrict","type":"Subdistrict","state":"VI","stateName":"United States Virgin Islands","lsad":"24","sourceType":"county_subdivision","priority":1,"areaLand":14286844,"areaWater":632692,"county":"St. Croix Island","countyGeoid":"78010"},"geometry":{"type":"Polygon","coordinates":[[[-64.90356,17.68042],[-64.9006,17.67468],[-64.88322,17.68607],[-64.8785,17.68419],[-64.86896,17.68659],[-64.86053,17.68539],[-64.84352,17.68736],[-64.83946,17.68469],[-64.83899,17.67999],[-64.82616,17.6867],[-64.82229,17.68712],[-64.83066,17.71111],[-64.88517,17.69398],[-64.88465,17.70197],[-64.88576,17.70182],[-64.89259,17.69188],[-64.90356,17.68042]]]}},{"type":"Feature","id":"cousub:7802015400","properties":{"geoid":"7802015400","name":"Central","displayName":"Central Subdistrict","type":"Subdistrict","state":"VI","stateName":"United States Virgin Islands","lsad":"24","sourceType":"county_subdivision","priority":1,"areaLand":34208730,"areaWater":204325,"county":"St. John Island","countyGeoid":"78020"},"geometry":{"type":"MultiPolygon","coordinates":[[[[-64.75741,18.35727],[-64.75589,18.35571],[-64.75579,18.35729],[-64.75741,18.35727]]],[[[-64.75876,18.37052],[-64.75857,18.36918],[-64.75504,18.37052],[-64.75876,18.37052]]],[[[-64.79021,18.3563],[-64.78859,18.35416],[-64.78899,18.35643],[-64.79021,18.3563]]],[[[-64.79427,18.35361],[-64.79176,18.35248],[-64.79276,18.35431],[-64.79427,18.35361]]],[[[-64.79524,18.36965],[-64.79478,18.36878],[-64.79372,18.36882],[-64.79306,18.36961],[-64.79366,18.37056],[-64.79475,18.37046],[-64.79524,18.36965]]],[[[-64.79792,18.35601],[-64.79633,18.35497],[-64.79583,18.35614],[-64.79792,18.35601]]],[[[-64.79826,18.33618],[-64.79815,18.33467],[-64.79406,18.33262],[-64.78825,18.33342],[-64.78716,18.33666],[-64.77614,18.33655],[-64.76969,18.33918],[-64.76917,18.33744],[-64.76504,18.33894],[-64.7627,18.33462],[-64.76818,18.331],[-64.76051,18.32534],[-64.75939,18.31968],[-64.76191,18.31901],[-64.76206,18.31715],[-64.7566,18.317],[-64.74804,18.32458],[-64.73391,18.31499],[-64.73128,18.31828],[-64.72812,18.31836],[-64.72806,18.31974],[-64.72072,18.31889],[-64.7208,18.31371],[-64.72255,18.31256],[-64.72131,18.30758],[-64.71754,18.31201],[-64.71598,18.31127],[-64.7163,18.3094],[-64.71232,18.30869],[-64.71178,18.3068],[-64.70532,18.30906],[-64.70692,18.30629],[-64.7031,18.30325],[-64.70312,18.2982],[-64.70019,18.30312],[-64.70218,18.31189],[-64.70695,18.31117],[-64.70763,18.31308],[-64.70563,18.3165],[-64.70765,18.31761],[-64.70777,18.31966],[-64.7064,18.32282],[-64.71023,18.32885],[-64.71329,18.33009],[-64.7163,18.33738],[-64.7212,18.34287],[-64.72491,18.34346],[-64.72665,18.34103],[-64.7213,18.33724],[-64.72794,18.3353],[-64.73693,18.34079],[-64.73661,18.34262],[-64.74101,18.34725],[-64.73452,18.35015],[-64.73409,18.35241],[-64.73272,18.35219],[-64.72883,18.35675],[-64.72173,18.35731],[-64.71408,18.35319],[-64.70952,18.35382],[-64.70638,18.35141],[-64.70703,18.34814],[-64.7102,18.34642],[-64.70876,18.34174],[-64.70684,18.34048],[-64.70266,18.34237],[-64.70235,18.34554],[-64.7052,18.34798],[-64.70411,18.354],[-64.70204,18.35523],[-64.69833,18.35327],[-64.69512,18.35418],[-64.69467,18.35612],[-64.69015,18.35582],[-64.69333,18.35184],[-64.6886,18.34996],[-64.69326,18.3451],[-64.69203,18.33931],[-64.68653,18.34679],[-64.67743,18.3477],[-64.68039,18.35227],[-64.68437,18.35264],[-64.68731,18.35495],[-64.68741,18.35862],[-64.69126,18.36111],[-64.70449,18.36067],[-64.70614,18.36112],[-64.70795,18.3651],[-64.71442,18.36728],[-64.72022,18.36715],[-64.72117,18.36539],[-64.7201,18.36314],[-64.72248,18.36226],[-64.72665,18.36427],[-64.73759,18.36425],[-64.73981,18.36635],[-64.73486,18.36671],[-64.73396,18.36987],[-64.74884,18.3729],[-64.75228,18.37042],[-64.75091,18.36831],[-64.74568,18.36757],[-64.74343,18.36488],[-64.74379,18.35952],[-64.74661,18.35568],[-64.75133,18.35767],[-64.7536,18.3548],[-64.75969,18.35243],[-64.76549,18.3559],[-64.76842,18.35569],[-64.76958,18.35168],[-64.77323,18.3511],[-64.77438,18.35322],[-64.7777,18.35356],[-64.77877,18.35221],[-64.77715,18.34774],[-64.78046,18.34602],[-64.78447,18.34763],[-64.78453,18.35272],[-64.78624,18.35312],[-64.78789,18.3503],[-64.78715,18.3469],[-64.78866,18.34569],[-64.78661,18.34264],[-64.79826,18.33618]]],[[[-64.80643,18.36745],[-64.80557,18.36612],[-64.79908,18.36876],[-64.8,18.36966],[-64.80643,18.36745]]],[[[-64.81278,18.36205],[-64.80917,18.3587],[-64.80659,18.36082],[-64.80152,18.36036],[-64.79835,18.36356],[-64.8012,18.3654],[-64.80361,18.36354],[-64.81278,18.36205]]],[[[-64.82454,18.36067],[-64.82258,18.35884],[-64.81658,18.35808],[-64.8153,18.35917],[-64.8156,18.36048],[-64.82454,18.36067]]],[[[-64.83932,18.35764],[-64.83713,18.35689],[-64.82618,18.36033],[-64.83932,18.35764]]]]}},{"type":"Feature","id":"cousub:7802027100","properties":{"geoid":"7802027100","name":"Coral Bay","displayName":"Coral Bay Subdistrict","type":"Subdistrict","state":"VI","stateName":"United States Virgin Islands","lsad":"24","sourceType":"county_subdivision","priority":1,"areaLand":7274834,"areaWater":0,"county":"St. John Island","countyGeoid":"78020"},"geometry":{"type":"MultiPolygon","coordinates":[[[[-64.6903,18.31676],[-64.68778,18.31483],[-64.68648,18.31561],[-64.68932,18.31758],[-64.6903,18.31676]]],[[[-64.73957,18.34874],[-64.74101,18.34725],[-64.73661,18.34262],[-64.73693,18.34079],[-64.72794,18.3353],[-64.7213,18.33724],[-64.72665,18.34103],[-64.72491,18.34346],[-64.7212,18.34287],[-64.7163,18.33738],[-64.71329,18.33009],[-64.71023,18.32885],[-64.7064,18.32282],[-64.70777,18.31966],[-64.70765,18.31761],[-64.70563,18.3165],[-64.70763,18.31308],[-64.70695,18.31117],[-64.70073,18.3133],[-64.70213,18.31788],[-64.69735,18.32087],[-64.69844,18.32327],[-64.70038,18.32357],[-64.70004,18.33015],[-64.7054,18.33034],[-64.70857,18.33488],[-64.71227,18.33578],[-64.71606,18.34497],[-64.71391,18.34701],[-64.70784,18.34749],[-64.70638,18.35141],[-64.70952,18.35382],[-64.71408,18.35319],[-64.71736,18.35606],[-64.7245,18.35723],[-64.72883,18.35675],[-64.73272,18.35219],[-64.73409,18.35241],[-64.73452,18.35015],[-64.73957,18.34874]]]]}},{"type":"Feature","id":"cousub:7802028900","properties":{"geoid":"7802028900","name":"Cruz Bay","displayName":"Cruz Bay Subdistrict","type":"Subdistrict","state":"VI","stateName":"United States Virgin Islands","lsad":"24","sourceType":"county_subdivision","priority":1,"areaLand":7137496,"areaWater":80475,"county":"St. John Island","countyGeoid":"78020"},"geometry":{"type":"MultiPolygon","coordinates":[[[[-64.79864,18.32825],[-64.79949,18.32685],[-64.79612,18.32592],[-64.79391,18.32119],[-64.78857,18.32359],[-64.78716,18.32261],[-64.78651,18.32071],[-64.79191,18.31674],[-64.78866,18.3143],[-64.78388,18.31796],[-64.7846,18.31366],[-64.78284,18.31125],[-64.78048,18.31088],[-64.77961,18.31265],[-64.78135,18.31456],[-64.77986,18.31652],[-64.77559,18.3166],[-64.77294,18.3209],[-64.7679,18.31892],[-64.76788,18.31229],[-64.76611,18.31103],[-64.76471,18.31584],[-64.76569,18.32269],[-64.76209,18.32097],[-64.76191,18.31901],[-64.75939,18.31968],[-64.76051,18.32534],[-64.76818,18.331],[-64.7627,18.33462],[-64.76504,18.33894],[-64.76917,18.33744],[-64.76969,18.33918],[-64.77614,18.33655],[-64.78716,18.33666],[-64.78825,18.33342],[-64.79862,18.33088],[-64.79864,18.32825]]],[[[-64.80838,18.33153],[-64.80686,18.32862],[-64.80688,18.33127],[-64.80838,18.33153]]]]}},{"type":"Feature","id":"cousub:7802033400","properties":{"geoid":"7802033400","name":"East End","displayName":"East End Subdistrict","type":"Subdistrict","state":"VI","stateName":"United States Virgin Islands","lsad":"24","sourceType":"county_subdivision","priority":1,"areaLand":2376998,"areaWater":69752,"county":"St. John Island","countyGeoid":"78020"},"geometry":{"type":"MultiPolygon","coordinates":[[[[-64.65182,18.32613],[-64.65031,18.32434],[-64.64868,18.32808],[-64.65056,18.32839],[-64.65182,18.32613]]],[[[-64.68059,18.34665],[-64.67969,18.34414],[-64.67432,18.34215],[-64.67439,18.33702],[-64.67712,18.33369],[-64.67444,18.33061],[-64.66884,18.33117],[-64.66614,18.33773],[-64.66209,18.33399],[-64.66353,18.33871],[-64.66086,18.34077],[-64.66107,18.34367],[-64.66654,18.34559],[-64.66976,18.34473],[-64.6695,18.34815],[-64.67438,18.35027],[-64.67534,18.3476],[-64.67919,18.34796],[-64.68059,18.34665]]]]}},{"type":"Feature","id":"cousub:7803017200","properties":{"geoid":"7803017200","name":"Charlotte Amalie","displayName":"Charlotte Amalie Subdistrict","type":"Subdistrict","state":"VI","stateName":"United States Virgin Islands","lsad":"24","sourceType":"county_subdivision","priority":1,"areaLand":8700881,"areaWater":1354,"county":"St. Thomas Island","countyGeoid":"78030"},"geometry":{"type":"Polygon","coordinates":[[[-64.98406,18.3377],[-64.98372,18.33543],[-64.97507,18.33548],[-64.97214,18.33018],[-64.96959,18.33219],[-64.96869,18.33581],[-64.96389,18.33508],[-64.96553,18.32766],[-64.96495,18.32531],[-64.96236,18.32457],[-64.96118,18.33015],[-64.95679,18.32729],[-64.95233,18.33485],[-64.9471,18.33606],[-64.94427,18.3344],[-64.94084,18.33471],[-64.94064,18.33737],[-64.93833,18.33918],[-64.92742,18.34028],[-64.91938,18.33457],[-64.91715,18.33646],[-64.91345,18.33138],[-64.91022,18.33203],[-64.90966,18.33603],[-64.91113,18.33897],[-64.91466,18.33854],[-64.92069,18.34128],[-64.92129,18.34383],[-64.92279,18.344],[-64.92184,18.3483],[-64.93063,18.34886],[-64.94355,18.34492],[-64.95509,18.3451],[-64.9572,18.34667],[-64.9601,18.34625],[-64.96166,18.34886],[-64.96411,18.34861],[-64.97295,18.34659],[-64.97477,18.34171],[-64.97704,18.3431],[-64.9759,18.33814],[-64.98406,18.3377]]]}},{"type":"Feature","id":"cousub:7803034300","properties":{"geoid":"7803034300","name":"East End","displayName":"East End Subdistrict","type":"Subdistrict","state":"VI","stateName":"United States Virgin Islands","lsad":"24","sourceType":"county_subdivision","priority":1,"areaLand":13604413,"areaWater":89969,"county":"St. Thomas Island","countyGeoid":"78030"},"geometry":{"type":"MultiPolygon","coordinates":[[[[-64.81765,18.29648],[-64.81654,18.29459],[-64.81423,18.29528],[-64.81765,18.29648]]],[[[-64.82868,18.30007],[-64.82818,18.29753],[-64.82561,18.29882],[-64.82174,18.29805],[-64.82403,18.30323],[-64.82898,18.30122],[-64.82868,18.30007]]],[[[-64.83298,18.30721],[-64.83208,18.30496],[-64.82965,18.30565],[-64.82856,18.30825],[-64.82303,18.3113],[-64.82269,18.31294],[-64.82623,18.31254],[-64.82837,18.3151],[-64.83092,18.31541],[-64.83228,18.31448],[-64.83065,18.30922],[-64.83298,18.30721]]],[[[-64.86558,18.31394],[-64.86544,18.31296],[-64.86439,18.31283],[-64.86374,18.31367],[-64.86408,18.31429],[-64.86517,18.31437],[-64.86558,18.31394]]],[[[-64.8688,18.3157],[-64.86856,18.31462],[-64.86752,18.31445],[-64.86676,18.31516],[-64.86707,18.31554],[-64.8672,18.3157],[-64.86741,18.31597],[-64.86834,18.3161],[-64.8688,18.3157]]],[[[-64.87462,18.36082],[-64.87454,18.35924],[-64.8688,18.35954],[-64.85136,18.35553],[-64.84814,18.35763],[-64.85134,18.36112],[-64.85701,18.35977],[-64.86904,18.3617],[-64.87462,18.36082]]],[[[-64.89238,18.35182],[-64.89177,18.34961],[-64.88222,18.34837],[-64.88015,18.34439],[-64.88182,18.34142],[-64.87884,18.33895],[-64.87175,18.33737],[-64.87147,18.33508],[-64.87808,18.335],[-64.88311,18.32899],[-64.87721,18.32357],[-64.88127,18.31707],[-64.87537,18.31613],[-64.86664,18.32138],[-64.86554,18.31591],[-64.86103,18.31868],[-64.85536,18.31964],[-64.85214,18.31809],[-64.85255,18.31598],[-64.84807,18.31481],[-64.84527,18.31176],[-64.84375,18.31322],[-64.84483,18.31726],[-64.83682,18.31598],[-64.83821,18.31879],[-64.84288,18.32112],[-64.84238,18.32296],[-64.83772,18.32482],[-64.83184,18.32477],[-64.83384,18.32653],[-64.83837,18.32683],[-64.84601,18.32326],[-64.84831,18.32453],[-64.85409,18.32234],[-64.85435,18.32425],[-64.84614,18.32833],[-64.84498,18.33057],[-64.85116,18.33548],[-64.85083,18.33968],[-64.85681,18.33844],[-64.86223,18.34404],[-64.86786,18.34619],[-64.86773,18.34763],[-64.86332,18.34865],[-64.86347,18.35032],[-64.86792,18.34978],[-64.87298,18.35201],[-64.87776,18.35087],[-64.88112,18.35284],[-64.88066,18.35436],[-64.88403,18.35565],[-64.88952,18.35438],[-64.89238,18.35182]]]]}},{"type":"Feature","id":"cousub:7803061300","properties":{"geoid":"7803061300","name":"Northside","displayName":"Northside Subdistrict","type":"Subdistrict","state":"VI","stateName":"United States Virgin Islands","lsad":"24","sourceType":"county_subdivision","priority":1,"areaLand":27434919,"areaWater":30103,"county":"St. Thomas Island","countyGeoid":"78030"},"geometry":{"type":"MultiPolygon","coordinates":[[[[-64.90971,18.41536],[-64.90805,18.41386],[-64.90804,18.41575],[-64.90971,18.41536]]],[[[-64.91026,18.41131],[-64.9066,18.40664],[-64.90455,18.40632],[-64.90293,18.40816],[-64.90547,18.41212],[-64.91026,18.41131]]],[[[-64.91659,18.40507],[-64.91549,18.40175],[-64.9125,18.4003],[-64.91335,18.39573],[-64.90766,18.38757],[-64.90518,18.38807],[-64.90317,18.39212],[-64.89934,18.39266],[-64.90529,18.4027],[-64.91205,18.40539],[-64.91659,18.40507]]],[[[-64.97464,18.40106],[-64.97412,18.39333],[-64.97094,18.3916],[-64.96825,18.39261],[-64.96865,18.39497],[-64.97464,18.40106]]],[[[-64.97571,18.38615],[-64.97318,18.38084],[-64.96579,18.37669],[-64.96814,18.38161],[-64.96773,18.38421],[-64.97323,18.38669],[-64.97571,18.38615]]],[[[-64.98818,18.35387],[-64.99019,18.35367],[-64.98553,18.35203],[-64.98373,18.34773],[-64.97477,18.34171],[-64.97295,18.34659],[-64.96411,18.34861],[-64.96166,18.34886],[-64.9601,18.34625],[-64.9572,18.34667],[-64.95509,18.3451],[-64.94355,18.34492],[-64.93063,18.34886],[-64.92184,18.3483],[-64.92279,18.344],[-64.92129,18.34383],[-64.92069,18.34128],[-64.91466,18.33854],[-64.91113,18.33897],[-64.90803,18.33524],[-64.90016,18.33475],[-64.89877,18.33505],[-64.89867,18.34006],[-64.90351,18.34578],[-64.90215,18.34769],[-64.89266,18.34896],[-64.89238,18.35182],[-64.88952,18.35438],[-64.89158,18.3625],[-64.89698,18.36059],[-64.90299,18.36475],[-64.91406,18.3656],[-64.91516,18.36785],[-64.92132,18.3701],[-64.92599,18.37501],[-64.93726,18.3815],[-64.93837,18.38022],[-64.93482,18.37648],[-64.92206,18.36634],[-64.92729,18.35882],[-64.9398,18.3641],[-64.94247,18.36969],[-64.94855,18.37238],[-64.95206,18.37621],[-64.95192,18.36918],[-64.96203,18.36952],[-64.96342,18.37077],[-64.96718,18.36866],[-64.97212,18.37138],[-64.97794,18.37199],[-64.97509,18.37036],[-64.9768,18.36885],[-64.9738,18.36521],[-64.97563,18.36543],[-64.97627,18.36269],[-64.97827,18.36257],[-64.97943,18.36055],[-64.9776,18.35759],[-64.98466,18.35734],[-64.98818,18.35387]]]]}},{"type":"Feature","id":"cousub:7803074800","properties":{"geoid":"7803074800","name":"Southside","displayName":"Southside Subdistrict","type":"Subdistrict","state":"VI","stateName":"United States Virgin Islands","lsad":"24","sourceType":"county_subdivision","priority":1,"areaLand":11452280,"areaWater":9108,"county":"St. Thomas Island","countyGeoid":"78030"},"geometry":{"type":"MultiPolygon","coordinates":[[[[-64.8692,18.30849],[-64.8655,18.30559],[-64.86219,18.30725],[-64.8692,18.30849]]],[[[-64.87537,18.31613],[-64.87277,18.31339],[-64.86935,18.31868],[-64.87537,18.31613]]],[[[-64.8895,18.27579],[-64.88715,18.27397],[-64.8857,18.27599],[-64.8895,18.27579]]],[[[-64.8964,18.27745],[-64.89592,18.27466],[-64.89092,18.27745],[-64.89257,18.27947],[-64.8964,18.27745]]],[[[-64.90907,18.30985],[-64.90864,18.30885],[-64.90759,18.30887],[-64.90722,18.3098],[-64.90744,18.31056],[-64.90852,18.31058],[-64.90907,18.30985]]],[[[-64.92455,18.33137],[-64.92413,18.3275],[-64.92138,18.32499],[-64.92289,18.31978],[-64.91752,18.31957],[-64.91122,18.31529],[-64.90774,18.31479],[-64.90586,18.31108],[-64.90241,18.31203],[-64.89863,18.30976],[-64.89605,18.3131],[-64.8939,18.31192],[-64.89069,18.3137],[-64.88647,18.30914],[-64.87998,18.3074],[-64.87866,18.30306],[-64.87462,18.30391],[-64.87338,18.30579],[-64.86981,18.30492],[-64.8718,18.30959],[-64.87657,18.30978],[-64.87691,18.31194],[-64.88135,18.31332],[-64.88243,18.31654],[-64.87864,18.3199],[-64.87721,18.32357],[-64.88122,18.3264],[-64.88416,18.33129],[-64.88887,18.33307],[-64.89002,18.33554],[-64.89116,18.33441],[-64.90966,18.33603],[-64.91022,18.33203],[-64.91345,18.33138],[-64.91715,18.33646],[-64.92455,18.33137]]]]}},{"type":"Feature","id":"cousub:7803078400","properties":{"geoid":"7803078400","name":"Tutu","displayName":"Tutu Subdistrict","type":"Subdistrict","state":"VI","stateName":"United States Virgin Islands","lsad":"24","sourceType":"county_subdivision","priority":1,"areaLand":3954884,"areaWater":28670,"county":"St. Thomas Island","countyGeoid":"78030"},"geometry":{"type":"Polygon","coordinates":[[[-64.90351,18.34578],[-64.89974,18.34252],[-64.89877,18.33505],[-64.89116,18.33441],[-64.89002,18.33554],[-64.88887,18.33307],[-64.88416,18.33129],[-64.88311,18.32899],[-64.87808,18.335],[-64.87147,18.33508],[-64.87175,18.33737],[-64.87884,18.33895],[-64.88182,18.34142],[-64.88015,18.34439],[-64.88407,18.34961],[-64.90215,18.34769],[-64.90351,18.34578]]]}},{"type":"Feature","id":"cousub:7803082000","properties":{"geoid":"7803082000","name":"Water Island","displayName":"Water Island Subdistrict","type":"Subdistrict","state":"VI","stateName":"United States Virgin Islands","lsad":"24","sourceType":"county_subdivision","priority":1,"areaLand":2512395,"areaWater":21442,"county":"St. Thomas Island","countyGeoid":"78030"},"geometry":{"type":"MultiPolygon","coordinates":[[[[-64.93912,18.33419],[-64.9362,18.32693],[-64.93285,18.32309],[-64.93035,18.32593],[-64.9318,18.32885],[-64.93491,18.33035],[-64.93615,18.3359],[-64.93912,18.33419]]],[[[-64.96089,18.31373],[-64.95574,18.31269],[-64.95548,18.31132],[-64.96009,18.30983],[-64.9601,18.30775],[-64.95555,18.30661],[-64.95294,18.30989],[-64.95135,18.31966],[-64.94468,18.32129],[-64.9424,18.318],[-64.94026,18.31814],[-64.94276,18.32371],[-64.94267,18.32785],[-64.94682,18.32901],[-64.95224,18.32268],[-64.95818,18.31929],[-64.95642,18.31623],[-64.96089,18.31373]]]]}},{"type":"Feature","id":"cousub:7803082900","properties":{"geoid":"7803082900","name":"West End","displayName":"West End Subdistrict","type":"Subdistrict","state":"VI","stateName":"United States Virgin Islands","lsad":"24","sourceType":"county_subdivision","priority":1,"areaLand":13449109,"areaWater":26402,"county":"St. Thomas Island","countyGeoid":"78030"},"geometry":{"type":"MultiPolygon","coordinates":[[[[-64.99041,18.31688],[-64.98976,18.31561],[-64.98833,18.31726],[-64.99041,18.31688]]],[[[-65.00286,18.30462],[-64.99822,18.30534],[-64.9999,18.30899],[-65.00286,18.30462]]],[[[-65.04158,18.35336],[-65.02646,18.3413],[-65.02254,18.3415],[-65.02189,18.34384],[-65.0176,18.34383],[-65.01566,18.34548],[-65.01154,18.34227],[-65.00698,18.34531],[-65.00164,18.34629],[-64.99574,18.35153],[-64.98766,18.35007],[-64.98567,18.34631],[-64.97983,18.34539],[-64.98373,18.34773],[-64.98553,18.35203],[-64.99019,18.35367],[-64.98466,18.35734],[-64.9776,18.35759],[-64.97943,18.36055],[-64.97827,18.36257],[-64.97627,18.36269],[-64.97563,18.36543],[-64.9738,18.36521],[-64.9768,18.36885],[-64.97509,18.37036],[-64.97794,18.37199],[-64.98554,18.37072],[-64.9899,18.37162],[-64.9944,18.36132],[-64.99729,18.36164],[-65.00057,18.36607],[-65.006,18.3678],[-65.00656,18.36253],[-65.01798,18.3603],[-65.02701,18.36182],[-65.02786,18.36],[-65.03304,18.3598],[-65.03189,18.35754],[-65.03488,18.35285],[-65.04158,18.35336]]],[[[-65.04815,18.3603],[-65.04603,18.35666],[-65.04425,18.35661],[-65.04332,18.35925],[-65.04665,18.36102],[-65.04815,18.3603]]],[[[-65.05599,18.36313],[-65.05079,18.35908],[-65.05008,18.36277],[-65.05599,18.36313]]],[[[-65.05852,18.35143],[-65.05851,18.3496],[-65.05714,18.34952],[-65.057,18.35137],[-65.05852,18.35143]]],[[[-65.06372,18.38056],[-65.06319,18.37845],[-65.06148,18.37818],[-65.05931,18.38118],[-65.06372,18.38056]]],[[[-65.08536,18.33682],[-65.08469,18.33514],[-65.07783,18.33667],[-65.07389,18.34156],[-65.07497,18.34657],[-65.082,18.3417],[-65.08235,18.33872],[-65.08536,18.33682]]]]}},{"type":"Feature","id":"place:7816300","properties":{"geoid":"7816300","name":"Charlotte Amalie","displayName":"Charlotte Amalie Town","type":"Town","state":"VI","stateName":"United States Virgin Islands","lsad":"43","sourceType":"place","priority":5,"areaLand":3130699,"areaWater":0},"geometry":{"type":"Polygon","coordinates":[[[-64.94809,18.34514],[-64.94728,18.33601],[-64.94427,18.3344],[-64.94084,18.33471],[-64.94064,18.33737],[-64.93833,18.33918],[-64.93113,18.34052],[-64.92634,18.33982],[-64.91938,18.33457],[-64.91466,18.33854],[-64.92069,18.34128],[-64.92129,18.34383],[-64.92279,18.344],[-64.92184,18.3483],[-64.93063,18.34886],[-64.94355,18.34492],[-64.94809,18.34514]]]}},{"type":"Feature","id":"place:7818100","properties":{"geoid":"7818100","name":"Charlotte Amalie East","displayName":"Charlotte Amalie East CDP","type":"CDP","state":"VI","stateName":"United States Virgin Islands","lsad":"57","sourceType":"place","priority":2,"areaLand":862215,"areaWater":0},"geometry":{"type":"Polygon","coordinates":[[[-64.92455,18.33137],[-64.91939,18.32985],[-64.91022,18.33203],[-64.90978,18.33793],[-64.91466,18.33854],[-64.92455,18.33137]]]}},{"type":"Feature","id":"place:7819000","properties":{"geoid":"7819000","name":"Charlotte Amalie West","displayName":"Charlotte Amalie West CDP","type":"CDP","state":"VI","stateName":"United States Virgin Islands","lsad":"57","sourceType":"place","priority":2,"areaLand":5108131,"areaWater":27768},"geometry":{"type":"Polygon","coordinates":[[[-64.98406,18.3377],[-64.98372,18.33543],[-64.97507,18.33548],[-64.97214,18.33018],[-64.96959,18.33219],[-64.96869,18.33581],[-64.96389,18.33508],[-64.96553,18.32766],[-64.96495,18.32531],[-64.96236,18.32457],[-64.96118,18.33015],[-64.95679,18.32729],[-64.95233,18.33485],[-64.94728,18.33601],[-64.94809,18.34514],[-64.9601,18.34625],[-64.96166,18.34886],[-64.97295,18.34659],[-64.97477,18.34171],[-64.97704,18.3431],[-64.9759,18.33814],[-64.98406,18.3377]]]}},{"type":"Feature","id":"place:7819900","properties":{"geoid":"7819900","name":"Christiansted","displayName":"Christiansted Town","type":"Town","state":"VI","stateName":"United States Virgin Islands","lsad":"43","sourceType":"place","priority":5,"areaLand":1330889,"areaWater":0},"geometry":{"type":"Polygon","coordinates":[[[-64.71561,17.74543],[-64.71266,17.74211],[-64.71337,17.73971],[-64.7085,17.73925],[-64.70121,17.74257],[-64.69909,17.74252],[-64.69851,17.74092],[-64.69567,17.74162],[-64.69787,17.74704],[-64.69947,17.74544],[-64.7019,17.74738],[-64.70859,17.74683],[-64.71154,17.7487],[-64.71561,17.74543]]]}},{"type":"Feature","id":"place:7827000","properties":{"geoid":"7827000","name":"Coral Bay","displayName":"Coral Bay CDP","type":"CDP","state":"VI","stateName":"United States Virgin Islands","lsad":"57","sourceType":"place","priority":2,"areaLand":4742477,"areaWater":975010},"geometry":{"type":"MultiPolygon","coordinates":[[[[-64.70886,18.34476],[-64.70833,18.34102],[-64.70531,18.34068],[-64.7072,18.3412],[-64.70886,18.34476]]],[[[-64.73272,18.35219],[-64.72901,18.35096],[-64.73103,18.3504],[-64.73174,18.34591],[-64.72491,18.34346],[-64.72665,18.34103],[-64.71991,18.33585],[-64.71608,18.33698],[-64.71329,18.33009],[-64.71023,18.32885],[-64.70928,18.32654],[-64.70095,18.33026],[-64.7054,18.33034],[-64.70857,18.33488],[-64.71227,18.33578],[-64.71606,18.34497],[-64.7117,18.34711],[-64.70888,18.3452],[-64.70648,18.3481],[-64.70508,18.3502],[-64.70952,18.35382],[-64.71408,18.35319],[-64.71736,18.35606],[-64.7245,18.35723],[-64.72883,18.35675],[-64.73272,18.35219]]]]}},{"type":"Feature","id":"place:7828000","properties":{"geoid":"7828000","name":"Cruz Bay","displayName":"Cruz Bay CDP","type":"CDP","state":"VI","stateName":"United States Virgin Islands","lsad":"57","sourceType":"place","priority":2,"areaLand":7828061,"areaWater":2463942},"geometry":{"type":"Polygon","coordinates":[[[-64.79864,18.32825],[-64.79949,18.32685],[-64.79612,18.32592],[-64.79391,18.32119],[-64.78857,18.32359],[-64.78716,18.32261],[-64.78651,18.32071],[-64.79191,18.31674],[-64.78866,18.3143],[-64.78388,18.31796],[-64.7846,18.31366],[-64.78284,18.31125],[-64.78048,18.31088],[-64.77961,18.31265],[-64.78135,18.31456],[-64.77986,18.31652],[-64.77559,18.3166],[-64.77294,18.3209],[-64.7679,18.31892],[-64.76788,18.31229],[-64.76611,18.31103],[-64.76471,18.31584],[-64.76569,18.32269],[-64.76209,18.32097],[-64.76206,18.31715],[-64.75962,18.31624],[-64.75612,18.31765],[-64.75632,18.32618],[-64.75992,18.32633],[-64.7697,18.331],[-64.76969,18.33918],[-64.77614,18.33655],[-64.784,18.33597],[-64.79154,18.33984],[-64.798,18.33694],[-64.79815,18.33467],[-64.794,18.33293],[-64.79652,18.33054],[-64.79862,18.33088],[-64.79864,18.32825]]]}},{"type":"Feature","id":"place:7837900","properties":{"geoid":"7837900","name":"Frederiksted","displayName":"Frederiksted Town","type":"Town","state":"VI","stateName":"United States Virgin Islands","lsad":"43","sourceType":"place","priority":5,"areaLand":440635,"areaWater":47112},"geometry":{"type":"Polygon","coordinates":[[[-64.88401,17.71449],[-64.88362,17.70829],[-64.88006,17.7082],[-64.8772,17.71125],[-64.88165,17.71609],[-64.88381,17.71649],[-64.88401,17.71449]]]}},{"type":"Feature","id":"place:7839700","properties":{"geoid":"7839700","name":"Frederiksted Southeast","displayName":"Frederiksted Southeast CDP","type":"CDP","state":"VI","stateName":"United States Virgin Islands","lsad":"57","sourceType":"place","priority":2,"areaLand":2617380,"areaWater":0},"geometry":{"type":"Polygon","coordinates":[[[-64.88576,17.70182],[-64.88465,17.70197],[-64.88517,17.69398],[-64.86476,17.70056],[-64.86716,17.70664],[-64.87567,17.7114],[-64.88006,17.7082],[-64.88362,17.70829],[-64.88576,17.70182]]]}},{"type":"Feature","id":"place:7865530","properties":{"geoid":"7865530","name":"Red Hook","displayName":"Red Hook CDP","type":"CDP","state":"VI","stateName":"United States Virgin Islands","lsad":"57","sourceType":"place","priority":2,"areaLand":733481,"areaWater":716140},"geometry":{"type":"MultiPolygon","coordinates":[[[[-64.84741,18.32454],[-64.84618,18.32223],[-64.83727,18.32586],[-64.83184,18.32477],[-64.83384,18.32653],[-64.83837,18.32683],[-64.84601,18.32326],[-64.84741,18.32454]]],[[[-64.85759,18.32304],[-64.85431,18.32148],[-64.84954,18.32274],[-64.84812,18.32453],[-64.85409,18.32234],[-64.85435,18.32425],[-64.84614,18.32833],[-64.84498,18.33057],[-64.84779,18.3327],[-64.85055,18.33058],[-64.84968,18.32941],[-64.85271,18.3288],[-64.85759,18.32304]]]]}},{"type":"Feature","id":"place:7878300","properties":{"geoid":"7878300","name":"Tutu","displayName":"Tutu CDP","type":"CDP","state":"VI","stateName":"United States Virgin Islands","lsad":"57","sourceType":"place","priority":2,"areaLand":4235908,"areaWater":28670},"geometry":{"type":"Polygon","coordinates":[[[-64.90351,18.34578],[-64.89974,18.34252],[-64.89877,18.33505],[-64.89433,18.33393],[-64.89433,18.3313],[-64.88891,18.32986],[-64.88046,18.33538],[-64.87147,18.33508],[-64.872,18.33693],[-64.87719,18.3397],[-64.87848,18.34419],[-64.88138,18.34283],[-64.88015,18.34439],[-64.88407,18.34961],[-64.90215,18.34769],[-64.90351,18.34578]]]}}]}